{"type":"FeatureCollection","name":"barreiros-coast-roads","crs":{"type":"name","properties":{"name":"EPSG:25829"}},"source":"\u00a9 OpenStreetMap contributors, ODbL 1.0","features":[{"type":"Feature","properties":{"class":"residential","widthMeters":5},"geometry":{"type":"MultiPolygon","coordinates":[[[[640949.8346131986,4823959.869939912],[640863.3389720679,4823911.097227461],[640787.727276741,4823893.471566509],[640742.7343052271,4823874.318360914],[640667.7778213024,4823866.116036425],[640400.0,4823857.375059905],[640400.0,4823862.435165868],[640410.0843509036,4823863.978288082],[640667.4877304493,4823871.108334687],[640741.5798916431,4823879.2098241905],[640786.2208624826,4823898.242022859],[640861.5356477115,4823915.791350513],[640947.1409992764,4823964.086678617],[640987.5097326587,4823996.902262001],[641096.6790340935,4824062.909275944],[641099.5317054755,4824058.802906991],[640990.3420088874,4823992.77165961],[640949.8346131986,4823959.869939912]]],[[[640400.0,4824650.87889583],[640400.0,4824656.894288955],[640415.5872291178,4824667.320248241],[640400.0,4824697.395168128],[640528.6232013645,4824525.981177427],[640715.9244073768,4824626.045232099],[640720.6845212549,4824675.703888027],[640683.9379697895,4824678.104660043],[640676.4911671393,4824683.589566164],[640681.5419683233,4824759.197331054],[640667.6398132324,4824778.795120149],[640614.2110133045,4824803.975164382],[640580.1480430168,4824750.18173967],[640576.4543576515,4824712.48230647],[640571.4605523478,4824712.233492103],[640575.5821792837,4824752.233435694],[640609.6250899843,4824806.079013576],[640424.1549975516,4824899.022428932],[640400.0,4824860.60618246],[640400.0,4824869.999518368],[640419.984100837,4824901.782346814],[640400.0,4824917.645992927],[640400.0,4824924.030842571],[640424.681388164,4824904.437423505],[640513.5023565921,4824855.668669089],[640648.6710527997,4824793.665230283],[640669.7049773138,4824799.271626778],[640685.1162386651,4824817.390075361],[640704.1634475847,4825015.341282478],[640784.8203113715,4825093.643166863],[640784.2632789101,4825151.961661936],[640789.180087119,4825152.869955412],[640789.1039442079,4825091.011014924],[640711.7648257453,4825017.595041353],[640707.6664959427,4825006.783154518],[640680.4527338586,4824688.134959967],[640725.9946851967,4824677.6941861],[640719.3593514969,4824622.156013605],[640531.3751085496,4824521.794391371],[640553.8813466661,4824479.5794724645],[640549.4690164627,4824477.227591903],[640525.9346302181,4824521.3709187815],[640418.5814006131,4824663.30759145],[640400.0,4824650.87889583]],[[640683.097458761,4824785.550799798],[640671.1395716773,4824782.366301445],[640682.0880118065,4824768.093018632],[640683.097458761,4824785.550799798]],[[640681.8140866888,4824790.784097735],[640671.0047307115,4824794.443501308],[640656.6289961919,4824790.611783286],[640672.3325768075,4824787.352301008],[640681.8140866888,4824790.784097735]],[[640677.6033962957,4824798.60164135],[640683.7112781304,4824795.684484155],[640684.3403821632,4824805.589615669],[640677.6033962957,4824798.60164135]]],[[[640400.0,4824954.470806942],[640400.0,4824964.2027260205],[640443.5179359796,4825036.879058761],[640400.0,4825075.713791404],[640400.0,4825082.415430916],[640446.1242378107,4825041.2527439445],[640493.9661760242,4825123.003462739],[640486.7159069369,4825133.628639467],[640489.4739416414,4825137.799160367],[640497.6019877086,4825132.421712717],[640508.3520685089,4825143.186006412],[640511.8899372985,4825139.652808933],[640400.0,4824954.470806942]]],[[[640689.1440007475,4825128.256354284],[640738.577019939,4825223.460691509],[640750.5480274743,4825230.937115932],[640716.5138688812,4825287.965867509],[640667.09426396,4825262.321565724],[640576.1784831643,4825178.973239832],[640519.8501870689,4825137.918319266],[640516.1421419153,4825141.27248103],[640573.0793131122,4825182.90581355],[640664.1271075732,4825266.371603377],[640686.1295594071,4825277.833178446],[640677.9718668786,4825303.710336493],[640705.7679419393,4825317.395706003],[640707.4134850086,4825312.674245634],[640683.148737857,4825300.958599871],[640690.6112651719,4825280.158763161],[640715.1752119889,4825292.904276012],[640715.9928689174,4825367.061986365],[640727.0638492102,4825434.382156775],[640677.622280915,4825522.865066994],[640681.9876612839,4825525.302987058],[640730.2849781975,4825438.867741584],[640782.9918726312,4825483.630145585],[640713.1310013653,4825524.687197473],[640715.6641322972,4825528.998026591],[640829.2710246827,4825461.865998771],[640930.6687897498,4825684.483245644],[640828.2148501615,4825726.534059838],[640789.5393307232,4825627.712687328],[640790.770495759,4825530.361395348],[640785.7724212558,4825530.222646436],[640783.9026431466,4825597.4336809395],[640756.1262704658,4825596.9827591665],[640758.5825547233,4825528.884888044],[640753.5858156794,4825528.704336312],[640751.1976787132,4825600.325485083],[640783.812727091,4825602.432880056],[640784.7048883322,4825629.034275672],[640823.5712444108,4825728.388246099],[640682.0073474402,4825784.280326642],[640661.4894233149,4825671.042909615],[640646.3425447753,4825651.814355504],[640623.1895872585,4825639.221612985],[640590.3635683336,4825594.280323888],[640570.5707741,4825531.847626718],[640623.060493335,4825478.7484686375],[640619.5046122317,4825475.233399708],[640568.389486816,4825526.942004065],[640497.8441960656,4825427.065809052],[640440.027886403,4825370.509703193],[640496.2211682957,4825313.602726569],[640492.663595557,4825310.08936974],[640436.2485979835,4825367.220881605],[640400.0,4825337.133360057],[640400.0,4825343.631348741],[640494.0630055199,4825430.340441938],[640559.3169722395,4825520.274899969],[640586.145520302,4825596.982506018],[640619.482834437,4825642.624239964],[640643.0869963709,4825655.678857348],[640656.997615029,4825673.317532971],[640677.4030050157,4825787.393696516],[640646.686428201,4825831.266839051],[640567.0020682845,4825728.421054904],[640509.7011769422,4825639.444569362],[640505.4973821413,4825642.151617436],[640562.9817601531,4825731.395739244],[640643.6619184169,4825835.526877371],[640611.50483588,4825866.124158741],[640533.4684860454,4825896.598243088],[640463.672035404,4825910.160042801],[640434.9401625956,4825903.100650154],[640400.0,4825868.480788575],[640400.0,4825875.519520306],[640440.3086866761,4825912.301073146],[640400.0,4825958.061702148],[640400.0,4825964.739577841],[640439.3356490388,4825921.3720089635],[640501.9997381356,4826004.67957059],[640400.0,4826069.0987660345],[640400.0,4826075.0125130145],[640619.0497414456,4825931.841721536],[640715.85928337,4825858.387635751],[640729.3983828056,4825871.071715916],[640781.4640019817,4825971.1839123955],[640785.9324304423,4825968.940444746],[640733.5364976221,4825868.241428515],[640671.9085816958,4825805.351474593],[640681.7239024303,4825789.916750309],[640696.2241861254,4825783.231942881],[640932.5325663004,4825689.123030793],[640964.958070081,4825779.668836993],[641039.9245465152,4825929.004417627],[641046.4320038037,4825931.795872916],[641134.8748780066,4825906.59101173],[641151.1139276123,4825985.383089208],[641108.9134510559,4825995.0436974615],[641106.0037687268,4825980.042876615],[641091.751487021,4825966.227960168],[641075.736981911,4825968.008318629],[641065.4775612664,4825932.305021811],[641015.5921885384,4825944.335716556],[641057.1658234476,4826088.275965265],[641097.1832798814,4826080.57121352],[641102.2145148815,4826073.182486856],[641096.7988159511,4826039.39062493],[641108.0076430516,4826033.127564548],[641111.0945435287,4826007.152441287],[641153.7521859058,4825996.5396450125],[641169.711237198,4826070.131905247],[641161.0911655524,4826110.927814721],[641124.6189852242,4826148.55593736],[641080.3220837134,4826113.665194382],[641077.2508992978,4826117.610802864],[641120.9490731665,4826152.0228038365],[641019.8966303201,4826244.666450873],[640898.1141292152,4826268.360006157],[640877.0069757324,4826279.928485385],[640874.7658415072,4826294.088801162],[640914.4362631087,4826444.17688716],[640919.2566745208,4826442.848868404],[640879.7358256197,4826293.332213312],[640881.4111622922,4826282.746523907],[640899.5425204269,4826273.169013703],[641022.7303420425,4826248.836062288],[641160.8192196261,4826119.964235475],[641174.6377870671,4826070.986600851],[641183.7308326698,4826060.881947894],[641233.3420362471,4826117.566496835],[641272.4118537869,4826194.419320219],[641280.0531788815,4826207.49136769],[641284.3697772243,4826204.9680804],[641237.5844114493,4826114.914795417],[641165.424406409,4826024.7828887245],[641226.0058436019,4825991.895112851],[641236.7960629561,4826010.300974565],[641317.1076352284,4826073.843731927],[641440.7019617031,4826150.511674122],[641500.6284323517,4826210.742550408],[641504.2428120641,4826207.28766122],[641443.7493411375,4826146.54349895],[641320.0936037352,4826069.830160211],[641235.6710541992,4826002.048400031],[641230.4348680051,4825989.52674823],[641298.5116189524,4825952.183306398],[641296.106909858,4825947.799543839],[641228.7953066631,4825984.723264543],[641181.3294709022,4825892.5324097155],[641234.5310841335,4825854.817209604],[641276.8778634986,4825894.295103997],[641279.1733525137,4825889.853175342],[641267.1450667864,4825883.637227294],[641238.2767425872,4825849.470786569],[641269.4775665381,4825801.784126003],[641257.4621737655,4825809.226024162],[641235.6612354504,4825844.212446305],[641139.9974453524,4825746.79685874],[641180.1548858603,4825705.455671611],[641241.4755982974,4825676.112340087],[641239.3088192536,4825671.606225511],[641181.823707958,4825699.184079041],[641130.1198484657,4825611.941630605],[641173.3985178837,4825597.901484743],[641179.0123647574,4825593.892976508],[641176.0746058485,4825589.847043661],[641073.3194721758,4825626.107084426],[641053.7673594988,4825545.438340395],[641038.9809030019,4825514.202511374],[640984.705915688,4825431.311587507],[640943.4035897232,4825394.779677221],[641023.0621801304,4825374.793334115],[641138.069412948,4825543.147661884],[641175.7425405805,4825526.403319862],[641281.0318335786,4825669.781598458],[641278.3197757354,4825681.304809049],[641253.9595208006,4825700.851495644],[641256.802159394,4825704.964816179],[641282.3150372944,4825684.436880982],[641285.9737820763,4825668.1570329815],[641201.8728929581,4825556.085815823],[641119.1493257127,4825423.745682388],[641128.760040187,4825418.521217345],[641167.4113184682,4825481.027431514],[641171.663954329,4825478.397775978],[641121.62236482,4825396.00031369],[641094.6811606596,4825379.666385878],[641014.2801600124,4825368.8596351],[640940.6010286602,4825390.353679242],[640907.5566992294,4825340.888082566],[640911.437590592,4825290.9052893715],[640882.6089591144,4825264.174710633],[640891.3120380776,4825247.906952213],[640887.0111677767,4825245.35694934],[640877.1170996979,4825263.91161797],[640905.9805740216,4825291.605888141],[640902.3061877253,4825340.231561382],[640801.5081875155,4825332.343980974],[640774.3081015967,4825317.839425379],[640755.838790497,4825301.401457079],[640757.3026157122,4825293.768232062],[640729.876754671,4825274.720938093],[640754.4420036988,4825236.573900673],[640753.8904522962,4825217.746648576],[640806.496878358,4825170.699674115],[640802.7844680663,4825167.350344356],[640756.937453966,4825205.923218681],[640747.7676790311,4825221.463729966],[640742.3927533809,4825219.976779833],[640693.4049808342,4825125.613366237],[640655.7453907816,4825090.780993563],[640654.241249259,4825095.549385144],[640689.1440007475,4825128.256354284]],[[641170.108472659,4826043.94397319],[641180.3725499513,4826057.11606724],[641173.9084278515,4826062.457948424],[641170.108472659,4826043.94397319]],[[641164.1120751537,4826019.6576794665],[641144.0012941121,4825923.739378333],[641184.0778135667,4825909.080007672],[641224.2916049799,4825987.148862937],[641164.1120751537,4826019.6576794665]],[[641142.5561846214,4825917.305362229],[641119.6358142402,4825811.5123376055],[641124.7416467111,4825807.732625315],[641129.1961027628,4825807.141816478],[641181.7698795446,4825904.599624614],[641142.5561846214,4825917.305362229]],[[641126.6331375641,4825802.437963603],[641118.5509277746,4825806.094508214],[641113.2046579625,4825778.607245222],[641126.6331375641,4825802.437963603]],[[641108.313544757,4825756.460548385],[641099.854341977,4825726.795657395],[641109.7804356278,4825727.711170641],[641134.7960745041,4825748.676485171],[641228.5177260655,4825841.843414416],[641229.9658408534,4825852.602335901],[641178.9870797881,4825888.070870976],[641108.313544757,4825756.460548385]],[[641098.488256649,4825721.964257932],[641074.5305884077,4825630.977812796],[641125.2625348475,4825613.552719659],[641177.2727518351,4825701.312100066],[641136.3077657903,4825743.419386268],[641112.2787173147,4825723.333364837],[641098.488256649,4825721.964257932]],[[641140.7045711774,4825538.236718638],[641079.5549764383,4825447.993164722],[641114.820843185,4825426.250710191],[641173.0360789467,4825522.156151791],[641140.7045711774,4825538.236718638]],[[640730.6585279795,4825407.079548954],[640799.2259721007,4825396.24780116],[640827.000006696,4825457.398648567],[640787.5446869247,4825480.940058108],[640732.0392531656,4825433.777360069],[640730.6585279795,4825407.079548954]],[[640798.5482016356,4825391.292883199],[640729.8789903661,4825402.140689724],[640726.7907853269,4825390.373900374],[640797.808475052,4825379.473586019],[640798.5482016356,4825391.292883199]],[[640797.4956936222,4825374.462708548],[640725.6044501631,4825385.49738645],[640720.1671313448,4825291.931006246],[640726.5208162223,4825278.534604123],[640752.6191168613,4825296.285167619],[640750.5518878414,4825302.815638001],[640758.8587234616,4825311.834526522],[640798.0390472928,4825336.302505086],[640797.4956936222,4825374.462708548]],[[640802.8966854777,4825337.521808672],[640904.2817919288,4825344.854538798],[640936.0013342513,4825392.366762497],[640831.2955268442,4825454.833592383],[640805.197607478,4825400.369844362],[640802.8966854777,4825337.521808672]],[[641031.131920393,4825375.963042594],[641105.9154216084,4825389.924272517],[641126.2132407228,4825414.214655089],[641076.8722412278,4825443.773248906],[641031.131920393,4825375.963042594]],[[640937.1530445713,4825687.194894069],[641069.8190871385,4825632.73430403],[641096.0552776809,4825731.833303365],[640968.7030944179,4825775.36294293],[640937.1530445713,4825687.194894069]],[[641026.81608768,4825644.424600536],[640990.1861323445,4825542.515719517],[640992.738572171,4825521.337894255],[640987.7430397933,4825521.126573965],[640985.1229192575,4825543.20128027],[641022.1792022706,4825646.297050604],[640979.2911101598,4825663.902480137],[640926.9212706308,4825537.066272024],[640922.2997071722,4825538.974452099],[640974.6770303623,4825665.828778729],[640935.2842619787,4825682.556259012],[640833.5841143236,4825459.290720387],[640938.6149973889,4825396.629638018],[640980.9046639373,4825434.607252034],[641048.9688850888,4825546.867092637],[641068.594896429,4825627.840730182],[641026.81608768,4825644.424600536]],[[640442.5955057358,4825917.396685882],[640534.8630240317,4825901.410446832],[640613.9189390923,4825870.5349010015],[640636.2069122035,4825852.513452997],[640668.9200344377,4825809.461207837],[640712.2856502288,4825854.822862591],[640506.1991642038,4826001.944569697],[640442.5955057358,4825917.396685882]],[[641152.6020037738,4825991.673359714],[641109.8660034366,4825999.955041478],[641152.2319671152,4825990.256485836],[641152.6020037738,4825991.673359714]],[[641046.0337284039,4825926.715902704],[640970.7427404379,4825779.952176334],[641097.4844059346,4825736.626248303],[641133.7709113734,4825901.706153061],[641046.0337284039,4825926.715902704]],[[641064.0998432136,4825937.725836474],[641070.8347535017,4825968.9946043175],[641030.199514336,4825978.748025365],[641021.0473553502,4825947.1624360625],[641064.0998432136,4825937.725836474]],[[641093.9593266243,4826076.601392863],[641061.2476513212,4826084.053995503],[641053.333696502,4826047.9543137625],[641091.8897682154,4826040.355578195],[641093.9593266243,4826076.601392863]],[[641052.0078042606,4826043.11948205],[641031.7133913055,4825983.526745867],[641089.384352387,4825970.86714383],[641101.4929476562,4825982.478218417],[641107.4596287439,4826020.833852313],[641103.6021171684,4826030.666564331],[641052.0078042606,4826043.11948205]]],[[[640525.9513301047,4825137.232980652],[640530.8149558635,4825138.39278429],[640572.3820350355,4825091.986940782],[640568.8025682234,4825088.4958926095],[640525.9513301047,4825137.232980652]]],[[[640492.9218580818,4825153.008975144],[640496.931947884,4825145.738065399],[640400.0,4825171.590685149],[640400.0,4825176.628821336],[640492.9218580818,4825153.008975144]]],[[[640557.2122787824,4825246.536903744],[640482.8518549891,4825293.935865072],[640485.5433043886,4825298.149663848],[640561.7048436685,4825249.599819168],[640557.2122787824,4825246.536903744]]],[[[640424.8335421897,4825657.982650069],[640433.4003818074,4825634.4515571995],[640453.2399034948,4825630.8259589365],[640447.3599702364,4825623.1493804455],[640429.5017051378,4825631.218766749],[640420.3880118907,4825655.627740875],[640400.0,4825680.2616080325],[640424.8335421897,4825657.982650069]]],[[[640409.8359307707,4826219.700031811],[640400.0,4826232.553257678],[640463.9853045826,4826201.701332847],[640461.9994765238,4826197.112598062],[640409.8359307707,4826219.700031811]]],[[[640918.1493096913,4825488.479932108],[640936.3393614297,4825539.828870235],[640941.0522768237,4825538.159011412],[640922.8624494816,4825486.810706745],[640918.1493096913,4825488.479932108]]],[[[642581.9313133084,4822555.703308676],[642585.2651825743,4822565.505623396],[642681.7146965126,4822631.88137609],[642666.7427011414,4822682.828182756],[642618.5640318395,4822776.944374728],[642623.0447308967,4822779.163233885],[642671.3257752443,4822684.834253781],[642686.866504662,4822631.9935493115],[642744.7778797302,4822575.506769632],[642775.9010398185,4822557.849312087],[642742.2829839273,4822522.316509694],[642708.2914336404,4822500.0],[642699.1700631311,4822500.0],[642718.2574395789,4822512.50999078],[642651.2268639248,4822605.278785629],[642587.201823229,4822559.593908427],[642629.669028596,4822500.0],[642623.422398339,4822500.0],[642581.9313133084,4822555.703308676]],[[642684.1267386058,4822627.4780389825],[642655.3399829203,4822608.123583529],[642722.442267327,4822515.255545395],[642766.0838522086,4822555.666726611],[642741.4819650339,4822571.743887322],[642684.1267386058,4822627.4780389825]]],[[[641757.5873726287,4823066.576672455],[641724.9384063663,4823101.421411782],[641729.3356946703,4823119.723651123],[641814.7313353478,4823238.995916885],[641893.1948861675,4823387.727295353],[641845.3591176764,4823409.375347239],[641793.7291603623,4823440.987417598],[641795.7905815913,4823445.542693936],[641898.6632781716,4823388.399602363],[641819.127400731,4823236.587357374],[641733.8668805815,4823117.540151262],[641729.6224478646,4823103.530975403],[641760.3968158517,4823070.770874281],[641792.9461817958,4823059.194547556],[641791.5088555426,4823054.405592216],[641757.5873726287,4823066.576672455]]],[[[641965.7547151126,4823154.083440984],[641942.6395106785,4823104.739023879],[641937.6401862047,4823104.821211504],[641941.639604312,4823125.493468685],[641961.8757847615,4823157.253461928],[641999.9787401328,4823189.39914822],[641988.0904580544,4823256.2079666285],[642015.742142581,4823299.743611047],[642019.97445042,4823297.081361931],[641993.1153199775,4823255.535080787],[642004.4987553332,4823192.375036003],[642041.1271391066,4823214.636405375],[642077.1286876936,4823224.9739278415],[642078.4965952429,4823220.1646837285],[642043.0950260474,4823210.012282115],[642004.1562429446,4823186.374612577],[641965.7547151126,4823154.083440984]]],[[[642113.0642724619,4824104.125062485],[642138.1318500098,4824081.3217788655],[642120.5031344364,4824048.578932223],[642110.1133160498,4824047.787734772],[642099.1450463173,4824061.623858071],[642118.2065213538,4824091.895852433],[642109.8824646305,4824100.235151815],[642084.894790704,4824107.453429112],[642073.493502161,4824082.360677998],[642050.6080027896,4824070.530361202],[642045.659161218,4824044.650579265],[642001.9231862171,4824012.160409646],[641998.9448354692,4824016.176555414],[642041.5283719833,4824047.756262721],[642046.6058413985,4824073.972929294],[642069.6847870722,4824085.826310479],[642099.4737574172,4824152.084820068],[642103.5510669256,4824178.879322703],[642108.4941642623,4824178.127133419],[642104.3214206607,4824150.773429015],[642086.9459783982,4824112.015499176],[642113.0642724619,4824104.125062485]],[[642122.0277963602,4824088.648111206],[642104.2025057822,4824061.549194863],[642111.9927118855,4824052.541499187],[642132.9950017339,4824076.11960877],[642122.0277963602,4824088.648111206]]],[[[642206.1762749666,4824241.995231864],[642200.1679018273,4824265.77417918],[642204.8930958768,4824267.408970051],[642211.1866669776,4824242.759406629],[642244.9927584323,4824223.167758711],[642242.4002733446,4824218.892361527],[642204.8642843533,4824236.737438192],[642128.326461026,4824157.709117003],[642124.7347860979,4824161.187603917],[642206.1762749666,4824241.995231864]]],[[[642070.2161849774,4824348.636115158],[641947.8068819592,4824525.804964991],[641945.9330480912,4824536.935782715],[641972.3172854017,4824608.190985564],[641981.2169657887,4824701.644915221],[642013.4705697108,4824870.99756156],[642054.361599807,4824976.827634368],[642058.9356626157,4824974.808241038],[642018.3099224743,4824869.738169517],[642006.827691337,4824797.699570352],[642096.5367181126,4824759.454722137],[642169.2282657862,4824743.508447277],[642168.1568963433,4824738.624579188],[642094.9780296478,4824754.690606611],[642005.9566442898,4824792.663893868],[641984.1918924451,4824688.205891567],[641977.2248193728,4824607.223857352],[641950.8877222375,4824532.075460488],[642074.4186284137,4824351.345260626],[642070.2161849774,4824348.636115158]]],[[[642136.3149320708,4824449.634927005],[642207.9944421141,4824413.064909288],[642243.7779410809,4824367.207709226],[642239.645988657,4824364.3922218485],[642205.1974990425,4824408.871376615],[642133.523645339,4824445.486587772],[642136.3149320708,4824449.634927005]]],[[[642286.1003427259,4824519.342346493],[642246.477378069,4824526.20790476],[642187.7499290785,4824555.47760718],[642189.9810714711,4824559.952202539],[642248.1565395519,4824530.944495106],[642286.9481923855,4824524.269937279],[642286.1003427259,4824519.342346493]]],[[[642234.7928820169,4824927.953313056],[642265.3770031194,4824820.568253021],[642260.5663858879,4824819.205182278],[642229.9576423336,4824926.680341255],[642234.7928820169,4824927.953313056]]],[[[641884.5551973402,4825136.500998635],[641969.9565533177,4825008.415715335],[641965.9029750031,4825005.488514822],[641915.9727522274,4825079.609467138],[641851.6311604219,4824958.364209761],[641847.1122303129,4824960.504132814],[641865.7570278759,4824999.876827544],[641787.0621054164,4824982.487460245],[641785.9832709426,4824987.369684757],[641868.5703267102,4825005.619104185],[641912.9387704598,4825084.411846033],[641879.6092555571,4825137.514108276],[641738.4608150136,4825105.647577019],[641737.1147656052,4825110.462984685],[641806.9507375339,4825129.984212215],[641794.9176971603,4825180.523523219],[641799.7817310293,4825181.681614114],[641811.7991856358,4825131.207764033],[641874.9613892895,4825143.417063181],[642004.0818907694,4825105.754170818],[642003.1646175937,4825100.839029932],[641988.5445017887,4825103.574512897],[641884.5551973402,4825136.500998635]]],[[[642426.7940854615,4825265.832736513],[642461.4912636615,4825269.078199455],[642462.7484181522,4825328.309300881],[642485.8072458584,4825344.600157397],[642486.5145507067,4825339.650438229],[642467.5893493771,4825326.603810298],[642466.4865544504,4825269.295163014],[642573.6876611171,4825271.989284792],[642652.8756825844,4825247.866790104],[642731.5228125807,4825241.419817342],[642756.9358770199,4825248.209728033],[642790.5371496864,4825267.862986325],[642805.2352349728,4825267.714100649],[642914.2113940411,4825190.324940572],[642994.5427936143,4825207.611641939],[643136.7321468844,4825136.266241462],[643155.2192201955,4825117.6595537895],[643167.0519064887,4825075.9654123],[643141.2364137742,4825062.623912767],[643138.020208496,4825066.452231407],[643161.729748461,4825077.215695194],[643150.6888025426,4825115.466399044],[643140.9209823139,4825127.510317274],[642993.1410256111,4825202.76883113],[642921.4369203984,4825186.066162469],[643116.7039877565,4825082.081077779],[643131.8844047418,4825065.413871425],[642917.2690765954,4825182.708509929],[642926.6871182052,4825115.226149492],[642922.3473654117,4825107.232902669],[642911.3747571157,4825186.205180567],[642803.8417587846,4825262.901121877],[642792.2382720417,4825263.1508789025],[642759.005239606,4825243.653750527],[642731.4775401079,4825236.412257997],[642651.9657267499,4825242.94222608],[642576.0881362866,4825266.224200707],[642576.6652908494,4825159.728281137],[642571.6653642751,4825159.701184038],[642571.0832835312,4825267.106077069],[642428.0351287836,4825260.989203559],[642426.7940854615,4825265.832736513]]],[[[642883.704546036,4822539.145442134],[642855.9609748096,4822584.728654672],[642860.447844684,4822647.081721357],[642865.2690475188,4822645.756578638],[642859.5381730675,4822608.858716025],[642863.0059234183,4822577.646653157],[642916.7614086643,4822500.0],[642910.6986744595,4822500.0],[642886.6368670178,4822535.087682351],[642837.7950022969,4822500.0],[642883.704546036,4822539.145442134]]],[[[645798.1066221129,4822772.761523743],[645747.2046679369,4822786.519205347],[645748.563175578,4822791.33111318],[645798.6374474358,4822777.753296141],[645860.7575748592,4822785.619719256],[645905.1675680138,4822819.905109784],[645930.2136465296,4822854.90483103],[645934.5569263903,4822852.427752095],[645923.5729642528,4822833.271962808],[645873.1767832305,4822786.5853206515],[645850.0192751511,4822777.431759747],[645831.4345381223,4822778.167658091],[645846.242741732,4822759.659052586],[645863.8577631852,4822754.682034544],[645943.9633828466,4822783.929809759],[645959.2637986284,4822784.785293571],[645976.4676122476,4822775.913995484],[645995.6351038716,4822796.8361776555],[645999.3189804377,4822793.455489346],[645979.4889867314,4822771.809891839],[645994.4226590762,4822723.28337459],[646020.7043609362,4822678.5796701815],[646022.4848881772,4822652.148599668],[646017.510078414,4822651.647333452],[646015.8711690202,4822677.231152442],[645989.8575131363,4822721.228698028],[645974.5178990558,4822771.075661766],[645958.2430813382,4822779.838293781],[645908.6714994193,4822765.458992376],[645924.8199444562,4822747.438567698],[645926.9427782735,4822725.585822079],[645898.5508385192,4822646.299638136],[645898.5569933436,4822639.530456428],[645923.3607438687,4822619.707622657],[645957.7083418786,4822567.294491114],[645984.8100779564,4822551.002133599],[646029.8054629817,4822556.552781589],[646084.4726501483,4822592.076145996],[646142.582553095,4822594.905808207],[646139.2307925875,4822741.945377606],[646085.9604937913,4822761.102799174],[646063.3405851087,4822776.079128468],[646066.1032231414,4822780.246601455],[646088.2507952104,4822765.564868636],[646142.0530848895,4822746.247886869],[646283.1852876426,4822736.894995622],[646307.1016434055,4822752.165463432],[646308.2189934396,4822773.182593315],[646313.2119424145,4822772.917149282],[646311.5696256426,4822749.681566078],[646284.045299075,4822731.89770777],[646144.3300439687,4822741.1433971375],[646147.6108980976,4822594.8993045855],[646187.3447484176,4822597.742562841],[646204.8880695341,4822606.683458876],[646263.7412284658,4822658.571162476],[646363.8078900122,4822722.026509119],[646373.9631311995,4822739.991634108],[646372.6963215768,4822779.789174446],[646392.8718448569,4822800.164979763],[646429.9616812103,4822821.412135112],[646394.4992767836,4822910.039635472],[646360.9458493866,4822936.093304848],[646342.0765168159,4822939.696561236],[646308.1273874865,4822934.888060839],[646269.3491092068,4822912.068609504],[646221.376874892,4822907.061826454],[646227.2362016367,4822894.2917815745],[646218.6422675682,4822868.7716959575],[646222.3377079957,4822818.15355586],[646233.9253288113,4822779.611930999],[646229.3104424038,4822777.687658814],[646217.3730902735,4822817.536631109],[646213.6339856719,4822869.0138917705],[646222.1449260169,4822893.950956103],[646214.5840257099,4822907.601630077],[646141.9543746952,4822890.742207426],[646089.3972662258,4822842.7113667065],[646033.3967381009,4822813.847597838],[646017.5265539734,4822792.718832913],[646012.9555027325,4822794.745033928],[646030.511626768,4822817.978010108],[646086.491318384,4822846.7836123565],[646139.7272655194,4822895.269696948],[646206.1384329766,4822910.817776693],[646192.6669476076,4822961.9544018945],[646134.7715794202,4823006.330741111],[646120.7500772066,4823032.983500411],[646052.5534175083,4823016.600453014],[646052.0735310053,4823021.577370629],[646121.387879464,4823038.200979874],[646141.0127461223,4823050.888271883],[646143.355984314,4823097.959770649],[646124.8594983837,4823120.746099313],[646127.2939163521,4823125.113433643],[646148.2870352349,4823099.348995011],[646146.1374753352,4823052.60281456],[646170.9044500334,4823054.954284536],[646191.9583088199,4823062.0654591825],[646223.1488099743,4823091.257595135],[646279.3164928807,4823119.84188966],[646307.8809228148,4823163.122770479],[646312.4116652842,4823182.071411152],[646238.2469935324,4823329.154091561],[646223.7245472469,4823343.191004493],[646227.1994719345,4823346.786125968],[646242.5365086613,4823331.807989246],[646314.9456079403,4823188.008044737],[646352.0275368104,4823254.67732175],[646397.0616116937,4823248.095389996],[646461.3765788556,4823250.013249123],[646491.2522137208,4823266.236170824],[646543.4493172021,4823313.40951808],[646607.8595438383,4823342.862517176],[646630.0516802325,4823343.702901218],[646734.3279962337,4823333.343965536],[646733.393058941,4823328.4321540315],[646609.1997627952,4823338.004463566],[646545.9971126033,4823309.075646073],[646494.2837242191,4823262.257126845],[646462.719554803,4823245.136351193],[646396.9202583395,4823243.095039417],[646354.0767862742,4823249.452192778],[646295.8239927148,4823130.830450867],[646270.3334110901,4823106.848434424],[646249.1567218221,4823098.766657047],[646255.225162849,4823074.931609306],[646266.5206047668,4823059.312261354],[646326.6007569652,4822993.064083543],[646350.4827341995,4823013.089465048],[646366.9431664543,4823011.958378369],[646391.9318426659,4822969.723336175],[646400.3525322677,4822917.195788024],[646434.5486216147,4822823.442719484],[646498.1581050694,4822841.448798026],[646657.5239548333,4822843.182122978],[646714.6525191878,4822837.076038858],[646802.1728349675,4822814.782420863],[646856.4066858235,4822782.489880755],[646993.2175387513,4822750.250709385],[647068.6408795414,4822779.78238539],[647143.2155492713,4822819.487587526],[647190.4446114736,4822828.304222034],[647226.7753693049,4822825.673321258],[647288.8267940523,4822853.554136494],[647360.0080268643,4822917.625139036],[647398.8702897002,4822937.084911317],[647487.7880151956,4822960.346548775],[647552.7691040547,4822967.968121604],[647606.5723198435,4822993.007466182],[647608.171628343,4822988.270144964],[647554.0578288883,4822963.125204794],[647488.6391254249,4822955.416345295],[647400.7467695437,4822932.448517575],[647362.9876587007,4822913.577998216],[647291.5844704018,4822849.356869566],[647238.3944579478,4822825.412456288],[647305.169758374,4822826.0980403265],[647392.4253298393,4822769.918246366],[647432.841219889,4822754.127079335],[647584.350964751,4822709.11544461],[647639.0027089851,4822710.887051671],[647666.7877443213,4822750.903135662],[647692.0245946404,4822757.303541724],[647716.4053727092,4822775.073090954],[647684.2145714593,4822793.290563363],[647664.5725551482,4822848.417304534],[647663.746230806,4822869.83344177],[647745.7290991562,4822824.844721514],[647756.3497685374,4822806.764654629],[647756.3262015022,4822781.756008094],[647817.3960427286,4822725.847807013],[647841.9198636138,4822721.975811043],[647905.5016474712,4822730.609118312],[647905.6554466102,4822725.611484288],[647827.671398059,4822716.828429107],[647804.9827161672,4822727.804748963],[647767.6943448281,4822769.350802785],[647753.6775544937,4822776.895605847],[647714.3374030999,4822769.257490246],[647694.2392386631,4822752.787646567],[647669.7645193102,4822746.766187438],[647640.9436556929,4822706.178096232],[647583.5646131521,4822704.143247511],[647390.5079433431,4822765.295979155],[647317.8623928062,4822815.215821749],[647293.0519141882,4822822.401060947],[647190.8128728408,4822823.311724706],[647144.9510365895,4822814.771718952],[647070.8022735752,4822775.267307197],[646987.5817120749,4822744.5701888325],[646842.3906868417,4822782.840261996],[646859.2152503916,4822735.051552749],[646854.4069364372,4822733.680379194],[646847.7286393951,4822746.800821799],[646839.5610270842,4822773.911898682],[646813.145712411,4822736.201965657],[646809.0000237299,4822738.997187537],[646836.1615222455,4822785.752122855],[646800.3038793857,4822810.109002624],[646714.0201178609,4822832.11517916],[646657.3984852472,4822838.181840822],[646564.600078831,4822835.545014541],[646564.9749150972,4822826.055703231],[646604.9202749028,4822779.118227625],[646620.3813052708,4822752.510383436],[646616.058159031,4822749.9983311705],[646560.4591346517,4822823.668073332],[646559.5941584866,4822835.596179547],[646498.6063198486,4822836.462824824],[646510.4978803323,4822803.05451973],[646515.9364521985,4822710.03763092],[646531.1709430504,4822644.144146834],[646526.36493687,4822642.764906248],[646517.728237493,4822672.901709705],[646505.5631320382,4822802.144078306],[646492.0616189942,4822834.883977398],[646434.3746363703,4822818.071749841],[646395.9613797892,4822796.218868267],[646377.155961349,4822777.2950447425],[646378.9589921613,4822739.320955033],[646367.4554023498,4822718.544482171],[646266.6980233662,4822654.532250679],[646196.8632757087,4822596.07874067],[646169.3866760607,4822589.226591523],[646097.3582570936,4822590.251669277],[646031.5026963722,4822551.829788371],[645984.876654379,4822545.98575433],[645953.976440613,4822563.941343997],[645919.4142800771,4822616.593584037],[645893.655401949,4822637.724605426],[645921.9630610114,4822726.074817515],[645915.3342005264,4822754.830943722],[645905.144207936,4822761.407485976],[645877.303311857,4822711.080881247],[645873.2011252112,4822713.939563587],[645899.9649446448,4822762.048171426],[645864.8811453534,4822749.704428806],[645845.1473369034,4822754.418717214],[645838.9122357414,4822742.291401686],[645848.3593318287,4822722.344330702],[645835.7542380046,4822697.3099982],[645830.8017834038,4822697.997888763],[645843.4020028457,4822723.2310975725],[645833.7348857163,4822742.370497594],[645840.90787586,4822759.218937191],[645826.3397169483,4822777.01429272],[645798.1066221129,4822772.761523743]],[[646147.9254449835,4823002.5827403255],[646196.8191135866,4822964.833034],[646206.2740613032,4822922.123292915],[646217.0554072165,4822912.424164427],[646243.5335930168,4822910.503238579],[646267.6654453153,4822916.81341162],[646313.6447555148,4822942.733575149],[646325.2506426236,4822976.932234982],[646324.0935887618,4822988.37111383],[646250.987046866,4823072.259585656],[646243.530531319,4823097.872941824],[646194.2176317766,4823057.567493993],[646155.0649857704,4823050.318541292],[646125.3808078233,4823034.882432177],[646147.9254449835,4823002.5827403255]],[[646342.6661174055,4822944.674318555],[646369.2805187069,4822936.699503861],[646329.7580562361,4822982.054281963],[646319.057366245,4822942.216334145],[646342.6661174055,4822944.674318555]],[[646387.288860405,4822967.850445407],[646360.2296506476,4823010.280795671],[646329.9437228058,4822989.33669362],[646395.437426657,4822916.11618751],[646387.288860405,4822967.850445407]],[[647666.395495449,4822864.349893563],[647692.5500162793,4822790.781655909],[647722.8581580896,4822776.6740492005],[647750.7995808639,4822780.985570879],[647751.4446769136,4822805.647652357],[647742.3033097088,4822821.1635313025],[647666.395495449,4822864.349893563]]],[[[645158.7888813702,4823758.408711683],[645120.4637611705,4823600.462406436],[645115.5835008068,4823601.550091494],[645146.8779587521,4823741.324970108],[645154.1231164822,4823760.206109248],[645158.7888813702,4823758.408711683]]],[[[645679.1739212465,4824073.295290486],[645684.1392411634,4824072.707414542],[645668.8751395652,4823943.783704424],[645663.9098196484,4823944.371580368],[645679.1739212465,4824073.295290486]]],[[[645629.7501084484,4824079.728730335],[645618.7724212499,4823978.921152607],[645613.8018067833,4823979.4624398],[645624.7794939819,4824080.270017528],[645629.7501084484,4824079.728730335]]],[[[645370.7309910703,4824108.916638706],[644996.5741185657,4824153.387139082],[644997.1760499954,4824158.3507747],[645181.692427811,4824135.97479555],[645187.0118367634,4824166.757149114],[645191.93881253,4824165.905732769],[645186.6602926658,4824135.359996163],[645232.2111819965,4824129.619860502],[645253.3353977436,4824246.324388849],[645258.2554490955,4824245.433830207],[645237.1815813766,4824129.007458596],[645288.4441553716,4824122.81980026],[645310.4571386597,4824235.88146494],[645315.3649814669,4824234.925913276],[645293.4278501619,4824122.253834658],[645371.2653046952,4824113.888007628],[645370.7309910703,4824108.916638706]]],[[[645763.9027867252,4824285.326813528],[645736.3097600531,4824065.921434935],[645731.3488377925,4824066.545334227],[645758.9418644647,4824285.9507128205],[645763.9027867252,4824285.326813528]]],[[[645016.6991215097,4824206.39299469],[645106.7042341265,4824194.770713709],[645106.063904986,4824189.811885361],[645016.0587923692,4824201.434166341],[645016.6991215097,4824206.39299469]]],[[[645036.4581765232,4824251.581160828],[645170.1178430589,4824236.102856336],[645169.5426676497,4824231.136049189],[645035.883001114,4824246.61435368],[645036.4581765232,4824251.581160828]]],[[[645645.7397918057,4824186.761068333],[645662.3280648739,4824300.813102622],[645667.2760039525,4824300.09345071],[645650.6877308843,4824186.0414164215],[645645.7397918057,4824186.761068333]]],[[[645561.1535523778,4824196.769834166],[645556.2046954003,4824197.483146593],[645573.5333308126,4824317.706677163],[645578.4821877901,4824316.993364736],[645561.1535523778,4824196.769834166]]],[[[645471.5823303887,4824331.937996365],[645466.9768206701,4824306.181944688],[645462.0548884505,4824307.062048788],[645466.6603981692,4824332.818100465],[645471.5823303887,4824331.937996365]]],[[[645139.3450091906,4824274.921005923],[645146.7838813033,4824375.9954981],[645151.7703944353,4824375.628501119],[645144.3315223226,4824274.554008942],[645139.3450091906,4824274.921005923]]],[[[643436.6396108529,4824391.165725274],[643418.1471260098,4824309.597832361],[643413.3728845046,4824308.112363394],[643410.9895875441,4824316.703782989],[643431.8185686561,4824392.491452295],[643436.6396108529,4824391.165725274]]],[[[645654.7388142247,4824312.487682996],[645648.756550982,4824305.39581466],[645644.9743846123,4824308.666169007],[645650.045498082,4824314.530914166],[645657.1093652531,4824379.528678541],[645498.6057355533,4824397.902051264],[645490.3167853432,4824329.892153146],[645485.353512649,4824330.497069804],[645502.8830736906,4824531.739872163],[645507.8714206105,4824531.398705039],[645499.0816882959,4824402.880360106],[645657.6785541762,4824384.496179661],[645663.5778024743,4824433.461212034],[645668.5419049457,4824432.863142931],[645654.7388142247,4824312.487682996]]],[[[645742.4941789143,4824511.263132001],[645718.5953636053,4824293.693533282],[645713.625257866,4824294.239471869],[645737.524073175,4824511.809070588],[645742.4941789143,4824511.263132001]]],[[[643676.9061091854,4824439.941462368],[643662.6627575111,4824443.807560615],[643618.1242500797,4824462.552743847],[643620.2877653891,4824467.060426345],[643653.309952809,4824454.382808675],[643678.2108144471,4824444.76823605],[643676.9061091854,4824439.941462368]]],[[[645586.996427862,4824526.1982293455],[645593.7488270411,4824603.824681324],[645598.7300173924,4824603.391388486],[645591.9776182133,4824525.764936508],[645586.996427862,4824526.1982293455]]],[[[643544.2423426769,4824577.605825343],[643525.5749582049,4824593.842859472],[643518.9815332508,4824559.696392496],[643514.0272920402,4824560.371295474],[643524.0399811507,4824598.941750777],[643556.6649538826,4824575.769855336],[643593.5735974595,4824572.070432414],[643593.8293585383,4824567.076978072],[643575.6300335972,4824566.241574332],[643544.2423426769,4824577.605825343]]],[[[645779.5802402059,4824654.7484607985],[645774.6311955977,4824510.547779556],[645769.6341377468,4824510.719281258],[645774.5831823549,4824654.9199625],[645779.5802402059,4824654.7484607985]]],[[[645716.080447674,4824513.548527073],[645721.9863143177,4824661.3699957235],[645726.9823285432,4824661.170391471],[645721.0764618996,4824513.348922821],[645716.080447674,4824513.548527073]]],[[[643520.7705086896,4824926.076326781],[643525.7667783645,4824926.269431249],[643526.2307852803,4824914.2639935035],[643578.0982750524,4824826.098790023],[643573.7887237212,4824823.563485836],[643521.4878244115,4824912.489366617],[643520.7705086896,4824926.076326781]]],[[[643605.6078709137,4824888.88716287],[643599.5444439241,4824883.684863839],[643613.0591633155,4824848.248126237],[643632.1967054682,4824841.875176618],[643621.9280816001,4824838.651825943],[643608.958345848,4824845.09747363],[643594.091436226,4824884.084072476],[643600.2382377535,4824890.613663481],[643583.6296122855,4824928.566136893],[643588.2102031169,4824930.570678644],[643605.6078709137,4824888.88716287]]],[[[643205.2951556739,4824949.687704917],[643382.7663241314,4824939.653454333],[643447.7454610855,4824924.3421453275],[643465.5574626565,4824947.04110292],[643469.868108496,4824944.507660115],[643453.0624210957,4824922.414994182],[643473.8143848708,4824916.389267339],[643472.8295751725,4824911.487211662],[643462.2317708544,4824913.616281824],[643405.3343089435,4824932.444317037],[643229.8711721988,4824939.348636215],[643201.5586163412,4824945.634875175],[643142.751249203,4824880.276013557],[643101.4731760346,4824797.91821779],[643097.2608831467,4824800.612023394],[643140.5229274719,4824885.522888944],[643112.8628762021,4824885.852719719],[643078.9595804762,4824873.289138212],[643061.0537685639,4824874.426036161],[643036.5098046274,4824894.716563263],[642988.5281320134,4824918.490433436],[642957.165628281,4824947.515649729],[643028.5986253852,4825042.153381737],[643033.4988403821,4825041.159453679],[643031.2754143736,4825031.16957516],[642962.2357419544,4824948.310456152],[642991.4496362183,4824922.550177379],[643038.9324319465,4824899.118829014],[643058.4940890633,4824880.893253863],[643077.9688888032,4824878.198899821],[643105.4462247834,4824889.646219451],[643144.4653556835,4824890.389672443],[643199.7437865983,4824951.026218982],[643155.7224570581,4824973.477241908],[643157.99391908,4824977.931505066],[643203.2439787171,4824954.853355129],[643247.5530339224,4825013.386231881],[643251.8499570173,4825010.82958331],[643246.0248023362,4825001.065229234],[643205.2951556739,4824949.687704917]]],[[[647560.0143727135,4822502.689269146],[647554.7701243159,4822536.448250664],[647512.3479382643,4822517.198368548],[647446.6141334041,4822511.079410204],[647430.7840441571,4822500.0],[647444.8828940615,4822515.8264017645],[647511.1932484299,4822522.069369268],[647554.0846359471,4822542.327640927],[647588.7664397423,4822681.27410966],[647593.5509504675,4822679.822056932],[647558.9054835715,4822540.954656396],[647568.4891774459,4822500.0],[647560.0143727135,4822502.689269146]]],[[[645858.6019609099,4822892.710468873],[645824.0193044571,4822945.094323656],[645828.1920104318,4822947.849051382],[645862.7746668846,4822895.4651966],[645858.6019609099,4822892.710468873]]],[[[648232.3666240176,4823881.910736251],[648239.5927135815,4823866.1378133],[648229.9729638803,4823850.335214071],[648157.3412636805,4823767.6352791395],[648154.3358690744,4823735.52447188],[648140.4087350133,4823692.285459725],[648104.8343103343,4823613.132307429],[648100.4268959974,4823615.4933874495],[648149.423164223,4823736.532585455],[648152.343211314,4823767.888505197],[648135.2278582534,4823779.723366441],[648101.0667027361,4823773.868619486],[648092.805342113,4823846.310273441],[647956.6710765347,4823890.4441152485],[647965.551599272,4823842.007889598],[647958.822800014,4823748.238850994],[647938.328453366,4823731.141063018],[647943.0981468778,4823698.259870741],[647938.1499358475,4823697.54209111],[647933.1941515381,4823732.413735549],[647953.8824848237,4823749.890300971],[647960.5283062526,4823842.09197288],[647951.360673217,4823890.515709185],[647923.9254621421,4823885.239279743],[647881.7954749151,4823862.681302649],[647853.6176731436,4823867.80329077],[647824.6273457535,4823882.697464577],[647827.6531532445,4823886.677978241],[647855.2368358074,4823872.535236704],[647880.9673832193,4823867.690355752],[647922.2178042261,4823889.950629074],[647953.2650862366,4823895.720846351],[648078.5715429874,4823853.886890577],[648159.3044679628,4823858.324392608],[648203.2244485341,4823894.872003306],[648200.609995124,4823932.698773704],[648216.390667205,4824007.467374421],[648221.2355899622,4824006.231767899],[648205.6032493109,4823932.244409021],[648208.7852393764,4823896.265019075],[648232.3666240176,4823881.910736251]],[[648228.7763078517,4823878.417688425],[648206.8301080497,4823891.289714684],[648161.2053439197,4823853.601002365],[648097.5851607961,4823847.943300716],[648105.0105106853,4823778.46244435],[648135.5161360524,4823784.777829756],[648154.995839853,4823772.601146262],[648225.8337264461,4823853.1457389295],[648234.6176898968,4823867.13956751],[648228.7763078517,4823878.417688425]]],[[[647094.1441373759,4824192.082461746],[647072.0755787393,4824194.104192858],[647012.7247151467,4824120.306563297],[647008.8284390643,4824123.440096876],[647069.1626603999,4824198.270808652],[647115.1561815663,4824201.046478773],[647160.4344497973,4824230.483777794],[647163.2232300064,4824226.333753102],[647126.0582845705,4824200.116356369],[647100.9227258491,4824193.03179338],[647071.5149800372,4824133.665476102],[647008.9287465445,4824032.620044155],[647004.5367021619,4824035.009593515],[647067.2744651636,4824136.317983771],[647094.1441373759,4824192.082461746]]],[[[645780.586436157,4824283.96090532],[645793.9763090726,4824410.42339021],[645782.7762612988,4824414.734137504],[645778.6828065405,4824428.515713768],[645789.0724411842,4824508.3017391125],[645794.0301734561,4824507.652978201],[645786.4769061018,4824418.293426567],[645931.9603007471,4824404.473497624],[645926.9191196939,4824344.195406741],[645921.9365143039,4824344.612112305],[645926.7645931512,4824402.342110985],[645868.0130466516,4824405.924546769],[645854.2469991186,4824281.436947031],[645849.277292342,4824281.98650554],[645863.0162182429,4824406.228841932],[645798.9726004961,4824410.124401294],[645785.5586430823,4824283.434447068],[645780.586436157,4824283.96090532]]],[[[646477.8785559657,4824448.52463184],[646479.9770546037,4824453.062946887],[646561.4852946174,4824415.37386429],[646611.7488521726,4824387.09182168],[646661.1447951762,4824369.144519003],[646659.4373284263,4824364.44509805],[646609.6583271241,4824382.5405338025],[646477.8785559657,4824448.52463184]]],[[[646807.5316782005,4824493.280028387],[646715.9933239013,4824564.68146457],[646719.068523592,4824568.623944355],[646810.6068778911,4824497.2225081725],[646807.5316782005,4824493.280028387]]]]}},{"type":"Feature","properties":{"class":"tertiary","widthMeters":8},"geometry":{"type":"MultiPolygon","coordinates":[[[[640485.3050768509,4825138.629178612],[640606.1458980716,4825332.988441039],[640661.280108537,4825511.674716131],[640656.810993854,4825515.363315535],[640400.0,4825180.844575028],[640400.0,4825194.354228551],[640661.8050474499,4825534.182168585],[640661.8855476355,4825547.537132629],[640642.2132632416,4825593.456246439],[640575.1236525456,4825712.175029251],[640538.8158650248,4825747.583139519],[640400.0,4825843.9761818675],[640400.0,4825853.7157323165],[640543.5692308521,4825754.022013161],[640581.2792116768,4825717.288740162],[640649.3315448778,4825597.108689847],[640665.4446750871,4825562.472513419],[640669.8081146835,4825534.662634232],[640677.7785273531,4825528.020801304],[641060.3117611435,4825550.5036547575],[641128.6993287829,4825551.533249573],[641139.2934324244,4825546.977304113],[641237.0183186909,4825676.032747938],[641258.8759988602,4825721.746564219],[641269.4210382241,4825766.410938237],[641266.6665257292,4825863.389915801],[641296.0849982948,4825955.565248731],[641546.4802224421,4826098.115276542],[641561.8669204271,4826121.524358316],[641558.5143821113,4826143.840975286],[641502.4356222079,4826209.015105814],[641462.4947092975,4826220.478674778],[641321.2515143552,4826195.25936155],[641289.9440157503,4826197.95992007],[641240.9263787739,4826236.2292063795],[641102.5060456893,4826370.35379867],[641061.9789469849,4826394.628410639],[641001.6621433296,4826420.0339532355],[640916.8464688148,4826443.512877782],[640791.8025541322,4826469.074874409],[640722.8240108463,4826505.69487096],[640659.1245794685,4826509.736230103],[640640.4124790675,4826502.28613384],[640619.6403099037,4826479.807246985],[640571.6833474435,4826391.6897898475],[640509.2510900431,4826301.24497128],[640450.095394748,4826163.528505756],[640400.0,4826092.581976875],[640400.0,4826106.577629877],[640449.6633738609,4826179.651145657],[640502.2022007336,4826305.031986875],[640564.8241978734,4826395.809526358],[640624.3739678346,4826498.87273009],[640650.5336065158,4826516.957076739],[640713.6360365028,4826516.108108091],[640808.7488078206,4826472.130497673],[640983.0907889812,4826433.13233675],[641044.7374922225,4826412.007581775],[641107.5457562578,4826376.571740602],[641246.3475834755,4826242.11318679],[641292.655705136,4826205.492809022],[641320.0082434362,4826203.165276341],[641462.5416463531,4826228.495579541],[641485.6422849655,4826224.524624463],[641519.4691831018,4826199.901914352],[641565.618802779,4826147.580561577],[641569.8385818285,4826120.708283114],[641563.3988260067,4826104.035986959],[641534.6016459824,4826081.668010781],[641302.6448451757,4825950.977094241],[641274.5879177778,4825862.243673211],[641277.4182993945,4825766.121771651],[641266.3327478629,4825718.848113674],[641243.7548648103,4825671.69305465],[641143.1791557308,4825539.136715021],[641060.6770641406,4825542.511817045],[640678.639756838,4825520.044401679],[640669.4151044945,4825510.834687802],[640613.5218968741,4825329.871646455],[640503.6077171902,4825149.507269808],[640528.7856248532,4825141.80228538],[640755.849736427,4825129.355397973],[640881.6881201494,4825246.348081422],[640912.757700145,4825256.141341395],[641005.9527855228,4825330.972858575],[641019.7956340843,4825352.059963692],[641020.2307121241,4825372.487171706],[641028.2288981606,4825372.316818757],[641027.5902962176,4825349.639398198],[641012.1223934314,4825325.793345338],[640916.8851003704,4825249.254367395],[640886.5035731584,4825239.953110589],[640758.9556905857,4825121.729884792],[640528.2586040295,4825133.814821685],[640498.9860703638,4825142.91219241],[640475.1988516113,4825121.4241708],[640400.0,4825094.047899203],[640400.0,4825102.580424654],[640485.3050768509,4825138.629178612]],[[640664.8301209426,4825526.7237907145],[640662.7653110549,4825520.725341767],[640667.9433015485,4825518.7036450645],[640670.4861803703,4825524.630165784],[640664.8301209426,4825526.7237907145]]],[[[643985.7642023267,4822819.076506213],[643879.1836457705,4822500.0],[643870.2509134391,4822500.0],[643977.9369971965,4822820.730247381],[643985.7642023267,4822819.076506213]]],[[[642770.766840397,4822558.1765404865],[642769.0591131084,4822595.270461063],[642778.5924492603,4822657.64652364],[642775.0032347467,4822717.421301323],[642802.425933931,4822791.779429006],[642789.8453165113,4822877.327687262],[642753.7944757728,4822944.823817866],[642741.1341899126,4823047.700642077],[642731.6381928549,4823072.243597723],[642719.3752603094,4823086.797530396],[642654.4239947232,4823128.394309335],[642641.6159367881,4823149.061619246],[642628.852622343,4823213.730626505],[642601.9432271662,4823295.954744847],[642597.3852829403,4823420.639490596],[642563.7071820686,4823561.841091795],[642502.8858578997,4823686.884776532],[642456.441580628,4823739.744930739],[642369.4417893767,4823818.237411647],[642319.2198866263,4823843.170734832],[642285.597316468,4823873.721264965],[642274.2529810846,4823908.382146026],[642276.4269016659,4823976.68037695],[642263.4222579617,4824008.098626759],[642213.740174744,4824081.609994372],[642107.0131224145,4824169.644350767],[642089.3644175321,4824209.755031528],[642087.4093373002,4824265.708092959],[642069.1871200369,4824335.236872983],[642069.2368331115,4824356.83747522],[642086.6313411907,4824391.036231619],[642152.6666521641,4824484.828982928],[642185.0074804672,4824558.875402112],[642189.5073099338,4824584.688260479],[642186.2478364498,4824640.38872188],[642164.7089764467,4824740.704720134],[642169.9329167554,4824882.078826619],[642180.5838420353,4824901.611294143],[642261.2472555268,4824946.498999763],[642280.3002917258,4824966.459637297],[642284.4526296679,4825071.187949571],[642270.239459686,4825157.786503297],[642003.6232541816,4825103.296600375],[641733.7535044296,4825038.46515596],[641732.0566658749,4825046.283131332],[642273.2712116805,4825166.39323988],[642846.2761453195,4825158.050421155],[642877.8983065848,4825147.414452531],[642990.1416489132,4825062.239536158],[643019.0734879953,4825048.070506989],[643042.1133193817,4825045.191684293],[643140.0358434273,4825068.51725761],[643236.5636806986,4825020.274209864],[643376.4741939966,4824999.866448526],[643448.0967796333,4824974.124739689],[643459.8900620181,4824965.760610875],[643479.12552456,4824931.692137548],[643603.9499743066,4824933.386385799],[643720.9238226512,4824914.191983362],[643907.6571195317,4824854.354541711],[643943.8934987175,4824850.820798781],[644129.0561178005,4824870.412047851],[644405.3979045978,4824838.2748815],[644557.378663503,4824846.224051855],[644884.7572344698,4824822.625562842],[644972.5066708267,4824784.001979724],[645013.785968203,4824759.253042376],[645029.242008316,4824717.180686594],[645033.2624487826,4824655.300055008],[645042.0675185398,4824640.406792414],[645057.7168008729,4824631.349457595],[645083.8702173713,4824634.920168101],[645130.0574385064,4824679.666767443],[645167.0022661979,4824700.033396446],[645192.0085244543,4824700.483395766],[645263.3497108418,4824678.083180071],[645291.361466883,4824677.482795348],[645414.1968826863,4824728.750247237],[645439.9998427175,4824730.113421012],[645721.4468186616,4824661.982055145],[645916.7189111627,4824643.003443056],[645970.4703530427,4824640.076724892],[646209.3638926377,4824661.558041348],[646312.1943297529,4824652.260136205],[646325.8390121214,4824659.713665162],[646389.8950124129,4824731.892173365],[646417.6594346631,4824745.397183697],[646459.3854671082,4824750.122749078],[646553.1401888395,4824740.640836437],[646726.368280224,4824652.05694264],[646760.2075307745,4824646.48795443],[646946.2270975722,4824719.934802102],[647033.6873628369,4824777.915122034],[647056.8211786259,4824767.613452076],[647205.2498060139,4824650.3953002915],[647219.0447957304,4824630.659093492],[647221.6533322238,4824617.567937252],[647214.1715035366,4824595.535460314],[647116.1547384893,4824449.185957955],[647098.6649898115,4824374.177805091],[647176.9218650949,4824205.199522394],[647188.0044499121,4824186.994353491],[647208.5043453698,4824171.179790275],[647482.5689273933,4824070.14317721],[647616.0216778406,4824053.833936715],[647785.7052204114,4823994.689201663],[647807.6106130827,4823991.223537138],[647842.5929662155,4824005.974700622],[647878.9165317081,4824002.898558183],[647902.7222900417,4823995.935593681],[647934.9482026427,4823970.2583521325],[647963.2678686095,4823958.205484969],[647983.9864510222,4823960.0729529075],[648015.0125566084,4823983.543750665],[648079.9607856179,4823991.84088494],[648158.2307690613,4824016.972373361],[648190.7344623724,4824016.907577085],[648250.9459351159,4823996.536230555],[648302.0388687514,4823960.125733282],[648381.5957177385,4823957.095993934],[648475.0125269013,4823927.067792109],[648603.8998124386,4823930.970854958],[648693.7725309557,4823923.5712461695],[648733.2366311826,4823911.453092182],[648877.6062976911,4823838.730930679],[648920.389245228,4823834.1199947],[649000.0,4823838.936313575],[649000.0,4823830.936078975],[648876.140440163,4823830.844623314],[648730.0076405687,4823904.126958668],[648692.2335902635,4823915.715724942],[648603.6923802795,4823922.97167811],[648473.4241780492,4823919.188875158],[648380.3089313584,4823949.196619879],[648299.821525714,4823952.374576149],[648247.1181128527,4823989.490167532],[648189.6691256793,4824008.976502881],[648159.6374825478,4824009.094696015],[648081.6957403643,4823984.02983812],[648017.0617776981,4823975.806554118],[647975.8015067839,4823949.652959836],[647942.5673223941,4823956.959013756],[647898.8816785493,4823988.81260015],[647877.3940476873,4823995.028028357],[647843.1047784752,4823997.961015776],[647825.1683253357,4823991.1993545685],[647830.1402006607,4823884.7074876465],[647827.2252383634,4823731.3529956285],[647774.4504062006,4823673.989627083],[647705.6175175831,4823640.020772798],[647661.191109803,4823530.679265275],[647657.1348789106,4823352.34470746],[647628.9220088632,4823299.125760898],[647593.6059886401,4823060.601014038],[647627.1100732525,4822929.406706147],[647668.7851196352,4822873.1461156355],[647628.5625874463,4822797.406213189],[647624.7546330123,4822744.158511055],[647606.0122200613,4822678.345601187],[647598.5197676326,4822681.149733246],[647616.8543214176,4822745.45947002],[647620.7955902282,4822799.431781198],[647660.6364570041,4822873.183148251],[647619.9244422157,4822925.822977151],[647585.6030255425,4823059.969313013],[647621.1021988153,4823300.881895757],[647649.1920511242,4823353.941485248],[647653.2810311835,4823531.901212029],[647699.1279164123,4823644.780456827],[647720.6718501364,4823660.574571048],[647769.6360439893,4823680.394043935],[647819.9096728804,4823734.769360225],[647820.3957492397,4823977.409896355],[647818.4311750436,4823986.785973865],[647807.1127552484,4823983.202799986],[647749.4142407982,4823995.171428324],[647614.4598706999,4824045.965090006],[647509.8655130693,4824055.5315632075],[647408.231058726,4824088.823611396],[647369.8514960668,4824010.469942272],[647369.4502145349,4823928.019468544],[647364.098385072,4823901.199546691],[647354.4495809259,4823887.2257780675],[647303.5043986195,4823876.024256757],[647247.9504689007,4823838.592302218],[647199.3405680858,4823840.137744092],[647166.6429852702,4823811.103432107],[647067.7824532067,4823757.081317307],[646971.8465507304,4823685.201957208],[646952.3497153327,4823664.307169058],[646894.8426838614,4823542.742264732],[646854.681091194,4823490.093086098],[646817.0719783782,4823461.897846065],[646777.9552572927,4823380.770103972],[646737.5028184756,4823329.051476117],[646678.9464742092,4823149.569896792],[646667.2223703904,4823064.151013094],[646652.0382603229,4823016.202876895],[646632.9577631347,4822989.746641672],[646604.6704345569,4822971.762090982],[646496.458167742,4822864.417223777],[646435.7222752154,4822817.131330003],[646431.0235430053,4822823.606043558],[646490.8975214761,4822870.172846016],[646567.619838532,4822948.955529033],[646627.4194098568,4822995.622567568],[646644.9395861139,4823019.995321054],[646659.3389540883,4823065.662751131],[646671.162294726,4823151.434323916],[646730.2888948146,4823332.689014901],[646771.185833439,4823385.041905258],[646811.0275637357,4823467.2304597115],[646849.2654847624,4823496.0303445505],[646888.0283766207,4823546.936182104],[646956.172798429,4823681.729927541],[647063.0447643594,4823763.532041399],[647162.4187599035,4823817.898250035],[647195.5030099109,4823847.187139906],[647245.5309406774,4823846.262334263],[647284.7470636312,4823876.104806609],[647343.0381895805,4823890.950025929],[647356.6496843124,4823904.176761717],[647361.4858184048,4823928.831566063],[647359.4776242744,4824001.968718647],[647400.718336909,4824091.594320754],[647191.6429893438,4824172.861707382],[647169.7519994408,4824201.643363934],[647095.5989076563,4824357.336322727],[647060.6752547277,4824333.374686257],[646918.270922147,4824338.8611455],[646878.8271780055,4824331.9484796915],[646770.2141704513,4824285.341778089],[646715.566576785,4824252.6985775875],[646600.543156842,4824234.150319562],[646565.0245369533,4824173.392560169],[646518.9161232753,4824127.17323457],[646441.7471642668,4823971.464886505],[646446.6611213179,4823920.956552905],[646400.5627764668,4823860.712092067],[646278.1945089732,4823533.915996171],[646246.9223421644,4823432.649905619],[646229.2080370308,4823343.585968205],[646156.321160072,4823260.475587057],[646129.5195148805,4823207.363503876],[646126.9372610997,4823176.701258413],[646133.2921098013,4823131.187825992],[646129.1206412108,4823119.831937196],[646055.2774565538,4823016.402872182],[645970.0772507851,4822942.2062096335],[645940.5875440938,4822926.458906965],[645899.3771541407,4822878.274197137],[645893.2953077368,4822883.471421812],[645935.2582324559,4822932.508933459],[645965.3132901933,4822948.645427692],[646049.3361116402,4823021.787077063],[646121.9614533106,4823123.409108736],[646121.8201565822,4823209.675101856],[646149.7154749607,4823265.02077865],[646221.7169575699,4823346.80569095],[646239.1576532392,4823434.577550575],[646270.5808593199,4823536.376408603],[646393.2924808941,4823864.118064913],[646439.05223177,4823923.62437773],[646433.856621317,4823973.509236804],[646512.1395294864,4824131.466215305],[646558.7902816497,4824178.4297701055],[646608.121819317,4824262.314018304],[646642.4937121144,4824304.815619025],[646678.0476668708,4824504.431482377],[646736.4127531705,4824605.500904447],[646745.7438278261,4824638.696641286],[646702.9249698482,4824654.687201139],[646567.4886745926,4824727.047599228],[646506.2647609242,4824740.0676781805],[646459.6606386993,4824742.115196184],[646406.1185378267,4824731.8053247295],[646384.2025157628,4824715.712132588],[646331.3074104112,4824653.838534087],[646313.7247305412,4824644.373875782],[646209.6855207027,4824653.551358786],[645970.7451057769,4824632.077922106],[645723.9984924395,4824657.299806942],[645439.8258446555,4824722.097624649],[645416.4704356445,4824721.052307311],[645306.6224407,4824673.2684272835],[645230.0258450347,4824547.076555972],[645193.8284215633,4824511.668009851],[645167.9275755688,4824447.518108291],[645090.8144483136,4824364.258831565],[645000.6516769405,4824154.537671242],[644991.8308188367,4824100.985826437],[644994.1079920883,4824025.494276738],[644957.9214404847,4823948.4228367545],[644969.0931667289,4823897.6200169],[644969.9966166506,4823841.218277058],[645010.9930713715,4823759.516734706],[644981.6424195372,4823709.698388134],[644975.1892729384,4823685.418154462],[644959.7762042949,4823614.536980158],[644955.1436806372,4823535.98469446],[644948.9673098751,4823520.9271793105],[645024.1032473906,4823502.108225843],[645117.1140463136,4823420.931825652],[645144.9701337306,4823388.529598587],[645129.3317065628,4823315.265272935],[645133.3750925555,4823273.964854862],[645155.5971304987,4823222.785294547],[645203.8044643048,4823187.241276401],[645212.555855557,4823169.268444835],[645218.2367845598,4823098.424719607],[645206.2354956031,4823029.436278582],[645205.1236960555,4822943.557381657],[645197.1243663805,4822943.660942036],[645198.2667015453,4823030.343195111],[645210.2168348604,4823098.635188866],[645204.6464169325,4823168.052641569],[645198.1921006424,4823181.533561956],[645149.1883923061,4823217.994677228],[645125.708608231,4823271.670132616],[645121.3755244021,4823316.128296],[645137.401455857,4823385.441433814],[645111.68657828,4823415.053602988],[645019.8528694562,4823495.31177888],[644952.0142020433,4823513.198083118],[644940.0464332188,4823511.9686364],[644936.8757186783,4823505.889821993],[644927.3677828698,4823462.522377232],[644922.2326038659,4823386.1488176435],[644908.5190124364,4823364.11930248],[644888.110392458,4823343.348708874],[644869.2060208874,4823337.052535423],[644827.1955364745,4823342.403044812],[644815.6052817211,4823310.402079437],[644791.1543481734,4823286.520552746],[644751.8780287766,4823230.892294973],[644695.3107377292,4823205.79069109],[644704.8289284166,4823128.488208834],[644696.2983177593,4823094.38697359],[644625.2548516304,4823001.566392034],[644573.4665528435,4822886.273055053],[644566.2099504884,4822889.64080241],[644618.2019591018,4823005.377801325],[644688.8944599113,4823097.500018807],[644696.8194015769,4823128.86116985],[644688.5081971271,4823210.046594048],[644746.2298986128,4823236.5654396005],[644785.0264535034,4823291.670473637],[644808.8566289685,4823314.871110571],[644822.5523966281,4823348.97776374],[644832.468125923,4823352.9645396145],[644867.7826155908,4823344.983743519],[644883.6701031829,4823350.143012813],[644914.4578967656,4823388.212866886],[644919.4882789004,4823463.934893979],[644929.3945694476,4823508.813223519],[644947.1621933617,4823536.91382489],[644951.8167517746,4823615.378384017],[644967.4185158943,4823687.320284454],[644974.2765359586,4823712.899973864],[645002.7463383389,4823759.411146694],[644964.1521392787,4823834.544529489],[644900.9015422956,4823785.977387819],[644805.4069271252,4823668.4643770885],[644679.911652298,4823580.095553744],[644643.5231355433,4823542.245489238],[644631.0203773762,4823502.012613568],[644631.9527658732,4823455.258869042],[644620.3714646137,4823430.235522645],[644491.4869096354,4823381.4084365275],[644452.0987719503,4823335.825630946],[644448.2519620978,4823298.934980078],[644485.4066467047,4823085.54780879],[644529.2050395162,4822964.9054309605],[644516.9748102332,4822881.2987728175],[644509.1375718886,4822882.904293023],[644521.2661499422,4822963.548803925],[644477.5746145339,4823083.901992537],[644440.3037305885,4823298.007780547],[644444.7583550342,4823339.166966529],[644487.3827485106,4823388.338132329],[644614.903472412,4823436.312738122],[644624.000017243,4823456.440706892],[644623.0820757422,4823503.347581429],[644636.8557588912,4823546.828571075],[644674.7028418249,4823586.192925205],[644799.9636023536,4823674.34844844],[644895.1596836774,4823791.573921049],[644962.0759512763,4823842.756505878],[644961.1502841203,4823896.555010493],[644949.8140984883,4823948.812687599],[644986.2411318574,4824027.018057298],[644983.8390444734,4824101.397641917],[644993.1688346226,4824157.373521104],[645084.0155127945,4824368.48186314],[645161.5107465681,4824452.31964897],[645187.0727950955,4824516.05652058],[645223.6127091463,4824551.912528747],[645285.0251007362,4824654.892041057],[645269.1202486516,4824668.698675968],[645217.7715681171,4824685.31035098],[645168.9130131329,4824692.205780829],[645135.1147373738,4824673.459809348],[645087.9579990918,4824628.005174465],[645074.4003991071,4824622.725142562],[645050.7288487145,4824625.040506603],[645036.1259713522,4824635.039414534],[645025.5302076709,4824653.138809609],[645021.3907278336,4824715.643442703],[645007.9641144256,4824753.646293699],[644906.4361108638,4824807.417385382],[644862.7066349048,4824819.135668266],[644521.483311179,4824839.371165667],[644404.9439835914,4824830.283093013],[644132.4945652534,4824862.266108269],[644011.9370972218,4823669.706097954],[643947.9362232509,4823272.627513624],[643943.9744866124,4823181.33062186],[643949.1361063214,4823072.694434247],[643985.5206796576,4822887.551940193],[643988.2859241,4822852.629546333],[643980.3148489319,4822851.949869452],[643941.1631456082,4823072.022022435],[643935.9737139192,4823181.232083925],[643939.9518050501,4823273.160085295],[644003.9898109467,4823670.623278065],[644124.4630268092,4824862.358388697],[643943.5170391636,4824842.819708088],[643905.9881744633,4824846.504449988],[643719.306871882,4824906.353942294],[643646.9123671947,4824919.203260091],[643603.6051985491,4824925.3894617995],[643479.8093478963,4824923.349997064],[643477.5404690942,4824914.313894004],[643544.4076455622,4824764.174996415],[643558.8231157133,4824745.695592632],[643600.5694654823,4824717.69950575],[643606.2565615327,4824706.816299833],[643605.417782681,4824634.178551083],[643595.956165288,4824578.8667143155],[643617.2394090364,4824516.355196943],[643623.835223048,4824467.325811951],[643597.4562834693,4824380.081436915],[643547.1482545102,4824308.426007166],[643633.604521136,4824219.18619859],[643644.6015932139,4824156.352489138],[643632.4823137954,4824088.419551472],[643581.7444532522,4823918.178129391],[643582.504125349,4823843.476892429],[643540.2834944301,4823754.510271508],[643521.4502789174,4823656.518899107],[643518.5868252034,4823444.797274101],[643546.1610895682,4823334.167507826],[643526.7232442979,4823152.68873102],[643525.4214336192,4823087.684598655],[643569.0845144381,4822929.603871783],[643556.1984513334,4822864.730061358],[643557.2260944878,4822798.6693877885],[643549.232733753,4822798.343528672],[643548.2252247776,4822865.405573534],[643561.0823232618,4822929.0289062],[643517.4030056022,4823087.047385612],[643538.1432606975,4823333.985124172],[643510.6031210308,4823444.090918179],[643513.4526682365,4823656.831405905],[643532.6985284856,4823757.065776245],[643574.6334844418,4823845.199616817],[643573.8607104862,4823919.665429573],[643624.7499205697,4824090.48350731],[643636.562371792,4824156.427022508],[643626.6653742429,4824215.0478790235],[643538.3248246922,4824307.41532578],[643590.2563164098,4824383.664708729],[643615.8453230237,4824468.118074564],[643609.4810490552,4824514.403425741],[643587.9806829905,4824578.052629457],[643597.4408038316,4824634.863403815],[643594.6520268258,4824712.128866329],[643553.6716113768,4824739.567923691],[643537.4136725233,4824760.283296662],[643469.5351903824,4824912.649742614],[643472.515302018,4824927.153400515],[643453.7027666176,4824960.635706746],[643374.4737699077,4824992.108332211],[643248.5410893536,4825008.279924099],[643138.6509074317,4825060.617250518],[643043.2323609535,4825037.223436413],[643016.6629274272,4825040.41577017],[642985.6494938197,4825055.61332609],[642873.7443741679,4825140.513558299],[642845.1094542007,4825150.0913791675],[642278.196271189,4825158.701789626],[642294.5156478593,4825031.769036553],[642287.8430480072,4824963.709527612],[642265.5543038999,4824939.73366353],[642185.6377768163,4824895.390326967],[642177.8249000425,4824880.720309879],[642172.7056306847,4824741.430980543],[642194.1989538294,4824641.308675641],[642197.5104266828,4824584.140528949],[642192.69595964,4824556.562697825],[642159.6560747866,4824480.928285068],[642077.0568361889,4824355.137050308],[642095.3768956927,4824266.520576016],[642097.22995281,4824211.270707035],[642113.0977466742,4824174.921992465],[642219.3665120476,4824087.307082292],[642251.2583546502,4824044.725249837],[642284.2302013923,4823978.457499197],[642282.2611292262,4823909.390974962],[642292.3183674801,4823878.30742337],[642323.5437951707,4823849.949394395],[642374.1243251099,4823824.737082549],[642462.3606199337,4823745.128598923],[642509.7175650992,4823691.121047718],[642571.177273898,4823564.739286884],[642605.341364917,4823421.604581556],[642609.8212921377,4823297.547546245],[642636.5314365999,4823215.987980835],[642649.2779282231,4823151.377681997],[642659.5459085038,4823134.553789279],[642724.069064867,4823093.279210617],[642738.6947504715,4823076.019716242],[642761.4807171131,4822947.128530145],[642797.5710525373,4822879.51508762],[642810.4365562474,4822791.263373368],[642782.8987964567,4822715.845511533],[642786.6116865043,4822657.49091013],[642776.0848821028,4822576.129490644],[642778.1896728673,4822561.592829914],[642793.2188608974,4822544.418421597],[642843.0489918572,4822500.0],[642831.5588958124,4822500.0],[642770.766840397,4822558.1765404865]],[[645289.5335685569,4824661.766940786],[645295.7545588718,4824670.331791154],[645282.3719364643,4824668.622629179],[645289.5335685569,4824661.766940786]],[[646712.6630285867,4824260.167739019],[646766.7325036847,4824292.548017765],[646876.5174421637,4824339.623858589],[646918.0747061922,4824346.862348633],[647058.810722655,4824341.226877342],[647092.7271784235,4824364.919312385],[647091.1439103315,4824388.710568242],[647108.8027195809,4824452.388738925],[647207.1173643604,4824599.317189997],[647213.5859722039,4824617.978719637],[647205.2112890148,4824638.692342147],[647052.0558467971,4824761.182902362],[647033.3672730844,4824769.85124732],[646949.5603683873,4824712.6484425245],[646921.1296748605,4824706.521865821],[646773.51523297,4824641.607372497],[646753.764293453,4824638.159216831],[646743.6722353927,4824602.126527437],[646685.809873028,4824502.419386108],[646650.0360166794,4824301.988911304],[646605.857282872,4824243.0646639485],[646712.6630285867,4824260.167739019]]]]}}]}
