{"type":"FeatureCollection","name":"barreiros-anguieira-buildings","crs":{"type":"name","properties":{"name":"EPSG:25829"}},"source":"Direcci\u00f3n General del Catastro, INSPIRE BU","features":[{"type":"Feature","properties":{"id":"C01000200PJ42E_part2","floors":1,"height":3.1,"heightSource":"Catastro:numberOfFloorsAboveGround"},"geometry":{"type":"Polygon","coordinates":[[[642131.4398,4824999.1747],[642130.5105,4825003.7915],[642130.42285,4825004.2274],[642135.6342,4825006.09145],[642136.19795,4825000.8766],[642131.4398,4824999.1747]]]}},{"type":"Feature","properties":{"id":"C01000200PJ42E_part4","floors":2,"height":6.2,"heightSource":"Catastro:numberOfFloorsAboveGround"},"geometry":{"type":"Polygon","coordinates":[[[642138.29075,4824984.08635],[642136.05565,4824992.33905],[642139.2408,4824993.2017],[642140.0,4824990.398634557],[642140.0,4824984.549286967],[642138.29075,4824984.08635]]]}},{"type":"Feature","properties":{"id":"C01000400PJ42E_part4","floors":2,"height":6.2,"heightSource":"Catastro:numberOfFloorsAboveGround"},"geometry":{"type":"Polygon","coordinates":[[[642131.91,4824960.07],[642135.1,4824960.58],[642135.39,4824958.76],[642132.2,4824958.25],[642131.91,4824960.07]]]}},{"type":"Feature","properties":{"id":"C01000400PJ42E_part5","floors":1,"height":3.1,"heightSource":"Catastro:numberOfFloorsAboveGround"},"geometry":{"type":"Polygon","coordinates":[[[642132.59,4824955.83],[642130.17,4824955.44],[642129.78,4824957.86],[642132.2,4824958.25],[642132.59,4824955.83]]]}},{"type":"Feature","properties":{"id":"C01000400PJ42E_part6","floors":2,"height":6.2,"heightSource":"Catastro:numberOfFloorsAboveGround"},"geometry":{"type":"Polygon","coordinates":[[[642127.2,4824959.32],[642131.91,4824960.07],[642132.2,4824958.25],[642129.78,4824957.86],[642127.49,4824957.5],[642127.2,4824959.32]]]}},{"type":"Feature","properties":{"id":"C01000400PJ42E_part8","floors":2,"height":6.2,"heightSource":"Catastro:numberOfFloorsAboveGround"},"geometry":{"type":"Polygon","coordinates":[[[642125.68,4824968.85],[642133.58,4824970.11],[642133.83,4824968.53],[642125.93,4824967.27],[642125.68,4824968.85]]]}},{"type":"Feature","properties":{"id":"C01000400PJ42E_part9","floors":2,"height":6.2,"heightSource":"Catastro:numberOfFloorsAboveGround"},"geometry":{"type":"Polygon","coordinates":[[[642124.87,4824967.1],[642125.93,4824967.27],[642133.83,4824968.53],[642134.89,4824968.7],[642136.16,4824960.75],[642135.1,4824960.58],[642131.91,4824960.07],[642127.2,4824959.32],[642126.13,4824959.15],[642124.87,4824967.1]]]}},{"type":"Feature","properties":{"id":"C01000500PJ42E_part1","floors":2,"height":6.2,"heightSource":"Catastro:numberOfFloorsAboveGround"},"geometry":{"type":"Polygon","coordinates":[[[641990.35525,4825013.9871],[641983.3642,4825017.8762],[641986.6699,4825023.8186],[641990.6024,4825021.631],[641991.18575,4825022.67965],[642000.79845,4825017.3322],[641996.42325,4825009.46725],[641989.86915,4825013.11325],[641990.35525,4825013.9871]]]}},{"type":"Feature","properties":{"id":"C01000900PJ42E_part1","floors":1,"height":3.1,"heightSource":"Catastro:numberOfFloorsAboveGround"},"geometry":{"type":"Polygon","coordinates":[[[641931.2805,4824712.3015],[641931.3655,4824717.851],[641944.61,4824717.6485],[641944.55,4824713.65],[641944.53,4824712.099],[641931.2805,4824712.3015]]]}},{"type":"Feature","properties":{"id":"C01000900PJ42E_part2","floors":1,"height":3.1,"heightSource":"Catastro:numberOfFloorsAboveGround"},"geometry":{"type":"Polygon","coordinates":[[[641948.1755,4824721.6575],[641948.2275,4824725.044],[641953.78,4824724.9595],[641957.3265,4824724.905],[641957.314,4824724.0865],[641957.278,4824721.7435],[641957.1515,4824713.4565],[641948.0525,4824713.5955],[641948.1135,4824717.595],[641948.1755,4824721.6575]]]}},{"type":"Feature","properties":{"id":"C01000900PJ42E_part3","floors":2,"height":6.2,"heightSource":"Catastro:numberOfFloorsAboveGround"},"geometry":{"type":"Polygon","coordinates":[[[641944.55,4824713.65],[641944.61,4824717.6485],[641948.1135,4824717.595],[641948.0525,4824713.5955],[641946.7025,4824713.616],[641944.55,4824713.65]]]}},{"type":"Feature","properties":{"id":"C01000900PJ42E_part4","floors":1,"height":3.1,"heightSource":"Catastro:numberOfFloorsAboveGround"},"geometry":{"type":"Polygon","coordinates":[[[641946.679,4824712.0665],[641944.53,4824712.099],[641944.55,4824713.65],[641946.7025,4824713.616],[641946.679,4824712.0665]]]}},{"type":"Feature","properties":{"id":"1953101PJ4215S_part1","floors":2,"height":6.2,"heightSource":"Catastro:numberOfFloorsAboveGround"},"geometry":{"type":"Polygon","coordinates":[[[641799.155,4825135.6285],[641785.795,4825132.678],[641782.355,4825148.248],[641795.715,4825151.2385],[641799.155,4825135.6285]]]}},{"type":"Feature","properties":{"id":"1953102PJ4215S_part1","floors":2,"height":6.2,"heightSource":"Catastro:numberOfFloorsAboveGround"},"geometry":{"type":"Polygon","coordinates":[[[641762.78,4825131.93],[641753.01,4825129.75],[641753.5,4825127.35],[641749.5,4825126.46],[641747.97,4825133.35],[641751.74,4825134.18],[641751.48,4825135.35],[641761.5,4825137.58],[641762.78,4825131.93]]]}},{"type":"Feature","properties":{"id":"1953103PJ4215S_part1","floors":1,"height":3.1,"heightSource":"Catastro:numberOfFloorsAboveGround"},"geometry":{"type":"Polygon","coordinates":[[[641769.35,4825130.47],[641768.15,4825136.07],[641770.98,4825136.68],[641772.17,4825131.13],[641769.35,4825130.47]]]}},{"type":"Feature","properties":{"id":"1953103PJ4215S_part2","floors":2,"height":6.2,"heightSource":"Catastro:numberOfFloorsAboveGround"},"geometry":{"type":"Polygon","coordinates":[[[641777.24,4825144.18],[641777.7,4825142.03],[641773.92,4825141.21],[641777.24,4825144.18]]]}},{"type":"Feature","properties":{"id":"1953103PJ4215S_part3","floors":2,"height":6.2,"heightSource":"Catastro:numberOfFloorsAboveGround"},"geometry":{"type":"Polygon","coordinates":[[[641773.92,4825141.21],[641774.37,4825139.1],[641770.63,4825138.28],[641773.92,4825141.21]]]}},{"type":"Feature","properties":{"id":"1953103PJ4215S_part4","floors":2,"height":6.2,"heightSource":"Catastro:numberOfFloorsAboveGround"},"geometry":{"type":"Polygon","coordinates":[[[641770.63,4825138.28],[641774.37,4825139.1],[641773.92,4825141.21],[641777.7,4825142.03],[641779.67,4825132.9],[641772.17,4825131.13],[641770.98,4825136.68],[641770.63,4825138.28]]]}},{"type":"Feature","properties":{"id":"1953103PJ4215S_part5","floors":1,"height":3.1,"heightSource":"Catastro:numberOfFloorsAboveGround"},"geometry":{"type":"Polygon","coordinates":[[[641770.63,4825138.28],[641770.98,4825136.68],[641768.15,4825136.07],[641770.63,4825138.28]]]}},{"type":"Feature","properties":{"id":"2052101PJ4225S_part1","floors":2,"height":6.2,"heightSource":"Catastro:numberOfFloorsAboveGround"},"geometry":{"type":"Polygon","coordinates":[[[641908.29,4825046.93],[641909.03,4825047.91],[641911.9,4825045.73],[641911.15,4825044.74],[641908.29,4825046.93]]]}},{"type":"Feature","properties":{"id":"2052101PJ4225S_part2","floors":2,"height":6.2,"heightSource":"Catastro:numberOfFloorsAboveGround"},"geometry":{"type":"Polygon","coordinates":[[[641919.94,4825045.97],[641922.78,4825049.71],[641923.7,4825049.01],[641920.85,4825045.27],[641919.94,4825045.97]]]}},{"type":"Feature","properties":{"id":"2052101PJ4225S_part3","floors":2,"height":6.2,"heightSource":"Catastro:numberOfFloorsAboveGround"},"geometry":{"type":"Polygon","coordinates":[[[641917.04,4825040.27],[641913.61,4825042.87],[641914.37,4825043.85],[641916.87,4825041.95],[641918.42,4825043.98],[641919.34,4825043.29],[641917.04,4825040.27]]]}},{"type":"Feature","properties":{"id":"2052101PJ4225S_part4","floors":2,"height":6.2,"heightSource":"Catastro:numberOfFloorsAboveGround"},"geometry":{"type":"Polygon","coordinates":[[[641916.8,4825050.35],[641914.58,4825050.05],[641912.1,4825051.94],[641912.77,4825052.81],[641917.81,4825053.5],[641918.69,4825052.83],[641916.8,4825050.35]]]}},{"type":"Feature","properties":{"id":"2052101PJ4225S_part5","floors":3,"height":9.3,"heightSource":"Catastro:numberOfFloorsAboveGround"},"geometry":{"type":"Polygon","coordinates":[[[641911.9,4825045.73],[641909.03,4825047.91],[641912.1,4825051.94],[641914.58,4825050.05],[641916.8,4825050.35],[641918.69,4825052.83],[641922.78,4825049.71],[641919.94,4825045.97],[641920.85,4825045.27],[641919.34,4825043.29],[641918.42,4825043.98],[641916.87,4825041.95],[641914.37,4825043.85],[641913.61,4825042.87],[641911.15,4825044.74],[641911.9,4825045.73]]]}},{"type":"Feature","properties":{"id":"2052103PJ4225S_part1","floors":2,"height":6.2,"heightSource":"Catastro:numberOfFloorsAboveGround"},"geometry":{"type":"Polygon","coordinates":[[[641929.9775,4825013.3895],[641933.438,4825015.8695],[641933.838,4825015.3095],[641938.448,4825018.5595],[641937.318,4825020.1695],[641941.548,4825023.1595],[641948.218,4825013.7195],[641935.838,4825004.9795],[641929.9775,4825013.3895]]]}},{"type":"Feature","properties":{"id":"2052105PJ4225S_part1","floors":3,"height":9.3,"heightSource":"Catastro:numberOfFloorsAboveGround"},"geometry":{"type":"Polygon","coordinates":[[[641885.4875,4824946.559],[641889.3775,4824948.039],[641892.2175,4824949.119],[641898.4375,4824932.749],[641886.9675,4824928.519],[641885.5275,4824932.599],[641883.8175,4824937.469],[641881.1975,4824944.929],[641882.6375,4824945.479],[641885.4875,4824946.559]]]}},{"type":"Feature","properties":{"id":"2052701PJ4225S_part1","floors":3,"height":9.3,"heightSource":"Catastro:numberOfFloorsAboveGround"},"geometry":{"type":"Polygon","coordinates":[[[641847.2465,4824986.4185],[641848.447,4824980.6785],[641837.5665,4824978.3985],[641835.8865,4824986.4185],[641835.6665,4824987.4685],[641835.5665,4824987.9585],[641846.4465,4824990.2385],[641846.8365,4824988.3685],[641847.2465,4824986.4185]]]}},{"type":"Feature","properties":{"id":"2052801PJ4225S_part1","floors":3,"height":9.3,"heightSource":"Catastro:numberOfFloorsAboveGround"},"geometry":{"type":"Polygon","coordinates":[[[641890.487,4825055.879],[641888.637,4825056.339],[641887.207,4825049.969],[641875.1365,4825052.739],[641874.6965,4825052.849],[641875.1365,4825054.489],[641878.1865,4825065.909],[641880.7065,4825065.369],[641880.8465,4825066.009],[641892.507,4825063.479],[641891.327,4825059.059],[641890.837,4825057.229],[641890.487,4825055.879]]]}},{"type":"Feature","properties":{"id":"2052802PJ4225S_part1","floors":1,"height":3.1,"heightSource":"Catastro:numberOfFloorsAboveGround"},"geometry":{"type":"Polygon","coordinates":[[[641863.0125,4825030.4715],[641862.4,4825030.7995],[641858.4995,4825032.886],[641858.766,4825033.36],[641861.9285,4825039.6875],[641866.6265,4825037.149],[641863.6065,4825031.569],[641863.2825,4825030.9705],[641863.0125,4825030.4715]]]}},{"type":"Feature","properties":{"id":"2052802PJ4225S_part2","floors":1,"height":3.1,"heightSource":"Catastro:numberOfFloorsAboveGround"},"geometry":{"type":"Polygon","coordinates":[[[641875.137,4825029.509],[641874.777,4825029.709],[641866.1265,4825034.579],[641873.9465,4825048.629],[641875.1365,4825047.959],[641883.637,4825043.229],[641875.747,4825029.069],[641875.137,4825029.509]]]}},{"type":"Feature","properties":{"id":"2052803PJ4225S_part1","floors":1,"height":3.1,"heightSource":"Catastro:numberOfFloorsAboveGround"},"geometry":{"type":"Polygon","coordinates":[[[641854.53,4825021.96],[641856.45,4825025.41],[641862.26,4825022.18],[641864.96,4825027.03],[641871.47,4825023.41],[641867.57,4825016.41],[641863.86,4825018.48],[641863.14,4825017.18],[641854.53,4825021.96]]]}},{"type":"Feature","properties":{"id":"2052803PJ4225S_part2","floors":1,"height":3.1,"heightSource":"Catastro:numberOfFloorsAboveGround"},"geometry":{"type":"Polygon","coordinates":[[[641859.28,4825025.16],[641855.6,4825027.07],[641855.9095,4825027.6905],[641858.4995,4825032.886],[641862.112,4825030.9535],[641859.28,4825025.16]]]}},{"type":"Feature","properties":{"id":"2052804PJ4225S_part1","floors":1,"height":3.1,"heightSource":"Catastro:numberOfFloorsAboveGround"},"geometry":{"type":"Polygon","coordinates":[[[641855.762,4825027.3945],[641854.102,4825024.065],[641853.6725,4825024.2875],[641852.9695,4825024.6515],[641848.4365,4825026.9885],[641847.4465,4825027.5085],[641848.3165,4825029.1885],[641849.1765,4825030.8285],[641854.826,4825027.901],[641855.495,4825027.5335],[641855.762,4825027.3945]]]}},{"type":"Feature","properties":{"id":"2052804PJ4225S_part2","floors":1,"height":3.1,"heightSource":"Catastro:numberOfFloorsAboveGround"},"geometry":{"type":"Polygon","coordinates":[[[641835.8365,4825010.7185],[641834.1765,4825007.7585],[641833.6465,4825006.8285],[641825.1765,4825011.6085],[641830.6365,4825021.2985],[641833.9965,4825019.3385],[641839.0565,4825016.4185],[641838.6965,4825015.7885],[641835.8365,4825010.7185]]]}},{"type":"Feature","properties":{"id":"2052805PJ4225S_part1","floors":3,"height":9.3,"heightSource":"Catastro:numberOfFloorsAboveGround"},"geometry":{"type":"Polygon","coordinates":[[[641821.436,4825021.9685],[641816.826,4825013.5485],[641806.016,4825019.4485],[641810.626,4825027.8785],[641821.436,4825021.9685]]]}},{"type":"Feature","properties":{"id":"2052806PJ4225S_part1","floors":2,"height":6.2,"heightSource":"Catastro:numberOfFloorsAboveGround"},"geometry":{"type":"Polygon","coordinates":[[[641783.7555,4825019.238],[641793.986,4825013.788],[641792.126,4825010.308],[641793.296,4825009.678],[641792.886,4825008.918],[641781.3155,4825014.768],[641783.7555,4825019.238]]]}},{"type":"Feature","properties":{"id":"2052806PJ4225S_part2","floors":2,"height":6.2,"heightSource":"Catastro:numberOfFloorsAboveGround"},"geometry":{"type":"Polygon","coordinates":[[[641781.3155,4825014.768],[641792.886,4825008.918],[641790.366,4825004.238],[641787.556,4825005.748],[641786.806,4825004.358],[641778.4355,4825008.858],[641778.1755,4825009.008],[641778.4755,4825009.568],[641781.3155,4825014.768]]]}},{"type":"Feature","properties":{"id":"2052807PJ4225S_part1","floors":2,"height":6.2,"heightSource":"Catastro:numberOfFloorsAboveGround"},"geometry":{"type":"Polygon","coordinates":[[[641761.8255,4825025.958],[641763.6255,4825024.818],[641771.2155,4825020.068],[641766.2255,4825012.118],[641756.9755,4825017.918],[641757.6655,4825019.068],[641761.0655,4825024.708],[641761.8255,4825025.958]]]}},{"type":"Feature","properties":{"id":"2052808PJ4225S_part1","floors":2,"height":6.2,"heightSource":"Catastro:numberOfFloorsAboveGround"},"geometry":{"type":"Polygon","coordinates":[[[641758.135,4825029.268],[641747.765,4825027.0475],[641746.155,4825034.5275],[641749.795,4825035.3075],[641749.655,4825035.9375],[641756.395,4825037.418],[641758.135,4825029.268]]]}},{"type":"Feature","properties":{"id":"2052809PJ4225S_part1","floors":2,"height":6.2,"heightSource":"Catastro:numberOfFloorsAboveGround"},"geometry":{"type":"Polygon","coordinates":[[[641781.4755,4825031.828],[641782.5155,4825031.258],[641777.8655,4825023.428],[641768.6655,4825028.898],[641767.9955,4825029.248],[641772.4655,4825036.868],[641775.7255,4825035.038],[641781.4755,4825031.828]]]}},{"type":"Feature","properties":{"id":"2052809PJ4225S_part2","floors":3,"height":9.3,"heightSource":"Catastro:numberOfFloorsAboveGround"},"geometry":{"type":"Polygon","coordinates":[[[641785.7655,4825039.138],[641782.6355,4825033.838],[641783.6855,4825033.218],[641782.5155,4825031.258],[641781.4755,4825031.828],[641775.7255,4825035.038],[641772.4655,4825036.868],[641773.5355,4825038.698],[641773.7755,4825038.548],[641774.8455,4825037.928],[641775.8055,4825037.368],[641779.1555,4825043.038],[641780.1055,4825042.468],[641780.5555,4825042.208],[641785.7655,4825039.138]]]}},{"type":"Feature","properties":{"id":"2052810PJ4225S_part1","floors":2,"height":6.2,"heightSource":"Catastro:numberOfFloorsAboveGround"},"geometry":{"type":"Polygon","coordinates":[[[641796.4255,4825046.828],[641811.366,4825038.3285],[641807.796,4825032.0585],[641792.9155,4825040.528],[641796.4255,4825046.828]]]}},{"type":"Feature","properties":{"id":"2052810PJ4225S_part2","floors":2,"height":6.2,"heightSource":"Catastro:numberOfFloorsAboveGround"},"geometry":{"type":"Polygon","coordinates":[[[641807.796,4825032.0585],[641804.236,4825025.8085],[641789.4255,4825034.238],[641792.9155,4825040.528],[641807.796,4825032.0585]]]}},{"type":"Feature","properties":{"id":"2052811PJ4225S_part1","floors":2,"height":6.2,"heightSource":"Catastro:numberOfFloorsAboveGround"},"geometry":{"type":"Polygon","coordinates":[[[641821.456,4825044.4685],[641826.646,4825053.8585],[641838.856,4825047.0885],[641833.796,4825037.9685],[641829.206,4825040.1585],[641821.456,4825044.4685]]]}},{"type":"Feature","properties":{"id":"2052811PJ4225S_part2","floors":1,"height":3.1,"heightSource":"Catastro:numberOfFloorsAboveGround"},"geometry":{"type":"Polygon","coordinates":[[[641815.026,4825040.8385],[641818.256,4825039.0185],[641817.066,4825036.9085],[641816.796,4825036.4285],[641813.566,4825038.2385],[641813.756,4825038.5785],[641815.026,4825040.8385]]]}},{"type":"Feature","properties":{"id":"2052812PJ4225S_part1","floors":3,"height":9.3,"heightSource":"Catastro:numberOfFloorsAboveGround"},"geometry":{"type":"Polygon","coordinates":[[[641860.9765,4825046.489],[641853.1165,4825044.689],[641852.7965,4825046.079],[641850.2865,4825057.129],[641861.1465,4825059.619],[641862.4965,4825053.709],[641859.4865,4825053.019],[641860.6765,4825047.759],[641860.9765,4825046.489]]]}},{"type":"Feature","properties":{"id":"2053001PJ4225S_part1","floors":3,"height":9.3,"heightSource":"Catastro:numberOfFloorsAboveGround"},"geometry":{"type":"Polygon","coordinates":[[[641869.366,4825129.899],[641870.006,4825129.729],[641870.616,4825129.499],[641871.186,4825129.179],[641871.666,4825128.839],[641872.216,4825128.369],[641872.656,4825127.879],[641873.0065,4825127.369],[641875.1365,4825122.399],[641876.1465,4825120.049],[641877.0965,4825119.079],[641877.4565,4825118.469],[641877.7265,4825117.789],[641877.7965,4825117.459],[641877.8365,4825117.109],[641877.8265,4825116.129],[641878.0465,4825115.629],[641875.1365,4825114.369],[641870.8065,4825112.509],[641857.966,4825117.709],[641854.846,4825124.679],[641856.656,4825125.459],[641856.906,4825125.919],[641857.256,4825126.309],[641857.846,4825126.649],[641858.276,4825126.749],[641859.376,4825126.619],[641866.776,4825129.789],[641867.416,4825129.929],[641868.066,4825129.989],[641868.726,4825129.979],[641869.366,4825129.899]]]}},{"type":"Feature","properties":{"id":"2053002PJ4225S_part1","floors":1,"height":3.1,"heightSource":"Catastro:numberOfFloorsAboveGround"},"geometry":{"type":"Polygon","coordinates":[[[641894.2465,4825095.669],[641891.0365,4825089.679],[641884.0565,4825087.549],[641878.1365,4825090.749],[641876.0665,4825097.769],[641879.2765,4825103.689],[641886.2265,4825105.719],[641892.1165,4825102.579],[641894.2465,4825095.669]],[[641892.9365,4825096.019],[641891.2565,4825101.759],[641885.9665,4825104.609],[641880.1965,4825102.919],[641877.3765,4825097.629],[641879.0565,4825091.929],[641884.3765,4825089.029],[641890.1465,4825090.739],[641892.9365,4825096.019]]]}},{"type":"Feature","properties":{"id":"2053002PJ4225S_part2","floors":3,"height":9.3,"heightSource":"Catastro:numberOfFloorsAboveGround"},"geometry":{"type":"Polygon","coordinates":[[[641884.6565,4825090.699],[641880.6165,4825092.899],[641879.3365,4825097.209],[641881.4765,4825101.209],[641885.8365,4825102.489],[641889.8465,4825100.329],[641891.1265,4825095.989],[641889.0065,4825091.989],[641884.6565,4825090.699]]]}},{"type":"Feature","properties":{"id":"2053002PJ4225S_part3","floors":2,"height":6.2,"heightSource":"Catastro:numberOfFloorsAboveGround"},"geometry":{"type":"Polygon","coordinates":[[[641884.3765,4825089.029],[641879.0565,4825091.929],[641877.3765,4825097.629],[641880.1965,4825102.919],[641885.9665,4825104.609],[641891.2565,4825101.759],[641892.9365,4825096.019],[641890.1465,4825090.739],[641884.3765,4825089.029]],[[641891.1265,4825095.989],[641889.8465,4825100.329],[641885.8365,4825102.489],[641881.4765,4825101.209],[641879.3365,4825097.209],[641880.6165,4825092.899],[641884.6565,4825090.699],[641889.0065,4825091.989],[641891.1265,4825095.989]]]}},{"type":"Feature","properties":{"id":"2053003PJ4225S_part1","floors":1,"height":3.1,"heightSource":"Catastro:numberOfFloorsAboveGround"},"geometry":{"type":"Polygon","coordinates":[[[641862.1965,4825086.819],[641860.9165,4825092.549],[641867.2765,4825093.999],[641868.7265,4825086.819],[641869.4065,4825083.459],[641863.2665,4825082.069],[641862.1965,4825086.819]]]}},{"type":"Feature","properties":{"id":"2053003PJ4225S_part2","floors":2,"height":6.2,"heightSource":"Catastro:numberOfFloorsAboveGround"},"geometry":{"type":"Polygon","coordinates":[[[641854.9065,4825080.179],[641853.406,4825086.819],[641852.536,4825090.649],[641860.9165,4825092.549],[641862.1965,4825086.819],[641863.2665,4825082.069],[641854.9065,4825080.179]]]}},{"type":"Feature","properties":{"id":"2053004PJ4225S_part1","floors":1,"height":3.1,"heightSource":"Catastro:numberOfFloorsAboveGround"},"geometry":{"type":"Polygon","coordinates":[[[641842.9345,4825095.973],[641846.6945,4825079.3945],[641790.3255,4825066.609],[641786.5655,4825083.188],[641842.9345,4825095.973]]]}},{"type":"Feature","properties":{"id":"2053005PJ4225S_part1","floors":2,"height":6.2,"heightSource":"Catastro:numberOfFloorsAboveGround"},"geometry":{"type":"Polygon","coordinates":[[[641776.355,4825077.568],[641778.285,4825070.768],[641779.7155,4825071.168],[641781.5355,4825064.638],[641768.285,4825060.938],[641766.415,4825067.598],[641768.225,4825068.108],[641766.545,4825074.768],[641776.355,4825077.568]]]}},{"type":"Feature","properties":{"id":"2053005PJ4225S_part2","floors":1,"height":3.1,"heightSource":"Catastro:numberOfFloorsAboveGround"},"geometry":{"type":"Polygon","coordinates":[[[641777.995,4825086.818],[641779.875,4825087.258],[641779.995,4825086.818],[641781.625,4825080.908],[641781.265,4825080.808],[641771.475,4825078.148],[641769.635,4825084.898],[641775.135,4825086.158],[641776.835,4825086.548],[641777.995,4825086.818]]]}},{"type":"Feature","properties":{"id":"2053005PJ4225S_part3","floors":1,"height":3.1,"heightSource":"Catastro:numberOfFloorsAboveGround"},"geometry":{"type":"Polygon","coordinates":[[[641768.745,4825079.098],[641763.825,4825077.978],[641762.775,4825083.328],[641765.365,4825083.918],[641767.545,4825084.418],[641768.745,4825079.098]]]}},{"type":"Feature","properties":{"id":"2053006PJ4225S_part1","floors":2,"height":6.2,"heightSource":"Catastro:numberOfFloorsAboveGround"},"geometry":{"type":"Polygon","coordinates":[[[641753.255,4825063.468],[641739.705,4825060.4575],[641738.2345,4825067.0375],[641740.4845,4825067.5375],[641738.8145,4825074.5275],[641749.125,4825076.858],[641750.705,4825069.848],[641751.785,4825070.088],[641751.895,4825069.568],[641753.255,4825063.468]]]}},{"type":"Feature","properties":{"id":"2053006PJ4225S_part2","floors":1,"height":3.1,"heightSource":"Catastro:numberOfFloorsAboveGround"},"geometry":{"type":"Polygon","coordinates":[[[641752.825,4825074.338],[641751.375,4825080.708],[641758.373,4825082.3155],[641759.7795,4825075.846],[641752.825,4825074.338]]]}},{"type":"Feature","properties":{"id":"2053007PJ4225S_part1","floors":3,"height":9.3,"heightSource":"Catastro:numberOfFloorsAboveGround"},"geometry":{"type":"Polygon","coordinates":[[[641754.175,4825097.228],[641754.0645,4825097.638],[641747.7245,4825095.9075],[641745.4645,4825104.1575],[641757.5845,4825107.408],[641759.865,4825098.738],[641759.315,4825098.588],[641754.175,4825097.228]]]}},{"type":"Feature","properties":{"id":"2053007PJ4225S_part2","floors":1,"height":3.1,"heightSource":"Catastro:numberOfFloorsAboveGround"},"geometry":{"type":"Polygon","coordinates":[[[641760.565,4825093.968],[641755.445,4825092.578],[641754.175,4825097.228],[641759.315,4825098.588],[641760.565,4825093.968]]]}},{"type":"Feature","properties":{"id":"2053008PJ4225S_part1","floors":2,"height":6.2,"heightSource":"Catastro:numberOfFloorsAboveGround"},"geometry":{"type":"Polygon","coordinates":[[[641773.885,4825099.278],[641769.765,4825098.378],[641769.085,4825098.238],[641765.005,4825097.348],[641763.485,4825105.088],[641763.915,4825105.158],[641766.455,4825105.598],[641766.125,4825108.128],[641771.565,4825109.298],[641773.885,4825099.278]]]}},{"type":"Feature","properties":{"id":"2053009PJ4225S_part1","floors":2,"height":6.2,"heightSource":"Catastro:numberOfFloorsAboveGround"},"geometry":{"type":"Polygon","coordinates":[[[641803.8355,4825103.6885],[641791.2255,4825100.918],[641790.605,4825103.768],[641789.625,4825103.558],[641787.855,4825111.598],[641790.525,4825112.178],[641801.4355,4825114.5885],[641801.8355,4825112.7385],[641803.8355,4825103.6885]]]}},{"type":"Feature","properties":{"id":"2053010PJ4225S_part1","floors":3,"height":9.3,"heightSource":"Catastro:numberOfFloorsAboveGround"},"geometry":{"type":"Polygon","coordinates":[[[641820.4355,4825108.7985],[641810.9655,4825106.6585],[641808.2955,4825118.3085],[641818.0355,4825120.5185],[641819.2155,4825115.2685],[641820.4355,4825108.7985]]]}},{"type":"Feature","properties":{"id":"2053011PJ4225S_part1","floors":1,"height":3.1,"heightSource":"Catastro:numberOfFloorsAboveGround"},"geometry":{"type":"Polygon","coordinates":[[[641840.266,4825116.9685],[641842.366,4825117.4185],[641843.616,4825112.1385],[641832.516,4825109.5285],[641830.4855,4825118.1585],[641839.426,4825120.2685],[641840.266,4825116.9685]]]}},{"type":"Feature","properties":{"id":"2053011PJ4225S_part2","floors":1,"height":3.1,"heightSource":"Catastro:numberOfFloorsAboveGround"},"geometry":{"type":"Polygon","coordinates":[[[641847.686,4825128.859],[641849.486,4825120.959],[641849.986,4825119.219],[641842.366,4825117.4185],[641840.266,4825116.9685],[641839.426,4825120.2685],[641837.946,4825126.5585],[641839.096,4825126.8285],[641847.686,4825128.859]]]}},{"type":"Feature","properties":{"id":"2053012PJ4225S_part1","floors":2,"height":6.2,"heightSource":"Catastro:numberOfFloorsAboveGround"},"geometry":{"type":"Polygon","coordinates":[[[641782.355,4825101.138],[641778.175,4825100.218],[641777.565,4825100.088],[641773.885,4825099.278],[641771.565,4825109.298],[641777.045,4825110.488],[641777.305,4825108.078],[641780.845,4825108.818],[641780.895,4825108.538],[641782.355,4825101.138]]]}},{"type":"Feature","properties":{"id":"2054401PJ4225S_part1","floors":2,"height":6.2,"heightSource":"Catastro:numberOfFloorsAboveGround"},"geometry":{"type":"Polygon","coordinates":[[[641889.4765,4825160.699],[641899.6665,4825157.5195],[641899.9265,4825158.3495],[641905.4465,4825156.6095],[641905.2965,4825156.1195],[641904.8165,4825154.6195],[641903.6865,4825151.0495],[641903.1165,4825149.2495],[641901.7465,4825144.8995],[641896.8265,4825146.4495],[641894.4665,4825147.1895],[641892.2165,4825147.899],[641892.5865,4825149.089],[641886.5865,4825150.949],[641889.0965,4825159.399],[641889.4765,4825160.699]]]}},{"type":"Feature","properties":{"id":"2054402PJ4225S_part1","floors":2,"height":6.2,"heightSource":"Catastro:numberOfFloorsAboveGround"},"geometry":{"type":"Polygon","coordinates":[[[641928.777,4825148.3595],[641929.057,4825149.2795],[641934.297,4825147.6795],[641934.147,4825147.1895],[641933.677,4825145.6695],[641932.587,4825142.0995],[641932.037,4825140.2895],[641930.687,4825135.8595],[641925.477,4825137.4395],[641923.227,4825138.1195],[641921.027,4825138.7995],[641921.437,4825140.1495],[641915.387,4825141.9795],[641918.357,4825151.5695],[641928.777,4825148.3595]]]}},{"type":"Feature","properties":{"id":"2054403PJ4225S_part1","floors":1,"height":3.1,"heightSource":"Catastro:numberOfFloorsAboveGround"},"geometry":{"type":"Polygon","coordinates":[[[641952.4275,4825129.5765],[641944.2875,4825132.2275],[641944.884,4825134.1365],[641945.169,4825134.0425],[641945.329,4825133.9895],[641945.0175,4825132.9915],[641952.718,4825130.485],[641952.586,4825130.085],[641952.4275,4825129.5765]]]}},{"type":"Feature","properties":{"id":"2054403PJ4225S_part2","floors":2,"height":6.2,"heightSource":"Catastro:numberOfFloorsAboveGround"},"geometry":{"type":"Polygon","coordinates":[[[641949.5005,4825132.608],[641949.835,4825133.6305],[641953.3665,4825132.461],[641953.032,4825131.4385],[641949.5005,4825132.608]]]}},{"type":"Feature","properties":{"id":"2054403PJ4225S_part3","floors":1,"height":3.1,"heightSource":"Catastro:numberOfFloorsAboveGround"},"geometry":{"type":"Polygon","coordinates":[[[641948.108,4825137.2505],[641946.504,4825137.7495],[641947.5525,4825141.105],[641949.1475,4825140.5905],[641948.108,4825137.2505]]]}},{"type":"Feature","properties":{"id":"2054403PJ4225S_part4","floors":1,"height":3.1,"heightSource":"Catastro:numberOfFloorsAboveGround"},"geometry":{"type":"Polygon","coordinates":[[[641946.343,4825137.7995],[641948.333,4825144.1675],[641961.842,4825139.7445],[641961.3575,4825138.2725],[641957.9515,4825139.3875],[641957.467,4825137.906],[641949.1475,4825140.5905],[641947.5525,4825141.105],[641946.504,4825137.7495],[641946.343,4825137.7995]]]}},{"type":"Feature","properties":{"id":"2054403PJ4225S_part5","floors":2,"height":6.2,"heightSource":"Catastro:numberOfFloorsAboveGround"},"geometry":{"type":"Polygon","coordinates":[[[641945.169,4825134.0425],[641946.149,4825137.1785],[641945.958,4825137.2385],[641946.152,4825137.859],[641946.343,4825137.7995],[641946.504,4825137.7495],[641948.108,4825137.2505],[641949.1475,4825140.5905],[641957.467,4825137.906],[641957.9515,4825139.3875],[641961.3575,4825138.2725],[641960.8425,4825136.705],[641959.8925,4825137.017],[641958.1575,4825131.7435],[641959.109,4825131.433],[641958.085,4825128.296],[641952.586,4825130.085],[641952.718,4825130.485],[641953.032,4825131.4385],[641953.3665,4825132.461],[641949.835,4825133.6305],[641949.5005,4825132.608],[641948.3335,4825132.9945],[641948.2455,4825132.7285],[641947.1725,4825133.084],[641947.261,4825133.3495],[641945.329,4825133.9895],[641945.169,4825134.0425]]]}},{"type":"Feature","properties":{"id":"2054403PJ4225S_part6","floors":1,"height":3.1,"heightSource":"Catastro:numberOfFloorsAboveGround"},"geometry":{"type":"Polygon","coordinates":[[[641945.0175,4825132.9915],[641945.329,4825133.9895],[641947.261,4825133.3495],[641947.1725,4825133.084],[641948.2455,4825132.7285],[641948.3335,4825132.9945],[641949.5005,4825132.608],[641953.032,4825131.4385],[641952.718,4825130.485],[641945.0175,4825132.9915]]]}},{"type":"Feature","properties":{"id":"2054404PJ4225S_part1","floors":2,"height":6.2,"heightSource":"Catastro:numberOfFloorsAboveGround"},"geometry":{"type":"Polygon","coordinates":[[[641989.788,4825128.01],[641988.618,4825124.46],[641988.038,4825122.66],[641986.648,4825118.4],[641982.538,4825119.73],[641980.328,4825120.46],[641977.638,4825121.35],[641977.958,4825122.32],[641971.8175,4825124.34],[641974.8275,4825133.98],[641985.048,4825130.64],[641985.378,4825131.65],[641990.448,4825129.99],[641990.288,4825129.5],[641989.788,4825128.01]]]}},{"type":"Feature","properties":{"id":"2054601PJ4225S_part1","floors":1,"height":3.1,"heightSource":"Catastro:numberOfFloorsAboveGround"},"geometry":{"type":"Polygon","coordinates":[[[641820.1255,4825170.7685],[641811.095,4825168.6585],[641809.245,4825176.5585],[641818.145,4825178.6485],[641820.1255,4825170.7685]]]}},{"type":"Feature","properties":{"id":"2054602PJ4225S_part1","floors":2,"height":6.2,"heightSource":"Catastro:numberOfFloorsAboveGround"},"geometry":{"type":"Polygon","coordinates":[[[641842.4155,4825148.9085],[641835.2755,4825147.2685],[641834.0755,4825152.4585],[641832.8655,4825152.1785],[641831.7155,4825157.1485],[641849.7955,4825161.299],[641852.126,4825151.139],[641842.4155,4825148.9085]]]}},{"type":"Feature","properties":{"id":"2054603PJ4225S_part1","floors":2,"height":6.2,"heightSource":"Catastro:numberOfFloorsAboveGround"},"geometry":{"type":"Polygon","coordinates":[[[641824.8655,4825143.1985],[641828.4255,4825143.9885],[641828.6455,4825143.0185],[641826.3055,4825142.4885],[641825.0855,4825142.2185],[641824.8655,4825143.1985]]]}},{"type":"Feature","properties":{"id":"2054603PJ4225S_part2","floors":3,"height":9.3,"heightSource":"Catastro:numberOfFloorsAboveGround"},"geometry":{"type":"Polygon","coordinates":[[[641815.1355,4825150.3985],[641822.1255,4825151.9585],[641822.4255,4825150.6385],[641815.4355,4825149.0785],[641815.1355,4825150.3985]]]}},{"type":"Feature","properties":{"id":"2054603PJ4225S_part3","floors":2,"height":6.2,"heightSource":"Catastro:numberOfFloorsAboveGround"},"geometry":{"type":"Polygon","coordinates":[[[641814.4255,4825153.5685],[641821.4155,4825155.1285],[641822.1255,4825151.9585],[641815.1355,4825150.3985],[641814.4255,4825153.5685]]]}},{"type":"Feature","properties":{"id":"2054603PJ4225S_part4","floors":2,"height":6.2,"heightSource":"Catastro:numberOfFloorsAboveGround"},"geometry":{"type":"Polygon","coordinates":[[[641819.7355,4825162.6485],[641826.5685,4825164.179],[641826.5955,4825164.0585],[641828.253,4825156.658],[641821.4155,4825155.1285],[641819.7355,4825162.6485]]]}},{"type":"Feature","properties":{"id":"2054603PJ4225S_part5","floors":3,"height":9.3,"heightSource":"Catastro:numberOfFloorsAboveGround"},"geometry":{"type":"Polygon","coordinates":[[[641817.3555,4825140.4885],[641815.4355,4825149.0785],[641822.4255,4825150.6385],[641826.7255,4825151.6085],[641828.4255,4825143.9885],[641824.8655,4825143.1985],[641825.0855,4825142.2185],[641817.3555,4825140.4885]]]}},{"type":"Feature","properties":{"id":"2054603PJ4225S_part6","floors":2,"height":6.2,"heightSource":"Catastro:numberOfFloorsAboveGround"},"geometry":{"type":"Polygon","coordinates":[[[641821.4155,4825155.1285],[641828.253,4825156.658],[641829.236,4825152.2685],[641827.8755,4825151.9085],[641826.7255,4825151.6085],[641826.4255,4825152.9185],[641822.1255,4825151.9585],[641821.4155,4825155.1285]]]}},{"type":"Feature","properties":{"id":"2054603PJ4225S_part7","floors":3,"height":9.3,"heightSource":"Catastro:numberOfFloorsAboveGround"},"geometry":{"type":"Polygon","coordinates":[[[641822.1255,4825151.9585],[641826.4255,4825152.9185],[641826.7255,4825151.6085],[641822.4255,4825150.6385],[641822.1255,4825151.9585]]]}},{"type":"Feature","properties":{"id":"2054603PJ4225S_part8","floors":1,"height":3.1,"heightSource":"Catastro:numberOfFloorsAboveGround"},"geometry":{"type":"Polygon","coordinates":[[[641828.3155,4825140.3785],[641827.9655,4825141.9385],[641830.0155,4825142.3985],[641827.8755,4825151.9085],[641829.236,4825152.2685],[641831.726,4825141.1485],[641828.3155,4825140.3785]]]}},{"type":"Feature","properties":{"id":"2054603PJ4225S_part9","floors":1,"height":3.1,"heightSource":"Catastro:numberOfFloorsAboveGround"},"geometry":{"type":"Polygon","coordinates":[[[641826.8655,4825139.9585],[641825.6455,4825139.6785],[641825.0855,4825142.2185],[641826.3055,4825142.4885],[641826.8655,4825139.9585]]]}},{"type":"Feature","properties":{"id":"2144803PJ4224S_part1","floors":1,"height":3.1,"heightSource":"Catastro:numberOfFloorsAboveGround"},"geometry":{"type":"Polygon","coordinates":[[[642015.314,4824361.547],[642016.004,4824361.439],[642022.159,4824352.969],[642021.975,4824352.779],[642023.946,4824348.543],[642018.204,4824345.206],[642016.027,4824349.665],[642015.191,4824349.511],[642009.651,4824358.557],[642015.314,4824361.547]]]}},{"type":"Feature","properties":{"id":"2144803PJ4224S_part2","floors":2,"height":6.2,"heightSource":"Catastro:numberOfFloorsAboveGround"},"geometry":{"type":"Polygon","coordinates":[[[642042.273,4824336.375],[642044.607,4824340.34],[642042.953,4824341.831],[642048.848,4824349.337],[642062.928,4824334.802],[642057.705,4824328.536],[642056.789,4824327.553],[642055.573,4824328.522],[642053.236,4824326.666],[642052.254,4824327.6],[642042.273,4824336.375]]]}},{"type":"Feature","properties":{"id":"2144803PJ4224S_part3","floors":1,"height":3.1,"heightSource":"Catastro:numberOfFloorsAboveGround"},"geometry":{"type":"Polygon","coordinates":[[[642046.816,4824324.288],[642047.319,4824323.002],[642046.668,4824322.535],[642043.776,4824325.976],[642042.771,4824325.131],[642039.4065,4824328.765],[642040.593,4824329.762],[642039.649,4824330.885],[642042.273,4824336.375],[642052.254,4824327.6],[642046.816,4824324.288]]]}},{"type":"Feature","properties":{"id":"2144803PJ4224S_part5","floors":1,"height":3.1,"heightSource":"Catastro:numberOfFloorsAboveGround"},"geometry":{"type":"Polygon","coordinates":[[[642040.057,4824341.282],[642036.1395,4824338.679],[642037.344,4824336.866],[642034.514,4824335.244],[642033.4285,4824336.878],[642032.336,4824336.152],[642026.174,4824350.294],[642025.507,4824354.403],[642029.65,4824356.378],[642032.239,4824353.368],[642035.947,4824355.871],[642035.913,4824356.989],[642031.3055,4824362.712],[642029.058,4824361.812],[642026.102,4824364.078],[642022.062,4824367.348],[642029.77,4824371.088],[642029.8735,4824370.9705],[642030.2945,4824370.491],[642032.403,4824368.092],[642031.8545,4824367.649],[642038.591,4824359.342],[642039.093,4824359.669],[642041.493,4824357.165],[642043.805,4824354.7045],[642048.681,4824349.515],[642048.848,4824349.337],[642042.953,4824341.831],[642040.057,4824341.282]]]}},{"type":"Feature","properties":{"id":"2144804PJ4224S_part2","floors":2,"height":6.2,"heightSource":"Catastro:numberOfFloorsAboveGround"},"geometry":{"type":"Polygon","coordinates":[[[642057.237,4824320.33],[642064.892,4824327.222],[642074.0950043891,4824317.0],[642060.2352647858,4824317.0],[642057.237,4824320.33]]]}},{"type":"Feature","properties":{"id":"2144804PJ4224S_part3","floors":1,"height":3.1,"heightSource":"Catastro:numberOfFloorsAboveGround"},"geometry":{"type":"Polygon","coordinates":[[[642057.237,4824320.33],[642060.2352647858,4824317.0],[642053.5380654049,4824317.0],[642057.237,4824320.33]]]}},{"type":"Feature","properties":{"id":"2144820PJ4224S_part1","floors":2,"height":6.2,"heightSource":"Catastro:numberOfFloorsAboveGround"},"geometry":{"type":"Polygon","coordinates":[[[641985.857,4824368.4845],[641983.5455,4824370.876],[641973.0655,4824360.7475],[641970.286,4824363.6235],[641973.5605,4824366.789],[641974.28,4824367.4835],[641971.706,4824370.1465],[641978.192,4824376.415],[641978.6785,4824375.9115],[641983.352,4824380.429],[641985.786,4824377.911],[641990.5305,4824373.002],[641985.857,4824368.4845]]]}},{"type":"Feature","properties":{"id":"2144820PJ4224S_part2","floors":1,"height":3.1,"heightSource":"Catastro:numberOfFloorsAboveGround"},"geometry":{"type":"Polygon","coordinates":[[[641985.786,4824377.911],[641988.0225,4824379.9425],[641992.704,4824375.0995],[641990.5305,4824373.002],[641985.786,4824377.911]]]}},{"type":"Feature","properties":{"id":"2144820PJ4224S_part3","floors":1,"height":3.1,"heightSource":"Catastro:numberOfFloorsAboveGround"},"geometry":{"type":"Polygon","coordinates":[[[641970.292,4824370.1705],[641977.497,4824377.134],[641978.192,4824376.415],[641971.706,4824370.1465],[641974.28,4824367.4835],[641973.5605,4824366.789],[641970.292,4824370.1705]]]}},{"type":"Feature","properties":{"id":"2153301PJ4225S_part1","floors":2,"height":6.2,"heightSource":"Catastro:numberOfFloorsAboveGround"},"geometry":{"type":"Polygon","coordinates":[[[641956.428,4825067.72],[641967.438,4825068.86],[641967.818,4825065.12],[641967.918,4825064.13],[641956.918,4825062.98],[641956.428,4825067.72]]]}},{"type":"Feature","properties":{"id":"2153301PJ4225S_part2","floors":2,"height":6.2,"heightSource":"Catastro:numberOfFloorsAboveGround"},"geometry":{"type":"Polygon","coordinates":[[[641957.368,4825058.86],[641968.358,4825059.92],[641968.828,4825055.36],[641956.348,4825054.08],[641955.808,4825059.56],[641957.258,4825059.71],[641957.368,4825058.86]]]}},{"type":"Feature","properties":{"id":"2153301PJ4225S_part3","floors":3,"height":9.3,"heightSource":"Catastro:numberOfFloorsAboveGround"},"geometry":{"type":"Polygon","coordinates":[[[641967.918,4825064.13],[641968.358,4825059.92],[641957.368,4825058.86],[641957.258,4825059.71],[641956.918,4825062.98],[641967.918,4825064.13]]]}},{"type":"Feature","properties":{"id":"2153302PJ4225S_part1","floors":2,"height":6.2,"heightSource":"Catastro:numberOfFloorsAboveGround"},"geometry":{"type":"Polygon","coordinates":[[[641979.428,4825070.56],[641980.248,4825074.51],[641982.648,4825074.17],[641981.858,4825070.01],[641979.428,4825070.56]]]}},{"type":"Feature","properties":{"id":"2153302PJ4225S_part2","floors":2,"height":6.2,"heightSource":"Catastro:numberOfFloorsAboveGround"},"geometry":{"type":"Polygon","coordinates":[[[641993.478,4825080.32],[641992.048,4825072.94],[641987.508,4825073.77],[641988.878,4825081.43],[641993.478,4825080.32]]]}},{"type":"Feature","properties":{"id":"2153302PJ4225S_part3","floors":2,"height":6.2,"heightSource":"Catastro:numberOfFloorsAboveGround"},"geometry":{"type":"Polygon","coordinates":[[[641984.098,4825081.4],[641981.748,4825081.68],[641982.358,4825084.63],[641984.928,4825084.12],[641984.098,4825081.4]]]}},{"type":"Feature","properties":{"id":"2153302PJ4225S_part4","floors":3,"height":9.3,"heightSource":"Catastro:numberOfFloorsAboveGround"},"geometry":{"type":"Polygon","coordinates":[[[641982.648,4825074.17],[641980.248,4825074.51],[641981.748,4825081.68],[641984.098,4825081.4],[641984.928,4825084.12],[641989.168,4825083.27],[641988.878,4825081.43],[641987.508,4825073.77],[641986.238,4825069.02],[641981.858,4825070.01],[641982.648,4825074.17]]]}},{"type":"Feature","properties":{"id":"2153306PJ4225S_part1","floors":1,"height":3.1,"heightSource":"Catastro:numberOfFloorsAboveGround"},"geometry":{"type":"Polygon","coordinates":[[[642130.479,4825123.2995],[642136.3685,4825124.8875],[642136.525,4825124.308],[642140.0,4825125.142635156],[642140.0,4825123.266224703],[642133.353,4825121.474],[642133.3765,4825121.388],[642131.156,4825120.789],[642130.479,4825123.2995]]]}},{"type":"Feature","properties":{"id":"2153306PJ4225S_part9","floors":2,"height":6.2,"heightSource":"Catastro:numberOfFloorsAboveGround"},"geometry":{"type":"Polygon","coordinates":[[[642138.4925,4825090.9605],[642139.457,4825091.2255],[642140.0,4825089.249424143],[642140.0,4825085.473518836],[642138.4925,4825090.9605]]]}},{"type":"Feature","properties":{"id":"2153306PJ4225S_part10","floors":2,"height":6.2,"heightSource":"Catastro:numberOfFloorsAboveGround"},"geometry":{"type":"Polygon","coordinates":[[[642138.188,4825095.8435],[642140.0,4825096.341317545],[642140.0,4825089.249424143],[642139.457,4825091.2255],[642138.742,4825093.829],[642138.212,4825095.7575],[642138.188,4825095.8435]]]}},{"type":"Feature","properties":{"id":"2153306PJ4225S_part11","floors":1,"height":3.1,"heightSource":"Catastro:numberOfFloorsAboveGround"},"geometry":{"type":"Polygon","coordinates":[[[642137.7085,4825097.5895],[642140.0,4825098.219096489],[642140.0,4825096.341317545],[642138.188,4825095.8435],[642137.7085,4825097.5895]]]}},{"type":"Feature","properties":{"id":"2153306PJ4225S_part12","floors":1,"height":3.1,"heightSource":"Catastro:numberOfFloorsAboveGround"},"geometry":{"type":"Polygon","coordinates":[[[642137.8085,4825104.953],[642137.337,4825106.7015],[642140.0,4825107.41975894],[642140.0,4825105.54408692],[642137.8085,4825104.953]]]}},{"type":"Feature","properties":{"id":"2153306PJ4225S_part13","floors":1,"height":3.1,"heightSource":"Catastro:numberOfFloorsAboveGround"},"geometry":{"type":"Polygon","coordinates":[[[642136.5245,4825093.2195],[642135.994,4825095.148],[642138.212,4825095.7575],[642138.742,4825093.829],[642136.5245,4825093.2195]]]}},{"type":"Feature","properties":{"id":"2153306PJ4225S_part14","floors":2,"height":6.2,"heightSource":"Catastro:numberOfFloorsAboveGround"},"geometry":{"type":"Polygon","coordinates":[[[642135.345,4825114.088],[642140.0,4825115.343211351],[642140.0,4825107.41975894],[642137.337,4825106.7015],[642137.3135,4825106.788],[642136.819,4825108.6225],[642136.793,4825108.719],[642136.09,4825111.3255],[642135.345,4825114.088]]]}},{"type":"Feature","properties":{"id":"2153306PJ4225S_part15","floors":1,"height":3.1,"heightSource":"Catastro:numberOfFloorsAboveGround"},"geometry":{"type":"Polygon","coordinates":[[[642135.3055,4825097.655],[642140.0,4825098.94525916],[642140.0,4825098.219096489],[642137.7085,4825097.5895],[642138.188,4825095.8435],[642138.212,4825095.7575],[642135.994,4825095.148],[642135.3055,4825097.655]]]}},{"type":"Feature","properties":{"id":"2153306PJ4225S_part16","floors":1,"height":3.1,"heightSource":"Catastro:numberOfFloorsAboveGround"},"geometry":{"type":"Polygon","coordinates":[[[642135.77,4825103.6785],[642135.093,4825106.189],[642137.3135,4825106.788],[642137.337,4825106.7015],[642137.8085,4825104.953],[642140.0,4825105.54408692],[642140.0,4825104.819045038],[642135.77,4825103.6785]]]}},{"type":"Feature","properties":{"id":"2153306PJ4225S_part17","floors":1,"height":3.1,"heightSource":"Catastro:numberOfFloorsAboveGround"},"geometry":{"type":"Polygon","coordinates":[[[642134.598,4825108.0235],[642136.819,4825108.6225],[642137.3135,4825106.788],[642135.093,4825106.189],[642134.598,4825108.0235]]]}},{"type":"Feature","properties":{"id":"2153306PJ4225S_part18","floors":2,"height":6.2,"heightSource":"Catastro:numberOfFloorsAboveGround"},"geometry":{"type":"Polygon","coordinates":[[[642133.353,4825121.474],[642140.0,4825123.266224703],[642140.0,4825115.343211351],[642135.345,4825114.088],[642136.09,4825111.3255],[642135.124,4825111.065],[642133.6345,4825116.5895],[642134.6,4825116.85],[642133.897,4825119.457],[642133.3765,4825121.388],[642133.353,4825121.474]]]}},{"type":"Feature","properties":{"id":"2153306PJ4225S_part19","floors":1,"height":3.1,"heightSource":"Catastro:numberOfFloorsAboveGround"},"geometry":{"type":"Polygon","coordinates":[[[642131.677,4825118.858],[642131.156,4825120.789],[642133.3765,4825121.388],[642133.897,4825119.457],[642131.677,4825118.858]]]}},{"type":"Feature","properties":{"id":"2245901PJ4224N_part1","floors":1,"height":3.1,"heightSource":"Catastro:numberOfFloorsAboveGround"},"geometry":{"type":"Polygon","coordinates":[[[642132.624,4824426.5015],[642129.634,4824428.0615],[642133.494,4824435.5115],[642136.484,4824433.9515],[642132.624,4824426.5015]]]}},{"type":"Feature","properties":{"id":"2245901PJ4224N_part3","floors":1,"height":3.1,"heightSource":"Catastro:numberOfFloorsAboveGround"},"geometry":{"type":"Polygon","coordinates":[[[642140.0,4824432.120636213],[642140.0,4824426.047251295],[642138.624,4824423.3915],[642135.614,4824424.9415],[642139.474,4824432.3915],[642140.0,4824432.120636213]]]}},{"type":"Feature","properties":{"id":"2245901PJ4224N_part4","floors":2,"height":6.2,"heightSource":"Catastro:numberOfFloorsAboveGround"},"geometry":{"type":"Polygon","coordinates":[[[642135.614,4824424.9415],[642132.624,4824426.5015],[642136.484,4824433.9515],[642139.474,4824432.3915],[642135.614,4824424.9415]]]}},{"type":"Feature","properties":{"id":"2245913PJ4224N_part1","floors":1,"height":3.1,"heightSource":"Catastro:numberOfFloorsAboveGround"},"geometry":{"type":"Polygon","coordinates":[[[642131.71,4824365.3665],[642124.9035,4824370.1155],[642128.16905,4824375.50405],[642135.5753,4824370.0467],[642131.71,4824365.3665]]]}},{"type":"Feature","properties":{"id":"2250401PJ4225S_part1","floors":3,"height":9.3,"heightSource":"Catastro:numberOfFloorsAboveGround"},"geometry":{"type":"Polygon","coordinates":[[[642118.851,4824868.1015],[642118.151,4824868.1115],[642118.161,4824869.1115],[642118.291,4824870.9015],[642118.191,4824870.9115],[642118.231,4824873.8115],[642118.981,4824873.8015],[642119.021,4824877.2915],[642119.631,4824879.5915],[642120.051,4824879.5915],[642120.071,4824881.2715],[642120.451,4824882.7015],[642120.091,4824882.7915],[642120.131,4824885.3915],[642120.561,4824887.8515],[642122.941,4824894.9615],[642123.141,4824895.1015],[642125.301,4824896.6415],[642124.201,4824898.1915],[642124.061,4824898.3915],[642124.551,4824898.7415],[642127.311,4824900.7115],[642135.3015,4824889.5015],[642140.0,4824882.919978805],[642140.0,4824878.837807143],[642139.7415,4824878.8415],[642139.7215,4824876.8415],[642140.0,4824876.837521429],[642140.0,4824870.036446153],[642139.0215,4824870.0515],[642139.0015,4824868.0515],[642140.0,4824868.042422728],[642140.0,4824861.551604546],[642138.9115,4824861.5615],[642138.8815,4824859.5715],[642138.8015,4824852.5515],[642138.7715,4824850.5615],[642139.8715,4824850.5515],[642140.0,4824850.044263158],[642140.0,4824845.355928571],[642139.9915,4824844.7415],[642139.7915,4824844.0515],[642138.6915,4824844.0615],[642138.6615,4824842.0615],[642139.9615,4824842.0515],[642139.9215,4824838.4415],[642137.8215,4824838.4715],[642137.8215,4824838.5715],[642135.9115,4824838.5915],[642132.7215,4824838.6315],[642132.7215,4824838.7815],[642118.4815,4824838.9615],[642118.851,4824868.1015]],[[642128.3515,4824869.4815],[642128.3115,4824866.4815],[642131.5615,4824866.4415],[642131.6015,4824869.4415],[642128.3515,4824869.4815]],[[642131.2715,4824843.0015],[642131.3115,4824846.0015],[642128.0615,4824846.0415],[642128.0215,4824843.0415],[642131.2715,4824843.0015]],[[642130.7115,4824877.9515],[642130.7515,4824880.9515],[642127.5015,4824880.9915],[642127.4615,4824877.9915],[642130.7115,4824877.9515]],[[642128.1715,4824854.6915],[642131.4215,4824854.6515],[642131.4515,4824857.6515],[642128.2115,4824857.6915],[642128.1715,4824854.6915]]]}},{"type":"Feature","properties":{"id":"2250401PJ4225S_part7","floors":3,"height":9.3,"heightSource":"Catastro:numberOfFloorsAboveGround"},"geometry":{"type":"Polygon","coordinates":[[[642117.2815,4824839.8415],[642117.2115,4824840.2815],[642117.1115,4824841.6115],[642117.1215,4824842.4915],[642117.3315,4824843.8115],[642117.5515,4824844.6715],[642117.3515,4824845.5415],[642117.2815,4824845.9815],[642117.1815,4824847.3115],[642117.1915,4824848.1915],[642117.4015,4824849.5115],[642117.6215,4824850.3715],[642117.4115,4824851.3615],[642117.2515,4824852.8515],[642117.2615,4824853.8615],[642117.4615,4824855.3515],[642117.7015,4824856.3215],[642117.501,4824857.2215],[642117.321,4824858.5915],[642117.331,4824859.5115],[642117.471,4824860.8815],[642117.551,4824861.3315],[642117.781,4824862.2215],[642117.501,4824863.5715],[642117.401,4824864.4915],[642117.411,4824865.8615],[642117.621,4824867.2215],[642117.851,4824868.1115],[642118.151,4824868.1115],[642118.851,4824868.1015],[642118.4815,4824838.9615],[642117.4815,4824838.9715],[642117.2815,4824839.8415]]]}},{"type":"Feature","properties":{"id":"2250401PJ4225S_part11","floors":4,"height":12.4,"heightSource":"Catastro:numberOfFloorsAboveGround"},"geometry":{"type":"Polygon","coordinates":[[[642117.1215,4824828.1615],[642116.9615,4824829.7515],[642116.9715,4824830.8215],[642117.1715,4824832.4015],[642117.4115,4824833.4415],[642117.2215,4824834.2215],[642117.1015,4824835.0215],[642117.0415,4824835.8115],[642117.0515,4824836.6115],[642117.1315,4824837.4115],[642117.2815,4824838.2015],[642117.4815,4824838.9715],[642118.4815,4824838.9615],[642118.3315,4824827.1015],[642117.3315,4824827.1115],[642117.1215,4824828.1615]]]}},{"type":"Feature","properties":{"id":"2250401PJ4225S_part38","floors":3,"height":9.3,"heightSource":"Catastro:numberOfFloorsAboveGround"},"geometry":{"type":"Polygon","coordinates":[[[642138.8815,4824859.5715],[642138.9115,4824861.5615],[642140.0,4824861.551604546],[642140.0,4824859.554423664],[642138.8815,4824859.5715]]]}},{"type":"Feature","properties":{"id":"2250401PJ4225S_part39","floors":3,"height":9.3,"heightSource":"Catastro:numberOfFloorsAboveGround"},"geometry":{"type":"Polygon","coordinates":[[[642138.8015,4824852.5515],[642138.8815,4824859.5715],[642140.0,4824859.554423664],[642140.0,4824852.54228077],[642138.8015,4824852.5515]]]}},{"type":"Feature","properties":{"id":"2250401PJ4225S_part40","floors":3,"height":9.3,"heightSource":"Catastro:numberOfFloorsAboveGround"},"geometry":{"type":"Polygon","coordinates":[[[642138.7715,4824850.5615],[642138.8015,4824852.5515],[642140.0,4824852.54228077],[642140.0,4824850.5515],[642139.8715,4824850.5515],[642138.7715,4824850.5615]]]}},{"type":"Feature","properties":{"id":"2250401PJ4225S_part41","floors":3,"height":9.3,"heightSource":"Catastro:numberOfFloorsAboveGround"},"geometry":{"type":"Polygon","coordinates":[[[642138.6615,4824842.0615],[642138.6915,4824844.0615],[642139.7915,4824844.0515],[642139.9915,4824844.0415],[642139.9615,4824842.0515],[642138.6615,4824842.0615]]]}},{"type":"Feature","properties":{"id":"2250401PJ4225S_part42","floors":1,"height":3.1,"heightSource":"Catastro:numberOfFloorsAboveGround"},"geometry":{"type":"Polygon","coordinates":[[[642137.7815,4824834.9215],[642137.7915,4824836.0915],[642137.8715,4824836.1915],[642140.0,4824836.165004149],[642140.0,4824834.896227549],[642137.7815,4824834.9215]]]}},{"type":"Feature","properties":{"id":"2250401PJ4225S_part45","floors":1,"height":3.1,"heightSource":"Catastro:numberOfFloorsAboveGround"},"geometry":{"type":"Polygon","coordinates":[[[642137.7715,4824834.8215],[642135.8715,4824834.8515],[642135.9115,4824838.5915],[642137.8215,4824838.5715],[642137.8215,4824838.4715],[642137.7915,4824836.0915],[642137.7815,4824834.9215],[642137.7715,4824834.8215]]]}},{"type":"Feature","properties":{"id":"2250401PJ4225S_part46","floors":4,"height":12.4,"heightSource":"Catastro:numberOfFloorsAboveGround"},"geometry":{"type":"Polygon","coordinates":[[[642131.2915,4824820.1915],[642131.3015,4824820.6915],[642137.4015,4824820.6115],[642137.4015,4824820.3715],[642134.3015,4824820.4115],[642134.2915,4824820.1615],[642131.2915,4824820.1915]]]}},{"type":"Feature","properties":{"id":"2250401PJ4225S_part47","floors":3,"height":9.3,"heightSource":"Catastro:numberOfFloorsAboveGround"},"geometry":{"type":"Polygon","coordinates":[[[642124.541,4824899.2915],[642126.151,4824902.3415],[642127.311,4824900.7115],[642124.551,4824898.7415],[642124.541,4824899.2915]]]}},{"type":"Feature","properties":{"id":"2250401PJ4225S_part48","floors":3,"height":9.3,"heightSource":"Catastro:numberOfFloorsAboveGround"},"geometry":{"type":"Polygon","coordinates":[[[642123.091,4824895.4315],[642123.901,4824897.8915],[642124.201,4824898.1915],[642125.301,4824896.6415],[642123.141,4824895.1015],[642123.091,4824895.4315]]]}},{"type":"Feature","properties":{"id":"2250401PJ4225S_part51","floors":4,"height":12.4,"heightSource":"Catastro:numberOfFloorsAboveGround"},"geometry":{"type":"Polygon","coordinates":[[[642118.3315,4824827.1015],[642118.4815,4824838.9615],[642132.7215,4824838.7815],[642132.7215,4824838.6315],[642135.9115,4824838.5915],[642135.8715,4824834.8515],[642137.7715,4824834.8215],[642137.7815,4824834.9215],[642140.0,4824834.896227549],[642140.0,4824821.335806667],[642139.512,4824821.3415],[642139.512,4824821.4915],[642137.4215,4824821.5215],[642137.4015,4824820.6115],[642131.3015,4824820.6915],[642125.1515,4824820.7715],[642122.2115,4824823.5015],[642120.6015,4824824.9915],[642118.3315,4824827.1015]],[[642127.9215,4824834.8115],[642127.8815,4824831.8115],[642131.1315,4824831.7715],[642131.1715,4824834.7715],[642127.9215,4824834.8115]]]}},{"type":"Feature","properties":{"id":"2250403PJ4225S_part1","floors":1,"height":3.1,"heightSource":"Catastro:numberOfFloorsAboveGround"},"geometry":{"type":"Polygon","coordinates":[[[642091.868,4824807.1525],[642097.2395,4824816.162],[642100.5615,4824814.161],[642095.171,4824805.171],[642091.868,4824807.1525]]]}},{"type":"Feature","properties":{"id":"2250403PJ4225S_part2","floors":4,"height":12.4,"heightSource":"Catastro:numberOfFloorsAboveGround"},"geometry":{"type":"Polygon","coordinates":[[[642139.182,4824792.2315],[642138.402,4824793.0515],[642133.122,4824793.5015],[642132.222,4824792.8315],[642130.132,4824793.0115],[642129.332,4824793.8215],[642127.592,4824793.9715],[642126.9115,4824794.9415],[642126.6715,4824794.9615],[642126.7415,4824795.7615],[642126.1415,4824795.8115],[642126.5015,4824799.9915],[642127.1015,4824799.9415],[642127.2215,4824801.4215],[642126.6315,4824801.4715],[642126.9815,4824805.6615],[642127.5815,4824805.6115],[642127.6515,4824806.4115],[642127.8915,4824806.3915],[642128.7215,4824807.2315],[642140.0,4824806.263868272],[642140.0,4824792.164964114],[642139.182,4824792.2315]]]}},{"type":"Feature","properties":{"id":"2250403PJ4225S_part3","floors":4,"height":12.4,"heightSource":"Catastro:numberOfFloorsAboveGround"},"geometry":{"type":"Polygon","coordinates":[[[642117.232,4824769.1615],[642116.4915,4824769.9715],[642116.2915,4824769.9915],[642117.5215,4824784.4415],[642117.7215,4824784.4215],[642118.5915,4824785.1015],[642127.812,4824784.3215],[642140.0,4824783.280037508],[642140.0,4824767.253464545],[642117.232,4824769.1615]]]}},{"type":"Feature","properties":{"id":"2250403PJ4225S_part4","floors":1,"height":3.1,"heightSource":"Catastro:numberOfFloorsAboveGround"},"geometry":{"type":"Polygon","coordinates":[[[642111.5515,4824816.1115],[642102.3915,4824800.851],[642095.171,4824805.171],[642100.5615,4824814.161],[642097.2395,4824816.162],[642101.001,4824822.471],[642111.5515,4824816.1115]]]}},{"type":"Feature","properties":{"id":"2250411PJ4225S_part1","floors":1,"height":3.1,"heightSource":"Catastro:numberOfFloorsAboveGround"},"geometry":{"type":"Polygon","coordinates":[[[642070.053,4824433.7305],[642065.043,4824439.8805],[642070.4205,4824445.2365],[642080.3265,4824433.3845],[642074.433,4824428.3605],[642070.053,4824433.7305]]]}},{"type":"Feature","properties":{"id":"2250411PJ4225S_part2","floors":1,"height":3.1,"heightSource":"Catastro:numberOfFloorsAboveGround"},"geometry":{"type":"Polygon","coordinates":[[[642101.8035,4824425.471],[642106.0435,4824430.531],[642111.4435,4824426.001],[642107.2035,4824420.951],[642101.8035,4824425.471]]]}},{"type":"Feature","properties":{"id":"2250411PJ4225S_part3","floors":1,"height":3.1,"heightSource":"Catastro:numberOfFloorsAboveGround"},"geometry":{"type":"Polygon","coordinates":[[[642096.1235,4824410.831],[642092.9535,4824407.241],[642090.9535,4824408.991],[642093.9535,4824412.421],[642094.6135,4824412.151],[642096.1235,4824410.831]]]}},{"type":"Feature","properties":{"id":"2250411PJ4225S_part4","floors":1,"height":3.1,"heightSource":"Catastro:numberOfFloorsAboveGround"},"geometry":{"type":"Polygon","coordinates":[[[642086.2835,4824427.831],[642089.2235,4824430.181],[642089.6335,4824430.351],[642090.0635,4824430.441],[642090.5035,4824430.451],[642090.9435,4824430.391],[642091.7535,4824430.021],[642093.0835,4824428.831],[642089.5535,4824424.431],[642086.2835,4824427.831]]]}},{"type":"Feature","properties":{"id":"2250411PJ4225S_part5","floors":2,"height":6.2,"heightSource":"Catastro:numberOfFloorsAboveGround"},"geometry":{"type":"Polygon","coordinates":[[[642085.4135,4824419.271],[642087.9135,4824422.391],[642089.5535,4824424.431],[642093.0835,4824428.831],[642102.2135,4824420.821],[642094.6135,4824412.151],[642093.9535,4824412.421],[642088.8835,4824416.541],[642085.4135,4824419.271]]]}},{"type":"Feature","properties":{"id":"2250411PJ4225S_part6","floors":1,"height":3.1,"heightSource":"Catastro:numberOfFloorsAboveGround"},"geometry":{"type":"Polygon","coordinates":[[[642083.4835,4824420.681],[642085.9935,4824423.891],[642087.9135,4824422.391],[642085.4135,4824419.271],[642083.4835,4824420.681]]]}},{"type":"Feature","properties":{"id":"2250411PJ4225S_part7","floors":1,"height":3.1,"heightSource":"Catastro:numberOfFloorsAboveGround"},"geometry":{"type":"Polygon","coordinates":[[[642081.9835,4824418.521],[642083.4835,4824420.681],[642085.4135,4824419.271],[642088.8835,4824416.541],[642085.8435,4824413.021],[642081.9835,4824418.521]]]}},{"type":"Feature","properties":{"id":"2250411PJ4225S_part8","floors":1,"height":3.1,"heightSource":"Catastro:numberOfFloorsAboveGround"},"geometry":{"type":"Polygon","coordinates":[[[642081.8435,4824423.091],[642081.983,4824425.201],[642086.2835,4824427.831],[642089.5535,4824424.431],[642087.9135,4824422.391],[642085.9935,4824423.891],[642083.4835,4824420.681],[642082.3535,4824422.201],[642081.8435,4824423.091]]]}},{"type":"Feature","properties":{"id":"2250411PJ4225S_part9","floors":1,"height":3.1,"heightSource":"Catastro:numberOfFloorsAboveGround"},"geometry":{"type":"Polygon","coordinates":[[[642080.273,4824420.961],[642082.3535,4824422.201],[642083.4835,4824420.681],[642081.9835,4824418.521],[642080.273,4824420.961]]]}},{"type":"Feature","properties":{"id":"2250411PJ4225S_part10","floors":1,"height":3.1,"heightSource":"Catastro:numberOfFloorsAboveGround"},"geometry":{"type":"Polygon","coordinates":[[[642076.123,4824426.891],[642078.183,4824428.331],[642081.8435,4824423.091],[642082.3535,4824422.201],[642080.273,4824420.961],[642076.123,4824426.891]]]}},{"type":"Feature","properties":{"id":"2250413PJ4225S_part1","floors":1,"height":3.1,"heightSource":"Catastro:numberOfFloorsAboveGround"},"geometry":{"type":"Polygon","coordinates":[[[642051.16,4824397.32],[642048.99,4824401.66],[642050.961,4824403.361],[642053.711,4824400.201],[642051.16,4824397.32]]]}},{"type":"Feature","properties":{"id":"2250413PJ4225S_part2","floors":2,"height":6.2,"heightSource":"Catastro:numberOfFloorsAboveGround"},"geometry":{"type":"Polygon","coordinates":[[[642051.87,4824387.99],[642053.75,4824389.42],[642056.03,4824391.15],[642055.54,4824391.79],[642056.91,4824392.82],[642067.6835,4824378.6705],[642068.0135,4824378.2005],[642062.492,4824374.007],[642051.87,4824387.99]]]}},{"type":"Feature","properties":{"id":"2250426PJ4225S_part22","floors":3,"height":9.3,"heightSource":"Catastro:numberOfFloorsAboveGround"},"geometry":{"type":"Polygon","coordinates":[[[642140.0,4824711.151827381],[642140.0,4824708.120636905],[642138.8425,4824707.9415],[642138.3825,4824710.9015],[642140.0,4824711.151827381]]]}},{"type":"Feature","properties":{"id":"2250426PJ4225S_part23","floors":3,"height":9.3,"heightSource":"Catastro:numberOfFloorsAboveGround"},"geometry":{"type":"Polygon","coordinates":[[[642140.0,4824722.797303571],[642140.0,4824719.764565476],[642137.0725,4824719.3115],[642136.6025,4824722.2715],[642140.0,4824722.797303571]]]}},{"type":"Feature","properties":{"id":"2250426PJ4225S_part24","floors":2,"height":6.2,"heightSource":"Catastro:numberOfFloorsAboveGround"},"geometry":{"type":"Polygon","coordinates":[[[642134.292,4824727.3415],[642135.642,4824727.7615],[642136.5725,4824727.9415],[642137.5125,4824728.0515],[642138.9225,4824728.0515],[642139.8625,4824727.9615],[642140.0,4824727.937586957],[642140.0,4824727.257700282],[642134.439,4824726.391],[642134.292,4824727.3415]]]}},{"type":"Feature","properties":{"id":"2250426PJ4225S_part26","floors":4,"height":12.4,"heightSource":"Catastro:numberOfFloorsAboveGround"},"geometry":{"type":"Polygon","coordinates":[[[642125.402,4824724.9815],[642127.682,4824725.3415],[642131.812,4824725.9815],[642134.439,4824726.391],[642140.0,4824727.257700282],[642140.0,4824722.797303571],[642136.6025,4824722.2715],[642137.0725,4824719.3115],[642140.0,4824719.764565476],[642140.0,4824711.151827381],[642138.3825,4824710.9015],[642138.8425,4824707.9415],[642140.0,4824708.120636905],[642140.0,4824632.389027216],[642139.823,4824632.3615],[642125.402,4824724.9815]]]}},{"type":"Feature","properties":{"id":"2250426PJ4225S_part27","floors":4,"height":12.4,"heightSource":"Catastro:numberOfFloorsAboveGround"},"geometry":{"type":"Polygon","coordinates":[[[642123.512,4824724.6915],[642125.402,4824724.9815],[642139.823,4824632.3615],[642137.943,4824632.0715],[642133.4925,4824660.6615],[642131.6425,4824672.5315],[642129.7325,4824684.7615],[642127.9625,4824696.1215],[642123.512,4824724.6915]]]}},{"type":"Feature","properties":{"id":"2250426PJ4225S_part28","floors":1,"height":3.1,"heightSource":"Catastro:numberOfFloorsAboveGround"},"geometry":{"type":"Polygon","coordinates":[[[642101.25,4824722.296],[642101.25,4824748.585],[642113.842,4824745.698],[642114.026,4824724.2],[642101.25,4824722.296]]]}},{"type":"Feature","properties":{"id":"2250426PJ4225S_part29","floors":1,"height":3.1,"heightSource":"Catastro:numberOfFloorsAboveGround"},"geometry":{"type":"Polygon","coordinates":[[[642121.4195,4824647.912],[642122.139,4824631.665],[642091.7165,4824630.317],[642090.9735,4824647.087],[642121.4195,4824647.912]]]}},{"type":"Feature","properties":{"id":"2253101PJ4225S_part1","floors":2,"height":6.2,"heightSource":"Catastro:numberOfFloorsAboveGround"},"geometry":{"type":"Polygon","coordinates":[[[642017.7185,4825119.3405],[642016.1985,4825126.0705],[642029.8985,4825129.1705],[642031.3885,4825122.4305],[642017.7185,4825119.3405]]]}},{"type":"Feature","properties":{"id":"2253101PJ4225S_part2","floors":1,"height":3.1,"heightSource":"Catastro:numberOfFloorsAboveGround"},"geometry":{"type":"Polygon","coordinates":[[[642013.7385,4825125.5605],[642014.6985,4825120.4705],[642012.7385,4825120.0405],[642012.3385,4825120.2105],[642011.578,4825125.1505],[642013.7385,4825125.5605]]]}},{"type":"Feature","properties":{"id":"2253102PJ4225S_part1","floors":2,"height":6.2,"heightSource":"Catastro:numberOfFloorsAboveGround"},"geometry":{"type":"Polygon","coordinates":[[[642044.9285,4825135.391],[642045.3085,4825133.661],[642046.6685,4825127.601],[642047.2185,4825125.171],[642046.6785,4825125.051],[642047.1785,4825122.791],[642042.1885,4825121.6605],[642041.6785,4825123.9005],[642037.8985,4825123.0105],[642035.9485,4825131.6105],[642035.5785,4825133.2805],[642044.9285,4825135.391]]]}},{"type":"Feature","properties":{"id":"2253103PJ4225S_part1","floors":2,"height":6.2,"heightSource":"Catastro:numberOfFloorsAboveGround"},"geometry":{"type":"Polygon","coordinates":[[[642067.909,4825140.811],[642069.899,4825132.161],[642070.019,4825131.671],[642069.689,4825131.591],[642064.369,4825130.371],[642065.249,4825126.561],[642055.229,4825124.261],[642054.099,4825129.001],[642052.5285,4825135.691],[642060.189,4825137.491],[642059.849,4825138.941],[642064.049,4825139.931],[642063.589,4825141.881],[642066.449,4825142.561],[642066.919,4825140.581],[642067.909,4825140.811]]]}},{"type":"Feature","properties":{"id":"2253104PJ4225S_part1","floors":2,"height":6.2,"heightSource":"Catastro:numberOfFloorsAboveGround"},"geometry":{"type":"Polygon","coordinates":[[[642108.9495,4825137.0015],[642095.1595,4825133.8215],[642094.8495,4825135.3815],[642094.6995,4825136.1815],[642093.8695,4825135.9915],[642091.769,4825144.901],[642097.1695,4825146.1815],[642097.4595,4825144.9515],[642106.6195,4825147.0715],[642108.8795,4825137.2815],[642108.9495,4825137.0015]]]}},{"type":"Feature","properties":{"id":"2354501PJ4225S_part1","floors":2,"height":6.2,"heightSource":"Catastro:numberOfFloorsAboveGround"},"geometry":{"type":"Polygon","coordinates":[[[642134.75,4825145.0315],[642135.23,4825142.8615],[642123.2495,4825140.2615],[642122.7195,4825142.6815],[642122.6095,4825143.1615],[642120.9295,4825150.9215],[642120.1895,4825154.3315],[642132.1495,4825157.0715],[642132.59,4825155.0015],[642134.75,4825145.0315]]]}},{"type":"Feature","properties":{"id":"27005A00100015_part1","floors":2,"height":6.2,"heightSource":"Catastro:numberOfFloorsAboveGround"},"geometry":{"type":"Polygon","coordinates":[[[641976.749,4824349.9265],[641982.1565,4824352.853],[641983.482,4824353.5905],[641987.4195,4824346.5115],[641980.561,4824342.6965],[641976.749,4824349.9265]]]}},{"type":"Feature","properties":{"id":"27005A00100015_part2","floors":1,"height":3.1,"heightSource":"Catastro:numberOfFloorsAboveGround"},"geometry":{"type":"Polygon","coordinates":[[[641978.598,4824341.623],[641976.1855,4824345.9285],[641977.088,4824346.4305],[641979.495,4824342.1035],[641978.598,4824341.623]]]}},{"type":"Feature","properties":{"id":"27005A00100015_part3","floors":1,"height":3.1,"heightSource":"Catastro:numberOfFloorsAboveGround"},"geometry":{"type":"Polygon","coordinates":[[[641974.4975,4824344.9895],[641972.4555,4824348.6595],[641976.892,4824351.027],[641975.5435,4824353.5535],[641980.457,4824356.2865],[641982.1565,4824352.853],[641976.749,4824349.9265],[641980.561,4824342.6965],[641979.495,4824342.1035],[641977.088,4824346.4305],[641976.1855,4824345.9285],[641974.4975,4824344.9895]]]}},{"type":"Feature","properties":{"id":"27005A00100038_part1","floors":1,"height":3.1,"heightSource":"Catastro:numberOfFloorsAboveGround"},"geometry":{"type":"Polygon","coordinates":[[[641939.05,4824572.26],[641950.05,4824572.26],[641950.05,4824567.51],[641949.46,4824567.51],[641947.55,4824567.51],[641947.55,4824565.32],[641947.55,4824560.81],[641946.55,4824560.81],[641946.55,4824571.66],[641940.05,4824571.66],[641940.05,4824568.06],[641939.05,4824568.06],[641939.05,4824572.26]]]}},{"type":"Feature","properties":{"id":"27005A00100038_part2","floors":1,"height":3.1,"heightSource":"Catastro:numberOfFloorsAboveGround"},"geometry":{"type":"Polygon","coordinates":[[[641943.05,4824565.31],[641943.05,4824560.81],[641942.05,4824560.81],[641942.05,4824563.31],[641942.05,4824565.31],[641943.05,4824565.31]]]}},{"type":"Feature","properties":{"id":"27005A00100038_part3","floors":2,"height":6.2,"heightSource":"Catastro:numberOfFloorsAboveGround"},"geometry":{"type":"Polygon","coordinates":[[[641940.05,4824571.66],[641946.55,4824571.66],[641946.55,4824560.81],[641943.05,4824560.81],[641943.05,4824565.31],[641943.05,4824568.06],[641940.05,4824568.06],[641940.05,4824571.66]]]}},{"type":"Feature","properties":{"id":"27005A00100038_part4","floors":1,"height":3.1,"heightSource":"Catastro:numberOfFloorsAboveGround"},"geometry":{"type":"Polygon","coordinates":[[[641940.05,4824568.06],[641943.05,4824568.06],[641943.05,4824565.31],[641942.05,4824565.31],[641939.05,4824565.31],[641939.05,4824568.06],[641940.05,4824568.06]]]}},{"type":"Feature","properties":{"id":"27005A00100054_part1","floors":1,"height":3.1,"heightSource":"Catastro:numberOfFloorsAboveGround"},"geometry":{"type":"Polygon","coordinates":[[[641963.884,4824733.895],[641965.2165,4824739.0175],[641971.63,4824739.94],[641969.67,4824732.39],[641963.884,4824733.895]]]}},{"type":"Feature","properties":{"id":"27005A00100054_part2","floors":1,"height":3.1,"heightSource":"Catastro:numberOfFloorsAboveGround"},"geometry":{"type":"Polygon","coordinates":[[[641984.22,4824740.29],[641983.26,4824736.61],[641982.01,4824736.93],[641982.96,4824740.62],[641984.22,4824740.29]]]}},{"type":"Feature","properties":{"id":"27005A00100054_part3","floors":1,"height":3.1,"heightSource":"Catastro:numberOfFloorsAboveGround"},"geometry":{"type":"Polygon","coordinates":[[[641979.6515,4824738.61],[641975.485,4824739.699],[641976.74,4824744.5],[641979.54,4824743.78],[641980.3,4824746.68],[641984.27,4824745.65],[641982.96,4824740.62],[641982.01,4824736.93],[641980.5,4824731.13],[641977.89,4824731.8055],[641979.6515,4824738.61]]]}},{"type":"Feature","properties":{"id":"27005A00100054_part4","floors":2,"height":6.2,"heightSource":"Catastro:numberOfFloorsAboveGround"},"geometry":{"type":"Polygon","coordinates":[[[641973.7055,4824732.889],[641975.3,4824738.99],[641975.485,4824739.699],[641979.6515,4824738.61],[641977.89,4824731.8055],[641973.7055,4824732.889]]]}},{"type":"Feature","properties":{"id":"27005A00100054_part5","floors":1,"height":3.1,"heightSource":"Catastro:numberOfFloorsAboveGround"},"geometry":{"type":"Polygon","coordinates":[[[641973.3265,4824731.439],[641973.7055,4824732.889],[641977.89,4824731.8055],[641977.5145,4824730.3545],[641973.3265,4824731.439]]]}},{"type":"Feature","properties":{"id":"27005A00100054_part6","floors":1,"height":3.1,"heightSource":"Catastro:numberOfFloorsAboveGround"},"geometry":{"type":"Polygon","coordinates":[[[641969.67,4824732.39],[641971.63,4824739.94],[641975.3,4824738.99],[641973.7055,4824732.889],[641973.3265,4824731.439],[641969.67,4824732.39]]]}},{"type":"Feature","properties":{"id":"27005A00100065_part1","floors":4,"height":12.4,"heightSource":"Catastro:numberOfFloorsAboveGround"},"geometry":{"type":"Polygon","coordinates":[[[641982.8685,4824970.35],[641985.8885,4824977.16],[641989.359,4824975.62],[641990.769,4824974.99],[641987.759,4824968.19],[641985.339,4824969.26],[641982.8685,4824970.35]]]}},{"type":"Feature","properties":{"id":"27005A00100065_part2","floors":1,"height":3.1,"heightSource":"Catastro:numberOfFloorsAboveGround"},"geometry":{"type":"Polygon","coordinates":[[[641976.1085,4824949.82],[641979.6885,4824957.3],[641986.189,4824954.19],[641982.599,4824946.71],[641976.1085,4824949.82]]]}},{"type":"Feature","properties":{"id":"27005A00100065_part3","floors":3,"height":9.3,"heightSource":"Catastro:numberOfFloorsAboveGround"},"geometry":{"type":"Polygon","coordinates":[[[641981.4085,4824971.0],[641985.0485,4824979.23],[641988.4285,4824977.73],[641989.979,4824977.04],[641989.359,4824975.62],[641985.8885,4824977.16],[641982.8685,4824970.35],[641981.4085,4824971.0]]]}},{"type":"Feature","properties":{"id":"27005A00100065_part4","floors":3,"height":9.3,"heightSource":"Catastro:numberOfFloorsAboveGround"},"geometry":{"type":"Polygon","coordinates":[[[641980.6385,4824969.26],[641981.4085,4824971.0],[641982.8685,4824970.35],[641985.339,4824969.26],[641984.569,4824967.52],[641980.6385,4824969.26]]]}},{"type":"Feature","properties":{"id":"27005A00100065_part5","floors":3,"height":9.3,"heightSource":"Catastro:numberOfFloorsAboveGround"},"geometry":{"type":"Polygon","coordinates":[[[641980.0285,4824967.89],[641980.6385,4824969.26],[641984.569,4824967.52],[641983.959,4824966.15],[641980.0285,4824967.89]]]}},{"type":"Feature","properties":{"id":"27005A00100065_part6","floors":3,"height":9.3,"heightSource":"Catastro:numberOfFloorsAboveGround"},"geometry":{"type":"Polygon","coordinates":[[[641989.359,4824975.62],[641989.979,4824977.04],[641992.859,4824975.77],[641992.229,4824974.35],[641990.769,4824974.99],[641989.359,4824975.62]]]}},{"type":"Feature","properties":{"id":"27005A00100065_part7","floors":2,"height":6.2,"heightSource":"Catastro:numberOfFloorsAboveGround"},"geometry":{"type":"Polygon","coordinates":[[[641988.4285,4824977.73],[641988.9285,4824978.87],[641991.909,4824977.56],[641993.369,4824976.91],[641992.859,4824975.77],[641989.979,4824977.04],[641988.4285,4824977.73]]]}},{"type":"Feature","properties":{"id":"27005A00100065_part8","floors":3,"height":9.3,"heightSource":"Catastro:numberOfFloorsAboveGround"},"geometry":{"type":"Polygon","coordinates":[[[641984.569,4824967.52],[641985.339,4824969.26],[641987.759,4824968.19],[641990.769,4824974.99],[641992.229,4824974.35],[641988.459,4824965.8],[641984.569,4824967.52]]]}},{"type":"Feature","properties":{"id":"27005A00100065_part9","floors":2,"height":6.2,"heightSource":"Catastro:numberOfFloorsAboveGround"},"geometry":{"type":"Polygon","coordinates":[[[641987.849,4824964.43],[641983.959,4824966.15],[641984.569,4824967.52],[641988.459,4824965.8],[641987.849,4824964.43]]]}},{"type":"Feature","properties":{"id":"27005A00100066_part1","floors":3,"height":9.3,"heightSource":"Catastro:numberOfFloorsAboveGround"},"geometry":{"type":"Polygon","coordinates":[[[642032.6995,4824964.9705],[642033.1895,4824965.9005],[642033.6495,4824966.7905],[642036.4395,4824965.3205],[642035.4895,4824963.5105],[642033.7195,4824964.4405],[642032.6995,4824964.9705]]]}},{"type":"Feature","properties":{"id":"27005A00100066_part2","floors":4,"height":12.4,"heightSource":"Catastro:numberOfFloorsAboveGround"},"geometry":{"type":"Polygon","coordinates":[[[642031.3195,4824959.8805],[642029.5095,4824960.8305],[642028.9995,4824959.8605],[642028.0195,4824960.3705],[642028.5295,4824961.3505],[642026.7195,4824962.3005],[642029.1195,4824966.8605],[642030.4895,4824966.1405],[642030.9795,4824967.0705],[642033.1895,4824965.9005],[642032.6995,4824964.9705],[642033.7195,4824964.4405],[642031.3195,4824959.8805]]]}},{"type":"Feature","properties":{"id":"27005A00100066_part3","floors":2,"height":6.2,"heightSource":"Catastro:numberOfFloorsAboveGround"},"geometry":{"type":"Polygon","coordinates":[[[642025.7095,4824967.5805],[642027.0995,4824970.2305],[642028.2095,4824969.6505],[642026.8095,4824966.9905],[642025.7095,4824967.5805]]]}},{"type":"Feature","properties":{"id":"27005A00100066_part4","floors":3,"height":9.3,"heightSource":"Catastro:numberOfFloorsAboveGround"},"geometry":{"type":"Polygon","coordinates":[[[642024.1695,4824964.6505],[642025.7095,4824967.5805],[642026.8095,4824966.9905],[642025.2795,4824964.0705],[642024.1695,4824964.6505]]]}},{"type":"Feature","properties":{"id":"27005A00100066_part5","floors":3,"height":9.3,"heightSource":"Catastro:numberOfFloorsAboveGround"},"geometry":{"type":"Polygon","coordinates":[[[642023.8795,4824961.4205],[642025.2795,4824964.0705],[642026.8095,4824966.9905],[642028.2095,4824969.6505],[642033.6495,4824966.7905],[642033.1895,4824965.9005],[642030.9795,4824967.0705],[642030.4895,4824966.1405],[642029.1195,4824966.8605],[642026.7195,4824962.3005],[642028.5295,4824961.3505],[642028.0195,4824960.3705],[642028.9995,4824959.8605],[642029.5095,4824960.8305],[642031.3195,4824959.8805],[642033.7195,4824964.4405],[642035.4895,4824963.5105],[642032.1095,4824957.0905],[642027.7795,4824959.3705],[642023.8795,4824961.4205]]]}},{"type":"Feature","properties":{"id":"27005A00100066_part6","floors":2,"height":6.2,"heightSource":"Catastro:numberOfFloorsAboveGround"},"geometry":{"type":"Polygon","coordinates":[[[642022.7795,4824962.0005],[642024.1695,4824964.6505],[642025.2795,4824964.0705],[642023.8795,4824961.4205],[642022.7795,4824962.0005]]]}},{"type":"Feature","properties":{"id":"27005A00100078_part1","floors":1,"height":3.1,"heightSource":"Catastro:numberOfFloorsAboveGround"},"geometry":{"type":"Polygon","coordinates":[[[642055.63,4824838.19],[642038.76,4824841.0],[642039.7,4824846.67],[642050.25,4824844.92],[642056.57,4824843.87],[642055.63,4824838.19]]]}},{"type":"Feature","properties":{"id":"27005A00100078_part2","floors":1,"height":3.1,"heightSource":"Catastro:numberOfFloorsAboveGround"},"geometry":{"type":"Polygon","coordinates":[[[642051.27,4824851.09],[642043.43,4824852.39],[642044.041,4824856.0995],[642044.9,4824861.27],[642047.439,4824860.851],[642059.06,4824858.92],[642056.57,4824843.87],[642050.25,4824844.92],[642051.27,4824851.09]]]}},{"type":"Feature","properties":{"id":"27005A00100083_part1","floors":1,"height":3.1,"heightSource":"Catastro:numberOfFloorsAboveGround"},"geometry":{"type":"Polygon","coordinates":[[[642006.5,4824747.29],[642009.77,4824755.94],[642011.17,4824755.41],[642007.9,4824746.76],[642006.5,4824747.29]]]}},{"type":"Feature","properties":{"id":"27005A00100083_part2","floors":2,"height":6.2,"heightSource":"Catastro:numberOfFloorsAboveGround"},"geometry":{"type":"Polygon","coordinates":[[[642019.29,4824767.01],[642020.45,4824770.08],[642024.66,4824768.49],[642023.5,4824765.42],[642019.29,4824767.01]]]}},{"type":"Feature","properties":{"id":"27005A00100083_part3","floors":2,"height":6.2,"heightSource":"Catastro:numberOfFloorsAboveGround"},"geometry":{"type":"Polygon","coordinates":[[[642019.62,4824755.13],[642015.41,4824756.72],[642019.29,4824767.01],[642023.5,4824765.42],[642019.62,4824755.13]]]}},{"type":"Feature","properties":{"id":"27005A00100083_part4","floors":1,"height":3.1,"heightSource":"Catastro:numberOfFloorsAboveGround"},"geometry":{"type":"Polygon","coordinates":[[[642009.77,4824755.94],[642011.18,4824759.68],[642012.58,4824759.15],[642011.17,4824755.41],[642009.77,4824755.94]]]}},{"type":"Feature","properties":{"id":"27005A00100083_part5","floors":1,"height":3.1,"heightSource":"Catastro:numberOfFloorsAboveGround"},"geometry":{"type":"Polygon","coordinates":[[[642027.93,4824767.25],[642023.23,4824754.81],[642026.13,4824753.71],[642024.65,4824749.78],[642021.75,4824750.88],[642018.66,4824742.69],[642007.9,4824746.76],[642011.17,4824755.41],[642012.58,4824759.15],[642017.18,4824771.31],[642020.45,4824770.08],[642019.29,4824767.01],[642015.41,4824756.72],[642019.62,4824755.13],[642023.5,4824765.42],[642024.66,4824768.49],[642027.93,4824767.25]]]}},{"type":"Feature","properties":{"id":"27005A00100096_part4","floors":1,"height":3.1,"heightSource":"Catastro:numberOfFloorsAboveGround"},"geometry":{"type":"Polygon","coordinates":[[[642001.671,4824660.61],[642001.661,4824658.75],[642000.561,4824658.76],[641998.6705,4824658.77],[641998.6705,4824660.62],[642001.671,4824660.61]]]}},{"type":"Feature","properties":{"id":"27005A00100096_part5","floors":2,"height":6.2,"heightSource":"Catastro:numberOfFloorsAboveGround"},"geometry":{"type":"Polygon","coordinates":[[[641994.7105,4824658.79],[641994.7205,4824660.64],[641998.6705,4824660.62],[641998.6705,4824658.77],[641994.7105,4824658.79]]]}},{"type":"Feature","properties":{"id":"27005A00100096_part8","floors":3,"height":9.3,"heightSource":"Catastro:numberOfFloorsAboveGround"},"geometry":{"type":"Polygon","coordinates":[[[641993.7405,4824654.19],[641992.4405,4824654.2],[641992.4605,4824657.95],[641994.3605,4824657.94],[641994.3605,4824658.79],[641994.7105,4824658.79],[641998.6705,4824658.77],[642000.561,4824658.76],[642000.561,4824657.91],[642002.461,4824657.91],[642002.431,4824651.16],[642000.531,4824651.17],[642000.531,4824650.31],[641998.431,4824650.32],[641996.431,4824650.33],[641994.3305,4824650.34],[641994.3305,4824651.19],[641993.7305,4824651.19],[641993.7405,4824654.19]]]}},{"type":"Feature","properties":{"id":"27005A00100096_part9","floors":3,"height":9.3,"heightSource":"Catastro:numberOfFloorsAboveGround"},"geometry":{"type":"Polygon","coordinates":[[[641992.4305,4824651.2],[641992.4405,4824654.2],[641993.7405,4824654.19],[641993.7305,4824651.19],[641992.4305,4824651.2]]]}},{"type":"Feature","properties":{"id":"27005A00100108_part1","floors":1,"height":3.1,"heightSource":"Catastro:numberOfFloorsAboveGround"},"geometry":{"type":"Polygon","coordinates":[[[641971.5821,4824563.0958],[641973.31895,4824566.933],[641975.19105,4824566.0444],[641973.48045,4824562.17645],[641971.5821,4824563.0958]]]}},{"type":"Feature","properties":{"id":"27005A00100108_part2","floors":1,"height":3.1,"heightSource":"Catastro:numberOfFloorsAboveGround"},"geometry":{"type":"Polygon","coordinates":[[[641984.0863,4824578.52635],[641985.0836,4824580.72975],[641986.3252,4824580.157],[641985.4586,4824577.9052],[641984.0863,4824578.52635]]]}},{"type":"Feature","properties":{"id":"27005A00100108_part3","floors":1,"height":3.1,"heightSource":"Catastro:numberOfFloorsAboveGround"},"geometry":{"type":"Polygon","coordinates":[[[641983.177,4824571.9766],[641976.89825,4824574.84085],[641974.9803,4824575.709],[641977.58705,4824581.4681],[641984.0863,4824578.52635],[641985.4586,4824577.9052],[641983.177,4824571.9766]]]}},{"type":"Feature","properties":{"id":"27005A00100108_part4","floors":1,"height":3.1,"heightSource":"Catastro:numberOfFloorsAboveGround"},"geometry":{"type":"Polygon","coordinates":[[[641982.5526,4824570.35415],[641982.26565,4824569.60855],[641981.39435,4824567.3445],[641980.01315,4824563.75555],[641979.751,4824563.88],[641977.85135,4824564.7817],[641980.64295,4824571.20255],[641982.5526,4824570.35415]]]}},{"type":"Feature","properties":{"id":"27005A00100108_part5","floors":2,"height":6.2,"heightSource":"Catastro:numberOfFloorsAboveGround"},"geometry":{"type":"Polygon","coordinates":[[[641975.411,4824565.94],[641973.31895,4824566.933],[641976.1541,4824573.1968],[641976.83645,4824572.89365],[641980.64295,4824571.20255],[641977.85135,4824564.7817],[641975.411,4824565.94]]]}},{"type":"Feature","properties":{"id":"27005A00100108_part6","floors":1,"height":3.1,"heightSource":"Catastro:numberOfFloorsAboveGround"},"geometry":{"type":"Polygon","coordinates":[[[641976.83645,4824572.89365],[641977.56615,4824574.53615],[641983.177,4824571.9766],[641982.5526,4824570.35415],[641976.83645,4824572.89365]]]}},{"type":"Feature","properties":{"id":"27005A00100108_part7","floors":1,"height":3.1,"heightSource":"Catastro:numberOfFloorsAboveGround"},"geometry":{"type":"Polygon","coordinates":[[[641978.85985,4824560.7588],[641978.3549,4824559.81575],[641973.48045,4824562.17645],[641975.19105,4824566.0444],[641975.411,4824565.94],[641979.751,4824563.88],[641980.01315,4824563.75555],[641978.85985,4824560.7588]]]}},{"type":"Feature","properties":{"id":"27005A00100162_part1","floors":2,"height":6.2,"heightSource":"Catastro:numberOfFloorsAboveGround"},"geometry":{"type":"Polygon","coordinates":[[[641931.7705,4824443.3159],[641931.29355,4824442.988],[641929.40055,4824443.43515],[641929.0279,4824443.98665],[641929.1587,4824444.38955],[641923.82065,4824445.6272],[641924.8495,4824450.0646],[641929.9251,4824448.8142],[641930.93865,4824453.22625],[641937.07875,4824451.806],[641935.9916,4824446.8616],[641936.6547,4824446.7158],[641935.8045,4824442.8487],[641931.90405,4824443.75305],[641931.7705,4824443.3159]]]}},{"type":"Feature","properties":{"id":"27005A00100162_part2","floors":1,"height":3.1,"heightSource":"Catastro:numberOfFloorsAboveGround"},"geometry":{"type":"Polygon","coordinates":[[[641930.93865,4824453.22625],[641929.55245,4824453.53925],[641928.56145,4824449.15015],[641927.4134,4824449.433],[641928.49415,4824454.06095],[641930.9971,4824453.47645],[641930.93865,4824453.22625]]]}},{"type":"Feature","properties":{"id":"27005A00100162_part3","floors":2,"height":6.2,"heightSource":"Catastro:numberOfFloorsAboveGround"},"geometry":{"type":"Polygon","coordinates":[[[641929.9251,4824448.8142],[641928.56145,4824449.15015],[641929.55245,4824453.53925],[641930.93865,4824453.22625],[641929.9251,4824448.8142]]]}},{"type":"Feature","properties":{"id":"27005A00100162_part5","floors":1,"height":3.1,"heightSource":"Catastro:numberOfFloorsAboveGround"},"geometry":{"type":"Polygon","coordinates":[[[641937.3182,4824451.7506],[641938.51815,4824451.46135],[641936.48475,4824442.691],[641935.8045,4824442.8487],[641936.6547,4824446.7158],[641935.9916,4824446.8616],[641937.07875,4824451.806],[641937.3182,4824451.7506]]]}},{"type":"Feature","properties":{"id":"27005A00100162_part7","floors":1,"height":3.1,"heightSource":"Catastro:numberOfFloorsAboveGround"},"geometry":{"type":"Polygon","coordinates":[[[641938.018,4824454.65385],[641937.3182,4824451.7506],[641937.07875,4824451.806],[641930.93865,4824453.22625],[641931.6185,4824456.13755],[641937.7201,4824454.7229],[641938.018,4824454.65385]]]}},{"type":"Feature","properties":{"id":"27005A00100163_part1","floors":2,"height":6.2,"heightSource":"Catastro:numberOfFloorsAboveGround"},"geometry":{"type":"Polygon","coordinates":[[[641972.85,4824437.39],[641971.61,4824439.67],[641972.13,4824440.7],[641974.0,4824437.27],[641972.85,4824437.39]]]}},{"type":"Feature","properties":{"id":"27005A00100163_part2","floors":1,"height":3.1,"heightSource":"Catastro:numberOfFloorsAboveGround"},"geometry":{"type":"Polygon","coordinates":[[[641983.17,4824446.36],[641982.56,4824446.03],[641980.12,4824450.51],[641981.26,4824451.13],[641985.56,4824443.22],[641985.03,4824442.93],[641983.17,4824446.36]]]}},{"type":"Feature","properties":{"id":"27005A00100163_part3","floors":1,"height":3.1,"heightSource":"Catastro:numberOfFloorsAboveGround"},"geometry":{"type":"Polygon","coordinates":[[[641974.47,4824451.58],[641976.74,4824452.83],[641977.63,4824452.57],[641974.2,4824450.7],[641974.47,4824451.58]]]}},{"type":"Feature","properties":{"id":"27005A00100163_part4","floors":2,"height":6.2,"heightSource":"Catastro:numberOfFloorsAboveGround"},"geometry":{"type":"Polygon","coordinates":[[[641973.35,4824446.83],[641974.57,4824447.5],[641976.73,4824443.54],[641975.51,4824442.88],[641973.35,4824446.83]]]}},{"type":"Feature","properties":{"id":"27005A00100163_part5","floors":1,"height":3.1,"heightSource":"Catastro:numberOfFloorsAboveGround"},"geometry":{"type":"Polygon","coordinates":[[[641973.15,4824450.13],[641974.2,4824450.7],[641977.63,4824452.57],[641978.68,4824453.14],[641980.12,4824450.51],[641974.57,4824447.5],[641974.48,4824447.67],[641973.15,4824450.13]]]}},{"type":"Feature","properties":{"id":"27005A00100163_part6","floors":1,"height":3.1,"heightSource":"Catastro:numberOfFloorsAboveGround"},"geometry":{"type":"Polygon","coordinates":[[[641972.25,4824446.46],[641974.48,4824447.67],[641974.57,4824447.5],[641973.35,4824446.83],[641975.51,4824442.88],[641974.5,4824442.33],[641972.25,4824446.46]]]}},{"type":"Feature","properties":{"id":"27005A00100163_part7","floors":2,"height":6.2,"heightSource":"Catastro:numberOfFloorsAboveGround"},"geometry":{"type":"Polygon","coordinates":[[[641971.99,4824440.96],[641974.5,4824442.33],[641975.51,4824442.88],[641976.73,4824443.54],[641974.57,4824447.5],[641980.12,4824450.51],[641982.56,4824446.03],[641983.17,4824446.36],[641985.03,4824442.93],[641981.35,4824440.93],[641981.55,4824440.56],[641981.57,4824440.09],[641979.55,4824438.99],[641979.17,4824439.26],[641978.97,4824439.63],[641974.14,4824437.01],[641974.0,4824437.27],[641972.13,4824440.7],[641971.99,4824440.96]]]}},{"type":"Feature","properties":{"id":"27005A00100164_part1","floors":1,"height":3.1,"heightSource":"Catastro:numberOfFloorsAboveGround"},"geometry":{"type":"Polygon","coordinates":[[[641963.7135,4824410.04295],[641969.2044,4824413.1316],[641970.6752,4824410.5169],[641965.17805,4824407.4393],[641963.7135,4824410.04295]]]}},{"type":"Feature","properties":{"id":"27005A00100164_part2","floors":2,"height":6.2,"heightSource":"Catastro:numberOfFloorsAboveGround"},"geometry":{"type":"Polygon","coordinates":[[[641963.60125,4824397.3066],[641962.3431,4824399.641],[641962.8418,4824400.5781],[641964.71935,4824397.2402],[641963.60125,4824397.3066]]]}},{"type":"Feature","properties":{"id":"27005A00100164_part3","floors":1,"height":3.1,"heightSource":"Catastro:numberOfFloorsAboveGround"},"geometry":{"type":"Polygon","coordinates":[[[641965.2123,4824402.28095],[641962.8888,4824406.38655],[641965.0922,4824407.5919],[641965.17805,4824407.4393],[641963.99535,4824406.7655],[641966.1867,4824402.82905],[641965.2123,4824402.28095]]]}},{"type":"Feature","properties":{"id":"27005A00100164_part4","floors":2,"height":6.2,"heightSource":"Catastro:numberOfFloorsAboveGround"},"geometry":{"type":"Polygon","coordinates":[[[641963.99535,4824406.7655],[641965.17805,4824407.4393],[641967.39045,4824403.50615],[641966.1867,4824402.82905],[641963.99535,4824406.7655]]]}},{"type":"Feature","properties":{"id":"27005A00100164_part5","floors":2,"height":6.2,"heightSource":"Catastro:numberOfFloorsAboveGround"},"geometry":{"type":"Polygon","coordinates":[[[641972.2871,4824400.58085],[641972.2871,4824400.14125],[641970.3013,4824399.0195],[641969.89205,4824399.2772],[641969.71365,4824399.6499],[641964.8901,4824396.93665],[641962.68395,4824400.85875],[641967.39045,4824403.50615],[641965.17805,4824407.4393],[641970.6752,4824410.5169],[641973.2269,4824406.0682],[641973.7878,4824406.46235],[641975.7183,4824403.0275],[641972.05305,4824400.9658],[641972.2871,4824400.58085]]]}},{"type":"Feature","properties":{"id":"27005A00100164_part6","floors":1,"height":3.1,"heightSource":"Catastro:numberOfFloorsAboveGround"},"geometry":{"type":"Polygon","coordinates":[[[641973.7878,4824406.46235],[641973.2269,4824406.0682],[641970.6752,4824410.5169],[641971.80825,4824411.1542],[641976.2206,4824403.31005],[641975.7183,4824403.0275],[641973.7878,4824406.46235]]]}},{"type":"Feature","properties":{"id":"27005A00100164_part7","floors":1,"height":3.1,"heightSource":"Catastro:numberOfFloorsAboveGround"},"geometry":{"type":"Polygon","coordinates":[[[641965.0413,4824411.495],[641967.3151,4824412.78345],[641968.1806,4824412.5557],[641964.78915,4824410.648],[641965.0413,4824411.495]]]}}]}
