{"type":"FeatureCollection","name":"barreiros-longara-coastline","crs":{"type":"name","properties":{"name":"EPSG:25829"}},"features":[{"type":"Feature","properties":{"source":"IHM"},"geometry":{"type":"LineString","coordinates":[[646281.2215649721,4824684.268561033],[646287.3854872806,4824687.66966287],[646290.9408530821,4824694.714046],[646290.2618532113,4824701.3994741775],[646287.032564329,4824705.718135212],[646276.267450753,4824711.005950573],[646249.83680399,4824713.5968208825],[646218.241434809,4824711.430692622],[646141.5799187426,4824700.827624511],[646105.5357428972,4824701.098592392],[646064.5519738498,4824706.684664872],[646045.202345607,4824706.930340698],[646018.1522022927,4824709.775315643],[645987.9534643579,4824718.440996687],[645962.3861443064,4824723.3296163855],[645899.4701495395,4824727.550897444]]}},{"type":"Feature","properties":{"source":"IHM"},"geometry":{"type":"LineString","coordinates":[[646643.2919639023,4824773.560297084],[646683.9078730452,4824742.668787939],[646690.0,4824741.378843214]]}},{"type":"Feature","properties":{"source":"IHM"},"geometry":{"type":"LineString","coordinates":[[646282.6989504796,4824678.767236628],[646292.3875700216,4824675.789380712],[646295.5613438888,4824676.614129526],[646298.6495367518,4824689.892990321],[646308.2555447553,4824703.680590726],[646320.6610003238,4824713.962440552],[646335.2443052987,4824733.314321471],[646344.6930774243,4824740.965010747],[646345.6603412679,4824748.4863548],[646339.8700564814,4824756.860409046],[646339.9355308178,4824760.5286282785],[646345.1486937196,4824770.842631017],[646346.8031478834,4824782.42354076],[646349.7106299743,4824786.564848179],[646358.7890891616,4824794.518610148],[646358.153102677,4824797.00482893],[646355.7702659328,4824798.819604841],[646355.524126997,4824801.214320485],[646359.0758130674,4824816.203384233],[646363.8488158543,4824818.907546917],[646367.1873354604,4824818.102535962],[646364.2662446153,4824807.916270578],[646362.1758520119,4824802.248274608],[646375.495028689,4824802.483149329],[646388.1249142037,4824806.536483836],[646395.141327677,4824815.300913808],[646400.5885202474,4824815.619723891],[646403.1347840319,4824804.830439104],[646409.264171312,4824799.0639234455],[646422.4637383793,4824796.262843362],[646433.8360337862,4824796.477588199],[646452.1327012754,4824801.154686096],[646456.4593781661,4824804.315860786],[646463.3126214074,4824819.4436956905],[646467.0131226795,4824822.046751511],[646470.769845712,4824822.073167963],[646484.2998348383,4824814.868153727],[646492.2136647471,4824811.385176218],[646519.3943400461,4824810.700599326],[646523.7846507287,4824811.685353091],[646528.4185854986,4824821.49796355],[646532.8459510333,4824823.005773315],[646540.8831100097,4824820.536691753],[646541.6461684415,4824820.375566254],[646563.5270640168,4824851.476611403],[646557.3399561055,4824863.953081842],[646557.661886999,4824876.593896681],[646553.8720069114,4824894.000663987],[646555.2032996553,4824898.529892522],[646557.6889065842,4824900.150886528],[646566.662304521,4824899.946806578],[646570.9960935131,4824904.997173037],[646576.1393698225,4824909.609647546],[646586.9275377981,4824911.034171115],[646597.7636954366,4824921.360082218],[646601.1612723714,4824922.289874302],[646609.7199043487,4824919.987829615],[646616.0339110057,4824911.692105297],[646623.5110502748,4824901.566170956],[646625.0530451112,4824893.48844903],[646624.8488444709,4824877.683414891],[646626.1458992355,4824874.900535026],[646628.8880327062,4824875.504900013],[646633.5515694958,4824879.884708895],[646636.1516876301,4824878.852581849],[646638.263274905,4824875.031904391],[646641.5400035065,4824874.836812854],[646647.6244752867,4824881.858881027],[646651.4299742682,4824881.130882548],[646654.9497591675,4824877.207638437],[646659.3751651179,4824860.681500199],[646660.6262311095,4824847.430572896],[646657.8550847073,4824842.236505317],[646652.6292758641,4824837.333266027],[646641.8882365756,4824825.609297475],[646634.5002764467,4824812.41409551],[646633.738519595,4824806.597244705],[646635.3697964769,4824798.132572301],[646643.1614699174,4824786.19123745],[646647.1819636538,4824779.323263751],[646643.2919639023,4824773.560297084]]}},{"type":"Feature","properties":{"source":"IHM"},"geometry":{"type":"LineString","coordinates":[[645461.0,4824756.630743993],[645468.9952496744,4824753.598156923],[645474.8766242233,4824751.781116717],[645515.3791917901,4824741.136463449],[645518.9641220749,4824743.869810021],[645523.9060680161,4824744.38806917],[645526.7221845316,4824743.449092721],[645526.6864046842,4824739.881548411],[645526.1517635137,4824738.825483272],[645560.0715547577,4824731.79404744],[645590.6210726759,4824728.156447618],[645605.6414559287,4824727.448880606],[645608.1609667839,4824728.636899114],[645610.3022944956,4824727.51664802],[645661.0114605213,4824726.516765662],[645659.9812425595,4824735.639124293],[645657.7351984975,4824741.9572407985],[645663.6578013401,4824747.552587495],[645664.9915474652,4824754.603959779],[645667.0538053104,4824754.148697181],[645673.1634747746,4824760.05923303],[645681.407696787,4824761.438187116],[645687.3690685576,4824764.500989369],[645695.7468270604,4824758.238187721],[645709.7333833219,4824758.997350016],[645714.7923585026,4824757.473785525],[645717.114274475,4824751.757350681],[645716.586416915,4824745.923495683],[645711.5845684571,4824737.370220806],[645725.7757369162,4824735.03376337],[645754.7813005189,4824733.663457463],[645780.8789843358,4824733.363491267],[645803.574943888,4824731.200793531],[645804.6641449102,4824733.880088465],[645809.7447796814,4824738.057237929],[645813.9829860857,4824738.238192615],[645832.4457910394,4824736.405874467],[645834.2824233418,4824735.179070486],[645833.9400148751,4824731.971533414],[645851.6878244719,4824733.668287079],[645851.496151947,4824739.886536127],[645863.0902949946,4824762.616936689],[645870.9283274945,4824765.954026227],[645877.2535351885,4824759.335718398],[645891.4626449283,4824758.777833114],[645900.9950706443,4824760.740629551],[645906.9184469649,4824757.369271185],[645914.0744098404,4824749.335675729],[645912.5530352138,4824736.802215028],[645911.3639746266,4824733.142921706],[645907.3700756576,4824729.900453812],[645899.4701495395,4824727.550897444]]}}]}
