{"type":"FeatureCollection","name":"barreiros-area-da-balea-roads","crs":{"type":"name","properties":{"name":"EPSG:25829"}},"source":"\u00a9 OpenStreetMap contributors, ODbL 1.0","features":[{"type":"Feature","properties":{"class":"footway","widthMeters":2},"geometry":{"type":"Polygon","coordinates":[[[645094.4206479483,4824651.716084887],[645094.3272693149,4824651.701400169],[645094.2329213204,4824651.695597923],[645094.1384469839,4824651.698729995],[645094.0446904534,4824651.710768396],[645093.9524894634,4824651.731605564],[645093.8626678488,4824651.761055313],[645093.7760281849,4824651.798854503],[645093.6933446153,4824651.84466539],[645093.6153559348,4824651.898078646],[645093.5427589887,4824651.95861701],[645092.6072987336,4824652.816818363],[645091.22845907,4824649.484078391],[645091.1935114702,4824649.408646958],[645091.1524191505,4824649.336379004],[645089.5825662207,4824646.82460733],[645089.5316967764,4824646.750796859],[645089.4744218494,4824646.681838402],[645089.4112016831,4824646.618286088],[645089.3425442951,4824646.560650603],[645086.1471448916,4824644.113748151],[645086.0732018376,4824644.062239748],[645085.9949220588,4824644.0175970895],[645081.5993910668,4824641.766985935],[645081.5124111444,4824641.727572628],[645081.4220684003,4824641.696635527],[645081.3291866623,4824641.674456743],[645076.8378459088,4824640.826362066],[645074.0406984355,4824639.263033829],[645071.2981470493,4824637.394502836],[645071.2056146519,4824637.338534945],[645071.1075797069,4824637.292886297],[645071.0051886988,4824637.258090739],[645066.7564552535,4824636.066244329],[645066.6830249309,4824636.048607405],[645066.6084730299,4824636.036562181],[645062.5548482969,4824635.53784109],[645062.4754494157,4824635.531270184],[645062.3957794304,4824635.531040844],[645058.603077094,4824635.671309888],[645058.5197550227,4824635.677886765],[645058.4372732115,4824635.691398747],[645058.3562078635,4824635.711751443],[645054.6478616708,4824636.809425102],[645054.5450636833,4824636.846063698],[645054.4468703379,4824636.89368596],[645054.3544510986,4824636.9517247155],[645047.5519604905,4824641.760414967],[645047.4611331862,4824641.832888366],[645047.3793261007,4824641.915408626],[645042.8484294799,4824647.050972417],[645042.8418731836,4824647.058478749],[645040.5877023283,4824649.665395227],[645040.5204206394,4824649.752460766],[645040.4631118103,4824649.846391229],[645040.4164696924,4824649.946049377],[645038.3501239842,4824655.079310412],[645038.3197854484,4824655.165964782],[645038.297522287,4824655.255036429],[645038.2835221653,4824655.345774531],[645037.3330757908,4824664.181016892],[645037.3279173694,4824664.25398003],[645036.7534178885,4824681.144125559],[645034.6467002498,4824698.829744074],[645032.5112774568,4824715.349859539],[645029.0370215733,4824728.725047984],[645029.0346034324,4824728.7345484765],[645026.8969570076,4824737.308622552],[645023.5667875162,4824749.2677339995],[645022.1014502974,4824753.111297794],[645017.4657702564,4824758.144758046],[645017.4166421697,4824758.202329413],[645017.3720088832,4824758.26345143],[645014.6098293384,4824762.363266599],[645010.3165636504,4824767.301157206],[645010.2627521856,4824767.368735053],[645008.255880623,4824770.125451014],[645008.2011817854,4824770.209069237],[645008.1551006876,4824770.297728713],[645008.118097402,4824770.3905442655],[645008.0905413681,4824770.48658923],[645007.1378357774,4824774.566111177],[645007.1345822408,4824774.580522867],[645005.5650258464,4824781.780131441],[645005.5588904418,4824781.810532645],[645004.5805159743,4824787.07841915],[645004.5733057072,4824787.122769949],[645003.4237948556,4824795.357597877],[645002.6310796844,4824798.560690086],[645002.4042257436,4824799.107775211],[645002.4026243347,4824799.111660249],[645001.6930388288,4824800.843441408],[645000.1426346783,4824802.552412111],[644994.4881255672,4824805.687294389],[644989.637275264,4824808.272122615],[644984.3202055626,4824809.560559888],[644980.3628357926,4824809.891301268],[644970.864284885,4824809.0499026375],[644958.9441412154,4824807.097619946],[644958.8643694931,4824807.087827661],[644952.1061688104,4824806.5327723725],[644948.3214849684,4824805.966363406],[644948.2107895399,4824805.956045719],[644948.0996329075,4824805.958079357],[644947.9893889601,4824805.972439183],[644947.0,4824806.157738748],[644947.0,4824808.192512813],[644948.1920249041,4824807.969262195],[644951.8430989501,4824808.51567536],[644951.9092537753,4824808.52333372],[644958.6605766808,4824809.0778241325],[644970.5775555004,4824811.029588484],[644970.650945962,4824811.038836095],[644980.2721058769,4824811.89109565],[644980.3578577117,4824811.894992991],[644980.4436278533,4824811.891521789],[644984.5638399096,4824811.547170692],[644984.6404255544,4824811.53778284],[644984.7160594062,4824811.522518071],[644990.2313202983,4824810.1860549245],[644990.3119841923,4824810.16288469],[644990.390421142,4824810.133032245],[644990.4660786747,4824810.096707854],[644995.4359905074,4824807.448436401],[644995.4506000591,4824807.440494887],[645001.2570188377,4824804.221393286],[645001.3494976915,4824804.163304157],[645001.4350906499,4824804.095476943],[645001.5127768726,4824804.0187206],[645003.292376893,4824802.0571131725],[645003.3479447077,4824801.990236229],[645003.3974930133,4824801.9187850375],[645003.4406472093,4824801.8432997875],[645003.4770810371,4824801.764351173],[645003.9726702214,4824800.5548394155],[645006.0500145246,4824800.747345026],[645006.1520815882,4824800.751563392],[645006.2540464536,4824800.745346778],[645006.3548450687,4824800.728760058],[645006.4534255514,4824800.701976323],[645006.5487591671,4824800.665275072],[645006.6398510637,4824800.619039302],[645006.7257506537,4824800.563751505],[645030.2238880408,4824783.68208477],[645029.056963254,4824782.057804455],[645005.862382695,4824798.721388151],[645004.6787923881,4824798.611705912],[645005.3777168518,4824795.787590031],[645005.3973997274,4824795.685604325],[645006.5509933798,4824787.421528163],[645007.5224324259,4824782.190984224],[645009.0871118379,4824775.0137465345],[645009.9920564695,4824771.138738849],[645011.8542248012,4824768.580792811],[645016.1594615349,4824763.629133731],[645016.2341499605,4824763.53175368],[645018.9883009221,4824759.443855081],[645023.702901886,4824754.324701829],[645023.7638528134,4824754.251863053],[645023.8176186822,4824754.173570434],[645023.8637144971,4824754.09053021],[645023.9017244508,4824754.003491447],[645025.4520959076,4824749.936883759],[645025.4810464788,4824749.8489067415],[645028.82730707,4824737.832009871],[645028.8342582291,4824737.80566342],[645030.9740149621,4824729.223124924],[645034.4628463829,4824715.791823584],[645034.4867147926,4824715.66860838],[645036.6308382809,4824699.081182359],[645036.6320691451,4824699.071271064],[645038.7443815593,4824681.338685143],[645038.7508237982,4824681.254395237],[645039.3255173374,4824664.358544444],[645040.2572203454,4824655.697538304],[645042.2095624927,4824650.8474874],[645044.3514720115,4824648.370399559],[645048.8018054932,4824643.326150396],[645055.3739809477,4824638.680270253],[645058.8029782709,4824637.6652841],[645062.3898907868,4824637.532625971],[645066.2891383308,4824638.012353899],[645070.3073571695,4824639.139536801],[645072.9511574572,4824640.940787564],[645073.0263354115,4824640.987279981],[645076.004323473,4824642.651680185],[645076.1009569201,4824642.699054415],[645076.2021218351,4824642.735769545],[645076.3066464913,4824642.761400326],[645080.8163096643,4824643.612954804],[645085.0029566583,4824645.756612633],[645087.9826526367,4824648.038338476],[645089.4122458844,4824650.325694033],[645090.9853186478,4824654.127907312],[645091.9093575332,4824653.74560882],[645091.2178296254,4824654.467958563],[645091.786071024,4824655.0119537525],[645098.637442215,4824661.634763873],[645105.3432076232,4824670.14984002],[645105.4005330332,4824670.216396931],[645105.4634780587,4824670.277666408],[645109.1742652411,4824673.585008543],[645112.9690285254,4824677.101466903],[645117.0635183173,4824681.249511158],[645122.9453356487,4824688.134692137],[645126.2156488854,4824692.296878847],[645135.0074312562,4824704.42699743],[645139.2124817688,4824710.239923517],[645139.244166647,4824710.28139972],[645148.1048377805,4824721.2732710205],[645148.1457299131,4824721.320862026],[645150.1586348417,4824723.519999648],[645150.2279059456,4824723.58863741],[645150.3035330877,4824723.650201714],[645150.3847970822,4824723.704107107],[645150.4709251386,4824723.749840967],[645150.561098211,4824723.786968385],[645152.8223260931,4824724.591439969],[645152.9109814726,4824724.618423097],[645153.0017540323,4824724.637083427],[645153.0938642301,4824724.647260706],[645155.4661786732,4824724.7985626245],[645155.5400108959,4824724.800538418],[645158.5654312581,4824724.769727896],[645163.985234036,4824726.014114379],[645166.4669333287,4824727.688944232],[645168.272698792,4824729.874376109],[645168.2850208749,4824729.88900184],[645171.8684241864,4824734.0607145615],[645174.565013446,4824737.965317627],[645174.619651613,4824738.037252824],[645174.680558327,4824738.103963946],[645174.7472365894,4824738.164906633],[645174.8191423055,4824738.2195835905],[645174.8956887245,4824738.267548655],[645174.9762512275,4824738.308410432],[645178.6880215282,4824739.984781195],[645187.1389126164,4824744.008424554],[645189.5866217505,4824746.355142263],[645190.3979306578,4824749.289851673],[645191.2653416739,4824754.676780396],[645191.283983768,4824754.766272283],[645192.3644970896,4824758.9786431715],[645192.3911302747,4824759.065769296],[645193.8232515651,4824763.0857406035],[645193.8628348988,4824763.180997536],[645193.9120206786,4824763.271669926],[645193.9702855326,4824763.356792956],[645194.0370094805,4824763.435460854],[645194.111482531,4824763.506836537],[645196.4989970195,4824765.569644156],[645196.5732560175,4824765.627916251],[645196.6526785378,4824765.678927027],[645196.7365569229,4824765.722221974],[645201.2971015022,4824767.809813279],[645201.3916887394,4824767.847413437],[645201.4896082238,4824767.875203579],[645201.5898454591,4824767.892895782],[645204.6856636849,4824768.278092393],[645210.3008347419,4824769.429302046],[645218.222384007,4824771.773421473],[645224.0122185156,4824773.726435536],[645224.133741129,4824773.759072562],[645227.1506139372,4824774.368801974],[645227.2521980032,4824774.383951705],[645227.3548002109,4824774.388601848],[645231.3630930848,4824774.364209886],[645231.4561639761,4824774.3593002865],[645231.5483735678,4824774.3457472],[645236.0112948797,4824773.475615867],[645236.044081008,4824773.468651294],[645241.69600977,4824772.168682155],[645241.7797578681,4824772.1455466645],[645241.861181631,4824772.115228918],[645241.9396663909,4824772.077957786],[645247.2035873428,4824769.291780202],[645247.2836888571,4824769.244487627],[645247.3590493939,4824769.189956631],[645250.7793924629,4824766.463892746],[645250.8698391912,4824766.382320366],[645250.9496981638,4824766.290357284],[645253.0699832459,4824763.525051518],[645253.1339645598,4824763.430968713],[645254.8594419784,4824760.554353871],[645257.574124291,4824756.6755935615],[645257.625934325,4824756.593324451],[645257.6695104253,4824756.506412946],[645257.7044406891,4824756.415680576],[645258.9755506719,4824752.565305405],[645258.9987638133,4824752.483440826],[645259.014933197,4824752.399899157],[645259.023941746,4824752.315285296],[645259.195413291,4824749.618923597],[645259.194696926,4824749.481585301],[645258.93830804,4824746.020389026],[645258.9256483292,4824745.919484373],[645258.3574102286,4824742.718318166],[645258.1209432865,4824739.939772549],[645259.3980300288,4824736.074910779],[645260.5755747614,4824733.011181066],[645262.146699346,4824729.183061402],[645266.2690425043,4824720.612481807],[645268.6737240383,4824718.124527926],[645271.0188365129,4824717.15447573],[645273.4257965647,4824717.206566343],[645277.2326168637,4824717.973324628],[645277.3140384917,4824717.986257706],[645284.9652774595,4824718.88006795],[645295.2119953935,4824721.224250069],[645298.6765432899,4824722.017415467],[645302.3593575588,4824723.466535288],[645289.3142952411,4824722.164292376],[645289.1920252183,4824722.159609738],[645289.0700986091,4824722.169895046],[645282.3259713441,4824723.157290714],[645282.2378698336,4824723.1742572775],[645282.1516436336,4824723.1990520945],[645282.067986843,4824723.23147557],[645281.9875728769,4824723.271266707],[645281.9110490471,4824723.318105195],[645277.9585879949,4824725.9881918775],[645277.8738894026,4824726.05221182],[645277.796455703,4824726.124850837],[645277.7271597602,4824726.205290111],[645277.6667827058,4824726.2926229],[645277.6160051348,4824726.3858647505],[645277.575399432,4824726.483964605],[645270.938647023,4824745.285283875],[645272.8245964373,4824745.951012654],[645279.3515342433,4824727.460788222],[645282.8415106429,4824725.103133235],[645289.238072694,4824724.166623972],[645305.5904102041,4824725.799020591],[645308.5147573543,4824728.151921692],[645310.1959501005,4824730.519311852],[645313.4843483539,4824737.9006644245],[645313.4911528929,4824737.915607104],[645316.3324859113,4824744.021725773],[645316.363940372,4824744.083611005],[645318.657765656,4824748.233380874],[645318.7140238466,4824748.323493917],[645318.7795240108,4824748.407130469],[645318.853526957,4824748.483346663],[645318.9351975358,4824748.551282376],[645322.6646127888,4824751.33209474],[645322.7386250453,4824751.382293325],[645322.8168261027,4824751.425678882],[645322.8985905319,4824751.461904427],[645323.6524516857,4824751.756319815],[645322.9731004998,4824753.898105745],[645322.9474906891,4824753.995672779],[645322.9318404405,4824754.095323461],[645322.9263089983,4824754.196043825],[645322.9309526457,4824754.296809023],[645322.945724133,4824754.3965937495],[645322.9704731575,4824754.494382678],[645326.7789310992,4824766.878932773],[645326.7902639124,4824767.042907156],[645320.7959945572,4824762.0925270105],[645319.5224469122,4824763.634628302],[645326.4446070805,4824769.351309057],[645326.523621527,4824769.4102611095],[645326.608056629,4824769.461146674],[645326.697091793,4824769.503471214],[645326.7898617197,4824769.536823394],[645326.8854648126,4824769.560879075],[645326.982971941,4824769.575404469],[645327.0814354693,4824769.5802584095],[645327.1798984674,4824769.575393723],[645327.2774040101,4824769.560857688],[645327.3730044771,4824769.536791574],[645327.4657707635,4824769.50342927],[645327.554801308,4824769.461095014],[645327.6392308562,4824769.4102002345],[645327.7182388688,4824769.35123956],[645328.4916071524,4824768.712409736],[645328.5618250157,4824768.648566319],[645328.6256745793,4824768.578354045],[645328.6825807801,4824768.502405282],[645328.7320310907,4824768.4214040665],[645328.7735801352,4824768.3360799365],[645328.8068537011,4824768.247201367],[645328.831552109,4824768.155568847],[645328.8474529118,4824768.062007666],[645328.8544128984,4824767.967360485],[645328.8523693838,4824767.872479748],[645328.7662304653,4824766.626136421],[645328.7517900942,4824766.512445096],[645328.7244364015,4824766.40115261],[645324.9739342092,4824754.205066164],[645325.518953724,4824752.486786793],[645326.9836319847,4824753.061041616],[645327.0956945232,4824753.097518891],[645327.21127024,4824753.1205592435],[645332.0529349458,4824753.792065744],[645332.0805978053,4824753.79551013],[645346.3520911027,4824755.370823552],[645357.3672463848,4824756.686167984],[645372.5923549358,4824758.679590497],[645379.9842578745,4824759.980806695],[645380.1204539079,4824759.995258329],[645385.1261459771,4824760.181453565],[645385.2195033715,4824760.180564942],[645385.3123710233,4824760.170973696],[645385.4039394615,4824760.152763426],[645385.4934105396,4824760.126092863],[645392.6523767196,4824757.622641259],[645402.4060253559,4824754.717854283],[645408.0746910435,4824753.432269034],[645412.6769809346,4824753.466933604],[645412.7626995703,4824753.463900694],[645412.8478429946,4824753.453533421],[645416.9092597633,4824752.781152113],[645423.2070621549,4824752.177128932],[645423.3026352074,4824752.163278081],[645423.3964265629,4824752.14027295],[645423.4875615182,4824752.108328085],[645423.5751901435,4824752.067741407],[645427.7351752744,4824749.891136218],[645427.8482761986,4824749.822046959],[645431.6612482393,4824747.13041309],[645437.8350423558,4824743.531217991],[645437.8986757227,4824743.490833614],[645437.9590869021,4824743.445771515],[645440.859239154,4824741.107338698],[645444.1190780131,4824739.132860496],[645449.2787512555,4824736.749766083],[645451.949332576,4824736.431166425],[645456.6400687159,4824736.710189556],[645458.805962131,4824737.849740392],[645458.9030195158,4824737.894358648],[645459.0042825482,4824737.928369278],[645459.1085957235,4824737.95138419],[645462.1278750586,4824738.450157164],[645462.2215607058,4824738.461124725],[645462.3158629477,4824738.463216389],[645462.4099427501,4824738.456413546],[645462.5029630578,4824738.440776723],[645462.5940962426,4824738.416445046],[645462.6825314661,4824738.383634999],[645462.7674818949,4824738.342638506],[645464.3046254822,4824737.509257701],[645464.3871824119,4824737.459196656],[645464.4645268335,4824737.401407425],[645464.5359377615,4824737.336428704],[645466.749522721,4824735.1176677095],[645466.8120743134,4824735.04884693],[645466.8679619918,4824734.9745127605],[645466.9167023834,4824734.895308117],[645468.2566275992,4824732.472217677],[645469.8325502829,4824729.976354383],[645471.6217713995,4824728.552861143],[645474.3405368952,4824727.79282408],[645477.2401888976,4824727.219535932],[645477.3119788099,4824727.202568896],[645477.3823226262,4824727.180355852],[645480.9772660219,4824725.897513874],[645491.6784333239,4824723.198006072],[645497.5303675848,4824721.739307275],[645499.5028181475,4824721.799628476],[645500.7278766509,4824722.9755995935],[645501.5567349588,4824723.890473445],[645501.6201267573,4824723.954407202],[645501.689011977,4824724.01238023],[645501.7628322312,4824724.063922596],[645501.8409891296,4824724.108616496],[645501.9228491287,4824724.146099639],[645502.0077486677,4824724.176068185],[645503.9423790465,4824724.762463375],[645504.038495939,4824724.786469002],[645504.1365164522,4824724.8008462805],[645504.2354785416,4824724.805454101],[645504.3344109212,4824724.80024724],[645506.1241231691,4824724.616813229],[645506.2199657181,4824724.60226667],[645506.3139494434,4824724.578508387],[645506.4051911425,4824724.545761649],[645508.2641983225,4824723.774924575],[645508.3587519141,4824723.729775321],[645508.4480622218,4824723.674980195],[645508.5311487222,4824723.611140786],[645508.6070992221,4824723.538957973],[645509.6077034991,4824722.482839536],[645509.6590213163,4824722.424265837],[645511.1617884825,4824720.567898812],[645511.1662012262,4824720.562408323],[645512.2704300504,4824719.178535156],[645516.347211058,4824717.07652004],[645519.7690098785,4824716.169745279],[645519.7846661207,4824716.165460096],[645528.7344314787,4824713.637614984],[645541.9014453617,4824709.960502335],[645544.1256683578,4824709.921122649],[645545.0404775201,4824710.982266538],[645546.5715364886,4824713.398749711],[645546.6319428339,4824713.483906071],[645546.7008986276,4824713.562300144],[645546.7776522154,4824713.633077392],[645546.8613669423,4824713.695466307],[645548.0322331508,4824714.476431091],[645548.1197475174,4824714.5285662925],[645548.2121117752,4824714.571527757],[645548.3083674747,4824714.604869681],[645548.4075157854,4824714.62824608],[645548.508527861,4824714.641414382],[645550.452549486,4824714.794680807],[645550.5525146635,4824714.797545909],[645550.6522661228,4824714.79041205],[645550.7508062245,4824714.773350576],[645550.8471494452,4824714.746532124],[645550.9403322327,4824714.710224912],[645552.3111470519,4824714.095485618],[645552.3940715345,4824714.0535672875],[645552.4727473176,4824714.004133115],[645552.5464951447,4824713.947609895],[645552.6146783051,4824713.884485629],[645553.6639908011,4824712.818318114],[645553.7222603773,4824712.753717619],[645553.7746946819,4824712.684297081],[645553.8208968622,4824712.610581913],[645554.8897540638,4824710.727906773],[645557.1145247315,4824708.4760198565],[645560.345198905,4824706.803764996],[645563.539662676,4824705.401064841],[645569.2535330609,4824703.683088422],[645574.4978880568,4824702.3272136655],[645583.6462683604,4824700.170596839],[645588.68932842,4824699.359241329],[645589.6316083778,4824699.87403082],[645590.652290827,4824701.424343879],[645590.7194902989,4824701.51485765],[645591.7196705147,4824702.714362626],[645591.7849045717,4824702.785341229],[645591.8566700666,4824702.849708598],[645591.9343000506,4824702.9068665365],[645592.0170730737,4824702.9562838515],[645592.1042198894,4824702.997501285],[645592.1949306036,4824703.030135786],[645592.2883622015,4824703.053884068],[645594.1225746658,4824703.42701003],[645594.217043011,4824703.4415656915],[645594.3124695045,4824703.4470356],[645594.4079823169,4824703.443369781],[645596.4642278479,4824703.265740453],[645596.5659154768,4824703.251667302],[645596.6656244908,4824703.227243135],[645596.7623041141,4824703.192725344],[645596.8549354951,4824703.148477691],[645596.9425424448,4824703.09496648],[645598.927405148,4824701.737977541],[645599.006590627,4824701.677853583],[645599.0794143195,4824701.610163553],[645599.1451563465,4824701.535576582],[645600.4243475243,4824699.929941821],[645600.4272335598,4824699.926301968],[645602.1552974561,4824697.736448752],[645605.5205123753,4824695.640512829],[645608.5571399207,4824694.680293139],[645608.5618068062,4824694.678804828],[645614.3073368793,4824692.830989511],[645619.5508255911,4824691.711863698],[645619.6059790961,4824691.698444932],[645628.0025885856,4824689.40129166],[645634.9227930851,4824688.003673062],[645644.1204256973,4824686.182576551],[645650.882884838,4824687.015212565],[645658.3166526462,4824689.334767276],[645662.0284823084,4824693.259369459],[645663.5935617908,4824696.884554491],[645665.7205441482,4824702.698965264],[645666.7696892289,4824706.526320858],[645668.0817227432,4824711.792396211],[645668.6232984004,4824716.478157613],[645669.1264605826,4824722.795099525],[645669.0713701745,4824730.5174579285],[645669.0747516492,4824730.6070672795],[645669.086146998,4824730.696013422],[645669.105464588,4824730.783581114],[645669.7707632933,4824733.264758338],[645669.8008543479,4824733.358329183],[645669.8399860373,4824733.448493953],[645669.887780311,4824733.534381566],[645669.94377543,4824733.615162265],[645670.0074304267,4824733.690055629],[645670.0781303317,4824733.758338116],[645670.1551921151,4824733.819350052],[645670.237871285,4824733.872501999],[645670.32536908,4824733.91728046],[645670.4168401861,4824733.95325283],[645670.5114009033,4824733.980071581],[645670.6081376829,4824733.997477619],[645670.7061159533,4824734.005302783],[645670.804389149,4824734.003471475],[645675.3850222579,4824733.692438653],[645684.0322620698,4824733.238074861],[645688.5480073934,4824733.228278898],[645691.178628077,4824733.827403864],[645692.3595006682,4824735.58278201],[645693.0306488309,4824737.453982151],[645693.3793951178,4824739.25337061],[645693.4021648032,4824739.346633798],[645693.7559646076,4824740.543237142],[645693.7981451586,4824740.659091256],[645694.1060162775,4824741.365794334],[645694.1506126615,4824741.455580892],[645694.2039749048,4824741.540450997],[645694.2655666923,4824741.619551662],[645694.3347689981,4824741.692087891],[645694.4108863067,4824741.75733066],[645694.4931536041,4824741.814624249],[645695.0830965362,4824742.182994992],[645695.1892271768,4824742.240664756],[645695.3015366668,4824742.285118025],[645695.9193247649,4824742.487421582],[645696.015166453,4824742.513612613],[645696.1131341066,4824742.5301636895],[645696.919090965,4824742.625437108],[645697.0178266164,4824742.632177624],[645697.1167450126,4824742.629125683],[645697.8776180736,4824742.567860465],[645697.9675753433,4824742.55649307],[645698.0561331679,4824742.537024127],[645698.142563467,4824742.509613702],[645698.2261556513,4824742.474487148],[645698.9201262752,4824742.145095276],[645699.0041251654,4824742.100204906],[645699.083472501,4824742.047527025],[645699.1574485259,4824741.987539471],[645699.2253822063,4824741.92078639],[645699.2866573187,4824741.847873295],[645699.3407180391,4824741.769461578],[645699.3870739848,4824741.686262509],[645699.425304663,4824741.5990307825],[645699.9649768627,4824740.18848003],[645699.9914926661,4824740.1094527],[645700.0113345827,4824740.028491567],[645700.5547412266,4824737.329094679],[645700.5653771679,4824737.265834454],[645701.0451787268,4824733.719875327],[645701.9909033843,4824727.683928072],[645701.9958580364,4824727.648074122],[645702.5848825318,4824722.730928653],[645703.4007486716,4824718.006060006],[645705.3900035651,4824717.841043445],[645705.487681273,4824717.828069388],[645705.5836079379,4824717.805545273],[645705.6768521828,4824717.773689794],[645705.7665086752,4824717.7328122435],[645705.8517069167,4824717.683309512],[645705.9316196953,4824717.625662235],[645706.005471117,4824717.560430124],[645706.0725441392,4824717.488246536],[645706.1321875324,4824717.409812318],[645706.1838222033,4824717.325889011],[645707.8243070212,4824714.33918569],[645707.8672984773,4824714.250899705],[645707.9014236808,4824714.158822831],[645707.9263535732,4824714.063842934],[645709.5549255486,4824706.330842935],[645711.093110827,4824699.678089183],[645712.0660792505,4824696.809237554],[645713.5218292248,4824693.854705508],[645714.1706134323,4824693.083752739],[645716.4463815085,4824693.094226338],[645719.3268321832,4824697.02356807],[645720.939850948,4824695.841125486],[645717.7614481455,4824691.505334951],[645717.7028181722,4824691.4327216325],[645717.6376740437,4824691.365890426],[645717.5665831763,4824691.3054234395],[645717.4901647833,4824691.251847354],[645717.409084482,4824691.2056288235],[645717.3240484954,4824691.167170421],[645717.2357975009,4824691.136807125],[645717.1451001798,4824691.114803405],[645717.0527465208,4824691.101350916],[645716.9595409399,4824691.096566833],[645713.7115813183,4824691.08161899],[645713.6143986516,4824691.085903196],[645713.518092058,4824691.099609586],[645713.4235728699,4824691.12260846],[645713.3317355056,4824691.154682182],[645713.2434490062,4824691.195527244],[645713.1595488116,4824691.244757138],[645713.0808288543,4824691.301906009],[645713.0080340478,4824691.366433067],[645712.9418532362,4824691.437727705],[645711.9133655132,4824692.65988362],[645711.8413072608,4824692.756843219],[645711.7814665015,4824692.86178434],[645710.2430761702,4824695.984039956],[645710.1930830274,4824696.104839616],[645709.1830412585,4824699.083004071],[645709.1557623657,4824699.178916883],[645707.6041182586,4824705.8898809645],[645707.5998800194,4824705.909068681],[645705.9998717868,4824713.506438554],[645704.6894121169,4824715.892290715],[645703.5550705484,4824715.986388834],[645703.6139671055,4824708.037598431],[645703.6081141438,4824707.921901358],[645703.237173664,4824704.5165382745],[645703.2987694286,4824697.692289013],[645704.2954338675,4824693.967095209],[645705.9547587021,4824691.118584809],[645709.0663580217,4824688.106348733],[645709.0847751005,4824688.088050724],[645712.1200537328,4824684.993073024],[645714.4983257803,4824684.803196253],[645721.1066973745,4824687.016298886],[645725.3706037187,4824689.309038752],[645729.1034252443,4824691.9486439675],[645732.2418017722,4824696.776014848],[645734.2018404695,4824700.268427207],[645734.2496762909,4824700.345288345],[645734.3042672833,4824700.417508313],[645736.9421365386,4824703.597093961],[645736.9794836555,4824703.639603401],[645741.4607290716,4824708.458198196],[645746.0534153287,4824713.745502508],[645746.1185046991,4824713.813663699],[645746.1897218679,4824713.875394477],[645746.2664342432,4824713.9301465135],[645746.3479604217,4824713.97743347],[645746.433576241,4824714.016835317],[645746.5225212125,4824714.048002064],[645746.6140052755,4824714.0706568705],[645748.4403727197,4824714.432543698],[645748.549956442,4824714.448014214],[645748.6605785816,4824714.451280899],[645748.7708842467,4824714.442303746],[645751.4939857379,4824714.068083543],[645751.599956748,4824714.047641964],[645751.7031076635,4824714.0158992205],[645751.8022370127,4824713.973225045],[645751.896190165,4824713.920116493],[645751.9838727812,4824713.857192158],[645754.0726770111,4824712.180272682],[645754.1449909774,4824712.116235732],[645754.2107893497,4824712.045520706],[645754.2694582267,4824711.968787379],[645754.3204502255,4824711.886751675],[645754.3632895885,4824711.800178991],[645754.3975766229,4824711.709877053],[645755.280701486,4824708.9956371365],[645755.3110138396,4824708.879006536],[645755.3270770274,4824708.759576598],[645755.7503282508,4824703.0041465005],[645756.3881598118,4824696.653334543],[645756.3891567625,4824696.642853397],[645756.7989293167,4824692.080152774],[645757.8749217198,4824689.877642414],[645760.1064513072,4824688.0280442145],[645762.892249694,4824687.042905495],[645766.3547013208,4824687.413184475],[645769.5433031739,4824688.373393715],[645772.7015497873,4824690.473734442],[645772.783650527,4824690.52283882],[645772.870067771,4824690.563873333],[645779.5805355601,4824693.365237666],[645779.6595626833,4824693.394384365],[645779.7407623345,4824693.41677706],[645779.8235584171,4824693.432256883],[645785.1027288369,4824694.190758219],[645792.9900090513,4824695.405869989],[645793.0456869137,4824695.412854722],[645803.4474975502,4824696.422237598],[645808.6081771671,4824697.696291371],[645813.3486670579,4824699.389855017],[645818.6384448304,4824701.895656382],[645818.7324459857,4824701.934463374],[645823.8081946332,4824703.733666234],[645823.892091294,4824703.75932206],[645823.9779137498,4824703.777525831],[645824.0650014358,4824703.788137432],[645827.8482925309,4824704.0814434],[645827.9253574776,4824704.084435088],[645828.0024237912,4824704.081478818],[645831.1676006868,4824703.837556515],[645835.9559432528,4824704.39721177],[645839.1258524037,4824705.699525383],[645840.8938285458,4824707.476944575],[645844.0272027047,4824712.112509224],[645844.0901092777,4824712.195840978],[645844.1613617578,4824712.272159406],[645844.2401833917,4824712.340632527],[645848.4989569647,4824715.66659654],[645848.5857303572,4824715.727252758],[645848.6784302047,4824715.778395075],[645848.7760174533,4824715.819450249],[645852.3599001974,4824717.108468619],[645852.4479501487,4824717.135626225],[645852.5381260392,4824717.154563972],[645858.5448377437,4824718.129551611],[645858.6575480511,4824718.141340998],[645864.6792211414,4824718.4277490685],[645864.7291843304,4824718.428875255],[645871.161438717,4824718.4130903],[645871.2793719936,4824718.405820311],[645878.117158153,4824717.576606822],[645878.252940094,4824717.550511768],[645885.7705084231,4824715.558264578],[645885.8651176577,4824715.528091098],[645890.1295783019,4824713.93071005],[645895.6802575074,4824712.544059083],[645895.780934277,4824712.513193744],[645900.2606584332,4824710.877172389],[645900.3555941065,4824710.836837833],[645900.4458698173,4824710.786938388],[645900.5305250628,4824710.728004969],[645900.6086591403,4824710.660664606],[645902.5973370724,4824708.759384157],[645902.6661440718,4824708.686668414],[645902.727335843,4824708.607437424],[645902.7802991229,4824708.522485241],[645902.8245031146,4824708.432663253],[645902.8595048062,4824708.338871653],[645903.6749407399,4824705.767626183],[645903.6993941118,4824705.675489308],[645903.7149632599,4824705.581442656],[645903.7215067049,4824705.486340846],[645903.7189649853,4824705.391048082],[645903.5125489394,4824702.619808915],[645903.5109084708,4824702.600351375],[645903.1211020749,4824698.460144448],[645903.4526794598,4824695.96858634],[645904.7082733243,4824694.530053897],[645907.3392127824,4824693.914808861],[645911.6078393984,4824693.022778836],[645914.5399679041,4824692.743159825],[645917.9313722036,4824692.7544167],[645921.747942589,4824694.181104171],[645926.4438584287,4824696.6005620025],[645930.4899316024,4824699.56917564],[645936.3532404135,4824704.48755651],[645936.4290247487,4824704.545210043],[645936.5099491571,4824704.595394059],[645936.5952798811,4824704.637653531],[645941.3017616114,4824706.695593659],[645941.4011076004,4824706.732888378],[645941.503846223,4824706.759445809],[645941.6088205886,4824706.774966898],[645941.714848631,4824706.779276873],[645944.9640135168,4824706.738804118],[645945.0507666423,4824706.733948356],[645945.136770775,4824706.721580155],[645948.7310775283,4824706.044148476],[645948.8299561184,4824706.020247261],[645948.9258948629,4824705.986424179],[645949.0179009646,4824705.943029238],[645953.2855079406,4824703.657965771],[645953.3390917544,4824703.627106075],[645958.2848772282,4824700.5713360375],[645965.298166685,4824697.787886748],[645969.9355069543,4824696.4475335125],[645970.0495283251,4824696.406953778],[645970.157812375,4824696.352896842],[645973.7747234955,4824694.264813972],[645973.804251786,4824694.247082039],[645976.9006456714,4824692.3143535685],[645976.902787787,4824692.313012724],[645981.2877488545,4824689.560554209],[645984.1040450197,4824688.332641451],[645987.8505421281,4824687.60410199],[645987.8607543086,4824687.602060899],[645996.0562770761,4824685.919608841],[646001.6377084249,4824685.086096699],[646006.6420452482,4824684.769526879],[646013.0347171997,4824685.016263603],[646017.48538213,4824686.598450811],[646017.5865169195,4824686.628496956],[646017.6902544064,4824686.647720648],[646024.2892199269,4824687.513513085],[646024.36600467,4824687.520588878],[646024.4431063427,4824687.52172716],[646028.8330048536,4824687.417217797],[646028.9142167806,4824687.411972016],[646028.9947332242,4824687.400139958],[646035.6966231639,4824686.134780946],[646035.8103241811,4824686.106323239],[646042.2051034527,4824684.100932486],[646042.2969356505,4824684.067115788],[646042.38502276,4824684.024485016],[646042.4685211955,4824683.973448433],[646046.0280997121,4824681.550811795],[646046.0979137933,4824681.498706654],[646046.1629281567,4824681.440723171],[646046.2226494113,4824681.377301382],[646050.3250116733,4824676.621699754],[646053.9625749527,4824672.637313799],[646059.9119763287,4824666.250605774],[646067.9322497048,4824658.248024888],[646071.0,4824656.399588433],[646071.0,4824654.064591928],[646066.7959092997,4824656.59771678],[646066.6962910006,4824656.666277575],[646066.6056771082,4824656.746361972],[646058.486391137,4824664.847737034],[646058.4610030757,4824664.874011985],[646052.4957269101,4824671.277761664],[646052.4889223364,4824671.285140307],[646048.8384878587,4824675.283624662],[646048.8198091849,4824675.30467148],[646044.7941254372,4824679.971384696],[646041.465507356,4824682.236830473],[646035.2678805254,4824684.180394592],[646028.7038439538,4824685.419726019],[646024.4727668709,4824685.520454355],[646018.0554732777,4824684.678497499],[646013.5607918415,4824683.080662662],[646013.4640863162,4824683.051692397],[646013.3649526973,4824683.032619891],[646013.2644012789,4824683.023639515],[646006.66829909,4824682.769051034],[646006.5665980987,4824682.77030188],[646001.4689687564,4824683.092773301],[646001.3844028945,4824683.101746036],[645995.7340528887,4824683.945550257],[645995.6806562019,4824683.955010999],[645987.4636641265,4824685.6418704735],[645983.6143149502,4824686.390410427],[645983.5081427441,4824686.417162947],[645983.4055317087,4824686.4553625565],[645980.4198189176,4824687.757141423],[645980.3525276692,4824687.789522414],[645980.2878404765,4824687.826834715],[645975.8405680689,4824690.61840632],[645972.7598575641,4824692.54134543],[645969.2632575049,4824694.559971391],[645964.6964644699,4824695.879934013],[645964.6052425139,4824695.911138153],[645957.4652639307,4824698.744868093],[645957.3851695048,4824698.780801684],[645957.3085351139,4824698.823621191],[645952.3141665874,4824701.90940843],[645948.2094617992,4824704.107246939],[645944.8519736953,4824704.740044571],[645941.905501595,4824704.7767468775],[645937.5283598908,4824702.862812844],[645931.750368922,4824698.016000036],[645931.6992549796,4824697.975879163],[645927.5634555442,4824694.94143315],[645927.4983073644,4824694.897464724],[645927.4299072893,4824694.85874861],[645922.6114410282,4824692.376149618],[645922.5035814296,4824692.328403323],[645919.0451672983,4824691.035599677],[645917.121331384,4824672.297971997],[645917.1057186428,4824672.197006266],[645917.0798856129,4824672.098160471],[645917.0441019351,4824672.002466348],[645916.9987411137,4824671.910922739],[645916.9442766174,4824671.824485158],[645916.8812769378,4824671.744055829],[645916.8103996553,4824671.670474258],[645916.7323845752,4824671.60450848],[645916.6480460064,4824671.546847033],[645916.5582642611,4824671.498091779],[645916.4639764663,4824671.458751615],[645916.3661667829,4824671.42923717],[645915.3293638498,4824671.173359406],[645915.3253322705,4824671.172373304],[645911.9011452837,4824670.342363241],[645911.4299966336,4824672.286075913],[645914.8521667867,4824673.115597104],[645915.2036716761,4824673.202346747],[645917.0054669409,4824690.7513323845],[645914.4973691154,4824690.743007412],[645914.3991167604,4824690.747518253],[645911.3627006453,4824691.03708253],[645911.2530789614,4824691.053711071],[645906.9184968559,4824691.9595240485],[645906.8953450249,4824691.96464938],[645903.9390810806,4824692.655971528],[645903.8393086349,4824692.684842882],[645903.7430690653,4824692.7239074595],[645903.6514006131,4824692.772743829],[645903.5652922068,4824692.830825137],[645903.485672792,4824692.897524798],[645903.4134013104,4824692.972123249],[645901.7477788907,4824694.880424934],[645901.6873159459,4824694.956927084],[645901.634591363,4824695.0389543045],[645901.5901064655,4824695.125726653],[645901.5542842313,4824695.216419068],[645901.5274652705,4824695.310169214],[645901.5099045872,4824695.406085683],[645901.1235983287,4824698.308890683],[645901.1150436387,4824698.42159505],[645901.1192620477,4824698.534544871],[645901.5187992363,4824702.778104374],[645901.7101487505,4824705.34706778],[645901.0303900318,4824707.490493711],[645899.3779033554,4824709.07035768],[645895.1443694134,4824710.616468935],[645889.589678225,4824712.004122161],[645889.4812677666,4824712.037848081],[645885.210115311,4824713.637735748],[645877.8075883962,4824715.599495562],[645871.0973489087,4824716.413241556],[645864.7492719487,4824716.428819938],[645858.8092560765,4824716.146295719],[645852.949808378,4824715.195211438],[645849.6036843699,4824713.991707969],[645845.5957049105,4824710.861606023],[645842.4979096015,4824706.278677303],[645842.4415813107,4824706.203256015],[645842.378410735,4824706.133465431],[645840.4015150828,4824704.146010856],[645840.3279066348,4824704.079031479],[645840.2480051114,4824704.019700313],[645840.1626018925,4824703.968605001],[645840.0725428491,4824703.926251615],[645836.5887064125,4824702.49496529],[645836.5029297549,4824702.464213499],[645836.4147099425,4824702.441397445],[645836.3247794918,4824702.426706576],[645831.3034995337,4824701.839825902],[645831.2071290246,4824701.833259198],[645831.110574539,4824701.836021075],[645827.9258177335,4824702.081452291],[645824.3516004537,4824701.80435512],[645819.4486375555,4824700.066399702],[645814.1599794131,4824697.561128713],[645814.0683067634,4824697.523150347],[645809.23339989,4824695.795855763],[645809.1366509236,4824695.766712546],[645803.8562024535,4824694.463090583],[645803.7131068411,4824694.438617567],[645793.2667948019,4824693.424916312],[645785.4022365154,4824692.213305075],[645785.3921908895,4824692.211809633],[645780.2337630028,4824691.470656359],[645773.7291343014,4824688.755221993],[645770.5273695727,4824686.625940248],[645770.4431316123,4824686.575696016],[645770.3543766212,4824686.533945945],[645770.2619584684,4824686.501091693],[645766.8421059818,4824685.471244095],[645766.7519558974,4824685.448607812],[645766.6600934991,4824685.43443958],[645762.8792035442,4824685.0301064],[645762.7901160327,4824685.024585514],[645762.7008911096,4824685.027030509],[645762.6122396359,4824685.037421904],[645762.5248679034,4824685.05567691],[645762.4394720084,4824685.081650089],[645759.2719047925,4824686.201793286],[645759.1902954711,4824686.234761246],[645759.111901187,4824686.274777541],[645759.0373292582,4824686.3215321675],[645758.967157391,4824686.374662919],[645756.4328078591,4824688.475252737],[645756.3548819976,4824688.547141146],[645756.2850050356,4824688.626875664],[645756.2239624168,4824688.713560045],[645756.1724402838,4824688.806219923],[645754.9209280913,4824691.3680117745],[645754.8846800156,4824691.451680863],[645754.8562039423,4824691.538303912],[645754.835736634,4824691.627160699],[645754.8234482646,4824691.717512431],[645754.3976448794,4824696.458711789],[645753.7590057267,4824702.8175648395],[645753.7566932692,4824702.844153778],[645753.3413497396,4824708.492053934],[645752.5880060772,4824710.807417848],[645750.9475763928,4824712.124376349],[645748.6646686814,4824712.438103247],[645747.3387184836,4824712.175371938],[645742.9595159548,4824707.133839572],[645742.9368344533,4824707.108605373],[645738.4633093557,4824702.298312084],[645735.9014945455,4824699.210399524],[645733.9699791812,4824695.768810264],[645733.9363271258,4824695.713168642],[645730.6757220965,4824690.697788992],[645730.6204195431,4824690.6209462155],[645730.5580979682,4824690.549677666],[645730.4893159715,4824690.484622139],[645730.4146900588,4824690.426362736],[645726.4754089519,4824687.64076292],[645726.3716296083,4824687.5765013],[645721.9787343579,4824685.214402968],[645721.9021578206,4824685.177336057],[645721.8227077615,4824685.146912215],[645714.93983262,4824682.841880048],[645714.8428918482,4824682.814758304],[645714.7437155275,4824682.797519985],[645714.6433086217,4824682.790339768],[645714.5426885644,4824682.793290411],[645711.5882521614,4824683.029167061],[645711.486959413,4824683.0424895445],[645711.387554613,4824683.066077574],[645711.2910753193,4824683.099684944],[645711.1985285551,4824683.142960872],[645711.1108802964,4824683.195453654],[645711.0290453905,4824683.256615387],[645710.9538780063,4824683.325807683],[645707.6659467976,4824686.678407231],[645704.4645660609,4824689.777557718],[645704.4019015075,4824689.844028714],[645704.3455643692,4824689.915940928],[645704.2960247926,4824689.9926942345],[645702.4999126587,4824693.076023061],[645702.4587287079,4824693.154529302],[645702.4246595663,4824693.23637453],[645702.3979729955,4824693.320915495],[645701.3339323859,4824697.297938584],[645701.3156302591,4824697.380031107],[645701.3042913952,4824697.463371255],[645701.2999960071,4824697.547369468],[645701.2367241413,4824704.557315472],[645701.2425638202,4824704.674628894],[645701.6135921172,4824708.08079817],[645701.5476233425,4824716.9840683965],[645700.6096432905,4824722.416126823],[645700.6021588044,4824722.467343992],[645700.0122078956,4824727.392223111],[645699.0676653914,4824733.420625448],[645699.0646427316,4824733.44133152],[645698.587741112,4824736.965858732],[645698.0671608063,4824739.551864761],[645697.7005379122,4824740.51011349],[645697.5342660885,4824740.589034103],[645697.0552354861,4824740.62760547],[645696.4469583648,4824740.555700082],[645696.0393653158,4824740.422227902],[645695.8156462001,4824740.282533752],[645695.6563752119,4824739.916934998],[645695.3337136543,4824738.8256458165],[645694.9795326742,4824736.998216559],[645694.9621276953,4824736.923772924],[645694.939086434,4824736.850876501],[645694.200025043,4824734.790330325],[645694.1689606999,4824734.71381976],[645694.1316896898,4824734.640133046],[645694.0884661585,4824734.569772642],[645692.6168575763,4824732.382212728],[645692.5605909562,4824732.306537745],[645692.497446243,4824732.236499321],[645692.4279849593,4824732.172720283],[645692.3528247994,4824732.115767794],[645692.2726341349,4824732.066148312],[645692.1881260723,4824732.024303085],[645692.1000521111,4824731.990604228],[645692.0091954607,4824731.965351412],[645688.8814359256,4824731.253002863],[645688.7700256392,4824731.234175936],[645688.65720267,4824731.2280373145],[645684.0027548558,4824731.238134163],[645683.9524521537,4824731.239509415],[645675.2724378869,4824731.69559532],[645675.25716416,4824731.696515096],[645671.4895054264,4824731.952345569],[645671.0722849932,4824730.396356014],[645671.1267188418,4824722.766031555],[645671.1235870175,4824722.679496526],[645670.6155710262,4824716.301617541],[645670.6121152244,4824716.266204191],[645670.061074517,4824711.498550321],[645670.038024241,4824711.371607308],[645668.7075376244,4824706.031467211],[645668.7016236417,4824706.008859786],[645667.6383927246,4824702.130118063],[645667.6131054711,4824702.05093599],[645665.4620628142,4824696.170752944],[645665.4410212092,4824696.117936973],[645663.7945914707,4824692.304320789],[645663.7564427365,4824692.22560852],[645663.7115615889,4824692.150531028],[645663.6602914112,4824692.079662728],[645663.6030244689,4824692.013545828],[645659.5902940029,4824687.77079436],[645658.8637671932,4824688.457932479],[645659.1616329588,4824687.503324714],[645651.3924946709,4824685.079124525],[645651.3055164979,4824685.056221971],[645651.2168323012,4824685.041227212],[645644.2056920822,4824684.177972038],[645644.1000049758,4824684.17061352],[645643.994132492,4824684.174477383],[645643.8892629342,4824684.189520258],[645634.5324713157,4824686.042129651],[645634.528732044,4824686.0428774245],[645627.5734338178,4824687.447583624],[645627.5075150133,4824687.463238238],[645619.1055976871,4824689.761843633],[645613.8405027011,4824690.885580906],[645613.7430679975,4824690.911575689],[645607.9518084708,4824692.774098019],[645604.7973355121,4824693.771581905],[645604.7187809219,4824693.800083848],[645604.6428803098,4824693.83504499],[645604.570163704,4824693.876221193],[645600.9497632334,4824696.13109275],[645600.878469771,4824696.179892786],[645600.8116545562,4824696.234664389],[645600.7498163113,4824696.2949987305],[645600.6934166094,4824696.360445465],[645598.8586392065,4824698.685529165],[645597.674558895,4824700.171781213],[645596.0305227276,4824701.295757642],[645594.3797380016,4824701.438361128],[645593.0309749509,4824701.163988055],[645592.2917142397,4824700.27740093],[645591.1650161729,4824698.566060906],[645591.1073884779,4824698.487204084],[645591.0423429239,4824698.414345142],[645590.9705000033,4824698.348179106],[645590.8925450506,4824698.289337157],[645590.8092217053,4824698.23838061],[645589.3478445444,4824697.439996225],[645589.2631559134,4824697.39878295],[645589.1749655657,4824697.365719968],[645589.084055811,4824697.341100571],[645588.9912330827,4824697.325143148],[645588.897320783,4824697.317989254],[645588.8031519796,4824697.319702351],[645588.7095620156,4824697.330267238],[645583.2930280509,4824698.201709304],[645583.2224226991,4824698.215692315],[645574.0285332118,4824700.383037366],[645574.0076720306,4824700.38819234],[645568.7339989118,4824701.751646999],[645568.6963738921,4824701.76216277],[645562.9054552817,4824703.503305105],[645562.7913389895,4824703.545337841],[645559.511839429,4824704.985377506],[645559.4542034839,4824705.012913735],[645556.0546506953,4824706.772583193],[645555.9644355673,4824706.825435054],[645555.8802320148,4824706.887417714],[645555.8029605584,4824706.957853575],[645553.374049662,4824709.4163688505],[645553.3152505299,4824709.481348173],[645553.26236608,4824709.551225817],[645553.2158024464,4824709.625465148],[645552.14646553,4824711.508985253],[645551.3211662117,4824712.347541286],[645550.3550621334,4824712.780788818],[645548.9253510603,4824712.668070573],[645548.1475154101,4824712.149256173],[645546.6905856929,4824709.849771816],[645546.6032639301,4824709.732026597],[645545.334256175,4824708.26002579],[645545.2671352831,4824708.189433899],[645545.1934647326,4824708.125707302],[645545.1139435412,4824708.069450664],[645545.0293262401,4824708.0211977735],[645544.9404157146,4824707.981406472],[645544.848055586,4824707.950454319],[645544.7531222068,4824707.928634999],[645544.6565163456,4824707.916155546],[645544.5591546403,4824707.913134369],[645541.7380558848,4824707.963081692],[645541.6533594901,4824707.968181543],[645541.5694003124,4824707.980443037],[645541.4867828147,4824707.999777898],[645528.1950610344,4824711.7117173495],[645528.1922222764,4824711.712514634],[645519.2488488989,4824714.238554343],[645515.7295975148,4824715.171153978],[645515.6264251054,4824715.204578469],[645515.5274790445,4824715.24897914],[645511.1638461429,4824717.498896981],[645511.0729518303,4824717.551996491],[645510.9881430598,4824717.614356787],[645510.9103596255,4824717.685286833],[645510.8404634717,4824717.764000629],[645509.605080201,4824719.312242915],[645508.1290467582,4824721.135585795],[645507.3015882435,4824722.008952233],[645505.7744657069,4824722.642173384],[645504.3303025641,4824722.790190831],[645502.8529502561,4824722.342398685],[645502.1866307709,4824721.606931275],[645502.1380503906,4824721.556928887],[645500.6103481943,4824720.090440833],[645500.530994554,4824720.0218883185],[645500.4448984187,4824719.962022612],[645500.35300654,4824719.911502021],[645500.2563294019,4824719.870882096],[645500.1559301096,4824719.840609509],[645500.0529126987,4824719.821017152],[645499.9484099946,4824719.812320471],[645497.453264653,4824719.7360142935],[645497.3616867461,4824719.737409862],[645497.2706206222,4824719.747178265],[645497.1808301857,4824719.76523756],[645491.1933324802,4824721.257727958],[645491.1905991861,4824721.258413373],[645480.4416562744,4824723.96997319],[645480.3501678583,4824723.997766842],[645476.779764198,4824725.271851908],[645473.9146423306,4824725.838313128],[645473.8393671621,4824725.856247683],[645470.888359362,4824726.681208609],[645470.7936841421,4824726.71284854],[645470.7026350498,4824726.75376975],[645470.6161193425,4824726.803564478],[645470.5349991041,4824726.861736545],[645468.4548319123,4824728.516704681],[645468.3713767749,4824728.591086115],[645468.2967453398,4824728.674317758],[645468.2318703028,4824728.765359436],[645466.5500182093,4824731.428988147],[645466.5204584174,4824731.478960392],[645465.2344521099,4824733.804545099],[645463.2231217187,4824735.820578592],[645462.1156161564,4824736.421025996],[645459.594104389,4824736.004482251],[645457.3804042309,4824734.839778647],[645457.2839438518,4824734.79539731],[645457.1833214462,4824734.761493928],[645457.0796714618,4824734.738450739],[645456.9741624808,4824734.726527538],[645451.978935441,4824734.4293921115],[645451.8898985352,4824734.428067523],[645451.8010967975,4824734.434668771],[645448.8846731825,4824734.782597351],[645448.7816003113,4824734.800403243],[645448.680951243,4824734.828878349],[645448.5838271859,4824734.867711119],[645443.2296112159,4824737.340658835],[645443.1308420182,4824737.393168686],[645440.731576916,4824738.846398999],[645440.5402270823,4824738.421749861],[645441.6214005658,4824731.731420443],[645441.6334688521,4824731.610327289],[645441.6307388883,4824731.488664877],[645441.1752225155,4824726.0341985375],[645439.1821605904,4824726.200644214],[645439.6274926779,4824731.533161387],[645438.5179244004,4824738.399198523],[645438.507098031,4824738.495818162],[645438.5057055012,4824738.593032492],[645438.5137599739,4824738.689922587],[645438.5311853138,4824738.7855725875],[645438.5578168067,4824738.879078356],[645438.5934027164,4824738.9695560215],[645439.0546755703,4824739.993226207],[645436.7625074997,4824741.841432982],[645430.6164129332,4824745.424479812],[645430.5433548789,4824745.471436418],[645426.7491305374,4824748.149836006],[645422.8213527412,4824750.204944681],[645416.684234885,4824750.793556584],[645416.6163766827,4824750.802417243],[645412.6060372567,4824751.466342524],[645407.973970888,4824751.431453676],[645407.8589055383,4824751.437223854],[645407.7452675168,4824751.456190395],[645401.9312750818,4824752.7747340035],[645401.8670201594,4824752.791568313],[645392.059020536,4824755.712541851],[645392.0143534499,4824755.726994241],[645385.0116242575,4824758.175810619],[645380.2633899064,4824757.999191961],[645372.9173900243,4824756.706056199],[645372.8738449153,4824756.699376158],[645357.6212682256,4824754.702357244],[645357.6100161826,4824754.70094886],[645346.5848058563,4824753.384403733],[645346.5759514293,4824753.383386405],[645332.3138841352,4824751.809113442],[645327.6033714501,4824751.155796849],[645325.2539209626,4824750.234650336],[645325.2526888596,4824750.234168207],[645323.7519105433,4824749.648049359],[645320.303743508,4824747.076947759],[645318.1311304427,4824743.146463472],[645315.3079135888,4824737.07927704],[645311.9823551128,4824729.614512215],[645311.937562408,4824729.5260482095],[645311.8842288026,4824729.442455187],[645310.0650685336,4824726.880784535],[645310.0084796835,4824726.808389605],[645309.9454845635,4824726.741494622],[645309.8766150618,4824726.680664403],[645306.6124897553,4824724.054381123],[645306.6032119638,4824724.047006445],[645304.0130815025,4824722.013107772],[645303.9340619039,4824721.95702667],[645303.8499855151,4824721.908856682],[645303.7616417453,4824721.869050083],[645299.339018521,4824720.128829016],[645299.2683512901,4824720.104036306],[645299.1960268012,4824720.084601689],[645295.6582522531,4824719.274671954],[645285.3583119959,4824716.918313943],[645285.2513295725,4824716.8998838365],[645277.5870760655,4824716.004553246],[645273.7336559336,4824715.228408964],[645273.6461793971,4824715.214787252],[645273.5578409092,4824715.208955695],[645270.8522264281,4824715.150401703],[645270.7488556613,4824715.15351344],[645270.6463590576,4824715.16728459],[645270.5458328387,4824715.191567869],[645270.4483521522,4824715.226103562],[645267.7170202156,4824716.355914849],[645267.62443164,4824716.399899336],[645267.5368321965,4824716.453131063],[645267.455142317,4824716.515050712],[645267.3802203395,4824716.585007675],[645264.7187928183,4824719.338598468],[645264.6488779238,4824719.419115432],[645264.5879342657,4824719.5066194],[645264.5366548392,4824719.600115359],[645260.3315862049,4824728.342685797],[645260.3076452321,4824728.396456775],[645258.7210679798,4824732.262227597],[645258.7127559315,4824732.283147613],[645257.5225963654,4824735.379698534],[645257.5065193463,4824735.42471171],[645256.1576717303,4824739.506744208],[645256.1308734838,4824739.604090007],[645256.114028021,4824739.703641909],[645256.1073070702,4824739.804385046],[645256.1107791472,4824739.905292406],[645256.3684655284,4824742.93317173],[645256.3802557286,4824743.023151166],[645256.9475338401,4824746.218909279],[645257.1950767299,4824749.560686458],[645257.036121053,4824752.060238199],[645255.8513175052,4824755.649178751],[645253.2007100165,4824759.436388428],[645253.1624290198,4824759.495398976],[645251.448159643,4824762.353328426],[645249.4370712084,4824764.976218382],[645246.1854880503,4824767.567778128],[645241.119930182,4824770.248962726],[645235.6121119699,4824771.515785787],[645231.2574191407,4824772.364815921],[645227.4457436666,4824772.388011392],[645224.5917331713,4824771.811197502],[645218.8438031343,4824769.872318562],[645218.8079332828,4824769.860965969],[645210.827328811,4824767.499371115],[645210.7444153305,4824767.478644295],[645205.0489100858,4824766.310964708],[645204.971542505,4824766.298240738],[645201.989557933,4824765.927207858],[645197.6986487831,4824763.963042292],[645195.6187106129,4824762.1659799805],[645194.290448433,4824758.4375416925],[645193.2326335815,4824754.313660574],[645192.3637386987,4824748.917516515],[645192.3403023696,4824748.810032065],[645191.4410372302,4824745.557162728],[645191.4069400129,4824745.455427597],[645191.3621389112,4824745.357931349],[645191.3071497044,4824745.265796426],[645191.242605465,4824745.180083544],[645191.1692492682,4824745.101779486],[645188.4065486692,4824742.453066724],[645188.3257715434,4824742.3834947925],[645188.2380470836,4824742.322917431],[645188.1443722956,4824742.272023111],[645179.5386897355,4824738.174680344],[645179.5204121292,4824738.1662028],[645176.0527575195,4824736.600083581],[645173.4841672276,4824732.8808202585],[645173.4198937771,4824732.797497141],[645169.8083895891,4824728.593070049],[645167.9168154162,4824726.30378798],[645167.8525466605,4824726.233164086],[645167.7818347767,4824726.168992153],[645167.705324531,4824726.1118573155],[645164.949783537,4824724.252219313],[645164.8712725773,4824724.204335689],[645164.7886948287,4824724.16386684],[645164.7027486357,4824724.131155005],[645164.6141608291,4824724.106476821],[645158.8975049438,4824722.793932877],[645158.781271626,4824722.774372843],[645158.6635442225,4824722.768625015],[645155.556596806,4824722.800265799],[645153.36083735,4824722.660224238],[645151.4659206412,4824721.986074296],[645149.6422236355,4824719.993649994],[645140.8176354868,4824709.046540487],[645136.627618365,4824703.254396073],[645127.8236445738,4824691.107456143],[645127.8002693013,4824691.076487663],[645124.5053019781,4824686.882923252],[645124.4793199371,4824686.851215416],[645118.5608154282,4824679.9230888905],[645118.5121673689,4824679.870123398],[645114.3767519336,4824675.680618207],[645114.3447640577,4824675.649623952],[645110.5265553632,4824672.111439649],[645110.5122166426,4824672.098408425],[645106.8599627115,4824668.843235676],[645100.1667904682,4824660.344150509],[645100.0761727856,4824660.243849325],[645093.9378492163,4824654.3102996275],[645094.3746676272,4824653.909557695],[645115.0172095904,4824664.839240577],[645115.1103402701,4824664.882581068],[645115.2074257326,4824664.916138997],[645115.3074415594,4824664.93956027],[645115.4093324112,4824664.952597752],[645115.5120231643,4824664.955113876],[645115.6144302543,4824664.947082092],[645115.7154731101,4824664.928587149],[645115.8140855557,4824664.8998242],[645115.90922706,4824664.861096744],[645119.2886808899,4824663.278556444],[645118.4405068848,4824661.467313539],[645115.5125094897,4824662.83844453],[645094.6867119989,4824651.811732667],[645094.6011758174,4824651.771498703],[645094.5122228628,4824651.739520867],[645094.4206479483,4824651.716084887]]]}},{"type":"Feature","properties":{"class":"residential","widthMeters":5},"geometry":{"type":"MultiPolygon","coordinates":[[[[645016.6991215097,4824206.39299469],[645106.7042341265,4824194.770713709],[645106.063904986,4824189.811885361],[645016.0587923692,4824201.434166341],[645016.6991215097,4824206.39299469]]],[[[645310.4571386597,4824235.88146494],[645315.3649814669,4824234.925913276],[645306.2285571302,4824188.0],[645301.1346694522,4824188.0],[645310.4571386597,4824235.88146494]]],[[[645253.3353977436,4824246.324388849],[645258.2554490955,4824245.433830207],[645247.8595832482,4824188.0],[645242.7783354701,4824188.0],[645253.3353977436,4824246.324388849]]],[[[645036.4581765232,4824251.581160828],[645170.1178430589,4824236.102856336],[645169.5426676497,4824231.136049189],[645035.883001114,4824246.61435368],[645036.4581765232,4824251.581160828]]],[[[645556.2046954003,4824197.483146593],[645573.5333308126,4824317.706677163],[645578.4821877901,4824316.993364736],[645561.1535523778,4824196.769834166],[645556.2046954003,4824197.483146593]]],[[[645471.5823303887,4824331.937996365],[645466.9768206701,4824306.181944688],[645462.0548884505,4824307.062048788],[645466.6603981692,4824332.818100465],[645471.5823303887,4824331.937996365]]],[[[645139.3450091906,4824274.921005923],[645146.7838813033,4824375.9954981],[645151.7703944353,4824375.628501119],[645144.3315223226,4824274.554008942],[645139.3450091906,4824274.921005923]]],[[[645485.353512649,4824330.497069804],[645493.9351324965,4824400.908289167],[645502.8830736906,4824531.739872163],[645507.8714206105,4824531.398705039],[645499.0816882959,4824402.880360106],[645657.6785541762,4824384.496179661],[645663.5778024743,4824433.461212034],[645668.5419049457,4824432.863142931],[645662.3467056861,4824381.441653788],[645654.9319799008,4824313.21548421],[645654.8921921777,4824312.966795241],[645654.82758506,4824312.7233713595],[645654.7388142247,4824312.487682996],[645654.6267805791,4824312.262122077],[645654.4926211169,4824312.048977749],[645654.3376973802,4824311.8504131455],[645648.756550982,4824305.39581466],[645644.9743846123,4824308.666169007],[645650.045498082,4824314.530914166],[645657.1093652531,4824379.528678541],[645498.6057355533,4824397.902051264],[645490.3167853432,4824329.892153146],[645485.353512649,4824330.497069804]]],[[[645586.996427862,4824526.1982293455],[645593.7488270411,4824603.824681324],[645598.7300173924,4824603.391388486],[645591.9776182133,4824525.764936508],[645586.996427862,4824526.1982293455]]],[[[645763.9027867252,4824285.326813528],[645751.6626977227,4824188.0],[645746.6233121633,4824188.0],[645758.9418644647,4824285.9507128205],[645763.9027867252,4824285.326813528]]],[[[645662.3280648739,4824300.813102622],[645667.2760039525,4824300.09345071],[645650.9725966426,4824188.0],[645645.9199879499,4824188.0],[645662.3280648739,4824300.813102622]]],[[[645863.0162182429,4824406.228841932],[645798.9726004961,4824410.124401294],[645785.5586430823,4824283.434447068],[645780.586436157,4824283.96090532],[645793.9763090726,4824410.42339021],[645791.2186728059,4824410.5859358525],[645790.9695940082,4824410.613195977],[645790.724495003,4824410.665252097],[645790.4858378927,4824410.741581289],[645790.2560200687,4824410.841416802],[645783.5088185212,4824414.183884564],[645783.307406211,4824414.295496096],[645783.1171176626,4824414.425166143],[645782.939567255,4824414.571794604],[645782.7762612988,4824414.734137504],[645782.6285852572,4824414.910817553],[645782.4977919912,4824415.100335822],[645782.3849911313,4824415.301084468],[645779.3953142337,4824421.24745149],[645779.2956078044,4824421.472800928],[645779.2185711586,4824421.706871636],[645779.164952769,4824421.94738943],[645779.1352735808,4824422.192017489],[645778.6828065405,4824428.515713768],[645778.6775078932,4824428.76748687],[645778.6975654329,4824429.018515686],[645789.0724411842,4824508.3017391125],[645794.0301734561,4824507.652978201],[645783.6880979873,4824428.620409548],[645784.0868724037,4824423.047123387],[645786.4769061018,4824418.293426567],[645792.0201733516,4824415.547370747],[645796.8853105084,4824415.260600931],[645796.8899923741,4824415.260320556],[645865.9415526828,4824411.060144775],[645929.6211555112,4824407.177215731],[645929.8684879981,4824407.149725561],[645930.1118620785,4824407.097782077],[645930.3488662437,4824407.02189997],[645930.5771521021,4824406.922831128],[645930.7944576488,4824406.801557191],[645930.998629679,4824406.659279819],[645931.1876451232,4824406.49740879],[645931.3596310936,4824406.3175480245],[645931.512883441,4824406.121479704],[645931.6458836416,4824405.911146599],[645931.7573138425,4824405.688632826],[645931.846069921,4824405.456143199],[645931.9112724242,4824405.215981374],[645931.9522752829,4824404.970527031],[645931.9686722144,4824404.722212293],[645931.9603007471,4824404.473497624],[645926.9191196939,4824344.195406741],[645921.9365143039,4824344.612112305],[645926.7645931512,4824402.342110985],[645868.0130466516,4824405.924546769],[645854.2469991186,4824281.436947031],[645849.277292342,4824281.98650554],[645863.0162182429,4824406.228841932]]],[[[645742.4941789143,4824511.263132001],[645718.5953636053,4824293.693533282],[645713.625257866,4824294.239471869],[645737.524073175,4824511.809070588],[645742.4941789143,4824511.263132001]]],[[[645774.6311955977,4824510.547779556],[645769.6341377468,4824510.719281258],[645774.5831823549,4824654.9199625],[645779.5802402059,4824654.7484607985],[645774.6311955977,4824510.547779556]]],[[[645721.9863143177,4824661.3699957235],[645726.9823285432,4824661.170391471],[645721.0764618996,4824513.348922821],[645716.080447674,4824513.548527073],[645721.9863143177,4824661.3699957235]]]]}},{"type":"Feature","properties":{"class":"service","widthMeters":3},"geometry":{"type":"MultiPolygon","coordinates":[[[[645010.3474373448,4824433.807745354],[645002.2851934412,4824388.065820389],[644999.3307338317,4824388.586558727],[645007.3929777354,4824434.328483691],[645010.3474373448,4824433.807745354]]],[[[645878.0614579557,4824657.58994983],[645877.9190805294,4824657.627702012],[645877.7810923003,4824657.679236538],[645877.6488238771,4824657.744056465],[645877.5235507131,4824657.82153674],[645877.4064808068,4824657.910930228],[645877.2987430531,4824658.011374916],[645877.2013763583,4824658.121902223],[645877.1153196209,4824658.241446342],[645877.0414026789,4824658.368854523],[645876.980338307,4824658.502898177],[645876.9327153438,4824658.642284733],[645876.8989930134,4824658.785670099],[645876.8794964975,4824658.931671622],[645876.874413799,4824659.078881421],[645876.8837939304,4824659.225879964],[645878.6737554893,4824675.020820458],[645878.6974683647,4824675.166005227],[645878.7352886847,4824675.308169008],[645878.7868526867,4824675.445944445],[645878.8516644184,4824675.578006388],[645878.9291005085,4824675.70308464],[645879.0184161623,4824675.819976177],[645879.1187523255,4824675.927556713],[645879.2291439461,4824676.024791519],[645879.3485292571,4824676.110745372],[645879.4757599884,4824676.184591552],[645879.6096124111,4824676.245619794],[645879.748799108,4824676.293243116],[645879.8919813555,4824676.327003468],[645880.0377820001,4824676.346576137],[645880.1847987045,4824676.351772868],[645880.3316174343,4824676.34254368],[645911.8329730276,4824672.804849158],[645911.9783663048,4824672.781243459],[645912.1207433405,4824672.743491456],[645912.2587312127,4824672.691957184],[645912.3909993238,4824672.627137582],[645912.5162722312,4824672.549657696],[645912.6333419456,4824672.460264654],[645912.7410795803,4824672.359820459],[645912.8384462363,4824672.249293683],[645912.9245030208,4824672.129750118],[645912.9984201002,4824672.002342506],[645913.0594847024,4824671.868299423],[645913.1071079902,4824671.728913424],[645913.1408307388,4824671.585528592],[645913.1603277645,4824671.439527564],[645913.1654110601,4824671.292318209],[645913.1560316082,4824671.145320046],[645911.3661561593,4824655.350492809],[645910.2003020569,4824645.047177336],[645909.6034467836,4824639.789071338],[645906.6225892772,4824640.12743287],[645907.2193548928,4824645.384748181],[645908.2163976952,4824654.196182229],[645878.2068516458,4824657.566344035],[645878.0614579557,4824657.58994983]],[[645880.0337905807,4824660.380031995],[645908.5539508478,4824657.177132668],[645910.0060410086,4824669.9911603285],[645881.4859392607,4824673.19405131],[645880.0337905807,4824660.380031995]]],[[[645309.3564454431,4824681.714865358],[645310.5212507782,4824678.881917029],[645307.7466296857,4824677.7410937315],[645306.5013459413,4824680.769775346],[645306.4541752012,4824680.901708445],[645306.4195204192,4824681.037467301],[645306.3976839612,4824681.17586741],[645306.136246497,4824683.548050119],[645306.1273567331,4824683.692044594],[645306.1323413198,4824683.836227085],[645306.1511541476,4824683.979263844],[645306.1836211901,4824684.11983172],[645306.2294421138,4824684.256630404],[645306.2881930558,4824684.388394449],[645306.3593305456,4824684.513904984],[645312.8263233807,4824694.743555366],[645314.0549633034,4824697.475645932],[645314.2294521608,4824700.868964789],[645313.8278575293,4824707.307980798],[645311.0665995613,4824714.704596306],[645311.0302970777,4824714.814637308],[645311.002597197,4824714.927152236],[645309.4311615322,4824722.571120236],[645309.4064516694,4824722.7389581],[645309.4008515995,4824722.908512707],[645309.5693184229,4824730.056797625],[645312.5684856331,4824729.986114911],[645312.4040351388,4824723.008248498],[645313.9177588349,4824715.645010057],[645316.7163466312,4824708.148398681],[645316.761061681,4824708.007900426],[645316.7917671589,4824707.863690964],[645316.808166393,4824707.717163627],[645317.2289465526,4824700.9705341365],[645317.2298762944,4824700.800131973],[645317.0662196146,4824697.617468586],[645319.5148548421,4824694.615056405],[645319.5819687848,4824694.526226909],[645319.6423093253,4824694.432664203],[645325.2358659634,4824685.009054714],[645322.6560960745,4824683.477784875],[645317.119483921,4824692.805458519],[645315.9106878919,4824694.287632704],[645315.5189011758,4824693.416428072],[645315.4187573746,4824693.230106318],[645309.1757185038,4824683.354711896],[645309.3564454431,4824681.714865358]]]]}},{"type":"Feature","properties":{"class":"tertiary","widthMeters":8},"geometry":{"type":"Polygon","coordinates":[[[645306.4327744979,4824671.24416746],[645306.302443212,4824670.884548432],[645306.1383579093,4824670.539022596],[645305.9420190689,4824670.210749616],[645305.7152221121,4824669.902731385],[645300.2851477169,4824663.222252801],[645293.3743767476,4824653.273409608],[645230.2159691302,4824547.366086242],[645230.0258450347,4824547.076555972],[645229.811385827,4824546.804559287],[645229.5741996153,4824546.552135734],[645193.8284215633,4824511.668009851],[645187.6313199606,4824498.594189787],[645177.6899972042,4824465.958163584],[645177.501297132,4824465.460293302],[645173.1188016209,4824455.87638924],[645172.875004932,4824455.4229165],[645168.118840009,4824447.797652916],[645167.9275755688,4824447.518108291],[645167.7133466505,4824447.255747367],[645146.0821214166,4824422.942980314],[645145.8976263643,4824422.749085076],[645103.5936987308,4824381.168627833],[645090.8144483136,4824364.258831565],[645080.291759362,4824346.105485663],[645039.8712686743,4824247.5795449475],[645039.8345164271,4824247.492878916],[645020.0647282494,4824202.358571216],[645014.2358191345,4824188.0],[645005.6017542566,4824188.0],[645012.6727072815,4824205.418144729],[645012.7150293309,4824205.5184588535],[645032.487775146,4824250.659518821],[645072.9938073333,4824349.393969046],[645073.233845312,4824349.881737248],[645084.0155127945,4824368.48186314],[645084.2849540667,4824368.887570567],[645097.3887115311,4824386.226761977],[645097.7759833832,4824386.66778916],[645140.1942760743,4824428.360655621],[645161.5107465681,4824452.31964897],[645165.9506499403,4824459.437870068],[645170.1149149849,4824468.544534655],[645180.0642907214,4824501.20699771],[645180.2762068684,4824501.754729005],[645186.9067347078,4824515.742934049],[645187.0727950955,4824516.05652058],[645187.2659930831,4824516.3541564355],[645187.484808292,4824516.633499359],[645187.7275187483,4824516.892351053],[645223.6127091463,4824551.912528747],[645285.0251007362,4824654.892041057],[645284.2436341919,4824655.718772825],[645279.4278726463,4824660.799872024],[645269.1202486516,4824668.698675968],[645261.4629247203,4824670.304848906],[645260.9822544388,4824670.4374264935],[645217.7715681171,4824685.31035098],[645190.8354597697,4824692.532965718],[645168.9130131329,4824692.205780829],[645150.3918026892,4824684.921639773],[645135.1147373738,4824673.459809348],[645121.743989089,4824659.596411368],[645100.1371770788,4824637.184614841],[645099.9058504761,4824636.963141405],[645099.657547581,4824636.760883767],[645088.2472531442,4824628.2029365385],[645087.9579990918,4824628.005174465],[645087.6525476885,4824627.833485255],[645087.3332428485,4824627.689186386],[645075.6210843783,4824623.002612182],[645075.2246414248,4824622.867591891],[645074.8162540402,4824622.774762809],[645074.4003991071,4824622.725142562],[645073.9816353704,4824622.719275101],[645056.9422375355,4824623.3732967675],[645056.4787210574,4824623.4182159975],[645056.023566567,4824623.516702811],[645051.3167589923,4824624.826141574],[645052.3888486288,4824628.679792287],[645050.7288487145,4824625.040506603],[645044.6817237383,4824627.798802548],[645046.3417236527,4824631.438088232],[645043.7292362939,4824628.409076875],[645036.5905614201,4824634.566101616],[645036.3484396739,4824634.793112463],[645036.1259713522,4824635.039414534],[645029.5803266483,4824642.920413033],[645029.3138912483,4824643.280451667],[645029.089378409,4824643.668020532],[645028.909603179,4824644.078260104],[645025.5302076709,4824653.138809609],[645025.397652503,4824653.56566313],[645025.3135471699,4824654.004640458],[645025.2789418049,4824654.4502605535],[645024.3394988002,4824697.93263179],[645021.3907278336,4824715.643442703],[645017.6520030082,4824733.824965548],[645013.9641688138,4824744.962187979],[645007.9641144256,4824753.646293699],[644994.7434759479,4824761.498366326],[644968.845292128,4824776.887157439],[644947.0,4824787.573754101],[644947.0,4824796.479702691],[644972.5066708267,4824784.001979724],[644972.7922519688,4824783.847609876],[644998.8290313111,4824768.376464722],[645012.8007872392,4824760.078284383],[645013.1581911833,4824759.839126553],[645013.4878549641,4824759.562981956],[645013.785968203,4824759.253042376],[645014.0490851942,4824758.91289021],[645020.872008644,4824749.0378149655],[645021.0727512412,4824748.715577391],[645021.2420396815,4824748.375759691],[645021.3783489448,4824748.0214230865],[645025.3200944815,4824736.117390937],[645025.4408761644,4824735.665698001],[645029.242008316,4824717.180686594],[645029.2696725889,4824717.031950369],[645032.2780460026,4824698.963157203],[645032.3314276279,4824698.392618662],[645033.2624487826,4824655.300055008],[645036.1680581629,4824647.509780809],[645042.0675185398,4824640.406792414],[645048.5215525262,4824634.840262542],[645053.7633031524,4824632.449324773],[645057.7168008729,4824631.349457595],[645073.4386269372,4824630.746008167],[645083.8702173713,4824634.920168101],[645094.600647974,4824642.968203965],[645115.9849237541,4824665.14917344],[645129.5788581625,4824679.243981024],[645129.809697853,4824679.464939901],[645130.0574385064,4824679.666767443],[645146.0236236076,4824691.645619557],[645146.3197399017,4824691.847700858],[645146.6327602068,4824692.0224578325],[645146.9601701542,4824692.1684867265],[645166.6619808504,4824699.916941863],[645167.0022661979,4824700.033396446],[645167.3516364325,4824700.1188144],[645167.7072669875,4824700.172505145],[645168.0662826838,4824700.194034603],[645191.2733791947,4824700.540392444],[645191.6422679564,4824700.528869622],[645192.0085244543,4824700.483395766],[645192.3690306623,4824700.404358003],[645219.9778337417,4824693.001367733],[645220.2437001793,4824692.920075664],[645263.3497108418,4824678.083180071],[645271.2127264221,4824676.433861987],[645282.6214110719,4824676.628033737],[645291.361466883,4824677.482795348],[645301.5473830116,4824680.016565888],[645307.8785112874,4824682.1093861265],[645307.8824522392,4824682.110686582],[645315.2260527108,4824684.529741459],[645322.2286909015,4824687.856024949],[645382.0838117925,4824716.330153482],[645382.3604942932,4824716.44921712],[645414.1968826863,4824728.750247237],[645414.6074467396,4824728.883899855],[645415.0300247165,4824728.972521058],[645415.4596929003,4824729.015078265],[645439.9998427175,4824730.113421012],[645440.3524750684,4824730.113644504],[645440.7037567996,4824730.082809943],[645441.0509578016,4824730.02115697],[645597.6212677603,4824695.036462537],[645597.6595347574,4824695.0277146455],[645722.3573519074,4824665.877042849],[645721.4468186616,4824661.982055145],[645722.3595193394,4824665.876535531],[645725.1856462043,4824665.214211511],[645777.5502449329,4824658.806714617],[645908.5642386905,4824643.932720612],[645916.7189111627,4824643.003443056],[645952.3664501414,4824641.065096725],[645970.4703530427,4824640.076724892],[646066.3046951344,4824646.218106046],[646071.0,4824646.5191750135],[646071.0,4824638.502745728],[646066.8165436786,4824638.234497146],[645970.7451057769,4824632.077922106],[645970.2712443585,4824632.075681784],[645951.9316512597,4824633.076921081],[645916.1663999096,4824635.02166806],[645915.9306855495,4824635.041489705],[645907.6609619348,4824635.983878443],[645776.6304906203,4824650.859743142],[645776.5958822895,4824650.863824994],[645723.9984924395,4824657.299806942],[645723.5716207527,4824657.3757132115],[645720.535201153,4824658.087320911],[645595.8575803316,4824687.233271401],[645439.8258446555,4824722.097624649],[645416.4704356445,4824721.052307311],[645385.3843967026,4824709.041199251],[645325.6643225689,4824680.631314824],[645318.4319903068,4824677.195924904],[645317.9672382645,4824677.009847651],[645310.3873991553,4824674.512973422],[645306.6224407,4824673.2684272835],[645306.6109318916,4824672.37423528],[645306.5877273212,4824671.99243214],[645306.5281599519,4824671.614591144],[645306.4327744979,4824671.24416746]],[[645293.8008335049,4824667.910155489],[645293.9820678596,4824668.151141795],[645295.7545588718,4824670.331791154],[645293.0081488605,4824669.648615219],[645292.4319004528,4824669.549314914],[645283.2398189896,4824668.650346014],[645282.9185524248,4824668.631932388],[645282.3719364643,4824668.622629179],[645284.5457851036,4824666.95679385],[645284.7892733478,4824666.754420968],[645285.0159931317,4824666.533424478],[645289.5335685569,4824661.766940786],[645293.8008335049,4824667.910155489]]]}},{"type":"Feature","properties":{"class":"track","widthMeters":2.5},"geometry":{"type":"MultiPolygon","coordinates":[[[[646071.0,4824203.34031495],[646071.0,4824200.808806485],[646049.7195661603,4824204.198053349],[646023.2908117077,4824204.154515439],[646023.2866932908,4824206.654512047],[646049.8154015464,4824206.698214618],[646049.9150438702,4824206.694401506],[646050.0140652136,4824206.682658166],[646071.0,4824203.34031495]]],[[[645969.9813785914,4824671.982174551],[645970.0558326562,4824672.073204338],[645970.1385118446,4824672.156834365],[645970.2286843554,4824672.232324417],[645970.3255520635,4824672.299006324],[645970.4282575842,4824672.356289879],[645970.5358918615,4824672.40366806],[645970.6475022146,4824672.440721518],[645970.7621007701,4824672.467122289],[645981.555298111,4824674.424110145],[645981.665878626,4824674.439097959],[645981.777355171,4824674.444164002],[645981.8888393092,4824674.439267901],[646013.1542101722,4824671.663752007],[646037.0430373437,4824669.594589511],[646037.1596506858,4824669.578930609],[646037.2742751187,4824669.55237666],[646037.3858950607,4824669.515162935],[646037.4935215504,4824669.467619149],[646037.5962010085,4824669.410166545],[646037.6930236872,4824669.343314158],[646049.6807904528,4824660.2040806515],[646057.5271976698,4824654.230418183],[646057.6196053256,4824654.152739598],[646057.7040889575,4824654.066509365],[646067.49466435,4824643.056958283],[646065.6265040598,4824641.395640395],[646055.9164317249,4824652.314665385],[646048.4774541378,4824657.978141673],[645971.8834046884,4824661.342248195],[645963.9660758795,4824657.184551021],[645953.2594118428,4824636.496467271],[645951.0391275401,4824637.645526719],[645961.9265623511,4824658.68290703],[645961.9674025658,4824658.755751517],[645969.9158086496,4824671.88455072],[645969.9813785914,4824671.982174551]],[[646036.4658447176,4824667.135223355],[646012.9371445498,4824669.173192973],[646012.9344797059,4824669.173426665],[645981.8355684838,4824671.934165463],[645971.762577516,4824670.107763112],[645966.432253549,4824661.303387452],[645971.0198986724,4824663.712538268],[645971.1396567557,4824663.767579435],[645971.2645446352,4824663.809704799],[645971.3931738348,4824663.838446017],[645971.5241142837,4824663.853483552],[645971.6559102151,4824663.854650221],[646044.9939709796,4824660.633550797],[646036.4658447176,4824667.135223355]]],[[[645702.1922457325,4824681.205860928],[645707.2166913971,4824680.999711534],[645709.2378220578,4824681.5174067905],[645710.5182057525,4824684.51675772],[645710.5709542949,4824684.6254517725],[645710.6339498672,4824684.728545727],[645710.7066039677,4824684.825076486],[645710.7882378649,4824684.914142262],[645710.8780889387,4824684.994911008],[645710.975317804,4824685.066628184],[645711.0790161536,4824685.128623813],[645711.1882152417,4824685.180318735],[645711.3018949354,4824685.221230015],[645711.4189932441,4824685.250975465],[645711.5384162404,4824685.269277204],[645711.6590482802,4824685.275964256],[645711.7797624242,4824685.270974154],[645711.8994309662,4824685.254353511],[645712.0169359681,4824685.226257601],[645712.1311797033,4824685.186948891],[645712.2410949119,4824685.1367946025],[645712.345654771,4824685.076263276],[645712.4438824869,4824685.005920391],[645712.5348604206,4824684.926423087],[645712.6177386605,4824684.838514025],[645712.6917429616,4824684.743014449],[645712.756181979,4824684.64081651],[645712.8104537261,4824684.532874937],[645722.5894353449,4824662.488934929],[645720.3042019784,4824661.475175362],[645711.6898603303,4824680.893764935],[645711.2949818237,4824679.968745958],[645711.2391312096,4824679.854410324],[645711.1719459278,4824679.746345222],[645711.0941222083,4824679.645670513],[645711.0064665253,4824679.553429472],[645710.9098872399,4824679.4705779785],[645710.8053851876,4824679.3979746085],[645710.6940433056,4824679.3363717375],[645710.5770154113,4824679.286407747],[645710.4555142457,4824679.248600406],[645707.6591097596,4824678.532325419],[645707.5400661834,4824678.5079307025],[645707.4192164179,4824678.49521027],[645707.2977025593,4824678.494284337],[645701.9841985732,4824678.712293587],[645701.8791954729,4824678.72104643],[645701.7753025749,4824678.738611424],[645683.3884697844,4824682.650781016],[645667.3298950666,4824686.069110552],[645658.698711671,4824687.218877728],[645659.0288227153,4824689.696987229],[645667.70792234,4824688.540837092],[645667.8031187502,4824688.524389774],[645683.9088073905,4824685.096031265],[645702.1922457325,4824681.205860928]]]]}},{"type":"Feature","properties":{"class":"unclassified","widthMeters":4},"geometry":{"type":"Polygon","coordinates":[[[646056.7369587045,4824335.1639434155],[646056.5697250393,4824335.035905942],[646056.3899537916,4824334.926165375],[646056.1996386559,4824334.835938757],[646056.0008902599,4824334.766226718],[646055.7959127576,4824334.717802375],[646045.90366111,4824332.924769382],[646045.7070859035,4824332.89912385],[646045.508937486,4824332.8930649925],[646036.2372679845,4824333.069365904],[646027.1176965757,4824330.769553704],[646023.4557530242,4824323.410113142],[646020.3012665678,4824309.157555081],[646020.7262496435,4824289.618065214],[646020.7188194917,4824289.396953174],[646019.7897470096,4824278.977082983],[646023.732051765,4824259.560031989],[646023.7370097161,4824259.534780527],[646026.8768917862,4824242.980334804],[646026.9066373445,4824242.752963079],[646026.9101610505,4824242.523680975],[646026.1274529217,4824223.894967184],[646026.1271716664,4824223.888521137],[646025.2867212674,4824205.31439779],[646024.7856831035,4824194.170109647],[646024.7833718078,4824194.128409664],[646024.379469871,4824188.0],[646020.370791955,4824188.0],[646020.7906575835,4824194.370626979],[646021.2907707688,4824205.494341382],[646022.1311144088,4824224.066107178],[646022.9040131419,4824242.461354087],[646019.8094720498,4824258.776747915],[646016.125281953,4824276.922505643],[645982.6954961164,4824278.124768433],[645920.7626672327,4824278.044300007],[645920.7117500708,4824278.044882075],[645851.7138271373,4824279.712310042],[645851.7043459987,4824279.712561662],[645783.014739888,4824281.698511571],[645782.8939425717,4824281.705666381],[645761.243728547,4824283.646753361],[645761.0608073582,4824283.67170838],[645715.8038824585,4824291.989322986],[645664.551176427,4824298.469071467],[645664.329297979,4824298.509949554],[645664.1134352279,4824298.575556995],[645646.3717946936,4824305.0817886805],[645575.7195389873,4824315.370897646],[645487.5750529949,4824328.211391145],[645468.889585908,4824330.391524117],[645405.3278287342,4824337.825006976],[645397.7687547905,4824221.789501335],[645397.7526309729,4824221.6349056],[645397.7245501841,4824221.482028891],[645390.2188236548,4824188.0],[645386.1195495846,4824188.0],[645393.787342703,4824222.204985983],[645401.3525115063,4824338.334050719],[645148.9985499323,4824373.831497461],[645148.9528015759,4824373.838473332],[645100.3716134154,4824381.822477738],[645064.7056178193,4824383.443848513],[645000.7380538915,4824386.327309976],[644947.0,4824387.664267593],[644947.0,4824391.665505347],[645000.8577065632,4824390.325570873],[645000.8980260446,4824390.324160719],[645064.8861256641,4824387.43977357],[645100.6707380319,4824385.813010641],[645100.5799121357,4824383.8150740415],[645100.9042484291,4824385.788600319],[645149.5786403221,4824377.789278481],[645401.6746537198,4824342.328116098],[645419.866815341,4824534.912257608],[645226.8339894651,4824547.407206524],[645121.3594195528,4824534.9109666245],[645075.2402246662,4824529.092564566],[645074.9774227939,4824529.07687456],[645058.2163127338,4824529.181348875],[645058.0162036683,4824529.192639154],[645057.8182294472,4824529.223901212],[645057.6243782814,4824529.274821091],[645057.436596975,4824529.344887413],[645040.8055573525,4824536.519056751],[645040.6375597653,4824536.601040547],[645040.4779504327,4824536.698351353],[645040.3281237234,4824536.810139051],[645040.1893885435,4824536.935427046],[644999.1917574048,4824577.595223755],[644999.171466412,4824577.615639263],[644964.9716947394,4824612.524135585],[644947.4983361542,4824624.113896105],[644947.0,4824624.306717066],[644947.0,4824628.59570658],[644949.1444438414,4824627.765957989],[644949.3417086959,4824627.677081778],[644949.5282186144,4824627.567416587],[644967.3583253773,4824615.741031498],[644967.5269171287,4824615.6159903845],[644967.6814753427,4824615.473968496],[645002.0186775852,4824580.425193619],[645042.7373967697,4824540.042010535],[645058.6477216627,4824533.178737546],[645074.8704364661,4824533.077619123],[645120.8662588949,4824538.880456501],[645120.8812877786,4824538.882294781],[645226.5451789239,4824551.400964765],[645226.7272050483,4824551.414145505],[645226.909674832,4824551.410678535],[645420.2456032891,4824538.896109892],[645438.1877945341,4824726.308023213],[645442.1695885718,4824725.926819538],[645424.2395867229,4824538.642228349],[645505.50195316,4824533.565396918],[645505.5098218927,4824533.564889749],[645589.6195977798,4824527.977184074],[645589.6802846311,4824527.972223516],[645718.7639820164,4824515.440116428],[645740.1262141498,4824513.533600763],[645772.1888382412,4824512.63274144],[645772.1326666722,4824510.633530407],[645772.4037120662,4824512.615078892],[645791.759561295,4824509.967496043],[646071.0,4824489.662850268],[646071.0,4824485.652289602],[645791.4062625738,4824505.982625085],[645791.2802619261,4824505.9958101725],[645771.9685814894,4824508.637351409],[645739.9529544758,4824509.536890262],[645739.8313386317,4824509.544019058],[645718.4006673738,4824511.456642711],[645718.3851931933,4824511.458084358],[645589.3240671393,4824523.988000105],[645505.2486062399,4824529.573426115],[645423.860614348,4824534.658105942],[645405.6440174724,4824341.815290255],[645469.3534113545,4824334.364541362],[645488.066927367,4824332.181135773],[645488.1234569456,4824332.173722014],[645576.296015792,4824319.329138985],[645647.1536881112,4824309.010115137],[645647.3565021725,4824308.969776309],[645647.5540669825,4824308.908711504],[645665.2777979564,4824302.409047631],[645716.3611687218,4824295.950707774],[645716.4718289723,4824295.93355737],[645761.6929597366,4824287.622521244],[645783.190846287,4824285.695091444],[645851.8152051549,4824283.71102796],[645920.7829323983,4824282.044329712],[645982.7275508752,4824282.124813457],[645982.802030613,4824282.1235230025],[646015.9481375947,4824280.931462388],[646016.7247863645,4824289.641847768],[646016.2969780449,4824309.311234161],[646016.3061083052,4824309.550479742],[646016.3437618527,4824309.786920051],[646019.6032349326,4824324.513827255],[646019.6703121265,4824324.748161818],[646019.7653971368,4824324.972596393],[646023.9462554898,4824333.374904653],[646024.0396721682,4824333.542066347],[646024.1486474774,4824333.699527737],[646024.272182394,4824333.845845309],[646024.4091444209,4824333.979677707],[646024.5582779687,4824334.099798032],[646024.7182158662,4824334.20510509],[646024.8874918949,4824334.294633485],[646025.0645542289,4824334.367562475],[646025.2477796621,4824334.423223485],[646035.518656074,4824337.013376663],[646035.692332232,4824337.049069641],[646035.8684870775,4824337.069240584],[646036.0457361483,4824337.0737309605],[646045.3860448854,4824336.896124873],[646054.5518352522,4824338.557482177],[646062.5884860822,4824345.410933451],[646068.9097875416,4824353.148487131],[646071.0,4824357.40079011],[646071.0,4824349.384614743],[646065.5721690591,4824342.740708652],[646065.4523870493,4824342.60684094],[646065.3210767339,4824342.484260782],[646056.7369587045,4824335.1639434155]]]}}]}
