{"type":"FeatureCollection","name":"barreiros-altar-roads","crs":{"type":"name","properties":{"name":"EPSG:25829"}},"source":"\u00a9 OpenStreetMap contributors, ODbL 1.0","features":[{"type":"Feature","properties":{"class":"footway","widthMeters":2},"geometry":{"type":"MultiPolygon","coordinates":[[[[641907.5411218167,4824871.649716971],[641907.5602437146,4824871.551694759],[641907.5694929938,4824871.452254064],[641907.5687774017,4824871.352386707],[641907.558104076,4824871.253088766],[641907.5375794721,4824871.155350638],[641907.5074083026,4824871.060147163],[641907.4678914949,4824870.968427902],[641907.4194231894,4824870.881107662],[641907.3624868093,4824870.799057375],[641907.2976502378,4824870.72309541],[641907.2255601552,4824870.653979413],[641907.146935588,4824870.592398747],[641904.2518155457,4824868.549612573],[641919.4216998734,4824848.195028343],[641917.8180747791,4824846.999877074],[641902.0348710609,4824868.177398442],[641901.9793217448,4824868.260259947],[641901.9323046843,4824868.348243761],[641901.8942877819,4824868.440474291],[641901.8656493722,4824868.536033681],[641901.8466744579,4824868.633970947],[641901.8375518725,4824868.733311442],[641901.8383724019,4824868.833066554],[641901.8491278804,4824868.932243543],[641901.869711272,4824869.029855425],[641901.8999177358,4824869.12493079],[641901.9394466646,4824869.216523471],[641901.9879046761,4824869.303721961],[641902.0448095279,4824869.385658481],[641902.109594917,4824869.461517619],[641902.1816161152,4824869.530544444],[641902.2601563847,4824869.592052017],[641905.1537774877,4824871.633780545],[641889.8615888647,4824892.076204407],[641883.5045131112,4824898.945645149],[641873.554466694,4824889.79462221],[641873.4803315477,4824889.732772489],[641873.4005774532,4824889.678360245],[641873.3159478309,4824889.631892677],[641873.2272315479,4824889.593802928],[641873.135255565,4824889.564446048],[641873.0408772278,4824889.544095685],[641872.9449762752,4824889.532941531],[641872.848446639,4824889.531087561],[641872.7521881117,4824889.538551055],[641851.6561628478,4824892.203810747],[641851.9068489354,4824894.18803767],[641872.5422957044,4824891.5809672],[641882.1828734487,4824900.447372882],[641875.0097043733,4824909.040084173],[641875.0004040026,4824909.051392307],[641870.105672231,4824915.092405085],[641870.0435349835,4824915.17797632],[641865.9009245918,4824921.568223843],[641865.8673709728,4824921.623862818],[641861.8116831353,4824928.871509067],[641861.7637576696,4824928.969296005],[641856.6107347276,4824941.11599636],[641856.5945173542,4824941.15667967],[641853.1874810214,4824950.2795642335],[641850.2977909953,4824956.83144212],[641848.9358008547,4824958.408861001],[641837.8210813105,4824957.801521939],[641837.7150416631,4824957.8013582425],[641837.6095808598,4824957.812424072],[641837.5058847475,4824957.834594997],[641837.4051193303,4824957.867621717],[641837.308417658,4824957.911132867],[641818.671465314,4824967.515852426],[641814.5476471657,4824939.233038961],[641812.5685736221,4824939.521600756],[641816.7908033328,4824968.479360536],[641786.0929311129,4824984.025290329],[641769.4355438602,4824991.451821698],[641769.3262493844,4824991.50887061],[641757.9299022254,4824998.382929451],[641747.097718684,4825004.509648935],[641734.2066471789,4825011.533506145],[641734.1453051325,4825011.569822656],[641731.0083400001,4825013.581366118],[641730.9329758788,4825013.634759401],[641730.8628594145,4825013.69487824],[641730.7985887427,4825013.761209787],[641730.7407121301,4825013.833188195],[641730.6897232987,4825013.910199444],[641730.6460572132,4825013.991586583],[641730.6100863715,4825014.076655331],[641729.376082452,4825017.4172768155],[641729.3475249676,4825017.507511866],[641729.3276262229,4825017.600042587],[641729.3165644684,4825017.694040097],[641729.0155946293,4825021.998811736],[641729.014145193,4825022.02416689],[641728.7985958976,4825026.875188764],[641728.7999554699,4825026.988026452],[641729.1335729174,4825031.850644684],[641729.1413769565,4825031.924308412],[641729.1546125514,4825031.997192339],[641729.9434605992,4825035.580529796],[641729.9579214728,4825035.638040038],[641731.8846663344,4825042.440930349],[641730.1782316954,4825054.103839933],[641730.1762571378,4825054.118045825],[641729.1562741584,4825061.863203121],[641729.1495092661,4825061.933871679],[641728.4763053868,4825073.153031563],[641728.4752034689,4825073.17569199],[641728.2141562281,4825080.181317157],[641728.2142653214,4825080.25861121],[641728.5000350225,4825087.386894834],[641728.5119049601,4825087.50553377],[641729.4688402832,4825093.459096889],[641729.4867634617,4825093.5458702715],[641729.5122972975,4825093.630716506],[641731.4553265271,4825099.182879375],[641731.4918452055,4825099.272935662],[641734.3354855643,4825105.410786736],[641734.3751331046,4825105.487495402],[641734.4212503751,4825105.560497759],[641734.4734935183,4825105.629249493],[641736.76530878,4825108.389264098],[641736.3595028011,4825114.973597039],[641736.3578328384,4825115.056272419],[641736.3629993522,4825115.138803107],[641736.9945418652,4825121.196607999],[641737.0058157156,4825121.274716132],[641737.0232137616,4825121.351692026],[641739.2325020316,4825129.598380385],[641739.2694058676,4825129.709600348],[641739.3190669861,4825129.815739628],[641741.1386889884,4825133.176402729],[641741.2075469869,4825133.285986967],[641746.262974819,4825140.28166931],[641746.3295037937,4825140.364146536],[641746.404386685,4825140.4391208645],[641746.4867826628,4825140.505750438],[641751.7786438082,4825144.339751218],[641751.8628544431,4825144.394531231],[641751.9521364113,4825144.440585665],[641752.0455886542,4825144.477449728],[641754.9255826965,4825145.449391527],[641754.984638597,4825145.467311849],[641762.0558121711,4825147.376845374],[641764.0924398751,4825148.262022813],[641765.6838606093,4825150.306992094],[641768.3577735587,4825155.044377937],[641768.3797146751,4825155.08136949],[641771.716425599,4825160.440762398],[641771.7210248654,4825160.44807904],[641780.5410414373,4825174.345563493],[641780.5915750401,4825174.417919986],[641780.6482915052,4825174.485539137],[641780.7107490619,4825174.547894255],[641784.9672181022,4825178.437829204],[641785.0416551031,4825178.499524957],[641785.1217020531,4825178.553744129],[641785.2066107347,4825178.599979924],[641785.2955874867,4825178.637800164],[641785.3878006227,4825178.666851334],[641791.0681587193,4825180.158752202],[641797.0473010746,4825182.055745652],[641797.1421674122,4825182.080793781],[641824.0712936053,4825187.79425454],[641824.1704065964,4825187.810133109],[641824.2706121127,4825187.815995573],[641824.3709005321,4825187.811782864],[641824.4702613972,4825187.797537427],[641824.5676935962,4825187.773402793],[641824.6622154497,4825187.73962213],[641824.7528746014,4825187.696535796],[641824.8387576138,4825187.644577907],[641824.9189991712,4825187.584271967],[641824.992790799,4825187.5162255885],[641825.0593890083,4825187.441124373],[641825.1181227881,4825187.359725006],[641825.1684003655,4825187.272847625],[641826.8897035506,4825183.920961484],[641828.5161422525,4825181.409096112],[641828.5634465438,4825181.327918833],[641828.6029234976,4825181.242660305],[641829.8793834173,4825178.107409568],[641832.0318159651,4825172.96172088],[641832.7649970419,4825172.519841306],[641835.7309043469,4825172.257216476],[641841.1850884893,4825173.389970405],[641841.2852970709,4825173.405530592],[641841.3865663065,4825173.410861744],[641848.8839733844,4825173.424869228],[641848.9176007695,4825173.424366526],[641857.1031532525,4825173.164269722],[641864.4060944258,4825172.996599775],[641864.4664402987,4825172.993387828],[641872.8287441008,4825172.29438647],[641876.108838632,4825175.376820905],[641876.1871470744,4825175.443181401],[641876.271845565,4825175.501164963],[641876.3620417267,4825175.550160676],[641876.4567852594,4825175.58965233],[641876.555077952,4825175.61922384],[641876.6558841999,4825175.638563643],[641876.7581419158,4825175.647467977],[641876.8607737196,4825175.645843028],[641876.9626982902,4825175.633705915],[641881.8093849374,4825174.802406887],[641895.8229907221,4825180.650526702],[641900.180010265,4825190.038296737],[641901.9941453913,4825189.196326582],[641897.4736184387,4825179.456258389],[641897.4307972026,4825179.374174599],[641897.3805681595,4825179.296402816],[641897.323361843,4825179.223609655],[641897.2596685917,4825179.156419056],[641897.1900343463,4825179.095406936],[641897.1150559704,4825179.041096254],[641897.0353761342,4825178.993952531],[641896.951677806,4825178.954379854],[641882.3116598143,4825172.844847401],[641882.2231452663,4825172.812713059],[641882.1320005256,4825172.789047103],[641882.0390338127,4825172.774059394],[641881.9450695043,4825172.767882831],[641881.8509408237,4825172.770572186],[641881.757482451,4825172.782103611],[641877.1155008683,4825173.578291824],[641875.7782886173,4825172.321660635],[641878.0594212388,4825172.375060481],[641878.0828241833,4825171.375334367],[641878.3364192207,4825172.342644843],[641884.9253506786,4825170.615257039],[641884.9641849734,4825170.604233698],[641905.2535407053,4825164.399818176],[641905.27136686,4825164.394184255],[641944.6265127517,4825151.550226258],[641972.1134612849,4825142.888742895],[641972.1192224614,4825142.886908311],[641983.5551004785,4825139.207163492],[642000.0739577459,4825133.957283246],[642000.9532929583,4825138.048883916],[642000.979661419,4825138.147010268],[642001.0158512593,4825138.241954315],[642001.0614888527,4825138.33273585],[642001.116103033,4825138.418417633],[642001.1791299591,4825138.498115081],[642001.2499189363,4825138.571005393],[642001.3277391338,4825138.636336041],[642011.8125933902,4825146.566435502],[642011.1650695531,4825148.186725257],[642002.8863186795,4825151.401192642],[642003.6102238466,4825153.265585656],[642012.2942712673,4825149.893750022],[642012.3877815468,4825149.851808299],[642012.4765079723,4825149.80051598],[642012.559518625,4825149.740411803],[642012.6359416208,4825149.67212706],[642012.7049742675,4825149.5963789625],[642012.7658914959,4825149.513963115],[642012.8180534751,4825149.425745156],[642012.8609123335,4825149.332651661],[642013.9529002622,4825146.600185685],[642013.9853823474,4825146.505372594],[642014.0082108036,4825146.407784329],[642014.0211563279,4825146.308401124],[642014.0240888876,4825146.208221246],[642014.0169790264,4825146.108250961],[642013.9998981598,4825146.009494431],[642013.9730178586,4825145.91294363],[642013.9366081248,4825145.819568369],[642013.89103468,4825145.730306568],[642013.8367552914,4825145.646054827],[642013.7743151744,4825145.56765942],[642013.7043415154,4825145.495907799],[642013.6275371724,4825145.431520682],[642002.830569526,4825137.2653578315],[642002.0161251198,4825133.475698063],[642004.3186188902,4825133.070447607],[642004.4147284825,4825133.048599992],[642004.508220535,4825133.017397298],[642004.5981868311,4825132.977142638],[642004.6837534048,4825132.928227063],[642004.7640890304,4825132.871125756],[642004.838413298,4825132.80639342],[642004.9060041938,4825132.7346588895],[642004.9662051147,4825132.656619021],[642005.0184312467,4825132.573031922],[642005.0621752457,4825132.484709589],[642005.097012166,4825132.392510016],[642005.1226035892,4825132.297328868],[642005.1387009103,4825132.200090767],[642005.1451477541,4825132.101740321],[642005.1418814936,4825132.003232943],[642005.1289338584,4825131.90552557],[642004.2836542664,4825127.287823027],[642003.4224902225,4825121.880941831],[642003.4167063384,4825121.848151549],[642002.5353954792,4825117.296146429],[642002.5151475183,4825117.211493616],[642001.7516882363,4825114.539505051],[642001.8077001813,4825111.89207614],[642003.3640824913,4825106.164694565],[642004.5259704416,4825103.726836768],[642002.7205379215,4825102.866363983],[642001.5199500477,4825105.385421443],[642001.4850356993,4825105.468024635],[642001.4576620569,4825105.5534235975],[641999.8455150989,4825111.486015303],[641999.8207614331,4825111.605493573],[641999.8107430863,4825111.727097165],[641999.7489446235,4825114.648028353],[641999.7518136058,4825114.747767449],[641999.7646079148,4825114.846724127],[641999.7872001692,4825114.943913162],[642000.5801382957,4825117.719073091],[642001.4500040512,4825122.211963801],[642002.3103660963,4825127.61380959],[642002.3142630497,4825127.636580359],[642002.9803290648,4825131.275251824],[642000.6469683761,4825131.685935013],[642000.5174259898,4825131.717769205],[641982.947622233,4825137.301652167],[641982.9441998267,4825137.30274662],[641971.5094893834,4825140.982115747],[641944.02056065,4825149.644223096],[641944.0108494206,4825149.647337751],[641904.6597426088,4825162.4899775535],[641884.3986321922,4825168.685755754],[641878.9423585536,4825170.11620022],[641875.5177817278,4825140.839344086],[641873.531325386,4825141.071704157],[641876.9559162398,4825170.348680216],[641873.2125170976,4825170.261049653],[641873.1058150934,4825170.2642511735],[641864.3299665737,4825170.997820555],[641857.0528434535,4825171.16489774],[641857.0440375624,4825171.165138728],[641848.8708920906,4825171.424841298],[641841.4921052234,4825171.411055433],[641835.9930764559,4825170.268987933],[641835.896602814,4825170.253822113],[641835.7991099115,4825170.248138838],[641835.7015275544,4825170.2519923095],[641832.3584706361,4825170.548012942],[641832.2684971071,4825170.560116903],[641832.1799920611,4825170.580330726],[641832.0936849341,4825170.608487814],[641832.0102870469,4825170.644356104],[641831.9304857437,4825170.687639978],[641830.7193055874,4825171.417603951],[641830.6320883238,4825171.476644513],[641830.5515644136,4825171.5445307335],[641830.4786270792,4825171.620509574],[641830.4140853881,4825171.70373823],[641830.3586552779,4825171.793293475],[641830.312951615,4825171.888181905],[641828.0324591289,4825177.340015645],[641828.0288192084,4825177.348835333],[641826.7861063068,4825180.401196384],[641825.1836494439,4825182.876024301],[641825.1334896835,4825182.962719768],[641823.7385228642,4825185.679132536],[641797.6053091008,4825180.1345378],[641791.6489682099,4825178.244778536],[641791.600581845,4825178.230758304],[641786.1343861546,4825176.795105489],[641782.1582971092,4825173.161406385],[641773.411973899,4825159.380038761],[641770.088915204,4825154.042573932],[641767.3892679096,4825149.2595944125],[641767.3506934784,4825149.196779191],[641767.30759664,4825149.136976169],[641765.5141610542,4825146.832418611],[641765.4489764475,4825146.7567743845],[641765.376572764,4825146.688008196],[641765.2976719474,4825146.62680572],[641765.2130607239,4825146.57377721],[641765.1235827589,4825146.529451418],[641762.7858456074,4825145.513403084],[641762.6479441366,4825145.465106448],[641755.535855465,4825143.544524014],[641752.8290438218,4825142.631027896],[641747.7900690159,4825138.980245533],[641742.866558569,4825132.16710998],[641741.1338963168,4825128.967052996],[641738.9755588524,4825120.910550508],[641738.360815006,4825115.013879732],[641738.785896448,4825108.116796186],[641738.7872536519,4825108.022523761],[641738.7797264942,4825107.928542518],[641738.7633818845,4825107.835687868],[641738.7383651126,4825107.74478521],[641738.7048985555,4825107.656642589],[641738.6632797021,4825107.572043516],[641738.6138785077,4825107.491740003],[641738.5571341063,4825107.416445879],[641736.0954172418,4825104.451820145],[641733.3269985284,4825098.476331115],[641731.4293923171,4825093.053963511],[641730.4960374844,4825087.247106167],[641730.2142093412,4825080.217141374],[641730.4733939928,4825073.261501805],[641731.1437909428,4825062.089120303],[641732.158200126,4825054.386287171],[641733.894550259,4825042.518915199],[641733.9042867573,4825042.414095521],[641733.9029501393,4825042.308833098],[641733.890555217,4825042.204294444],[641733.8672393508,4825042.101638054],[641731.8903132784,4825035.1215694975],[641731.1238015402,4825031.639694591],[641730.7991330648,4825026.907511488],[641731.0116100285,4825022.125633652],[641731.3017216487,4825017.976167119],[641732.3700498741,4825015.084052948],[641735.194868199,4825013.272670101],[641748.0615818524,4825006.262084563],[641748.075442522,4825006.254389297],[641758.9267175238,4825000.116871619],[641758.950902789,4825000.102741659],[641770.3063580887,4824993.253348006],[641786.9298908223,4824985.84191034],[641786.9744758538,4824985.820697995],[641818.3358751651,4824969.938746685],[641818.3421897683,4824969.935520682],[641837.9831768041,4824959.813362892],[641849.3171339924,4824960.432681706],[641849.4185503527,4824960.43307299],[641849.5194847891,4824960.423190138],[641849.6188991476,4824960.403134801],[641849.7157709087,4824960.373113257],[641849.8091037044,4824960.333434289],[641849.8979375669,4824960.284506015],[641849.9813588012,4824960.226831679],[641850.0585093844,4824960.161004491],[641850.1285957892,4824960.08770151],[641851.9093123479,4824958.0253254045],[641851.9701722125,4824957.94735414],[641852.0230315675,4824957.863751928],[641852.0673732663,4824957.7753366865],[641855.0291024165,4824951.060122408],[641855.0509435739,4824951.006439561],[641858.4604592171,4824941.876916247],[641863.5836313813,4824929.800580115],[641867.5968177189,4824922.62888543],[641871.6929439389,4824916.310342782],[641876.5497327938,4824910.316158647],[641884.3126481709,4824901.016992558],[641890.5943303196,4824894.229021964],[641898.9677834264,4824904.207888448],[641900.4998579547,4824902.922296117],[641891.9065362464,4824892.681406381],[641907.3711528552,4824872.008482748],[641907.4269075993,4824871.925624981],[641907.474119619,4824871.83761915],[641907.5123180219,4824871.745343027],[641907.5411218167,4824871.649716971]]],[[[642109.3873157708,4825159.019401152],[642109.4878237722,4825159.026709298],[642109.5885569617,4825159.023864674],[642109.6884923668,4825159.010896168],[642109.7866151169,4825158.987935478],[642109.8819287489,4825158.955215775],[642109.9734653278,4825158.9130693395],[642110.0602952747,4825158.861924177],[642110.1415368087,4825158.802299681],[642110.2163649001,4825158.734801355],[642110.2840196496,4825158.660114661],[642110.3438140053,4825158.578998064],[642110.3951407394,4825158.492275323],[642110.4374786151,4825158.400827132],[642110.4703976802,4825158.305582171],[642111.2349809287,4825155.670140091],[642163.9852221898,4825167.90479146],[642163.6302753916,4825168.870178589],[642163.6002669203,4825168.9665601235],[642163.5801281818,4825169.065475945],[642163.5700643882,4825169.165918112],[642163.5701780885,4825169.266863125],[642163.5804681241,4825169.367282365],[642163.6008296406,4825169.466152569],[642163.6310551559,4825169.562466259],[642163.6708366747,4825169.655242007],[642163.7197688271,4825169.743534437],[642163.7773529988,4825169.826443857],[642163.8430024126,4825169.903125426],[642163.9160481066,4825169.972797768],[642163.9957457522,4825170.034750927],[642164.0812832374,4825170.088353607],[642164.1717889432,4825170.1330596],[642164.2663406248,4825170.168413358],[642164.363974809,4825170.194054628],[642223.3087592901,4825182.5318437],[642223.7185017803,4825180.574265837],[642165.9069582671,4825168.473676512],[642166.2532999355,4825167.531693685],[642166.2829920099,4825167.436541114],[642166.303063783,4825167.338905286],[642166.313315829,4825167.239756274],[642166.3136462875,4825167.140079186],[642166.3040518753,4825167.040864377],[642166.2846279186,4825166.94309761],[642166.2555674069,4825166.847750257],[642166.2171590746,4825166.755769656],[642166.1697845329,4825166.668069691],[642166.1139144775,4825166.585521718],[642166.0501040128,4825166.508945901],[642165.9789871362,4825166.439103072],[642165.9012704385,4825166.376687161],[642165.8177260841,4825166.322318311],[642165.729184139,4825166.27653671],[642165.6365243234,4825166.239797227],[642165.5406672709,4825166.212464893],[642111.7872549595,4825153.745142587],[642118.310104293,4825130.777046728],[642116.3861856288,4825130.230661358],[642109.5772465677,4825154.206129295],[642108.8123703392,4825156.842581247],[642056.0199368885,4825144.825878232],[642055.5760476079,4825146.775996768],[642109.2880536432,4825159.002014451],[642109.3873157708,4825159.019401152]]],[[[642525.56557021,4825379.531728078],[642517.4414064621,4825377.492626962],[642511.1813903686,4825375.231994877],[642501.0588413862,4825370.709104598],[642501.0230286828,4825370.693931459],[642492.5261422956,4825367.28731347],[642486.7781140773,4825364.707196271],[642483.442019324,4825362.960247071],[642480.0872454869,4825360.520086679],[642477.6646775391,4825357.463332431],[642470.8226651958,4825347.700955778],[642460.2214232539,4825332.279455231],[642460.1606120782,4825332.199850951],[642460.0921417433,4825332.126730136],[642460.0166993382,4825332.06082654],[642459.9350419156,4825332.002801497],[642459.8479888946,4825331.9532372765],[642459.7564138382,4825331.912631249],[642459.6612356878,4825331.88139089],[642459.5634095407,4825331.85982969],[642459.4639170667,4825331.848164014],[642459.363756657,4825331.8465109235],[642459.2639334053,4825331.854887009],[642445.3347320779,4825333.730114566],[642442.5708455519,4825315.936407747],[642442.5561561214,4825315.86104341],[642440.4757265763,4825307.01162781],[642439.6317340931,4825301.42250645],[642439.6259106213,4825301.388034779],[642437.5798011236,4825290.4445131],[642437.5579365403,4825290.352104077],[642437.527405233,4825290.262185631],[642437.4884825174,4825290.175568602],[642435.8525917563,4825286.9536934765],[642432.2408776386,4825277.506235969],[642428.8579636929,4825267.781398805],[642428.4096150433,4825263.3111740565],[642428.3956202043,4825263.217028463],[642428.3727381241,4825263.124639835],[642428.3411760975,4825263.034845144],[642428.3012200525,4825262.94845786],[642428.2532319608,4825262.86626059],[642424.8577273242,4825257.638602897],[642424.8072634789,4825257.567843213],[642424.7508462337,4825257.501732496],[642424.6889017384,4825257.440770114],[642424.6218978927,4825257.385416549],[642420.0988656366,4825253.968349947],[642412.5232886135,4825248.197610993],[642412.4996046739,4825248.180114598],[642401.6283862833,4825240.393824484],[642401.6165070954,4825240.385446216],[642392.3358762076,4825233.940408754],[642378.5920667031,4825223.834307015],[642378.5608834828,4825223.812281919],[642368.1764079983,4825216.770813044],[642358.6055068227,4825210.224406612],[642358.5809666986,4825210.208146368],[642342.9818222485,4825200.199435798],[642342.9412871219,4825200.174765366],[642326.3550325837,4825190.6118308315],[642326.3104770316,4825190.587625883],[642307.1356070641,4825180.792068138],[642307.0657100978,4825180.759692597],[642295.365132241,4825175.878245],[642295.2826010671,4825175.84799905],[642276.9826836764,4825170.040145895],[642274.4895000625,4825162.102321517],[642272.5814053172,4825162.701633157],[642275.2304309012,4825171.13562885],[642275.263513392,4825171.22561862],[642275.3050619536,4825171.3120265305],[642275.3546946467,4825171.394058268],[642275.4119552168,4825171.4709597435],[642275.4763172902,4825171.542024035],[642275.5471892112,4825171.606597874],[642275.6239194821,4825171.664087661],[642275.7058027512,4825171.713964911],[642275.7920862978,4825171.755771126],[642275.8819769508,4825171.789121995],[642294.635667546,4825177.740989359],[642306.2600726758,4825182.590657912],[642325.3780334021,4825192.357143348],[642341.9217567687,4825201.895556203],[642357.4885366835,4825211.883501066],[642367.0489549716,4825218.422737301],[642367.0522943313,4825218.425011504],[642377.4226398119,4825225.456899155],[642391.1619612004,4825235.559700692],[642391.183960269,4825235.575423279],[642400.4697269342,4825242.024027338],[642411.3230654019,4825249.79751132],[642418.8885132249,4825255.5605342975],[642418.891686004,4825255.562941211],[642423.2761561953,4825258.8753267545],[642426.4438137425,4825263.7521951785],[642426.8797184117,4825268.098348206],[642426.8982574964,4825268.214210781],[642426.9302404419,4825268.327104205],[642430.3568970617,4825278.177688104],[642430.3673130102,4825278.206226231],[642434.003157907,4825287.7168046],[642434.0455800203,4825287.81244416],[642435.6402352831,4825290.953106267],[642437.6567646861,4825301.738420182],[642438.5041991735,4825307.350335323],[642438.5195281305,4825307.42987501],[642440.6004417724,4825316.281349787],[642443.5088390098,4825335.00540639],[642443.528326212,4825335.100295577],[642443.5569030676,4825335.192854058],[642443.5943014197,4825335.282213289],[642443.640170333,4825335.36753475],[642443.6940793869,4825335.4480178105],[642443.7555227147,4825335.522907238],[642443.82392375,4825335.591500294],[642443.8986406373,4825335.653153321],[642443.9789722551,4825335.707287785],[642444.064164795,4825335.753395703],[642444.153418835,4825335.791044412],[642444.245896841,4825335.819880628],[642444.3407310265,4825335.839633761],[642444.4370314949,4825335.850118452],[642444.5338945908,4825335.851236315],[642444.630411379,4825335.842976863],[642458.9215327464,4825333.919025591],[642469.1770951985,4825348.837670296],[642469.1822602807,4825348.845111462],[642476.0437703978,4825358.63530809],[642476.0789565524,4825358.682494379],[642478.6047355105,4825361.86947849],[642478.6641387582,4825361.937830849],[642478.7294819483,4825362.000529],[642478.8002292153,4825362.057058769],[642482.3249049694,4825364.620800646],[642482.4492311273,4825364.697991084],[642485.87711583,4825366.493006178],[642485.9315054272,4825366.519423812],[642491.7256548464,4825369.120243432],[642491.7630309482,4825369.136116724],[642500.2607126442,4825372.543053574],[642510.3991404019,4825377.073038702],[642510.4674303031,4825377.100582151],[642516.8094656442,4825379.390833225],[642516.905678316,4825379.420198379],[642525.0757549427,4825381.470823266],[642535.4126950395,4825384.131868532],[642549.4562416552,4825388.045194939],[642561.0,4825405.786362728],[642561.0,4825402.11924073],[642552.6865390075,4825389.34259538],[642561.0,4825392.788307881],[642561.0,4825390.623324182],[642552.0978898483,4825386.933631974],[642561.0,4825380.303968398],[642561.0,4825377.810278802],[642549.884485332,4825386.088329902],[642535.940016144,4825382.20261207],[642535.9208889337,4825382.197485683],[642525.5714314746,4825379.533218063],[642525.56557021,4825379.531728078]]]]}},{"type":"Feature","properties":{"class":"path","widthMeters":1.5},"geometry":{"type":"MultiPolygon","coordinates":[[[[642405.0600085496,4824371.7639095625],[642389.3904615893,4824374.887118499],[642389.3276104401,4824374.90249178],[642389.2663182355,4824374.9232250955],[642389.2070411645,4824374.949164131],[642383.2953756297,4824377.84602279],[642383.2344528348,4824377.879462079],[642383.1768868166,4824377.9183969805],[642383.1231718517,4824377.962493188],[642380.3057928757,4824380.50275721],[642380.2559204,4824380.552146563],[642380.2108834162,4824380.605981886],[642380.1710763741,4824380.663791673],[642380.1368479177,4824380.725069603],[642380.1084978317,4824380.789278984],[642380.0862744164,4824380.855857448],[642380.070372312,4824380.924221876],[642380.0609307947,4824380.99377351],[642379.6994026318,4824385.086134152],[642379.6988137324,4824385.093178867],[642378.814532319,4824396.307835112],[642378.8125423645,4824396.389061614],[642378.8193508008,4824396.470026728],[642378.8348777216,4824396.549780218],[642378.8589408974,4824396.627386069],[642386.4373995638,4824417.079376059],[642394.3789924174,4824440.310668329],[642397.5096233253,4824454.476331153],[642396.5813323228,4824468.268754182],[642389.7198404127,4824484.59583222],[642391.1026889828,4824485.176977496],[642398.0126607369,4824468.734540552],[642398.0404257668,4824468.656727706],[642398.0594636921,4824468.576333097],[642398.0695434946,4824468.494332284],[642399.0134558138,4824454.46980983],[642399.0148610618,4824454.398673339],[642399.0095190655,4824454.327723791],[642398.9974779018,4824454.257599719],[642395.8345867861,4824439.94596401],[642395.8119363345,4824439.865206841],[642387.8536675053,4824416.585132863],[642387.8472595374,4824416.567139714],[642380.3228748699,4824396.261079251],[642381.193894463,4824385.2146124],[642381.5291719285,4824381.41939962],[642384.0496763615,4824379.146809818],[642389.7794184408,4824376.339098038],[642405.3340944296,4824373.238784852],[642427.2725878435,4824370.040718072],[642427.3307277822,4824370.029886405],[642427.3878335126,4824370.014507425],[642449.4236493614,4824363.137549826],[642448.9767835983,4824361.705659122],[642426.9975547645,4824368.564956994],[642405.0984254436,4824371.757285505],[642405.0600085496,4824371.7639095625]]],[[[641540.621116251,4825144.801959864],[641560.9964321213,4825131.442753065],[641561.0503225735,4825131.403900931],[641578.088394889,4825117.934485861],[641609.6133418195,4825102.143731457],[641640.6296106994,4825088.40570445],[641640.7144855765,4825088.361429003],[641662.3370238326,4825075.262168997],[641662.3917347534,4825075.225651723],[641662.4430356048,4825075.184481117],[641662.4905317763,4825075.138973867],[641662.5338579236,4825075.089480017],[641674.7738192946,4825059.803335391],[641674.8203530377,4825059.738415864],[641691.3631777336,4825033.851411975],[641694.7561950877,4825029.810988704],[641702.2324119755,4825026.598155159],[641717.6311410491,4825019.965210977],[641724.7876315247,4825020.94783664],[641724.858280261,4825020.954151551],[641724.9292096061,4825020.953764171],[641724.9997851524,4825020.946677965],[641725.0693756568,4825020.932956313],[641725.1373586869,4825020.912721944],[641725.2031261877,4825020.88615584],[641725.2660899204,4825020.853495614],[641725.3256867237,4825020.815033384],[641725.3813835507,4825020.771113167],[641732.0398633238,4825014.989468902],[641731.0564031366,4825013.856858617],[641724.6547294097,4825019.415514863],[641717.6282732486,4825018.45074363],[641717.5606809336,4825018.444562929],[641717.4928066372,4825018.444518315],[641717.4252062555,4825018.450610153],[641717.3584334413,4825018.462788552],[641717.2930350695,4825018.480953768],[641717.2295467585,4825018.504957028],[641701.6398795845,4825025.22014737],[641694.0002895147,4825028.503188997],[641693.9373947443,4825028.533766229],[641693.8776214673,4825028.570068772],[641693.8214893895,4825028.61178099],[641693.7694865572,4825028.658540211],[641693.7220651148,4825028.70993988],[641690.1831204869,4825032.9241341315],[641690.1254858783,4825033.002590337],[641673.5779311168,4825058.896996059],[641661.446076704,4825074.048128936],[641639.9782851203,4825087.0536410725],[641608.9896120531,4825100.7794450745],[641608.9574569046,4825100.794609101],[641577.3477763202,4825116.627806346],[641577.2810561465,4825116.6656111395],[641577.2185451665,4825116.71003142],[641560.1461615249,4825130.206571242],[641539.8673154291,4825143.5025270125],[641530.0,4825147.242096236],[641530.0,4825148.846205796],[641540.4756756626,4825144.876076881],[641540.5504184015,4825144.842987036],[641540.621116251,4825144.801959864]]],[[[641786.1932553842,4825188.501454331],[641797.728566267,4825181.7498483835],[641796.9708619226,4825180.455288949],[641785.3544702433,4825187.254351406],[641785.3020649137,4825187.288021339],[641785.2526342892,4825187.325923798],[641785.2065193302,4825187.367797339],[641778.1939282413,4825194.288031185],[641772.1228539463,4825199.872925716],[641772.0712872308,4825199.925251887],[641772.0250872998,4825199.982372116],[641771.9846974385,4825200.04373834],[641771.9505051855,4825200.108761752],[641769.7921800863,4825204.752079135],[641771.1524137708,4825205.384348322],[641773.2479752747,4825200.876057536],[641779.2191408804,4825195.383070872],[641779.2381758842,4825195.364934027],[641786.1932553842,4825188.501454331]]]]}},{"type":"Feature","properties":{"class":"residential","widthMeters":5},"geometry":{"type":"MultiPolygon","coordinates":[[[[642032.7347617634,4824912.951245059],[642028.3289246191,4824902.00429327],[642022.7944851292,4824885.986737595],[642018.3099224743,4824869.738169517],[642015.5829556299,4824856.975583704],[642012.8279689826,4824839.296166839],[642010.8510248369,4824825.886619279],[642010.8429274646,4824825.835384527],[642009.2083826481,4824816.1460824935],[642007.831659897,4824804.840439457],[642007.8256230999,4824804.794428285],[642006.827691337,4824797.699570352],[642039.8406141907,4824784.530292653],[642039.9255895814,4824784.494565198],[642096.5367181126,4824759.454722137],[642169.2282657862,4824743.508447277],[642168.1568963433,4824738.624579188],[642095.2197278626,4824754.624735649],[642094.9780296478,4824754.690606611],[642094.7441372299,4824754.7803359125],[642037.945197189,4824779.903250461],[642005.9566442898,4824792.663893868],[642001.9930238068,4824772.275786721],[642001.9839163696,4824772.231117858],[641998.2352600179,4824754.664986151],[641995.1873434143,4824740.258141744],[641995.160021962,4824740.142616495],[641990.9458236332,4824724.04048068],[641988.2276028821,4824710.770905599],[641988.2256457678,4824710.761444554],[641986.1478941063,4824700.8141482435],[641984.1918924451,4824688.205891567],[641983.0433508386,4824676.496095094],[641982.0905312846,4824665.75807684],[641981.2375660163,4824644.755293061],[641981.2371340896,4824644.745164194],[641980.7929443967,4824634.802389615],[641980.7846976555,4824634.682505055],[641980.0145174264,4824626.399510288],[641980.0106607327,4824626.361230572],[641979.2262390394,4824619.133495313],[641979.2061147657,4824618.98803804],[641977.2248193728,4824607.223857352],[641977.1637823936,4824606.953773552],[641975.2456799245,4824600.224286763],[641975.1942649946,4824600.064467309],[641972.1419407665,4824591.566541171],[641972.1054080223,4824591.471019047],[641968.0502839814,4824581.485213861],[641968.0278769351,4824581.431818567],[641961.919906483,4824567.336483504],[641958.0096397798,4824556.933291675],[641957.9699123469,4824556.834088882],[641955.6991191389,4824551.497157566],[641955.6081237682,4824551.306160474],[641953.6402105327,4824547.589306739],[641951.7317062834,4824541.239047448],[641950.9216641736,4824536.493746451],[641950.8877222375,4824532.075460488],[641952.2216377774,4824528.168012081],[641956.2877346601,4824521.473573493],[641981.7313665882,4824484.51559777],[641981.7616316762,4824484.470599192],[641992.912062653,4824467.497305566],[642012.9450038418,4824440.343162772],[642012.9957252815,4824440.271830265],[642026.4706526792,4824420.600988444],[642067.9487344351,4824361.378005829],[642068.0022336845,4824361.298412362],[642074.4186284137,4824351.345260626],[642070.2161849774,4824348.636115158],[642063.8257764097,4824358.548956998],[642022.3677689695,4824417.743277226],[642024.4154914382,4824419.177443426],[642022.3530020216,4824417.764596157],[642008.8954827214,4824437.410025453],[641988.848164923,4824464.583655376],[641988.7704744337,4824464.6951868655],[641977.5976032475,4824481.702639195],[641952.1288637124,4824518.697084802],[641952.0513171958,4824518.816909405],[641947.8068819592,4824525.804964991],[641947.6789840292,4824526.043818167],[641947.5776851657,4824526.295109355],[641946.0185957369,4824530.862161257],[641945.9430310407,4824531.132185931],[641945.8981797865,4824531.408974141],[641945.8846061913,4824531.689043963],[641945.9233648329,4824536.734329592],[641945.9330480912,4824536.935782715],[641945.9589386979,4824537.13579972],[641946.8288798343,4824542.23199471],[641946.8990223423,4824542.530874596],[641948.9221642459,4824549.2625733465],[641949.0035724518,4824549.4922015965],[641949.1069454016,4824549.712815428],[641951.1397242063,4824553.552182609],[641953.348140136,4824558.742511739],[641957.2613218527,4824569.153458907],[641957.3075838187,4824569.267879375],[641963.4285851133,4824583.393285654],[641967.453571364,4824593.30487607],[641970.4602142028,4824601.675621396],[641972.3172854017,4824608.190985564],[641974.2633532872,4824619.745998673],[641975.0377740744,4824626.881584641],[641975.8006088221,4824635.085581557],[641976.2418899557,4824644.963250734],[641977.0970802335,4824666.020821494],[641977.104805364,4824666.140340099],[641978.0639434799,4824676.949566834],[641978.066098694,4824676.972640318],[641979.2226231646,4824688.763824974],[641979.2402355223,4824688.903043334],[641981.2169657887,4824701.644915221],[641981.2402284147,4824701.772816748],[641983.3302869675,4824711.779032658],[641986.0610684761,4824725.109925759],[641986.0916691595,4824725.241201325],[641990.3079054651,4824741.351124097],[641993.3439891754,4824755.702036969],[641993.3449050265,4824755.706347237],[641997.0892638445,4824773.252340783],[642001.6122116053,4824796.517520677],[642002.8711292006,4824805.467873617],[642004.2519907325,4824816.807504309],[642004.2684896811,4824816.921167723],[642005.9082753347,4824826.641536542],[642007.8829339583,4824840.03558148],[642007.8860121128,4824840.055882377],[642010.6533443057,4824857.814523599],[642010.6787177612,4824857.951974447],[642013.4356530297,4824870.854816671],[642013.4705697108,4824870.99756156],[642017.9957768149,4824887.393393518],[642018.042749398,4824887.5447138185],[642023.6234705979,4824903.6962161865],[642023.6671860664,4824903.813186403],[642028.0941196532,4824914.812555414],[642034.0521502692,4824929.822116615],[642034.0683248214,4824929.861865492],[642038.9434450131,4824941.553984233],[642038.9556648079,4824941.582782656],[642045.7720739587,4824957.371567841],[642045.7802764898,4824957.390355236],[642054.361599807,4824976.827634368],[642058.9356626157,4824974.808241038],[642050.3584790764,4824955.380338783],[642043.5523326687,4824939.615325094],[642038.6914901461,4824927.957448833],[642032.739180181,4824912.962299181],[642032.7347617634,4824912.951245059]]],[[[641787.0621054164,4824982.487460245],[641785.9832709426,4824987.369684757],[641868.5703267102,4825005.619104185],[641912.93877046,4825084.411846033],[641893.8300725641,4825112.320197164],[641879.820818787,4825132.005388163],[641879.6895381634,4825132.210283771],[641879.5787999596,4825132.426972171],[641879.4896533856,4825132.653400307],[641879.4229430776,4825132.887422843],[641879.3793010951,4825133.126822487],[641879.3591409324,4825133.369331003],[641879.3626536008,4825133.612650697],[641879.6092555571,4825137.514108276],[641874.4179126015,4825138.435387219],[641860.9813190104,4825137.2085218495],[641810.5524692418,4825125.799334722],[641738.4608150136,4825105.647577019],[641737.1147656052,4825110.462984685],[641806.9507375339,4825129.984212215],[641794.9176971603,4825180.523523219],[641799.7817310293,4825181.681614114],[641811.7991856358,4825131.207764033],[641860.038471611,4825142.12157712],[641860.3628133842,4825142.17284699],[641874.2972297815,4825143.445167449],[641874.51915801,4825143.455518299],[641874.7411288498,4825143.446125483],[641874.9613892895,4825143.417063181],[641882.682001153,4825142.046928864],[641882.7956778724,4825142.024023856],[641899.267527223,4825138.305565908],[641899.5325334042,4825138.23017737],[641936.5866834914,4825125.443376485],[641965.4395193511,4825116.858902658],[641965.5448224222,4825116.825018843],[641989.8266989961,4825108.414502502],[642004.0818907694,4825105.754170818],[642003.1646175937,4825100.839029932],[641988.7260741611,4825103.533579061],[641988.5445017887,4825103.574512897],[641988.3664781309,4825103.628842288],[641963.9606338019,4825112.082297353],[641935.109174776,4825120.666361536],[641935.0065856898,4825120.699307053],[641898.0319189526,4825133.458679492],[641884.5551973402,4825136.500998635],[641884.4086264096,4825134.182118943],[641897.9169259598,4825115.200846924],[641897.9428728997,4825115.163678678],[641917.9432243473,4825085.953062968],[641915.8804216876,4825084.540673084],[641918.0113531447,4825085.848010502],[641940.4386035716,4825049.292081822],[641969.9565533177,4825008.415715335],[641965.9029750031,4825005.488514822],[641936.3300176326,4825046.441055698],[641936.2258753328,4825046.597318537],[641915.9727522276,4825079.609467138],[641872.422255452,4825002.269295615],[641851.6311604219,4824958.364209761],[641847.1122303129,4824960.504132814],[641865.7570278759,4824999.876827544],[641787.0621054164,4824982.487460245]]],[[[642158.9152146913,4824428.410028898],[642158.754369002,4824428.5096289795],[642133.523645339,4824445.486587772],[642136.3149320708,4824449.634927005],[642161.3883558206,4824432.763810366],[642185.6318709588,4824421.323810861],[642207.3645647689,4824413.403298629],[642207.585009945,4824413.310790824],[642207.7956110146,4824413.197649499],[642207.9944421141,4824413.064909288],[642208.1796850121,4824412.913784047],[642219.4481839298,4824402.785767741],[642219.6591817868,4824402.571847107],[642219.8429914826,4824402.334157963],[642243.7779410809,4824367.207709226],[642239.645988657,4824364.3922218485],[642215.8811557739,4824399.26901073],[642205.1974990425,4824408.871376615],[642183.8123468087,4824416.665226808],[642183.6015144814,4824416.753173478],[642159.0831316246,4824428.322877217],[642158.9152146913,4824428.410028898]]],[[[642189.9810714711,4824559.952202539],[642248.1565395519,4824530.944495106],[642286.9481923855,4824524.269937279],[642286.1003427259,4824519.342346493],[642246.9462050174,4824526.079274085],[642246.70865741,4824526.132166283],[642246.477378069,4824526.20790476],[642246.2545586509,4824526.305771799],[642187.7499290785,4824555.47760718],[642189.9810714711,4824559.952202539]]],[[[642253.7501176293,4824843.261496084],[642246.6170700341,4824863.434736109],[642246.5564459839,4824863.6316593755],[642229.9576423336,4824926.680341255],[642234.7928820169,4824927.953313056],[642251.3654345737,4824865.004342992],[642258.4906873138,4824844.8531478895],[642258.5390001382,4824844.701274094],[642265.3770031194,4824820.568253021],[642260.5663858879,4824819.205182278],[642253.7501176293,4824843.261496084]]],[[[642434.1226090913,4825267.710501235],[642434.3709034846,4825267.760868829],[642434.6230206222,4825267.785847803],[642461.4912636615,4825269.078199455],[642460.8475975645,4825283.775478447],[642460.8472796602,4825283.986725594],[642462.6272866962,4825327.636015345],[642462.6470435432,4825327.863829702],[642462.6875336133,4825328.0888858475],[642462.7484181522,4825328.309300881],[642462.8291877784,4825328.523230733],[642462.9291667445,4825328.728885591],[642463.047518591,4825328.924544873],[642463.1832531445,4825329.108571624],[642470.0486231984,4825337.57660931],[642470.224839701,4825337.771979009],[642470.420612582,4825337.947747476],[642476.600420126,4825342.934540207],[642476.7821273591,4825343.068099134],[642476.9751307048,4825343.184740525],[642477.177859718,4825343.283515282],[642477.3886648169,4825343.363619688],[642477.6058307053,4825343.424401943],[642477.8275903304,4825343.465367467],[642479.0546675842,4825343.635227633],[642485.8072458584,4825344.600157397],[642486.5145507067,4825339.650438229],[642479.7565466703,4825338.684733134],[642479.7456920642,4825338.683206307],[642479.2004281709,4825338.607727265],[642473.766154149,4825334.222542453],[642467.5893493771,4825326.603810298],[642465.8474349455,4825283.88862648],[642466.4865544504,4825269.295163014],[642556.5303832775,4825272.785816921],[642556.744497528,4825272.784941286],[642561.0,4825272.5851015],[642561.0,4825267.579591356],[642556.616992733,4825267.785418808],[642464.2062619182,4825264.203009189],[642435.1172792574,4825262.803840857],[642428.0351287836,4825260.989203559],[642426.7940854615,4825265.832736513],[642434.1226090913,4825267.710501235]]]]}},{"type":"Feature","properties":{"class":"service","widthMeters":3},"geometry":{"type":"MultiPolygon","coordinates":[[[[641896.6407478674,4824824.926516697],[641896.5233593659,4824824.8444219725],[641896.3986752249,4824824.773899146],[641896.267832542,4824824.715591374],[641889.8631903562,4824822.220783701],[641841.2446145144,4824781.370208203],[641843.9258610202,4824778.482376494],[641844.0223319035,4824778.367441773],[641844.1068367511,4824778.243443579],[641844.1785298904,4824778.11162281],[641844.2366938604,4824777.973298647],[641844.2807465916,4824777.829855355],[641844.3102472315,4824777.682728425],[641844.3249005557,4824777.533390213],[641844.3245599224,4824777.383335205],[641844.309228741,4824777.23406506],[641844.2790604361,4824777.087073581],[641844.2343569138,4824776.94383177],[641844.1755655396,4824776.805773103],[641844.1032746615,4824776.674279185],[641844.0182077222,4824776.550665928],[641843.9212160198,4824776.436170378],[641843.8132701875,4824776.331938336],[641825.597926609,4824760.424765859],[641823.6246095526,4824762.684416229],[641840.6751753367,4824777.5744066145],[641837.9736594538,4824780.484069419],[641837.8815181358,4824780.593316248],[641837.8001919404,4824780.710836212],[641837.7304191251,4824780.835562498],[641837.6728330684,4824780.966362874],[641837.6279565212,4824781.102049968],[641837.5961968604,4824781.241392051],[641837.5778423919,4824781.383124213],[641837.5730597323,4824781.525959847],[641837.5818922976,4824781.66860233],[641837.604259908,4824781.809756791],[641837.6399595164,4824781.94814187],[641837.6886670514,4824782.082501344],[641837.749940359,4824782.211615534],[641837.823223217,4824782.334312375],[641837.9078503832,4824782.449478059],[641838.003053635,4824782.556067144],[641838.107968743,4824782.653112042],[641888.1229720596,4824824.677001752],[641888.2537722737,4824824.7752519725],[641888.3944938588,4824824.858674016],[641888.5434630539,4824824.926275649],[641894.9085797147,4824827.405686898],[641917.5475549796,4824848.648201463],[641945.186870394,4824879.331469361],[641905.3021058773,4824909.050266074],[641900.9719850707,4824902.718363891],[641898.4956563103,4824904.411820673],[641903.6992868579,4824912.021049398],[641910.9001487388,4824923.005637488],[641928.2765051536,4824949.517560839],[641928.2867621615,4824949.533001487],[641940.8839042059,4824968.244539281],[641955.1410759964,4824990.224438283],[641955.146005743,4824990.231988536],[641966.6762504082,4825007.775949572],[641969.1832779127,4825006.128280585],[641957.655509474,4824988.588087277],[641943.3938081426,4824966.601205204],[641943.379658845,4824966.579795024],[641930.7805267831,4824947.865301299],[641914.2220846233,4824922.601308154],[641962.8160375862,4824889.9484658735],[641962.9341061901,4824889.860417629],[641963.0429706377,4824889.761214702],[641963.1415813452,4824889.651813528],[641963.2289875877,4824889.533268864],[641963.3043466647,4824889.406723622],[641963.3669320244,4824889.273397851],[641963.4161402691,4824889.134576969],[641963.4514969729,4824888.991599376],[641963.4726612546,4824888.845843547],[641963.4794290652,4824888.6987147415],[641963.4717351553,4824888.551631458],[641963.449653703,4824888.406011755],[641963.4133976,4824888.2632595785],[641963.3633163985,4824888.1247512335],[641963.299892941,4824887.991822103],[641963.2237387059,4824887.865753784],[641954.5048498765,4824874.914626932],[641954.4177787021,4824874.797942477],[641954.3198055621,4824874.690248859],[641954.2118534354,4824874.592560632],[641954.09493931,4824874.50579809],[641953.970164603,4824874.4307786],[641953.8387047836,4824874.368208901],[641953.7017982998,4824874.318678444],[641953.5607349112,4824874.282653844],[641953.4168435385,4824874.260474479],[641953.2714797439,4824874.252349294],[641953.1260129611,4824874.258354834],[641952.9818135941,4824874.278434524],[641952.8402401066,4824874.312399197],[641952.7026262247,4824874.359928882],[641952.5702683723,4824874.420575813],[641952.4444134576,4824874.493768654],[641947.6609880619,4824877.595707896],[641919.734388213,4824846.593516569],[641919.6462740288,4824846.503592418],[641896.7497701669,4824825.019434629],[641896.6407478674,4824824.926516697]],[[641948.2602661045,4824880.7826595465],[641952.8396269922,4824877.813051354],[641959.8967236211,4824888.295735035],[641912.5773580578,4824920.092114756],[641906.9745690102,4824911.545314259],[641948.2602661045,4824880.7826595465]]],[[[642181.1732063477,4824910.811795461],[642181.1807467944,4824910.784298464],[642184.3607433321,4824898.74046972],[642181.4601470922,4824897.974609777],[642178.2837901083,4824910.004654178],[642164.4947054674,4824958.47687751],[642167.3802208138,4824959.297731447],[642181.1732063477,4824910.811795461]]],[[[641896.2392490468,4825115.207650899],[641905.3682049842,4825112.956200187],[641905.4243684683,4825112.941188414],[641934.0548370187,4825104.6909773955],[641934.1883091017,4825104.645622329],[641950.8168532753,4825098.108362296],[641950.9189570931,4825098.063775742],[641956.73078253,4825095.264457616],[641955.4289461465,4825092.561640191],[641949.6673441102,4825095.336767764],[641933.1563496187,4825101.827814922],[641904.6216201435,4825110.050437583],[641895.5208914332,4825112.294926687],[641896.2392490468,4825115.207650899]]]]}},{"type":"Feature","properties":{"class":"tertiary","widthMeters":8},"geometry":{"type":"Polygon","coordinates":[[[642069.1871200369,4824335.236872983],[642069.1418752787,4824335.502666557],[642068.4621841451,4824340.51052865],[642068.4287594833,4824340.895776123],[642068.2476307541,4824345.636410062],[642068.2453128252,4824345.858324267],[642068.3180052309,4824350.05988272],[642068.3541451985,4824350.531574484],[642069.1586430216,4824356.426405846],[642069.2368331115,4824356.83747522],[642070.7393096319,4824362.969301459],[642070.8374601251,4824363.30545651],[642070.9646358849,4824363.631738694],[642073.339467078,4824369.015357101],[642073.4469998966,4824369.239927609],[642076.9947109424,4824376.092821377],[642077.187550049,4824376.425173285],[642086.6313411907,4824391.036231619],[642086.7467059861,4824391.20508892],[642113.6565616605,4824428.50822926],[642113.8411939527,4824428.744918316],[642131.6552556269,4824449.89464067],[642152.6666521641,4824484.828982928],[642185.0074804672,4824558.875402112],[642189.5073099338,4824584.688260479],[642188.4631053961,4824613.742541541],[642186.2478364498,4824640.38872188],[642164.781952142,4824740.225691357],[642164.7089764467,4824740.704720134],[642164.6944586607,4824741.18905809],[642167.8926226688,4824845.531675974],[642167.5290216523,4824862.698177609],[642167.5596380482,4824863.283994467],[642169.9329167554,4824882.078826619],[642169.9936244764,4824882.431683608],[642170.0856416841,4824882.777698515],[642173.1741710322,4824892.598736475],[642173.3131379199,4824892.9739282075],[642173.488891285,4824893.333360241],[642173.6996727084,4824893.673436443],[642173.9433733133,4824893.990754339],[642179.8638857725,4824900.949541983],[642180.2035654391,4824901.302501869],[642180.5838420353,4824901.611294143],[642199.3675668904,4824915.0426318],[642199.621731313,4824915.210134136],[642199.8878973044,4824915.357823848],[642230.5689894123,4824930.885773597],[642230.5925957022,4824930.897623191],[642241.0444815821,4824936.100998741],[642251.2910944377,4824941.477006115],[642251.3482113474,4824941.506390784],[642261.2472555268,4824946.498999763],[642272.3458966999,4824955.232858151],[642277.4003706311,4824960.73055026],[642280.3002917258,4824966.459637297],[642282.2543974937,4824974.780170264],[642283.2434367632,4824985.494139672],[642286.5136795421,4825031.5987418275],[642284.4526296679,4825071.187949571],[642270.239459686,4825157.786503297],[642241.6514274492,4825152.942637434],[642213.5036051448,4825147.3986735195],[642169.5854955344,4825137.413211609],[642169.5226488027,4825137.399453013],[642118.2260322679,4825126.600989907],[642038.6155421031,4825107.538445996],[642004.5521316847,4825099.405946627],[642003.6232541816,4825103.296600375],[642004.3977853309,4825099.372304069],[641956.92149072,4825090.00199506],[641916.8061061179,4825080.649217114],[641895.2004905823,4825075.407362163],[641895.2004905822,4825075.407362163],[641820.902243882,4825057.381406372],[641820.8075584308,4825057.359648223],[641733.7535044296,4825038.46515596],[641732.0566658749,4825046.283131332],[641819.0632450248,4825065.167319501],[641893.314283957,4825083.181821924],[641894.2573886855,4825079.294592387],[641893.3142867887,4825083.181822611],[641914.9373197908,4825088.427903308],[641915.8804216876,4825084.540673084],[641914.9721919609,4825088.436198563],[641955.1716346116,4825097.808574383],[641955.305333189,4825097.83734521],[642002.7712176291,4825107.205599583],[642036.7539140075,4825115.318827902],[642116.4166849579,4825134.393890323],[642116.5241632868,4825134.418065866],[642167.843206746,4825145.22125007],[642211.7866943253,4825155.212482054],[642211.9005376375,4825155.236629958],[642240.1577104325,4825160.802131425],[642240.2624722493,4825160.82132005],[642272.8672294131,4825166.345767095],[642273.5354526899,4825162.401977337],[642273.2712116805,4825166.39323988],[642290.5531756263,4825167.53739002],[642290.8818796207,4825167.545608008],[642418.2727463,4825165.492342475],[642561.0,4825163.8650920205],[642561.0,4825155.864572096],[642418.1721121813,4825157.492969892],[642418.15325071,4825157.493229414],[642290.9174746732,4825159.543995222],[642278.196271189,4825158.701789626],[642292.3828905777,4825072.265004385],[642292.4302917218,4825071.825125627],[642294.5156478593,4825031.769036553],[642294.5110329547,4825031.278061869],[642291.2203819084,4824984.88573947],[642291.2134712542,4824984.801063293],[642290.1950014455,4824973.768281571],[642290.1059876097,4824973.221439211],[642287.9790929875,4824964.16517567],[642287.8430480072,4824963.709527612],[642287.6538922117,4824963.273243902],[642284.2882478349,4824956.624073479],[642284.1080135293,4824956.305146488],[642283.899357456,4824956.00404605],[642283.6640297023,4824955.723297624],[642278.0172255945,4824949.581334918],[642277.7904981333,4824949.353783363],[642277.5462427265,4824949.145158463],[642265.8797999145,4824939.964479692],[642265.5543038999,4824939.73366353],[642265.2074305717,4824939.536425981],[642254.9794473936,4824934.377915751],[642244.7236156884,4824928.997071598],[642244.6478854466,4824928.958359928],[642234.1697513363,4824923.741916938],[642203.7726270335,4824908.3576855995],[642185.6377768163,4824895.390326967],[642180.5622783403,4824889.424742683],[642177.8249000425,4824880.720309879],[642175.5334556309,4824862.573552411],[642175.8930238857,4824845.597447413],[642175.8920432444,4824845.390198173],[642172.7056306847,4824741.430980543],[642194.1233348455,4824641.818095001],[642194.1989538294,4824641.308675641],[642196.4433941481,4824614.311609848],[642196.4545654056,4824614.123873707],[642197.5171810712,4824584.557315533],[642197.5104266828,4824584.140528949],[642197.4603345032,4824583.726708394],[642192.8060728709,4824557.027964095],[642192.69595964,4824556.562697825],[642192.5311192893,4824556.1138935415],[642159.893922725,4824481.388920045],[642159.6560747866,4824480.928285068],[642138.347059781,4824445.499111093],[642138.1730759679,4824445.23420018],[642137.9786648462,4824444.983895415],[642120.0567061612,4824423.70607247],[642093.2945642028,4824386.607696717],[642084.010706831,4824372.244081555],[642080.608687387,4824365.672611234],[642078.425870417,4824360.724279053],[642077.0568361889,4824355.137050308],[642076.3127092011,4824349.6845767535],[642076.2460360128,4824345.830923876],[642076.4155359433,4824341.394647379],[642077.0510520968,4824336.712259899],[642078.1976286626,4824331.122582092],[642082.6965631503,4824317.0],[642074.3004402666,4824317.0],[642070.5106036871,4824328.896656498],[642070.4034725224,4824329.307030445],[642069.1871200369,4824335.236872983]]]}},{"type":"Feature","properties":{"class":"track","widthMeters":2.5},"geometry":{"type":"MultiPolygon","coordinates":[[[[641922.188749728,4824337.684358448],[641926.3093316228,4824349.17151409],[641926.3555139985,4824349.2830062825],[641926.4122323804,4824349.38952551],[641926.4789581234,4824349.490078959],[641926.5550693083,4824349.583729417],[641926.6398565392,4824349.669604013],[641934.82775403,4824357.198294452],[641934.9123268144,4824357.2694225265],[641935.0028510725,4824357.3328032615],[641935.0986193097,4824357.387941302],[641935.198883047,4824357.434405716],[641938.7637064412,4824358.898669863],[641939.713581426,4824356.586152293],[641936.3554233572,4824355.206776679],[641928.5585806194,4824348.037657201],[641924.582435491,4824336.953155275],[641922.8809209778,4824325.924199333],[641922.8806126679,4824325.922211532],[641921.4894168887,4824317.0],[641918.9592086417,4824317.0],[641920.410305299,4824326.306376228],[641922.1299566388,4824337.452892297],[641922.1538127267,4824337.570032665],[641922.188749728,4824337.684358448]]],[[[642371.9846544125,4824490.989951986],[642352.3662127926,4824500.035414141],[642331.7214537913,4824507.765890843],[642312.8324591226,4824512.523692632],[642294.9751168512,4824516.899694313],[642294.8796012196,4824516.927168883],[642294.7865703113,4824516.962145132],[642286.0382071165,4824520.654514668],[642287.0103279948,4824522.957769104],[642295.6669065831,4824519.304138551],[642313.4313913033,4824514.950891924],[642313.439193759,4824514.948953287],[642332.3997582919,4824510.173124323],[642332.5327840452,4824510.131607063],[642353.2860719124,4824502.360491481],[642353.3711134897,4824502.3250211],[642373.0695041115,4824493.242696911],[642373.1444063383,4824493.20506689],[642383.2844576371,4824487.677477205],[642389.9598076824,4824486.26012678],[642396.9445153367,4824494.119541762],[642406.7697524094,4824512.762084168],[642406.7902719161,4824512.799458557],[642417.6587251058,4824531.819055363],[642417.7132289982,4824531.90595322],[642425.9115791233,4824543.857755797],[642425.9717165846,4824543.938283099],[642433.2716262484,4824552.9348499905],[642437.3986220277,4824561.61305179],[642440.3094665036,4824575.296992097],[642441.957213374,4824589.418604759],[642441.9749712965,4824589.528229402],[642446.396156892,4824610.788875955],[642446.4299035944,4824610.91677936],[642455.3737776282,4824638.751237297],[642455.4085103015,4824638.846008604],[642459.6353758103,4824649.080235982],[642459.7120815724,4824649.234769926],[642465.1547547595,4824658.528129861],[642465.2198593272,4824658.628040062],[642465.2941882433,4824658.721291686],[642465.3770650243,4824658.807036029],[642465.4677353905,4824658.884492712],[642465.5653741311,4824658.952956786],[642465.6690926146,4824659.011805145],[642469.1306026422,4824660.763062166],[642470.259194097,4824658.532304149],[642467.1260495419,4824656.947174724],[642461.9130465216,4824648.045976409],[642457.7384700446,4824637.938352973],[642448.8303095527,4824610.215040058],[642444.4339249468,4824589.073656781],[642442.7858466394,4824574.94920362],[642442.7669139042,4824574.833993528],[642439.8133001267,4824560.948993845],[642439.7745193524,4824560.807866084],[642439.7195084825,4824560.672238663],[642435.4652105473,4824551.726347276],[642435.3935758047,4824551.596256357],[642435.3070181009,4824551.475579318],[642427.944724931,4824542.402129642],[642419.803859735,4824530.534130331],[642408.9714527626,4824511.577613755],[642399.0854388911,4824492.8197526],[642399.0071840285,4824492.690792355],[642398.9139648031,4824492.572197479],[642391.3456112872,4824484.056045628],[642390.4112646978,4824484.886404858],[642390.1516448124,4824483.663663056],[642382.5867462816,4824485.269887759],[642382.4699942819,4824485.300637865],[642382.3567534642,4824485.342508089],[642382.2480802545,4824485.3951078225],[642371.9846544125,4824490.989951986]]],[[[641831.8590822091,4824589.937148033],[641828.8053856659,4824596.028205993],[641828.7506484918,4824596.154238514],[641828.7100751625,4824596.285517452],[641824.7415755838,4824612.174305157],[641806.0358038198,4824638.7335369745],[641792.0498972667,4824654.188486743],[641779.9861587315,4824664.582288602],[641770.9337079382,4824666.583299353],[641771.4732983111,4824669.024373344],[641780.8332638703,4824666.955387592],[641780.9522524746,4824666.9228519285],[641781.0674547957,4824666.87874657],[641781.1777489025,4824666.823501051],[641781.282060664,4824666.757653396],[641781.3793742103,4824666.68184488],[641793.7405352859,4824656.031791532],[641793.8514642457,4824655.923533104],[641807.9406709133,4824640.354432846],[641808.0358056634,4824640.235473957],[641826.919784327,4824613.42321658],[641826.9817206907,4824613.326053982],[641827.0344470246,4824613.223600981],[641827.0775153087,4824613.116728129],[641827.1105595886,4824613.006343531],[641831.1021157984,4824597.025243377],[641833.952303682,4824591.340114108],[641847.3898008672,4824581.932957017],[641845.9560520208,4824579.884942309],[641832.2596417804,4824589.473356055],[641832.1618828722,4824589.549274523],[641832.0721114989,4824589.634489067],[641831.9912078748,4824589.728164152],[641831.9199652653,4824589.829381287],[641831.8590822091,4824589.937148033]]],[[[642277.4259465835,4824762.219472302],[642277.5137550472,4824762.297000144],[642290.9483321469,4824773.081847291],[642291.0192792467,4824773.13478214],[642314.4054539901,4824789.327004448],[642348.2131762122,4824824.758762106],[642381.5722982363,4824879.376028911],[642381.6460531227,4824879.483711396],[642429.8360075974,4824942.511209626],[642439.4226924483,4824959.925882615],[642447.7802605705,4824978.28526328],[642456.189877691,4824999.810099645],[642456.2590340204,4824999.9578548195],[642465.0811016675,4825015.989682858],[642465.0958066599,4825016.0156658385],[642473.506891243,4825030.472103594],[642473.560005855,4825030.555603961],[642481.7601861765,4825042.385332017],[642481.8404345122,4825042.48902824],[642491.2942687625,4825053.463846089],[642480.7730592913,4825057.6570214555],[642480.6099919996,4825057.736157736],[642470.6320606885,4825063.50735745],[642458.464807022,4825070.25093091],[642449.381552127,4825073.247439638],[642433.8445439242,4825072.112214689],[642418.5985588635,4825069.115516555],[642385.3890581935,4825061.719665703],[642349.868994379,4825048.51961682],[642334.0791164838,4825041.368444774],[642333.9848025423,4825041.330276034],[642318.2841202226,4825035.708413441],[642318.1938393934,4825035.679895531],[642318.1016590677,4825035.658292596],[642290.7599790408,4825030.334120414],[642290.2821360398,4825032.788028738],[642317.5306832596,4825038.0940654185],[642333.0941029254,4825043.666779079],[642348.877159187,4825050.814861634],[642348.9574231232,4825050.847904528],[642384.5983917948,4825064.092884356],[642384.7621025752,4825064.141286396],[642418.0703944498,4825071.559138332],[642418.1010335707,4825071.56556015],[642433.4367641552,4825074.579898355],[642433.5867574055,4825074.600043688],[642449.4466325922,4825075.758859192],[642449.5689197812,4825075.761793151],[642449.6909082159,4825075.752760625],[642449.8114297146,4825075.731848115],[642449.9293301427,4825075.699255881],[642459.3596028636,4825072.588268152],[642459.468974367,4825072.546410717],[642459.5739487383,4825072.494501643],[642471.853967483,4825065.688429314],[642471.8738623556,4825065.677163734],[642481.7830322755,4825059.945735362],[642493.6675930185,4825055.209203172],[642519.6426246976,4825053.367433832],[642519.6987005722,4825053.362185747],[642559.0044327775,4825048.788236704],[642561.0,4825048.614545986],[642561.0,4825046.105094277],[642558.7695812542,4825046.299226065],[642558.7334836824,4825046.302896529],[642519.4377081197,4825050.875686933],[642493.9228618456,4825052.684826654],[642483.777422421,4825040.907134478],[642475.6428544456,4825029.1720599765],[642467.2641808596,4825014.771328184],[642458.4887199193,4824998.82419579],[642450.0963990428,4824977.343630029],[642450.069773024,4824977.2806223845],[642441.6783309442,4824958.846829537],[642441.635703439,4824958.761905415],[642431.980930651,4824941.22354742],[642431.9328379045,4824941.143427437],[642431.8788942251,4824941.067124072],[642383.671754618,4824878.01714946],[642350.2768305428,4824823.341265699],[642350.2012837366,4824823.231245281],[642350.1144375415,4824823.1299064895],[642316.126189057,4824787.508950555],[642316.0339790045,4824787.421653428],[642315.9333882859,4824787.344161561],[642292.4788220424,4824771.104586046],[642279.2167583619,4824760.458227132],[642238.9449175504,4824703.221637295],[642199.992832033,4824643.126794781],[642199.921685481,4824643.027939876],[642199.8412560337,4824642.936478254],[642199.7523072755,4824642.853278239],[642199.6556836716,4824642.7791297175],[642199.5523025508,4824642.714736643],[642199.4431453969,4824642.660710354],[642199.3292485304,4824642.617563768],[642190.5980499141,4824639.788151598],[642189.8273619314,4824642.166394653],[642198.1363688171,4824644.858992341],[642236.8599982038,4824704.601375287],[642236.886619261,4824704.640782728],[642277.2739614662,4824762.041529599],[642277.3457807344,4824762.134065458],[642277.4259465835,4824762.219472302]]],[[[642536.2311160254,4824325.478741328],[642503.6566673999,4824333.862062195],[642503.5496068504,4824333.894791806],[642503.4459040487,4824333.936969023],[642476.9681675053,4824346.114689064],[642461.008082267,4824353.115830034],[642460.9115899031,4824353.163205143],[642460.8195246371,4824353.218695358],[642448.5095155992,4824361.379763654],[642449.8909173604,4824363.463445294],[642462.1110828959,4824355.361939826],[642477.9825773676,4824348.399660582],[642478.0027439537,4824348.390600701],[642504.3885065587,4824336.255181589],[642535.9275596257,4824328.138328876],[642540.2572039778,4824343.180985793],[642540.29554654,4824343.293701622],[642540.3444388527,4824343.402258298],[642548.5064232523,4824359.437826926],[642561.0,4824387.244432904],[642561.0,4824381.144424412],[642550.7743855446,4824358.385558974],[642550.7481844364,4824358.330836594],[642542.6266264917,4824342.374692425],[642538.2284003726,4824327.093759127],[642543.5275122521,4824322.9871514235],[642558.9131621895,4824317.0],[642552.0194336497,4824317.0],[642542.4518695457,4824320.723109214],[642542.3422312324,4824320.771957345],[642542.2377834697,4824320.831095866],[642542.139489296,4824320.899979501],[642536.2311160254,4824325.478741328]]],[[[642489.0708367203,4825362.160291997],[642489.168470118,4825362.234672012],[642489.2729274633,4825362.299118345],[642489.3832016425,4825362.353009645],[642489.4982294599,4825362.395826326],[642496.8171976219,4825364.717910724],[642496.9069605949,4825364.7427495755],[642496.9983238374,4825364.7608359745],[642521.1864421712,4825368.618935329],[642521.580224196,4825366.150142969],[642497.4842714665,4825362.306744388],[642490.6808390954,4825360.148223705],[642486.5700302405,4825353.818179092],[642480.5395437496,4825340.639469746],[642478.2662447427,4825341.67971569],[642484.3349799967,4825354.942011881],[642484.423293546,4825355.102691175],[642488.8279107335,4825361.885157663],[642488.8997321855,4825361.984688291],[642488.9809685918,4825362.076695428],[642489.0708367203,4825362.160291997]]],[[[642444.8490169387,4825378.272194936],[642444.7645289792,4825378.363183078],[642444.6894847498,4825378.462104365],[642444.6246247055,4825378.567982748],[642444.5705888154,4825378.679773534],[642444.5279102466,4825378.796373693],[642442.4293538267,4825385.551893191],[642442.4006042972,4825385.661861721],[642442.3819628976,4825385.773987147],[642442.3735837656,4825385.887342355],[642442.3755361843,4825386.000990061],[642442.6927421099,4825391.056750866],[642441.751471016,4825396.8527310565],[642438.7832860398,4825402.772486325],[642438.7345333624,4825402.8826754205],[642438.6966164157,4825402.997046595],[642438.6698875171,4825403.114537132],[642438.6545950264,4825403.234055332],[642438.2021001455,4825408.946725319],[642438.1984366052,4825409.069890246],[642438.407749849,4825419.763318436],[642438.4168756733,4825419.891581971],[642438.4391302442,4825420.018229312],[642438.4742780576,4825420.141920242],[642438.5219471694,4825420.261345829],[642445.0362292804,4825434.419275216],[642453.3340224773,4825454.782940464],[642455.0662957166,4825461.442773141],[642454.2281681816,4825470.895634615],[642452.860421676,4825480.223599059],[642449.1814845045,4825491.375245436],[642451.5556261981,4825492.158476704],[642455.2685360755,4825480.90385178],[642455.2979400192,4825480.799793243],[642455.3182406276,4825480.6935828095],[642456.7069031412,4825471.222972211],[642456.7152432184,4825471.1520223385],[642457.5756419501,4825461.447974106],[642457.5801082812,4825461.305246104],[642457.5682670851,4825461.162940036],[642457.5402728941,4825461.022913052],[642455.7326430924,4825454.073367363],[642455.6804826213,4825453.916338113],[642447.3409524591,4825433.450245922],[642447.318929795,4825433.39944922],[642440.9021635114,4825419.453457568],[642440.6991650005,4825409.082637456],[642441.1275136021,4825403.674810088],[642444.0720416505,4825397.802236252],[642444.1229531689,4825397.686413178],[642444.1618959057,4825397.566036975],[642444.1884709139,4825397.44234083],[642445.1829140735,4825391.318947803],[642445.1975681371,4825391.180007221],[642445.1966256902,4825391.0402991725],[642444.8850291282,4825386.073942753],[642446.821300614,4825379.840839057],[642451.7267918009,4825375.05801266],[642459.0053372149,4825369.774818422],[642464.911141126,4825365.917545892],[642465.0062850013,4825365.848823128],[642465.094563926,4825365.771479694],[642465.1751996233,4825365.686197459],[642465.2474811998,4825365.59372828],[642465.310771413,4825365.494887375],[642465.3645122893,4825365.390546139],[642465.4082300431,4825365.281624455],[642471.1817903996,4825348.681811738],[642468.8205357168,4825347.8605466625],[642463.1870541227,4825364.057612881],[642457.6124594052,4825367.698561919],[642457.5617192168,4825367.733515716],[642450.1848323994,4825373.0880919],[642450.046488415,4825373.204689394],[642444.8490169387,4825378.272194936]]]]}},{"type":"Feature","properties":{"class":"unclassified","widthMeters":4},"geometry":{"type":"MultiPolygon","coordinates":[[[[641965.8731470341,4824335.89931612],[641967.8054158445,4824332.396983006],[641957.5018528558,4824326.712414249],[641957.3263616276,4824326.626495242],[641957.143323859,4824326.558110872],[641956.9544866112,4824326.507913854],[641956.7616523001,4824326.476383308],[641956.5666614932,4824326.463820188],[641956.3713753405,4824326.470344407],[641956.1776578119,4824326.495893692],[641955.9873579048,4824326.54022418],[641955.8022919957,4824326.6029127445],[641955.6242265041,4824326.683361035],[641955.4548610315,4824326.780801189],[641955.2958121396,4824326.894303157],[641944.8592960218,4824335.140327821],[641944.7112622949,4824335.269597674],[641944.576630753,4824335.412772487],[641944.456701421,4824335.5684697395],[641937.4727626812,4824345.62084602],[641937.3640686275,4824345.795898838],[641937.2739625832,4824345.981206115],[641937.203400976,4824346.174800914],[641937.1531327805,4824346.374628327],[641937.1236915665,4824346.578567292],[641937.1153898373,4824346.784453103],[641937.2387701779,4824357.764882431],[641939.2386439336,4824357.742411078],[641938.0469915608,4824359.348637906],[641945.4775322588,4824364.861322229],[641945.4943459571,4824364.873660843],[641955.5645154227,4824372.183111695],[641969.1049460324,4824382.139267372],[641982.4407158694,4824393.811171251],[641982.5609011232,4824393.908420399],[641993.8565305365,4824402.347365756],[641993.9558600575,4824402.416983269],[642015.3065931676,4824416.435345698],[642015.43914258,4824416.5152122155],[642023.4503479425,4824420.929156312],[642025.380634934,4824417.42573054],[642017.4372503641,4824413.049153754],[641996.2019666651,4824399.106592547],[641985.016919383,4824390.750262911],[641971.675405532,4824379.073331682],[641971.5429754056,4824378.967006905],[641957.9291122067,4824368.956856912],[641957.9191733247,4824368.949595954],[641947.8524623015,4824361.642655419],[641941.2273665573,4824356.727527041],[641941.1223161338,4824347.378397793],[641947.5722032384,4824338.094712102],[641956.7330261891,4824330.856628901],[641965.8731470341,4824335.89931612]]],[[[641943.7752816523,4824530.14105269],[641938.7148679618,4824532.1562840035],[641938.5249175032,4824532.243694104],[641938.34513128,4824532.350458408],[641900.8056559535,4824557.386187638],[641882.0078710415,4824568.220405846],[641857.9366190246,4824575.838070448],[641846.1580089338,4824578.976371085],[641847.1878439542,4824582.841528241],[641859.0110078362,4824579.691356662],[641859.0995210542,4824579.665574181],[641883.4218195956,4824571.968462601],[641883.6241685424,4824571.892163463],[641883.8170965841,4824571.794462769],[641902.8596875378,4824560.819149103],[641902.970669024,4824560.75026085],[641940.3898335083,4824535.794769014],[641944.9799849987,4824533.966812333],[641948.5541290044,4824533.662635432],[641948.2149358463,4824529.677042878],[641944.3456375945,4824530.00633883],[641944.151415206,4824530.032504547],[641943.9606861146,4824530.07755335],[641943.7752816523,4824530.14105269]]],[[[642116.5027047852,4824943.432324977],[642116.6311572402,4824943.297095665],[642116.7464538584,4824943.150488401],[642128.7120896543,4824926.381520525],[642128.7134253231,4824926.379646402],[642173.1574872573,4824863.94269993],[642169.898762138,4824861.623064054],[642125.4553676436,4824924.059072878],[642113.5990900478,4824940.674783194],[642100.0559568804,4824953.662027336],[642055.8908568838,4824973.965082541],[642022.7007587241,4824985.913072245],[642005.1614465072,4824991.7900513755],[642005.1545310464,4824991.792382614],[641973.945198423,4825002.376660957],[641973.8403651344,4825002.415513637],[641967.1825886645,4825005.096925391],[641968.6769396564,4825008.807304766],[641975.2828426622,4825006.146784989],[642006.4357597574,4824995.581639309],[642023.9926881765,4824989.698757436],[642024.0346779991,4824989.684166706],[642057.3260477806,4824977.699720578],[642056.6486312114,4824975.817937703],[642057.48400464,4824977.635119927],[642102.0326061434,4824957.155765964],[642102.2290727814,4824957.051857237],[642102.4127971845,4824956.926791226],[642102.5815105323,4824956.782112376],[642116.5027047852,4824943.432324977]]]]}}]}
