{"type":"FeatureCollection","name":"barreiros-remior-coastline","crs":{"type":"name","properties":{"name":"EPSG:25829"}},"features":[{"type":"Feature","properties":{"source":"IHM"},"geometry":{"type":"LineString","coordinates":[[644010.0,4825007.300602107],[643985.6767363871,4825013.311082551],[643949.1067935199,4825022.015744908],[643912.0313809584,4825028.298609215],[643845.6756201214,4825040.209760102],[643819.2993760364,4825043.78904944],[643795.3137638175,4825044.775166818],[643781.9408734991,4825042.933097691],[643776.0340708066,4825039.939848892],[643772.0997556612,4825035.766613426],[643762.7552249804,4825038.2331687845],[643740.7905850742,4825045.207314822],[643708.8383806365,4825050.345428877],[643650.5620838067,4825050.22016367],[643630.2758810024,4825047.485983105],[643612.0655030259,4825037.985058335],[643603.3698073335,4825032.032245923],[643589.5496528241,4825018.991925546],[643561.6592826694,4825003.083968267],[643559.244548551,4824994.721077976],[643561.5319885252,4824987.88100546],[643560.7754510079,4824986.609248759],[643557.0369412955,4824978.184712442],[643550.817394689,4824971.296030129],[643546.5396904664,4824992.238207144],[643545.4867278218,4825010.871536485],[643539.247760751,4825026.049461063],[643528.3484676009,4825036.6165501345],[643514.8045358718,4825043.904834501],[643465.3652489868,4825057.8703498505],[643433.6409319971,4825063.325747122],[643389.3741446692,4825076.4801118625],[643320.6963753952,4825098.4580339985],[643301.5564077625,4825105.238345317],[643293.3161213624,4825105.573532049],[643286.7146900196,4825103.699239691],[643279.3556721852,4825099.0865208],[643275.8825830279,4825094.112311181],[643273.7223592546,4825078.732648938],[643267.5302749083,4825073.955963271],[643264.3927989674,4825074.833450566],[643262.6414206333,4825078.529452905],[643262.927779814,4825087.446800667],[643259.8293357996,4825095.580779711],[643236.6955947647,4825116.865119778],[643225.9577621955,4825127.847235529],[643214.0304353328,4825133.992808425],[643184.678014382,4825154.033498468],[643164.0407207827,4825164.360071254],[643130.682878685,4825182.804416618],[643113.3846747357,4825190.002305776],[643078.0366130327,4825211.237833287],[643065.5635792818,4825218.360926006],[643038.0554543717,4825229.61920289],[643020.2964146303,4825239.496423679],[643014.3033368351,4825240.546507615],[642989.778988912,4825252.83523526],[642964.2930040619,4825259.447939171],[642944.1680490306,4825262.063757061],[642940.1341651134,4825264.06675632],[642936.3406936695,4825271.852725764]]}},{"type":"Feature","properties":{"source":"IHM"},"geometry":{"type":"LineString","coordinates":[[642936.3406936695,4825271.852725764],[642921.7867373766,4825286.4096237905],[642911.9313345489,4825286.721984296],[642905.231138729,4825279.245893072],[642900.2868733429,4825278.851724666],[642897.688397891,4825281.363095037],[642896.0679295529,4825290.306476772],[642888.2584112302,4825299.2625339385],[642894.0230567718,4825309.69650243],[642893.5522952218,4825314.730983665],[642889.5795371714,4825314.624176653],[642876.12201374,4825300.837509357],[642869.188867316,4825298.9898950765],[642868.2026616874,4825303.568954936],[642871.9456890486,4825315.2265496915],[642870.352751269,4825318.703791424],[642849.9991042684,4825321.8261306835],[642839.113110651,4825321.594431243],[642840.0677672934,4825324.570339319],[642848.0846348293,4825330.541038712],[642848.8711539968,4825333.824484282],[642846.6106306955,4825337.92086224],[642843.4607725315,4825339.009388491],[642839.8530105033,4825338.077035917],[642830.4351969741,4825333.77655047],[642821.0215301346,4825314.85377776],[642818.5240571392,4825313.00060992],[642815.0845698076,4825313.271866036],[642811.9640172488,4825315.261041124],[642810.5862777194,4825318.498427691],[642816.567727117,4825329.759170441],[642815.259043336,4825332.409130003],[642803.9190386116,4825326.556650924],[642799.8946608144,4825321.282073325],[642793.3587850804,4825316.331844093],[642779.1982401618,4825310.897181486],[642774.7332472666,4825314.180008324],[642774.5359003616,4825320.798105802],[642770.2809655399,4825329.018792057],[642793.5187336461,4825341.091081376],[642796.3756296905,4825343.518560724],[642794.903553277,4825346.2539372],[642787.6963088568,4825346.278372686],[642763.8578164512,4825335.860009394],[642756.9131819361,4825326.956632969],[642753.4306879301,4825316.715778944],[642749.0058220787,4825307.477116592],[642750.3488913411,4825296.3722287025],[642747.5473071076,4825294.0015033735],[642730.0048418324,4825290.3061480755],[642724.9526069672,4825292.709842634],[642711.3176671151,4825309.286739986],[642700.7120826187,4825312.205706363],[642675.9194148413,4825320.056458702],[642661.2942151822,4825322.034469411],[642658.0,4825326.739569867]]}}]}
