{"type":"FeatureCollection","name":"barreiros-benquerencia-coastline","crs":{"type":"name","properties":{"name":"EPSG:25829"}},"features":[{"type":"Feature","properties":{"source":"IHM"},"geometry":{"type":"MultiLineString","coordinates":[[[644807.0793785889,4824867.600453694],[644801.5787230113,4824867.515122112],[644790.4687156776,4824872.008905657],[644764.0005681703,4824878.660407125],[644733.9798060546,4824882.946463167],[644721.650535787,4824887.7807421805],[644720.3915133022,4824889.586972936],[644715.4695407233,4824894.892091285],[644704.2574958919,4824896.628193216],[644698.4197047169,4824901.31356588],[644692.5369753096,4824902.086772607],[644686.737256634,4824899.383915374],[644686.4185740779,4824893.176902273],[644681.9244223573,4824892.880024897],[644616.970474116,4824904.458332457],[644538.9283292383,4824912.610892019],[644456.7609057357,4824915.3532279],[644415.9104286818,4824926.5411106115],[644387.4047114117,4824928.783470719],[644368.0032931216,4824928.855047582],[644346.0497379946,4824921.360527449],[644329.4302252163,4824911.925176676],[644303.565941802,4824890.146418026],[644281.859617239,4824881.290737531],[644280.0,4824881.852185931]],[[644280.0,4824886.646456186],[644286.0633597499,4824893.970246067],[644295.067557992,4824909.986353805],[644296.2640807396,4824915.967754217],[644293.0749838226,4824924.121588156],[644296.9130552147,4824937.271033267],[644297.7198605189,4824940.332885206],[644296.3332088524,4824943.947594662],[644293.5505049599,4824945.976704976],[644280.0,4824949.771841415]]]}},{"type":"Feature","properties":{"source":"IHM"},"geometry":{"type":"LineString","coordinates":[[645210.6592020649,4824845.285031993],[645210.9523644169,4824851.902661259],[645206.9935557148,4824853.750404462],[645193.288867451,4824846.320424016]]}},{"type":"Feature","properties":{"source":"IHM"},"geometry":{"type":"LineString","coordinates":[[644807.0793785889,4824867.600453694],[644818.5640522679,4824886.937574872],[644824.0069418715,4824889.699517004],[644831.0546231968,4824889.98491869],[644836.1993788562,4824887.8403197285],[644838.7617769062,4824883.673287054],[644835.7492361879,4824871.630215357],[644836.6562918345,4824865.916315882],[644837.2449227711,4824859.6066424865],[644840.0997308249,4824854.245890623],[644844.9491211331,4824851.561577442],[644849.817755966,4824851.355520616],[644867.8865694914,4824856.512246734],[644879.7853003892,4824865.269268038],[644887.7767801587,4824868.997405374],[644894.5790348601,4824866.0552739035],[644895.2744945635,4824861.536841926],[644892.8696213313,4824850.918004013],[644894.5813902129,4824844.610354782],[644897.6721561556,4824840.299188635],[644902.7563623999,4824838.342224577],[644909.3578318534,4824839.462538684],[644925.2085176526,4824851.549483859],[644938.3246023163,4824856.688360813],[644943.5230768293,4824854.678338011],[644950.8262255446,4824844.258002758],[644953.2679527155,4824837.077218225],[644950.641896549,4824825.853565009],[644951.7717555473,4824820.6778347185],[644958.2232180585,4824820.139360279],[644985.1344995436,4824825.165135642],[645006.5151658766,4824824.382508861],[645014.6800936376,4824823.447760208],[645022.2018916484,4824819.743501128],[645048.8462644327,4824794.118542184],[645061.5120990535,4824792.425532408],[645082.0541475435,4824791.569460701],[645089.9393885777,4824787.128666151],[645098.7550053808,4824778.896782351],[645103.9131427623,4824766.7968580965],[645105.3131642414,4824752.493419823],[645103.9410942391,4824745.319131538],[645097.2437772301,4824727.6961338855],[645085.9209162588,4824705.0063739605],[645090.6910811554,4824693.28695287],[645090.4684124207,4824685.270824277],[645077.6132005933,4824671.414855901],[645071.7023409626,4824661.886872224],[645070.9056111365,4824657.625101719],[645076.2659395484,4824658.229848769],[645090.6409135747,4824667.1963136615],[645110.5649938614,4824684.105188648],[645121.5401074591,4824699.331725706],[645131.4419012981,4824709.634950641],[645148.9080257447,4824737.068861337],[645161.2493972832,4824745.902625993],[645171.2668926772,4824748.608219307],[645179.1918957119,4824753.168620945],[645182.1692632004,4824757.099784561],[645191.8158716455,4824788.531479065],[645198.6668184742,4824790.446383191],[645204.889215637,4824803.114649572],[645211.7740534735,4824812.052709872],[645225.0471308768,4824811.050940429],[645255.7495757258,4824803.303929813],[645264.4788595694,4824799.070494273],[645279.1029446609,4824787.5422269665],[645304.7852065727,4824761.997413554],[645309.6840326816,4824761.147877891],[645313.1796208147,4824762.412470919],[645322.1735191972,4824769.474031299],[645325.9756083199,4824772.256419224],[645330.4164357262,4824776.886021985],[645332.8294100299,4824775.9049035385],[645357.7640701095,4824780.044911671],[645373.3229005686,4824779.837394225],[645385.1402009864,4824779.648877001],[645392.1971423,4824779.512829499],[645400.8521780596,4824780.578105027],[645405.8805048645,4824777.853614626],[645421.4764408431,4824774.069134427],[645436.4200107566,4824767.203802539],[645445.9765337163,4824766.566397276],[645448.6273161279,4824761.32368576],[645468.9952496744,4824753.598156923],[645474.8766242233,4824751.781116717],[645515.3791917901,4824741.136463449],[645518.9641220749,4824743.869810021],[645523.9060680161,4824744.38806917],[645526.7221845316,4824743.449092721],[645526.6864046842,4824739.881548411],[645526.1517635137,4824738.825483272],[645557.0,4824732.4307683455]]}},{"type":"Feature","properties":{"source":"IHM"},"geometry":{"type":"LineString","coordinates":[[645193.288867451,4824846.320424016],[645187.5234914604,4824830.828643633],[645175.5234432707,4824821.913311685],[645176.5406491108,4824816.724063464],[645185.8984415452,4824810.326287023],[645192.50108274,4824809.524632361],[645204.4242479493,4824812.282612436],[645209.0160463328,4824813.670867931],[645217.7830941145,4824823.7496826565],[645216.5143981068,4824830.4779709],[645210.3072322194,4824837.277204797],[645210.6592020649,4824845.285031993]]}}]}
