{"type":"FeatureCollection","name":"barreiros-coast-coastline","crs":{"type":"name","properties":{"name":"EPSG:25829"}},"features":[{"type":"Feature","properties":{"source":"IHM"},"geometry":{"type":"LineString","coordinates":[[646281.2215649721,4824684.268561033],[646287.3854872806,4824687.66966287],[646290.9408530821,4824694.714046],[646290.2618532113,4824701.3994741775],[646287.032564329,4824705.718135212],[646276.267450753,4824711.005950573],[646249.83680399,4824713.5968208825],[646218.241434809,4824711.430692622],[646141.5799187426,4824700.827624511],[646105.5357428972,4824701.098592392],[646064.5519738498,4824706.684664872],[646045.202345607,4824706.930340698],[646018.1522022927,4824709.775315643],[645987.9534643579,4824718.440996687],[645962.3861443064,4824723.3296163855],[645899.4701495395,4824727.550897444]]}},{"type":"Feature","properties":{"source":"IHM"},"geometry":{"type":"LineString","coordinates":[[644807.0793785889,4824867.600453694],[644801.5787230113,4824867.515122112],[644790.4687156776,4824872.008905657],[644764.0005681703,4824878.660407125],[644733.9798060546,4824882.946463167],[644721.650535787,4824887.7807421805],[644720.3915133022,4824889.586972936],[644715.4695407233,4824894.892091285],[644704.2574958919,4824896.628193216],[644698.4197047169,4824901.31356588],[644692.5369753096,4824902.086772607],[644686.737256634,4824899.383915374],[644686.4185740779,4824893.176902273],[644681.9244223573,4824892.880024897],[644616.970474116,4824904.458332457],[644538.9283292383,4824912.610892019],[644456.7609057357,4824915.3532279],[644415.9104286818,4824926.5411106115],[644387.4047114117,4824928.783470719],[644368.0032931216,4824928.855047582],[644346.0497379946,4824921.360527449],[644329.4302252163,4824911.925176676],[644303.565941802,4824890.146418026],[644281.859617239,4824881.290737531],[644278.4926612705,4824882.307275774],[644279.6290951304,4824886.198448902],[644286.0633597499,4824893.970246067],[644295.067557992,4824909.986353805],[644296.2640807396,4824915.967754217],[644293.0749838226,4824924.121588156],[644296.9130552147,4824937.271033267],[644297.7198605189,4824940.332885206],[644296.3332088524,4824943.947594662],[644293.5505049599,4824945.976704976],[644256.8895378187,4824956.24446789],[644234.4877381801,4824962.8409650475],[644191.0822963201,4824969.630751452],[644160.4924547517,4824977.884966171],[644142.7548959882,4824980.626308238],[644116.000302927,4824989.763100491],[644097.8548484053,4824993.81804868],[644063.7047859528,4824997.051722563],[644054.0173219605,4824996.288235687],[644049.3669237138,4824989.721639897],[644046.8804393029,4824989.623831631],[644035.2153629779,4824997.429205562],[644015.3413927207,4825005.980699605],[643985.6767363871,4825013.311082551],[643949.1067935199,4825022.015744908],[643912.0313809584,4825028.298609215],[643845.6756201214,4825040.209760102],[643819.2993760364,4825043.78904944],[643795.3137638175,4825044.775166818],[643781.9408734991,4825042.933097691],[643776.0340708066,4825039.939848892],[643772.0997556612,4825035.766613426],[643762.7552249804,4825038.2331687845],[643740.7905850742,4825045.207314822],[643708.8383806365,4825050.345428877],[643650.5620838067,4825050.22016367],[643630.2758810024,4825047.485983105],[643612.0655030259,4825037.985058335],[643603.3698073335,4825032.032245923],[643589.5496528241,4825018.991925546],[643561.6592826694,4825003.083968267],[643559.244548551,4824994.721077976],[643561.5319885252,4824987.88100546],[643560.7754510079,4824986.609248759],[643557.0369412955,4824978.184712442],[643550.817394689,4824971.296030129],[643546.5396904664,4824992.238207144],[643545.4867278218,4825010.871536485],[643539.247760751,4825026.049461063],[643528.3484676009,4825036.6165501345],[643514.8045358718,4825043.904834501],[643465.3652489868,4825057.8703498505],[643433.6409319971,4825063.325747122],[643389.3741446692,4825076.4801118625],[643320.6963753952,4825098.4580339985],[643301.5564077625,4825105.238345317],[643293.3161213624,4825105.573532049],[643286.7146900196,4825103.699239691],[643279.3556721852,4825099.0865208],[643275.8825830279,4825094.112311181],[643273.7223592546,4825078.732648938],[643267.5302749083,4825073.955963271],[643264.3927989674,4825074.833450566],[643262.6414206333,4825078.529452905],[643262.927779814,4825087.446800667],[643259.8293357996,4825095.580779711],[643236.6955947647,4825116.865119778],[643225.9577621955,4825127.847235529],[643214.0304353328,4825133.992808425],[643184.678014382,4825154.033498468],[643164.0407207827,4825164.360071254],[643130.682878685,4825182.804416618],[643113.3846747357,4825190.002305776],[643078.0366130327,4825211.237833287],[643065.5635792818,4825218.360926006],[643038.0554543717,4825229.61920289],[643020.2964146303,4825239.496423679],[643014.3033368351,4825240.546507615],[642989.778988912,4825252.83523526],[642964.2930040619,4825259.447939171],[642944.1680490306,4825262.063757061],[642940.1341651134,4825264.06675632],[642936.3406936695,4825271.852725764]]}},{"type":"Feature","properties":{"source":"IHM"},"geometry":{"type":"LineString","coordinates":[[640694.121612431,4826582.338284194],[640678.7446726112,4826581.815814176],[640617.6085758826,4826590.511845107],[640568.6127710806,4826598.462798454],[640499.9383197749,4826620.7685798835],[640464.5116215496,4826629.182253341],[640446.3042364414,4826628.823269266],[640422.4723162695,4826625.113273171],[640415.0490778851,4826626.269002511],[640400.0,4826635.673020105]]}},{"type":"Feature","properties":{"source":"IHM"},"geometry":{"type":"LineString","coordinates":[[646846.8332577222,4824720.0633755205],[646886.1800689824,4824733.935852141],[646909.4781486675,4824744.901657231]]}},{"type":"Feature","properties":{"source":"IHM"},"geometry":{"type":"LineString","coordinates":[[646643.2919639023,4824773.560297084],[646683.9078730452,4824742.668787939],[646692.0419991415,4824740.946471066],[646694.7193781269,4824733.793606656],[646695.1161799784,4824731.535528798],[646701.8433956663,4824723.571138954],[646713.0637008813,4824714.849368864],[646735.9135205419,4824703.826172993],[646776.0370683088,4824695.491923935],[646806.1524434005,4824695.872690382]]}},{"type":"Feature","properties":{"source":"IHM"},"geometry":{"type":"LineString","coordinates":[[647204.671002005,4824301.528596399],[647205.5674285104,4824300.4482088545],[647207.9464551639,4824300.30036567],[647231.875509137,4824307.969828668],[647243.4713261828,4824309.824206176],[647262.0683822434,4824308.954282067],[647280.7726266012,4824305.408876368],[647299.7874276848,4824296.181219788],[647342.9218125804,4824260.904080888],[647374.4811513785,4824227.995430001],[647395.8610375798,4824211.175194121],[647417.6843721577,4824189.253440595],[647421.0427203849,4824182.782472756],[647423.9505731094,4824159.289813727],[647455.2284603748,4824167.199211064],[647466.671148504,4824167.572763487],[647485.399981033,4824165.139601529],[647518.837303263,4824154.207070714],[647546.3552017207,4824140.5222807275],[647585.8149102422,4824124.733329407],[647681.9444479791,4824094.412447518],[647724.4511070753,4824084.513775045],[647766.526072993,4824072.5724444995],[647821.5628506552,4824060.661168918],[647917.7694815698,4824040.145696235],[647933.6132935548,4824034.072265861],[647940.9100489721,4824026.032681808],[647942.9971453832,4824015.300419621],[647941.7974781248,4824003.729035406],[647933.2252850148,4823984.194868458],[647945.1715597832,4823988.136028736],[647960.7563570205,4824007.391394587],[647968.3904753709,4824012.648745808],[647976.5640549187,4824014.69563157],[647998.5359985783,4824017.680029628],[648012.8909760689,4824017.5631168205]]}},{"type":"Feature","properties":{"source":"IHM"},"geometry":{"type":"LineString","coordinates":[[647217.0427504102,4824434.193990016],[647182.9578752994,4824413.568058233],[647179.4431657628,4824410.968680928],[647166.1077224904,4824391.531139247],[647165.2554811127,4824372.533936695],[647168.8794326745,4824358.723946888],[647175.7727982542,4824348.752445966],[647191.0585503147,4824333.786966838],[647198.3912959701,4824323.680670033],[647200.7321551153,4824317.165071213],[647211.098315773,4824308.025333908],[647210.2651263352,4824305.4847427765],[647204.671002005,4824301.528596399]]}},{"type":"Feature","properties":{"source":"IHM"},"geometry":{"type":"LineString","coordinates":[[640756.6164214942,4826577.038116234],[640766.6891347317,4826573.193908261],[640782.1526306509,4826570.362839499],[640789.686992234,4826561.609841406],[640796.5207529021,4826545.442146082],[640798.9994430548,4826530.8719426375],[640794.5471593083,4826516.700722667],[640794.7923194807,4826512.716978501],[640807.8034959291,4826510.89005254],[640820.1446763026,4826505.193531396],[640823.477720726,4826507.26349483],[640828.4805375468,4826514.446290545],[640834.5767554565,4826518.796487292],[640837.7847638421,4826518.741610479],[640852.2729574689,4826511.201330876],[640859.0009606102,4826509.698145179],[640865.6591492374,4826514.982392843],[640870.140007874,4826523.554263061],[640872.2176558024,4826539.631233344],[640890.8070180191,4826561.432734431],[640923.4008969513,4826586.406242961],[640941.7632002099,4826591.703110217],[640949.4426755422,4826589.508895241],[640959.064606755,4826581.366606174],[640973.2541460869,4826583.042546389],[640978.4071010242,4826581.917496283],[640990.8997685043,4826574.780024375],[641008.218779791,4826560.921784187],[641016.3666737928,4826546.437469079],[641019.7383970506,4826515.152737639],[641028.2796853994,4826498.865589783],[641029.5532288675,4826492.847907438]]}},{"type":"Feature","properties":{"source":"IHM"},"geometry":{"type":"LineString","coordinates":[[641059.3663814662,4826491.785800798],[641059.5411856051,4826506.522836195],[641061.378149549,4826514.817031411],[641065.8203612152,4826522.910451878],[641080.7688722119,4826535.747040583],[641083.2485000587,4826539.5991940275],[641092.910665987,4826559.513547863],[641096.3223754425,4826562.063085018],[641101.326898457,4826561.468340316]]}},{"type":"Feature","properties":{"source":"IHM"},"geometry":{"type":"LineString","coordinates":[[645210.6592020649,4824845.285031993],[645210.9523644169,4824851.902661259],[645206.9935557148,4824853.750404462],[645193.288867451,4824846.320424016]]}},{"type":"Feature","properties":{"source":"IHM"},"geometry":{"type":"LineString","coordinates":[[640860.8911193805,4823000.535469399],[640775.4662143417,4823090.310479949],[640751.01830643,4823113.464588416],[640743.1837308239,4823120.178133536],[640686.322997964,4823177.141946177],[640653.2045647112,4823216.09242915],[640632.1567345327,4823238.240377736],[640551.1121880385,4823315.554272643]]}},{"type":"Feature","properties":{"source":"IHM"},"geometry":{"type":"MultiLineString","coordinates":[[[640723.2477684187,4824552.097691369],[640703.4102299393,4824536.337478954],[640694.4295958063,4824537.28257905],[640689.8974229667,4824533.776494433],[640661.3303924503,4824521.6223390065],[640648.013297474,4824512.032238561],[640635.660440299,4824498.840160549],[640614.9532329028,4824486.006438413],[640603.2201441859,4824475.238507434],[640592.4146577739,4824468.790005156],[640579.526266725,4824465.342332233],[640559.0479325744,4824465.880185296],[640540.5256063284,4824458.670200835],[640513.8781686974,4824443.568013925],[640491.7031673342,4824436.759490441],[640478.2299502655,4824429.977574009],[640458.4174446453,4824423.018602711],[640412.5501047805,4824411.236927021],[640401.2897923284,4824414.54583933],[640400.0,4824415.702714432]],[[640400.0,4824117.6052666865],[640401.7608355895,4824118.4686785145],[640409.4005345147,4824129.117267733],[640410.565579286,4824143.730427141],[640426.933200129,4824158.194889892],[640433.2700652751,4824160.816310571],[640445.8181438784,4824158.545477666],[640458.548705382,4824158.367361597],[640474.4695606537,4824144.744991715],[640479.3348239234,4824143.935685754],[640485.4810282289,4824145.242063235],[640496.5006893219,4824146.505986454],[640509.0968700678,4824157.769530606],[640516.7517080192,4824161.507497526],[640549.3540528895,4824162.7899343865],[640563.4767258012,4824160.5745054325],[640577.0991004454,4824158.326407993],[640586.6543939319,4824141.537692606],[640595.4636042214,4824130.666667032],[640608.2362999776,4824123.078641938],[640618.4442974561,4824119.1146814795],[640625.6365916803,4824119.087548741],[640633.0128051946,4824121.853150956],[640672.3501083831,4824143.788269233],[640694.4758301688,4824153.374083011],[640710.0241860675,4824159.477687558],[640733.7953421698,4824164.575919317],[640741.13847803,4824163.518745349],[640765.6824167215,4824154.111129529],[640782.918659732,4824152.550326591],[640824.8695708785,4824153.096810532],[640848.5060173541,4824150.748207503],[640914.0177845744,4824149.856248452],[640926.1279788753,4824148.054889742],[640945.2255114095,4824135.589158982],[640959.8239112431,4824130.740104988],[640966.1719367423,4824130.12894619],[640971.9665684642,4824131.628389691],[640978.5638501804,4824137.233570111],[640976.509649916,4824140.779314334],[640965.845702855,4824149.899817599],[640964.8064616659,4824155.522425516],[640972.2309919047,4824161.367191724],[640987.033124628,4824164.900231385],[640994.27851563,4824164.652388551],[641005.8781927834,4824157.918242781],[641022.420563279,4824151.310157897],[641031.1004311233,4824145.092499968],[641048.4767117167,4824134.17978207],[641053.0335978788,4824128.053310479],[641054.5427495881,4824123.52947203],[641053.966530082,4824109.417398658],[641055.5737773972,4824104.840065879],[641062.1233784251,4824096.944359152],[641067.1166364623,4824095.049276867],[641082.4413395564,4824093.715734717],[641093.4560627801,4824081.75833959],[641119.249200895,4824072.933787757],[641136.5680438218,4824068.997841832],[641155.4311034728,4824061.949966571],[641166.7211607796,4824061.88734162],[641180.3945137726,4824058.774856],[641189.0236391306,4824059.978535031],[641203.0197763405,4824059.961767151],[641213.1662866839,4824067.397381745],[641213.5621186667,4824063.561268044],[641210.9259154375,4824058.272495439],[641201.5811502675,4824036.920433833],[641191.0754460187,4824020.432855942],[641184.3582951393,4824011.691616508],[641165.7897184795,4823995.501206078],[641153.7654634132,4823970.904004331],[641140.0482026548,4823946.882349648],[641124.3217458673,4823929.251816527],[641106.0214007158,4823914.122780878],[641089.7847187452,4823908.459362448],[641062.1160304575,4823897.678031314],[641044.7172997121,4823895.012525477]]]}},{"type":"Feature","properties":{"source":"IHM"},"geometry":{"type":"LineString","coordinates":[[640860.8911193805,4823000.535469399],[640825.2208487915,4823009.620714121],[640801.4705297925,4823008.34498257],[640788.7448122232,4823003.9448962575],[640771.2588941425,4822996.456188379],[640747.3451001291,4822983.310631831],[640729.0703934685,4822966.405568605],[640715.7671848848,4822957.160224067],[640702.7771549564,4822943.765940565],[640680.2590774393,4822928.79433458],[640666.6353905224,4822913.620200124],[640653.8257270474,4822902.796446372],[640641.424342511,4822887.525744629],[640630.2293664414,4822876.780296027],[640622.525497741,4822868.75238553],[640613.4991862238,4822855.174616923],[640584.2299756492,4822822.539932577],[640573.6507596021,4822815.574114261],[640564.5287354172,4822817.760960979],[640553.761785679,4822824.013364997],[640537.973527835,4822824.582983002],[640497.2791820047,4822812.642812484],[640481.6554490242,4822803.0272010835],[640474.3660157159,4822795.652580064],[640465.0029526057,4822775.356932776],[640446.8833465517,4822752.133774501],[640428.3263330925,4822720.446045429],[640421.935850627,4822701.379276252],[640419.9858471402,4822673.260982529],[640422.6677492195,4822650.906139515],[640419.9321343399,4822636.782409645],[640419.5970151846,4822611.8311849395],[640422.6780183194,4822598.995711316],[640433.3312760481,4822573.063112165],[640435.0808019412,4822555.488737798],[640432.4786713184,4822534.978965737],[640428.746868239,4822527.523237203],[640422.6164851611,4822520.361809701],[640419.645633911,4822500.088780241],[640419.5930657998,4822500.0]]}},{"type":"Feature","properties":{"source":"IHM"},"geometry":{"type":"LineString","coordinates":[[641778.2557390338,4824776.142048863],[641792.270205744,4824763.7158045005],[641806.4111511699,4824746.070017656],[641804.2330079458,4824740.935095478],[641780.835203208,4824718.285215712],[641777.4652800254,4824712.191794847],[641779.348310502,4824705.287098419],[641779.1036031758,4824698.893018889],[641775.7012284012,4824693.187804412],[641767.1581643887,4824684.507345007],[641766.6700099609,4824677.397011767],[641766.4457641989,4824671.181144088],[641769.5327556939,4824667.335215659],[641780.1400090392,4824665.125904535],[641800.1353792197,4824654.926002382],[641815.2439721038,4824625.145068095],[641828.6634430683,4824604.18406281],[641836.0320974475,4824588.906362823],[641836.2151964651,4824585.976887543],[641831.4158391331,4824579.464349001],[641829.5219130437,4824573.113200097],[641829.6120193161,4824568.848421993],[641836.5259388167,4824554.061115873],[641835.2468431143,4824546.145173056],[641831.7220690581,4824541.259572024],[641829.881963338,4824532.74288677],[641814.7527775674,4824522.178778202],[641811.3454346999,4824518.617896718],[641811.6043618819,4824515.923357496],[641814.6021615901,4824514.008902152],[641821.4662389376,4824513.8205775935],[641825.3170508617,4824510.924144577],[641824.4124883241,4824491.016077279],[641821.9569145015,4824484.475288775],[641805.7648508344,4824461.488712136],[641802.7091568641,4824459.257491561],[641786.5393695023,4824446.304802388],[641786.8747527077,4824437.311858417],[641783.5361405063,4824428.963542408],[641785.3986272496,4824422.269525101],[641794.4341505552,4824413.77144991],[641794.9707250615,4824405.582758246],[641793.3517474671,4824397.304093339],[641793.2307830087,4824387.345952809],[641804.7970039193,4824372.656878123],[641815.9494236001,4824372.20356896],[641821.3764553461,4824369.284872435],[641824.6016158976,4824365.408549192],[641840.5636689989,4824337.334577321],[641868.5689052992,4824298.403977057],[641881.607406091,4824277.535002665],[641895.3957490772,4824260.57080148],[641913.5167035533,4824233.2203938635],[641917.3891075673,4824222.8133247355],[641924.1753189499,4824198.801138611],[641927.135614746,4824184.908113637],[641937.0360568018,4824161.895110468],[641941.7964963872,4824142.740129447],[641942.4500391311,4824135.142808352],[641937.4683655751,4824115.837420653],[641936.9232981557,4824103.014741703],[641924.8396332728,4824068.370288825],[641915.509511729,4824026.550710522],[641914.8907066799,4824014.53759259],[641917.5014227504,4824001.892735522],[641946.6806079189,4823928.920437491],[641950.3903460104,4823915.132155113],[641956.2527582329,4823899.66715903],[641976.3591289311,4823865.992172191],[641991.6697997825,4823825.238019755],[641996.7847863483,4823801.179441349],[641997.8144794626,4823775.034463423],[642001.5022176919,4823761.912408095],[642003.1844594791,4823737.392348234],[642006.9471554623,4823727.605224854],[642016.9777879006,4823709.939530988],[642018.4515727565,4823697.570660832],[642005.7817503783,4823642.091415321],[642000.6396786532,4823627.682628269],[642000.1797272736,4823615.039529646],[642004.5386174609,4823597.69832212],[642007.6521016839,4823570.464082515],[642010.6421844192,4823561.2939557815],[642018.6673323244,4823548.285860378],[642023.7391443686,4823541.181994617],[642023.5619161793,4823539.244906958],[642020.1465782487,4823536.805999412],[641974.8401950188,4823536.903502646],[641964.3837868276,4823538.771327799],[641949.3968440779,4823543.93229407],[641926.5663710493,4823562.694210444],[641902.1690619377,4823579.1230829535],[641879.5339627608,4823583.678135245],[641867.0182439,4823584.335927766],[641854.8373346161,4823582.53414472],[641830.7008892153,4823566.346493731],[641802.5995755243,4823552.686322202],[641748.515718767,4823515.711060608],[641736.9154230302,4823510.132861317],[641723.5877164956,4823500.629332573],[641679.2532309503,4823478.404889957],[641650.5641880125,4823461.544095405],[641623.8178462463,4823438.013288355],[641613.9140691084,4823425.937757548],[641605.091061613,4823413.196144215],[641554.8389736293,4823365.714461958],[641542.9139713012,4823359.418662074],[641518.9082594658,4823354.212732179],[641477.8608531778,4823340.070071073],[641468.8209201558,4823336.457409482],[641448.6560907456,4823323.854880543],[641401.7413526735,4823304.7113481555],[641390.2445186547,4823295.724850411],[641378.8863503942,4823281.685745695],[641374.0573074509,4823278.050757181],[641365.3897911027,4823275.168302143],[641356.6680579626,4823275.629155893],[641330.7667307465,4823273.3062340645],[641307.3016445525,4823266.968016809],[641294.5977103482,4823266.178496506],[641282.0945548984,4823262.759896984],[641261.2005912291,4823247.142625121],[641247.8787010517,4823230.006905046],[641225.5115155261,4823216.4143176265],[641199.0439261295,4823192.580070786],[641186.2732784243,4823174.967188592],[641157.7552268544,4823146.778916256],[641132.5517907063,4823126.60484787],[641128.772228128,4823124.936539392],[641115.7500765388,4823124.662903246],[641069.0299183482,4823104.614783075],[641037.1383519906,4823078.089527142],[641005.4486212895,4823047.713134061],[640984.3229614537,4823032.291920752],[640956.383991955,4823021.883309721],[640938.443071495,4823024.917888175],[640914.4213339787,4823030.802688635],[640904.4625849263,4823036.282605317]]}},{"type":"Feature","properties":{"source":"IHM"},"geometry":{"type":"LineString","coordinates":[[640506.8650843406,4823432.616395913],[640524.52194709,4823413.741553316],[640544.9181886999,4823392.179659645],[640557.2548599967,4823381.160163808],[640629.8441903234,4823302.7470836],[640674.6891041262,4823258.753278128],[640736.2235475491,4823202.020667841],[640756.2926301776,4823178.008079063],[640781.480883565,4823150.369542216],[640801.9747910922,4823132.321505146],[640813.9652599272,4823118.584091521],[640840.790537848,4823092.680073816],[640857.4862319635,4823080.0302902805],[640874.0276162538,4823062.410668639],[640904.4625849263,4823036.282605317]]}},{"type":"Feature","properties":{"source":"IHM"},"geometry":{"type":"LineString","coordinates":[[641133.2877655199,4826488.251578551],[641130.6337347454,4826486.162408347],[641126.0440960787,4826483.543631802],[641123.1758520347,4826482.805517118],[641121.2407409213,4826483.020367589],[641116.6090312846,4826485.089611784],[641109.7093459007,4826485.533374161],[641104.6549493364,4826486.960401163],[641100.0096070648,4826487.373810783],[641087.6111620835,4826482.335270689],[641086.4874800144,4826480.456080407],[641086.5105702196,4826478.589895685],[641088.2065589709,4826477.070003861],[641090.7301222051,4826476.145295659],[641100.7661883887,4826474.445252319],[641107.1036644581,4826472.311874059],[641111.0236491861,4826469.516540354],[641115.0473754006,4826465.245610015],[641116.0852285253,4826462.756323989],[641115.6698205929,4826459.847580083],[641114.9820492361,4826458.366443663],[641110.1019273803,4826452.274895399],[641109.0107764764,4826450.385274493],[641108.5908243718,4826448.076436902],[641108.5686130943,4826445.675964836],[641109.1614473998,4826443.221762263],[641111.8852296678,4826438.923487895],[641116.070853695,4826435.78929851],[641119.5836006689,4826435.074296274],[641123.0677155787,4826435.336473413],[641138.065906671,4826440.440878377],[641153.0043639522,4826444.544058773],[641156.8208158198,4826445.135468934],[641158.38146078,4826444.290525561],[641162.6746164813,4826440.269735878],[641166.8561259029,4826431.95770033],[641169.5423249939,4826429.447549982],[641171.5638284625,4826429.734531802],[641179.7360259548,4826432.928728371],[641184.8104124058,4826432.857735136],[641187.6613125987,4826432.1177289095],[641190.4973820145,4826432.466303419],[641193.7494880339,4826434.156971649],[641197.9262209776,4826438.355996802],[641205.1872970016,4826451.064408539],[641208.9745589006,4826454.577464473],[641219.4516083805,4826462.63134923],[641223.7729250262,4826466.100100186],[641230.5725761774,4826470.409917158],[641232.3860217276,4826471.370317801],[641237.0709632025,4826472.146724913],[641243.7613236423,4826471.287573063],[641247.0547999088,4826471.779136024],[641251.8578272134,4826473.469153566],[641256.8184454654,4826473.42915414],[641259.8834773728,4826472.493686917],[641266.04347796,4826469.201160275],[641269.62900634,4826468.0988789555],[641276.437093276,4826467.0200153515],[641278.008986629,4826466.4086702475],[641280.8102489803,4826464.189875882],[641282.006853499,4826462.603958775],[641283.6833168694,4826458.561472705],[641284.3418361198,4826454.141993052],[641283.2103172169,4826414.662483684],[641280.6879740012,4826406.320451874],[641278.0334395631,4826401.186758709],[641275.2553478085,4826397.317135533],[641271.3637091097,4826394.157401243],[641263.3024248003,4826390.298760291],[641257.474366423,4826388.564933083],[641248.3505732061,4826386.828390488],[641239.2917905782,4826382.771000405],[641234.558090024,4826381.238010522],[641222.9798250868,4826380.594281106],[641211.5497523433,4826377.131461324],[641204.3037512101,4826375.601170738],[641201.1536326233,4826372.9015315045],[641192.5112494745,4826359.419613939],[641189.1086251714,4826357.970225599],[641185.4514034669,4826357.871040123],[641177.4622545419,4826354.802915266],[641174.8353842306,4826354.492083219],[641165.0461020006,4826354.819435942],[641163.4398243392,4826352.841189905],[641163.6833340507,4826348.946304772],[641164.8553427558,4826346.993182428],[641165.9211366156,4826346.248939236],[641170.6744821148,4826346.0822883705],[641192.6963848707,4826351.390157211],[641208.2958776419,4826357.485146968],[641216.0393995274,4826361.092585053],[641221.6065761241,4826364.476443241],[641233.3632640636,4826373.146169133],[641249.1505014217,4826379.911878666],[641258.3062574458,4826382.049096061],[641267.4906491699,4826382.442479524],[641270.8110622432,4826381.656837793],[641277.8373201719,4826377.893668813],[641286.0082142785,4826378.465736056],[641297.295889709,4826376.414556793],[641300.1386500921,4826376.829984566],[641307.0021054778,4826379.263436361],[641310.2174459983,4826378.864490939],[641313.3638384144,4826375.986308905],[641314.8663621773,4826375.21795423],[641316.4422643838,4826375.184481224],[641319.7611906934,4826377.154396639],[641322.2833345267,4826379.75197656],[641324.3281420104,4826380.850608666],[641326.5613403601,4826380.67542782],[641330.1435312427,4826379.350883163],[641332.396508073,4826379.387232702],[641336.3763543325,4826381.426635321],[641338.4122591051,4826381.413969358],[641339.3773176963,4826381.234299479],[641340.3064458228,4826380.076091634],[641340.6893133582,4826376.473033997],[641337.9635888311,4826359.382219832],[641335.9489433179,4826354.550873259],[641331.8297969311,4826348.386301243],[641330.6327737387,4826345.005518558],[641330.5838250864,4826340.426694454],[641331.3294313154,4826334.175713545],[641330.1652490958,4826325.784495346],[641330.326066421,4826314.6989577385],[641329.1683393791,4826309.452330845],[641328.160407793,4826305.531086197],[641327.9777118231,4826302.316116237],[641329.7105303606,4826299.052607179],[641332.3816241407,4826295.731085541],[641333.1771138774,4826293.247834746],[641332.758742613,4826290.4834570605],[641331.2947886833,4826287.885943476],[641324.2800013728,4826279.593709156],[641313.5881860228,4826263.701789547],[641303.6810704765,4826248.1375280125],[641298.5553877137,4826238.36288397],[641297.7812507546,4826235.613239397],[641298.0317742304,4826234.074066427],[641299.0244623852,4826233.350525746],[641300.8782059362,4826233.167342961],[641303.1541831896,4826234.415279592],[641308.4187036885,4826238.748390581],[641312.6306112597,4826243.581559526],[641318.9255473989,4826253.069731397],[641335.9022815126,4826274.705181727],[641340.7283877658,4826279.140196611],[641343.7882672691,4826280.371328822],[641346.9945281644,4826279.638873161],[641349.0711769885,4826277.693727664],[641352.8893206618,4826272.074149337],[641355.3036941846,4826269.436118544],[641361.0909763981,4826265.824705102],[641365.0713451623,4826265.541902585],[641368.3316870573,4826267.6106058275],[641369.6161194476,4826269.526565054],[641371.1365879998,4826273.658616854],[641374.2322904887,4826285.457221541],[641378.5368081705,4826298.159081643],[641382.3316822891,4826306.294633834],[641384.3822377692,4826308.271185604],[641386.704514991,4826308.853459116],[641387.8372761951,4826308.766219009],[641391.1274349306,4826306.735548047],[641393.8747321715,4826307.08233567],[641395.0091295366,4826308.450692155],[641398.5399727611,4826319.1473666085],[641401.5573275981,4826326.610987007],[641403.6385276881,4826329.432638748],[641406.6074424766,4826332.295223551],[641411.3252262396,4826334.583557727],[641416.1789980903,4826334.252529364],[641420.3019884212,4826332.183871571],[641428.2413992635,4826325.72898059],[641437.5530089312,4826319.325248165],[641446.4181024508,4826311.112106993],[641469.7346068581,4826284.136936194],[641476.1391570625,4826277.305288382],[641488.6963238369,4826265.247814613],[641500.2387243692,4826253.046738218],[641523.6857703406,4826231.774517062],[641538.3949797719,4826211.529153651],[641555.072092071,4826192.969789404],[641572.2503231869,4826172.487694549],[641591.6704398734,4826153.3418449415],[641603.8353346032,4826144.198527601],[641608.7344428324,4826139.813013726],[641613.6628837178,4826133.272556314]]}},{"type":"Feature","properties":{"source":"IHM"},"geometry":{"type":"LineString","coordinates":[[642456.2572422249,4825510.080918677],[642455.1917576104,4825510.036078654],[642451.0437540603,4825507.914676226],[642444.8418694678,4825503.5941052865],[642443.1770912455,4825503.236543958],[642437.3700941657,4825504.291078058],[642431.7173445838,4825503.026647353],[642426.3583018014,4825499.723991787],[642424.0992187223,4825496.153793233],[642423.899382116,4825494.14953399],[642424.7165186331,4825491.811298898],[642426.3324794195,4825489.901132141],[642434.9295081506,4825485.672440977],[642436.0449167815,4825484.507215025],[642436.0803891501,4825482.074612317],[642435.1540606043,4825480.421603353],[642432.3504441463,4825477.384294349],[642427.7985784814,4825474.876554924],[642423.7666760344,4825474.135425086],[642419.1258866084,4825475.436950083],[642410.4946687758,4825479.753825704],[642406.4472279595,4825481.267952203],[642404.4626132052,4825481.51473047],[642402.9721257191,4825480.938653648],[642402.2124356679,4825480.189193603],[642401.9577760187,4825478.483774744],[642403.399890952,4825475.247679765],[642407.5492855047,4825471.213470018],[642408.9137277465,4825469.353517951],[642409.2308406228,4825468.115791608],[642408.4576250276,4825464.577130087],[642405.9777012528,4825459.9911324065],[642403.4933118501,4825457.138389801],[642401.5067888278,4825455.9517827025],[642399.6432361983,4825455.823350413],[642397.3094830697,4825456.151612491],[642390.7062539803,4825459.700426767],[642388.8400018583,4825460.460836862],[642385.1371891756,4825460.582276233],[642380.9452220086,4825458.626654964],[642377.4576190774,4825454.697073621],[642375.2145584964,4825449.2272170335],[642374.8902939142,4825444.709187471],[642375.9546072155,4825436.431695014],[642375.1010379468,4825425.635715449],[642375.2630167541,4825421.428004327],[642376.5626812109,4825415.766638717],[642379.5506290533,4825411.641103858],[642382.2814052964,4825407.832339074],[642382.7755778211,4825405.865028499],[642381.4994913685,4825399.37123265],[642381.7770377939,4825397.332658897],[642382.6389807204,4825395.928711206],[642386.2378122462,4825393.093928184],[642397.1953379953,4825387.281919043],[642400.1688262976,4825384.600542688],[642401.4363123004,4825382.360750352],[642402.6337573541,4825378.852794301],[642404.7805513169,4825366.776018624],[642408.550172825,4825358.178153426],[642415.8102495252,4825344.620980834],[642417.7339661676,4825339.250644654],[642418.7299926057,4825334.193958771],[642419.8206052533,4825313.639144451],[642419.3538439376,4825304.795828895],[642418.4936956118,4825298.499743474],[642417.1605045936,4825292.7936253855],[642413.8742817314,4825286.223835151],[642400.5552614809,4825270.052196692],[642392.5769956775,4825261.8606307125],[642382.052645846,4825251.815044849],[642374.3648119963,4825246.307464245],[642369.6575058297,4825244.263146222],[642362.7603504302,4825244.139063328],[642360.9907544756,4825243.768190995],[642359.6393158009,4825242.728405484],[642358.5752393317,4825241.472491524],[642355.6262359134,4825232.3320879955],[642352.8255364138,4825229.150435928],[642348.6195492141,4825226.705652226]]}},{"type":"Feature","properties":{"source":"IHM"},"geometry":{"type":"LineString","coordinates":[[641871.6928500977,4824881.594474343],[641865.5048460236,4824889.952611152],[641859.7708516797,4824896.709230354],[641846.2460655046,4824910.056793299],[641833.7078065895,4824925.280790931],[641829.277630079,4824929.987198469],[641806.2337117367,4824947.9892756175],[641788.1196712437,4824964.406670463],[641782.7116167838,4824967.214664194],[641772.2513088273,4824968.22705045],[641770.0647742592,4824968.847535817],[641743.364989192,4824988.19482642],[641730.8717416644,4824996.331036943],[641727.4912879097,4824999.159666191],[641724.5703345466,4825002.420223216],[641716.2688361773,4825013.3116464],[641710.6661864367,4825019.9822669495],[641699.6457048911,4825030.694080089],[641697.0687627412,4825034.117466816],[641692.350024773,4825041.784543095],[641689.4251486086,4825047.911707818],[641689.7299783682,4825049.929260948],[641691.5165375855,4825052.944764232]]}},{"type":"Feature","properties":{"source":"IHM"},"geometry":{"type":"LineString","coordinates":[[641612.4049535684,4826087.234675346],[641611.7038213636,4826081.030959329],[641610.8090073194,4826078.645395999],[641600.0799054429,4826067.596689952],[641599.1870203661,4826067.033399827],[641596.7980719726,4826066.927428986],[641593.4521482904,4826068.912384888],[641592.3335109847,4826068.711000038],[641589.2742566442,4826064.001976916],[641584.5323198794,4826058.25744377],[641582.2926768309,4826058.73240916],[641581.0141417673,4826059.98321436],[641580.1567927442,4826060.798460677],[641571.867650573,4826056.623541066],[641570.4725947954,4826056.505216982],[641562.4258256044,4826056.157662299],[641554.6830292807,4826053.272074787],[641548.1290214839,4826053.38936541],[641542.5601054829,4826049.316314082],[641538.3833825549,4826047.794867815],[641535.4448756055,4826047.699548854],[641530.568398345,4826049.096692447],[641526.846751121,4826049.362637608],[641518.7230009192,4826047.30239397],[641512.50639151,4826046.360164876],[641506.1004609112,4826043.669497541],[641500.8177423886,4826040.580299766],[641485.260512864,4826029.00774743]]}},{"type":"Feature","properties":{"source":"IHM"},"geometry":{"type":"LineString","coordinates":[[641239.533659177,4825520.807658701],[641238.2815080992,4825520.803527769],[641233.1878737982,4825518.685214222],[641217.717767573,4825510.5707586445],[641232.7554994576,4825536.542804184],[641245.456577668,4825564.132377398],[641253.305185014,4825576.608705657],[641262.7744132002,4825588.085824088],[641272.3437311405,4825597.109504968],[641288.025229359,4825608.217444125],[641293.2875484916,4825610.7615779815],[641297.0169357769,4825611.673436226],[641309.3908360192,4825612.578433044],[641348.5301333108,4825612.324940326]]}},{"type":"Feature","properties":{"source":"IHM"},"geometry":{"type":"LineString","coordinates":[[641027.2087887753,4826486.020835582],[641023.9267780229,4826476.529607932],[641023.6654423318,4826473.590776677],[641027.7542058299,4826465.454491058],[641028.2153685002,4826460.808622501],[641025.7748818622,4826457.012870988],[641017.4705788844,4826452.416084707],[641015.6283190723,4826449.366246156],[641015.8570769194,4826446.937717646],[641023.5108788983,4826440.209699885],[641028.0404626755,4826438.77157905],[641032.5752047398,4826439.778017801],[641040.9672398856,4826445.965558229],[641046.2463110859,4826453.832110208],[641044.9209436922,4826455.782027105],[641040.2037154571,4826455.771744648],[641038.894536867,4826458.488670877],[641050.7088862576,4826472.870408363],[641059.3037748702,4826486.695586438]]}},{"type":"Feature","properties":{"source":"IHM"},"geometry":{"type":"LineString","coordinates":[[642348.6195492141,4825226.705652226],[642341.6839500966,4825224.202979427],[642328.8899846611,4825223.642758013],[642311.4891210601,4825220.8737465255],[642292.1606112905,4825216.041674182],[642273.3341646253,4825212.298087571],[642253.3461079008,4825209.229939038],[642244.146325018,4825207.579386237],[642222.7480687618,4825202.048091412],[642207.9355317686,4825198.7564197555],[642172.9407071618,4825194.314996447],[642156.9815227361,4825192.899162261],[642126.8137031244,4825189.049116077],[642089.871827276,4825185.744684138],[642053.9221873723,4825185.183696822],[642041.6487602415,4825184.457265304],[642022.9547455221,4825183.228319132],[642010.4222691098,4825182.907576751],[641995.1006715125,4825183.05007375],[641979.510018215,4825184.453587704],[641950.080512741,4825188.475557881],[641929.6114197266,4825192.864914321],[641888.4988983067,4825200.340118614],[641866.121283214,4825205.200430977],[641857.0889076634,4825207.476192336],[641833.2524125394,4825214.850233274],[641816.9333392986,4825217.8498446755],[641810.3375157692,4825218.377145084],[641800.6839344628,4825218.317622327],[641794.8477426216,4825218.072095012],[641785.0007519897,4825216.841836851],[641748.7662952557,4825211.79866248],[641725.1933858325,4825205.167480987],[641713.8120888526,4825200.838250735],[641705.9307426084,4825196.816270828],[641692.778509307,4825188.349671343],[641689.8398351122,4825185.565399187],[641688.1559550803,4825182.6631733095],[641687.5572525996,4825180.406081428],[641688.3777821191,4825174.83449417],[641691.154665892,4825168.826428493],[641698.333875585,4825157.889065134],[641701.4442285092,4825151.77693197],[641708.6079412102,4825133.5392238805],[641710.155845117,4825126.427434939],[641710.355173125,4825123.109408925],[641710.0291004318,4825119.802511981],[641708.2155650421,4825112.708639852],[641704.920572033,4825103.839039475],[641699.0432909484,4825090.992687007],[641691.5465267556,4825066.067665378],[641691.0180469744,4825063.545388905],[641691.5165375855,4825052.944764232]]}},{"type":"Feature","properties":{"source":"IHM"},"geometry":{"type":"LineString","coordinates":[[641620.5684674946,4825812.205723428],[641606.3856486328,4825820.473111341],[641594.2002068777,4825828.649340821],[641587.2163505057,4825833.813109103],[641582.1611517885,4825838.6953542335],[641556.1102384861,4825866.145852782],[641550.6666282384,4825872.975489225],[641534.2251133916,4825895.650985333],[641526.9444637484,4825907.99746817],[641516.7087816985,4825927.1594387265],[641503.2410549329,4825957.464416652],[641496.9978891575,4825975.39949472],[641492.1619601396,4825987.130895295],[641489.2776039666,4825996.7256649695],[641485.1463064165,4826018.716411341],[641484.6372852229,4826024.850145674],[641485.260512864,4826029.00774743]]}},{"type":"Feature","properties":{"source":"IHM"},"geometry":{"type":"LineString","coordinates":[[648153.5998614058,4824086.547280308],[648156.9767645596,4824091.722028937],[648162.1535658448,4824092.236285266],[648185.1425829742,4824083.543219894],[648187.8070125756,4824079.257384567],[648187.840236745,4824073.724532104],[648179.1511352576,4824061.354424626],[648172.7398038032,4824057.4572030455],[648165.9142291918,4824056.584317566],[648152.3957997294,4824061.641804581],[648147.3196873746,4824066.085558785],[648145.7853406286,4824071.529729123],[648151.3572270778,4824080.508633152],[648152.8264513824,4824084.6079045]]}},{"type":"Feature","properties":{"source":"IHM"},"geometry":{"type":"LineString","coordinates":[[646282.6989504796,4824678.767236628],[646292.3875700216,4824675.789380712],[646295.5613438888,4824676.614129526],[646298.6495367518,4824689.892990321],[646308.2555447553,4824703.680590726],[646320.6610003238,4824713.962440552],[646335.2443052987,4824733.314321471],[646344.6930774243,4824740.965010747],[646345.6603412679,4824748.4863548],[646339.8700564814,4824756.860409046],[646339.9355308178,4824760.5286282785],[646345.1486937196,4824770.842631017],[646346.8031478834,4824782.42354076],[646349.7106299743,4824786.564848179],[646358.7890891616,4824794.518610148],[646358.153102677,4824797.00482893],[646355.7702659328,4824798.819604841],[646355.524126997,4824801.214320485],[646359.0758130674,4824816.203384233],[646363.8488158543,4824818.907546917],[646367.1873354604,4824818.102535962],[646364.2662446153,4824807.916270578],[646362.1758520119,4824802.248274608],[646375.495028689,4824802.483149329],[646388.1249142037,4824806.536483836],[646395.141327677,4824815.300913808],[646400.5885202474,4824815.619723891],[646403.1347840319,4824804.830439104],[646409.264171312,4824799.0639234455],[646422.4637383793,4824796.262843362],[646433.8360337862,4824796.477588199],[646452.1327012754,4824801.154686096],[646456.4593781661,4824804.315860786],[646463.3126214074,4824819.4436956905],[646467.0131226795,4824822.046751511],[646470.769845712,4824822.073167963],[646484.2998348383,4824814.868153727],[646492.2136647471,4824811.385176218],[646519.3943400461,4824810.700599326],[646523.7846507287,4824811.685353091],[646528.4185854986,4824821.49796355],[646532.8459510333,4824823.005773315],[646540.8831100097,4824820.536691753],[646541.6461684415,4824820.375566254],[646563.5270640168,4824851.476611403],[646557.3399561055,4824863.953081842],[646557.661886999,4824876.593896681],[646553.8720069114,4824894.000663987],[646555.2032996553,4824898.529892522],[646557.6889065842,4824900.150886528],[646566.662304521,4824899.946806578],[646570.9960935131,4824904.997173037],[646576.1393698225,4824909.609647546],[646586.9275377981,4824911.034171115],[646597.7636954366,4824921.360082218],[646601.1612723714,4824922.289874302],[646609.7199043487,4824919.987829615],[646616.0339110057,4824911.692105297],[646623.5110502748,4824901.566170956],[646625.0530451112,4824893.48844903],[646624.8488444709,4824877.683414891],[646626.1458992355,4824874.900535026],[646628.8880327062,4824875.504900013],[646633.5515694958,4824879.884708895],[646636.1516876301,4824878.852581849],[646638.263274905,4824875.031904391],[646641.5400035065,4824874.836812854],[646647.6244752867,4824881.858881027],[646651.4299742682,4824881.130882548],[646654.9497591675,4824877.207638437],[646659.3751651179,4824860.681500199],[646660.6262311095,4824847.430572896],[646657.8550847073,4824842.236505317],[646652.6292758641,4824837.333266027],[646641.8882365756,4824825.609297475],[646634.5002764467,4824812.41409551],[646633.738519595,4824806.597244705],[646635.3697964769,4824798.132572301],[646643.1614699174,4824786.19123745],[646647.1819636538,4824779.323263751],[646643.2919639023,4824773.560297084]]}},{"type":"Feature","properties":{"source":"IHM"},"geometry":{"type":"LineString","coordinates":[[642637.9699000079,4825395.7505810475],[642634.1175322284,4825396.824271777],[642629.7879682116,4825394.121117543],[642622.1514308158,4825396.481073085],[642611.8493779164,4825392.728777168],[642591.5993849328,4825385.28731424],[642589.5309365336,4825387.576723049],[642590.4798966113,4825391.585814138],[642608.436355297,4825410.767546262],[642608.4605215851,4825413.812535184],[642605.6999166629,4825414.076099421],[642592.5917600286,4825414.630915879],[642589.7765943095,4825417.082238235],[642590.049642194,4825419.82140047],[642603.0273058582,4825427.308332782],[642607.7248339719,4825433.985996602],[642606.2206330358,4825435.57627178],[642601.3497308206,4825435.917218571],[642593.6824989738,4825434.020953272],[642578.6387837597,4825423.767895246],[642573.5843064601,4825420.9604866365],[642569.8603583595,4825421.314711966],[642569.7870563368,4825423.624288801],[642573.1732860547,4825428.518496725],[642574.5643394451,4825436.437016659],[642581.2852278303,4825447.891028138],[642581.6450895658,4825451.4875986725],[642578.9543495775,4825451.885992192],[642571.7235198604,4825448.843455851],[642571.3568277429,4825452.413479222],[642574.0379073498,4825459.314950558],[642577.3836120865,4825468.397231905],[642576.842300378,4825473.341336964],[642573.8595729386,4825476.455778345],[642568.2240532454,4825477.802736062],[642543.3319842123,4825466.407200061],[642529.0814244612,4825443.915424933],[642527.6502533113,4825441.307227129],[642512.6997681909,4825421.333985229],[642510.5499598336,4825411.477128946],[642514.9734775655,4825400.626515107],[642513.9256895462,4825395.18199095],[642509.3084249732,4825392.328361311],[642503.407835997,4825392.458624553],[642491.8607644431,4825397.1134917475],[642483.663652374,4825400.383931],[642479.5393380442,4825405.896421223],[642482.3710223448,4825410.656583349],[642493.7023487578,4825418.06390042],[642503.9878779732,4825430.204631859],[642506.5935683602,4825440.660061177],[642508.1492805894,4825457.948816949],[642507.9556152025,4825463.644759099],[642506.7036146787,4825464.773739627],[642503.3996852171,4825463.992464219],[642500.1188151219,4825460.222762724],[642495.0240842674,4825455.125647925],[642490.1966443605,4825456.84538806],[642487.4350486043,4825462.864588795],[642490.0068622432,4825470.7303789705],[642499.822886793,4825493.1834607925],[642499.588499973,4825498.134086905],[642495.3510100944,4825499.466345329],[642493.3186868241,4825506.145479086],[642490.5640215981,4825506.131434461],[642481.0370850619,4825500.884666561],[642471.633206492,4825508.107309396],[642462.9659158833,4825509.556658141],[642456.2572422249,4825510.080918677]]}},{"type":"Feature","properties":{"source":"IHM"},"geometry":{"type":"LineString","coordinates":[[649000.0,4823986.706658577],[648997.8567030285,4823989.024157781],[648989.1068478687,4823995.474775204],[648979.1923255301,4824005.610860973],[648967.0242052668,4824014.241329514],[648953.1800335624,4824020.4678484015],[648940.5322764394,4824021.942914627],[648936.4995038735,4824019.7644615965],[648934.2343556087,4824011.491576448],[648926.961867176,4824012.185860169],[648921.8267942874,4824005.416068782],[648915.0571033839,4824000.565681568],[648911.9016878516,4823990.5285279695],[648909.3559184865,4823979.238166722],[648910.700887579,4823974.345525291],[648923.3830411639,4823967.315325894],[648927.2954146648,4823964.357505867],[648881.4351198496,4823965.72945615],[648879.2926202713,4823965.770842225],[648861.4600924191,4823970.36459329],[648851.7501282555,4823978.571964494],[648843.2009629009,4823984.360515011],[648827.8801506604,4823988.665571371],[648825.7478920826,4823987.151568017],[648821.952695412,4823977.533637121],[648815.4624415401,4823964.811378978],[648806.8327374443,4823958.91983167],[648795.3205442808,4823957.286853349],[648786.8775734715,4823961.566641646],[648770.3866519318,4823981.113322116],[648761.7087317782,4823987.610266239],[648753.2664831455,4823990.401147791],[648738.2676979254,4823996.224725186],[648724.137036524,4823998.6118388865],[648707.3089335263,4823999.461387389],[648704.2410350451,4824001.149081238],[648704.1341143193,4824005.246914326],[648708.7275800013,4824022.249481027],[648702.9965843135,4824028.511752453],[648694.5271394241,4824039.102484682],[648690.6626318423,4824039.905832541],[648685.6249264245,4824038.583098779],[648678.4472831363,4824036.457388805],[648669.8533159731,4824030.411246095],[648662.2637127979,4824028.27643211],[648658.882217056,4824025.8792252885],[648657.4446815741,4824021.091609177],[648659.12765667,4824004.939193715],[648633.775621934,4824008.989254861],[648608.9066435606,4824006.916471737],[648604.4931810092,4824006.963238657],[648602.7723777931,4824007.669632832],[648591.1393255877,4824016.612616065],[648580.371938972,4824016.018758365],[648574.1798007253,4824015.370596878],[648560.131341615,4824019.526621408],[648559.378209939,4824019.2321661785],[648552.1449530747,4824017.060916822],[648545.0217831249,4824024.159222414],[648541.9911012751,4824026.3589469725],[648537.7778687245,4824026.487968433],[648533.7286712207,4824023.220458476],[648528.8310008327,4824015.200621424],[648525.753032243,4824003.098623048],[648518.5472987862,4823990.183062425],[648514.0286865393,4823961.37063138],[648510.7413990104,4823945.941632995],[648507.4420003024,4823944.2130213855],[648502.4956486432,4823947.159320247],[648498.2452573655,4823955.54349496],[648496.1862847451,4823977.02120317],[648499.1075254597,4823987.808544514],[648507.0983396475,4823999.941408954],[648506.73138939,4824022.012123679],[648505.3576673106,4824026.026376563],[648501.6206263532,4824030.9328473015],[648496.4033923794,4824033.706482065],[648484.5555724165,4824033.7333561005],[648472.19129267,4824033.726606998],[648468.0478155897,4824030.70150904],[648459.3969170589,4824017.35403961],[648453.2881604928,4824014.396613098],[648440.1180884007,4824017.572259418],[648438.008042754,4824019.436811047],[648437.8045415176,4824027.910490379],[648434.1192592273,4824031.9403213635],[648421.9687730193,4824033.9607088715],[648415.009050339,4824036.962565162],[648410.1933269121,4824042.778616558],[648413.4591760649,4824059.184909837],[648417.3933636004,4824088.128793344],[648414.4276923581,4824092.874574045],[648401.1046972547,4824097.858105283],[648394.9267694717,4824098.032681133],[648388.8016169709,4824095.819427787],[648386.3493716529,4824098.5431383895],[648384.3065420389,4824106.509477654],[648374.3387036079,4824109.967137495],[648360.9980964069,4824111.727982911],[648356.4826623268,4824107.250222007],[648340.1587330041,4824088.955365134],[648327.7009858649,4824076.724020218],[648324.5320358763,4824075.6761884205],[648322.3441928352,4824077.772399714],[648323.2913811906,4824097.449795557],[648321.8423688277,4824101.951329032],[648318.962644501,4824102.809977236],[648316.2279358528,4824101.4939509835],[648310.2919138928,4824085.962106617],[648301.0752131242,4824066.024269603],[648297.904440715,4824057.009374604],[648295.4656536918,4824040.09917169],[648287.6871590214,4824024.193310328],[648283.1439325185,4824020.237236868],[648281.4733008775,4824021.967089035],[648281.4515642816,4824026.24458429],[648285.5535422782,4824044.324898186],[648285.2008760195,4824048.583973254],[648279.1767456013,4824056.795758689],[648277.5817896684,4824063.149718582],[648275.4565757187,4824071.558730498],[648268.1497366405,4824077.842109046],[648266.3840427485,4824082.047757172],[648266.0281208407,4824099.262914923],[648267.267962971,4824124.358120245],[648266.5902054715,4824135.288103659],[648261.6791271651,4824143.235579405],[648245.3709843939,4824147.642355009],[648238.7268705515,4824146.973406749],[648226.8526591137,4824139.055332965],[648221.9643942273,4824134.258308865],[648217.8462549457,4824126.789277777],[648205.2680976756,4824082.6651590625],[648202.6353063622,4824077.829046916],[648193.6829455342,4824070.431112991],[648188.8300529104,4824066.957180235],[648185.4737149053,4824061.949543426],[648181.1999222112,4824043.221036255],[648177.8839889474,4824029.058324064],[648173.829671134,4824027.846574841],[648170.3631871683,4824030.02573189],[648166.1140963925,4824043.4992447905],[648163.6651241302,4824045.71197098],[648159.6296134337,4824046.211833716],[648152.9533595749,4824044.431104675],[648146.8920864934,4824037.852623077],[648139.9920964966,4824036.322537839],[648133.009151156,4824033.790584424],[648128.1235724248,4824023.004536226],[648125.2154961878,4824021.85144041],[648112.4363233864,4824022.7029063525],[648092.8319880099,4824011.303308111],[648086.4024647018,4824006.394616067],[648080.9025389409,4824003.306513405],[648078.4557983996,4824004.685948458],[648083.0628537431,4824019.677112713],[648084.1911581189,4824024.579994408],[648082.7408383093,4824028.414846773],[648079.6136652399,4824028.768117445],[648073.144955135,4824026.00311373],[648067.9125160229,4824026.909987488],[648062.3432434972,4824030.265102511],[648057.8620281343,4824029.355135041],[648048.5386365725,4824020.815839688],[648042.3360394542,4824011.478663911],[648038.8126048825,4824009.278658916],[648034.9672628338,4824010.682830022],[648024.8630731803,4824024.360675438],[648017.4568583844,4824023.797378455],[648012.8909760689,4824017.5631168205]]}},{"type":"Feature","properties":{"source":"IHM"},"geometry":{"type":"LineString","coordinates":[[642936.3406936695,4825271.852725764],[642921.7867373766,4825286.4096237905],[642911.9313345489,4825286.721984296],[642905.231138729,4825279.245893072],[642900.2868733429,4825278.851724666],[642897.688397891,4825281.363095037],[642896.0679295529,4825290.306476772],[642888.2584112302,4825299.2625339385],[642894.0230567718,4825309.69650243],[642893.5522952218,4825314.730983665],[642889.5795371714,4825314.624176653],[642876.12201374,4825300.837509357],[642869.188867316,4825298.9898950765],[642868.2026616874,4825303.568954936],[642871.9456890486,4825315.2265496915],[642870.352751269,4825318.703791424],[642849.9991042684,4825321.8261306835],[642839.113110651,4825321.594431243],[642840.0677672934,4825324.570339319],[642848.0846348293,4825330.541038712],[642848.8711539968,4825333.824484282],[642846.6106306955,4825337.92086224],[642843.4607725315,4825339.009388491],[642839.8530105033,4825338.077035917],[642830.4351969741,4825333.77655047],[642821.0215301346,4825314.85377776],[642818.5240571392,4825313.00060992],[642815.0845698076,4825313.271866036],[642811.9640172488,4825315.261041124],[642810.5862777194,4825318.498427691],[642816.567727117,4825329.759170441],[642815.259043336,4825332.409130003],[642803.9190386116,4825326.556650924],[642799.8946608144,4825321.282073325],[642793.3587850804,4825316.331844093],[642779.1982401618,4825310.897181486],[642774.7332472666,4825314.180008324],[642774.5359003616,4825320.798105802],[642770.2809655399,4825329.018792057],[642793.5187336461,4825341.091081376],[642796.3756296905,4825343.518560724],[642794.903553277,4825346.2539372],[642787.6963088568,4825346.278372686],[642763.8578164512,4825335.860009394],[642756.9131819361,4825326.956632969],[642753.4306879301,4825316.715778944],[642749.0058220787,4825307.477116592],[642750.3488913411,4825296.3722287025],[642747.5473071076,4825294.0015033735],[642730.0048418324,4825290.3061480755],[642724.9526069672,4825292.709842634],[642711.3176671151,4825309.286739986],[642700.7120826187,4825312.205706363],[642675.9194148413,4825320.056458702],[642661.2942151822,4825322.034469411],[642654.6867240361,4825331.4718946805],[642647.6662016583,4825339.056083341],[642630.8341808249,4825340.331690379],[642628.3290989251,4825342.256249577],[642624.3008976391,4825350.081834493],[642614.2417923841,4825358.845938856],[642614.5922041219,4825362.886759308],[642618.0413884608,4825367.86010579],[642619.3094677401,4825374.720456365],[642622.1118362142,4825379.335612043],[642637.013651216,4825392.085775022]]}},{"type":"Feature","properties":{"source":"IHM"},"geometry":{"type":"LineString","coordinates":[[644807.0793785889,4824867.600453694],[644818.5640522679,4824886.937574872],[644824.0069418715,4824889.699517004],[644831.0546231968,4824889.98491869],[644836.1993788562,4824887.8403197285],[644838.7617769062,4824883.673287054],[644835.7492361879,4824871.630215357],[644836.6562918345,4824865.916315882],[644837.2449227711,4824859.6066424865],[644840.0997308249,4824854.245890623],[644844.9491211331,4824851.561577442],[644849.817755966,4824851.355520616],[644867.8865694914,4824856.512246734],[644879.7853003892,4824865.269268038],[644887.7767801587,4824868.997405374],[644894.5790348601,4824866.0552739035],[644895.2744945635,4824861.536841926],[644892.8696213313,4824850.918004013],[644894.5813902129,4824844.610354782],[644897.6721561556,4824840.299188635],[644902.7563623999,4824838.342224577],[644909.3578318534,4824839.462538684],[644925.2085176526,4824851.549483859],[644938.3246023163,4824856.688360813],[644943.5230768293,4824854.678338011],[644950.8262255446,4824844.258002758],[644953.2679527155,4824837.077218225],[644950.641896549,4824825.853565009],[644951.7717555473,4824820.6778347185],[644958.2232180585,4824820.139360279],[644985.1344995436,4824825.165135642],[645006.5151658766,4824824.382508861],[645014.6800936376,4824823.447760208],[645022.2018916484,4824819.743501128],[645048.8462644327,4824794.118542184],[645061.5120990535,4824792.425532408],[645082.0541475435,4824791.569460701],[645089.9393885777,4824787.128666151],[645098.7550053808,4824778.896782351],[645103.9131427623,4824766.7968580965],[645105.3131642414,4824752.493419823],[645103.9410942391,4824745.319131538],[645097.2437772301,4824727.6961338855],[645085.9209162588,4824705.0063739605],[645090.6910811554,4824693.28695287],[645090.4684124207,4824685.270824277],[645077.6132005933,4824671.414855901],[645071.7023409626,4824661.886872224],[645070.9056111365,4824657.625101719],[645076.2659395484,4824658.229848769],[645090.6409135747,4824667.1963136615],[645110.5649938614,4824684.105188648],[645121.5401074591,4824699.331725706],[645131.4419012981,4824709.634950641],[645148.9080257447,4824737.068861337],[645161.2493972832,4824745.902625993],[645171.2668926772,4824748.608219307],[645179.1918957119,4824753.168620945],[645182.1692632004,4824757.099784561],[645191.8158716455,4824788.531479065],[645198.6668184742,4824790.446383191],[645204.889215637,4824803.114649572],[645211.7740534735,4824812.052709872],[645225.0471308768,4824811.050940429],[645255.7495757258,4824803.303929813],[645264.4788595694,4824799.070494273],[645279.1029446609,4824787.5422269665],[645304.7852065727,4824761.997413554],[645309.6840326816,4824761.147877891],[645313.1796208147,4824762.412470919],[645322.1735191972,4824769.474031299],[645325.9756083199,4824772.256419224],[645330.4164357262,4824776.886021985],[645332.8294100299,4824775.9049035385],[645357.7640701095,4824780.044911671],[645373.3229005686,4824779.837394225],[645385.1402009864,4824779.648877001],[645392.1971423,4824779.512829499],[645400.8521780596,4824780.578105027],[645405.8805048645,4824777.853614626],[645421.4764408431,4824774.069134427],[645436.4200107566,4824767.203802539],[645445.9765337163,4824766.566397276],[645448.6273161279,4824761.32368576],[645468.9952496744,4824753.598156923],[645474.8766242233,4824751.781116717],[645515.3791917901,4824741.136463449],[645518.9641220749,4824743.869810021],[645523.9060680161,4824744.38806917],[645526.7221845316,4824743.449092721],[645526.6864046842,4824739.881548411],[645526.1517635137,4824738.825483272],[645560.0715547577,4824731.79404744],[645590.6210726759,4824728.156447618],[645605.6414559287,4824727.448880606],[645608.1609667839,4824728.636899114],[645610.3022944956,4824727.51664802],[645661.0114605213,4824726.516765662],[645659.9812425595,4824735.639124293],[645657.7351984975,4824741.9572407985],[645663.6578013401,4824747.552587495],[645664.9915474652,4824754.603959779],[645667.0538053104,4824754.148697181],[645673.1634747746,4824760.05923303],[645681.407696787,4824761.438187116],[645687.3690685576,4824764.500989369],[645695.7468270604,4824758.238187721],[645709.7333833219,4824758.997350016],[645714.7923585026,4824757.473785525],[645717.114274475,4824751.757350681],[645716.586416915,4824745.923495683],[645711.5845684571,4824737.370220806],[645725.7757369162,4824735.03376337],[645754.7813005189,4824733.663457463],[645780.8789843358,4824733.363491267],[645803.574943888,4824731.200793531],[645804.6641449102,4824733.880088465],[645809.7447796814,4824738.057237929],[645813.9829860857,4824738.238192615],[645832.4457910394,4824736.405874467],[645834.2824233418,4824735.179070486],[645833.9400148751,4824731.971533414],[645851.6878244719,4824733.668287079],[645851.496151947,4824739.886536127],[645863.0902949946,4824762.616936689],[645870.9283274945,4824765.954026227],[645877.2535351885,4824759.335718398],[645891.4626449283,4824758.777833114],[645900.9950706443,4824760.740629551],[645906.9184469649,4824757.369271185],[645914.0744098404,4824749.335675729],[645912.5530352138,4824736.802215028],[645911.3639746266,4824733.142921706],[645907.3700756576,4824729.900453812],[645899.4701495395,4824727.550897444]]}},{"type":"Feature","properties":{"source":"IHM"},"geometry":{"type":"LineString","coordinates":[[646806.1524434005,4824695.872690382],[646805.9357762632,4824698.390267955],[646810.8996242378,4824713.054926745],[646822.6865640411,4824729.046647956],[646826.171351522,4824731.534071702],[646833.9576904731,4824732.415526026],[646837.4422472941,4824730.480562865],[646841.9252193251,4824723.167239672],[646846.8332577222,4824720.0633755205]]}},{"type":"Feature","properties":{"source":"IHM"},"geometry":{"type":"LineString","coordinates":[[640694.121612431,4826582.338284194],[640710.9379713212,4826567.37987502],[640723.2976743375,4826575.039123897],[640732.6092582776,4826578.212231669],[640751.2011753536,4826578.346720837],[640756.6164214942,4826577.038116234]]}},{"type":"Feature","properties":{"source":"IHM"},"geometry":{"type":"LineString","coordinates":[[640438.0487560304,4823506.187417647],[640440.3553341248,4823509.50229986],[640453.625119303,4823533.057447654],[640455.8738952088,4823552.271012215],[640458.2230396526,4823559.731206913],[640471.3292901078,4823588.0051670065],[640502.6884703429,4823627.205433748],[640514.7305596151,4823648.390609238],[640541.1447989062,4823676.721007495],[640553.9343741443,4823684.577549491],[640574.4499678784,4823691.251423345],[640598.5002935266,4823691.977188375],[640605.5184369045,4823695.657456397],[640628.5931348589,4823719.429432938],[640640.6462942044,4823735.815121157],[640654.3969876849,4823749.8586285785],[640667.3841522159,4823764.086170208],[640676.7943108389,4823771.616609884],[640687.4668950448,4823777.5179681135],[640714.7168122665,4823790.977805836],[640783.1499550664,4823818.956619366],[640851.367661752,4823855.253824627],[640858.7582251637,4823857.7310779365],[640866.4039981603,4823858.058146945],[640890.9599909665,4823854.684499613],[640910.5098540763,4823858.050297431],[640932.2695070716,4823858.929211148],[640944.9646614003,4823864.317894908],[640949.5411118054,4823864.191742093],[640958.3994135197,4823859.111055202],[640965.7557811893,4823860.521047086],[640997.008995756,4823879.943879365],[641011.2505408978,4823886.342940993],[641027.334478485,4823892.358510532],[641044.7172997121,4823895.012525477]]}},{"type":"Feature","properties":{"source":"IHM"},"geometry":{"type":"LineString","coordinates":[[647217.0427504102,4824434.193990016],[647231.4364476344,4824441.476592906],[647238.3087558309,4824447.57199736],[647240.4686936,4824452.252888305],[647233.0154448145,4824458.645236526],[647233.4981241447,4824470.534072323],[647236.187150253,4824488.671545566],[647238.9435003074,4824493.054394297],[647245.2317819474,4824499.248115194],[647244.3516458143,4824506.217977906],[647241.586116395,4824509.990805739],[647238.3400726713,4824515.408716957],[647246.4162238021,4824531.086475476],[647250.101185155,4824538.44537252],[647260.347596741,4824550.592835039],[647267.3343650403,4824572.091405643],[647273.9707235068,4824582.304067341],[647271.7830350355,4824585.889551734],[647267.1050174809,4824589.175949505],[647265.040798172,4824596.342066027],[647270.8717147928,4824611.959496963],[647272.2108667799,4824633.423072682],[647269.9387370748,4824636.806696574],[647264.2053257196,4824639.214351164],[647256.4276254901,4824647.144055771],[647242.917868588,4824651.158994206],[647237.640425922,4824658.199079598],[647234.8629283938,4824663.993948912],[647235.367296526,4824668.260737711],[647243.3808663045,4824679.41472832],[647245.3649219369,4824685.847394459],[647240.7016179238,4824695.834399299],[647241.9555404542,4824701.662136932],[647247.0433971689,4824705.47388938],[647260.3804669287,4824706.010914703],[647272.769134768,4824706.316039392],[647277.5811829094,4824707.966122077],[647278.0557167898,4824710.276626545],[647276.2217911431,4824712.103132029],[647267.2796958799,4824715.284861959],[647264.518101825,4824721.091180145],[647276.4343586571,4824738.875545908],[647277.2980614995,4824744.072483394],[647269.3798778822,4824748.465610961],[647267.0218672388,4824751.7140117595],[647267.6954240119,4824769.629513515],[647266.4932210024,4824771.758781079],[647261.7771320898,4824772.366456162],[647250.8038294322,4824768.692257118],[647249.0647976878,4824772.08758069],[647249.5885373282,4824776.943709753],[647258.5935918042,4824795.1975417845],[647254.7146169085,4824796.690287463],[647247.6826967818,4824796.047120068],[647221.0898543086,4824799.0195200015],[647215.6574110901,4824801.711599425],[647214.8345645135,4824806.071506799],[647219.7132037366,4824817.945644995],[647217.835873286,4824823.226907309],[647213.7438100865,4824825.2261337275],[647204.0442256636,4824826.480139369],[647196.7747723886,4824831.143139006],[647194.7082502474,4824838.420338321],[647198.2990904443,4824843.432613493],[647215.8158754973,4824861.53970466],[647215.7432347288,4824866.693874831],[647209.3436861219,4824874.4316171305],[647210.4168228003,4824881.133199249],[647214.3551517141,4824886.1419943515],[647222.7172292736,4824890.236666256],[647231.0360333368,4824890.041337474],[647239.9585523576,4824891.792673633],[647241.1606067882,4824893.352437377],[647240.279207129,4824899.644469836],[647242.8331073399,4824902.933957169],[647244.0336355666,4824906.40487674],[647239.7643006978,4824912.067012226],[647240.9571054874,4824916.626694942],[647237.8109883454,4824918.602209058],[647225.9284091456,4824916.608162479],[647221.741562613,4824917.4052543435],[647216.6515272651,4824921.804907987],[647214.5463442607,4824926.792272747],[647216.968765161,4824939.023672736],[647220.7234720818,4824941.350560354],[647233.0861239934,4824942.82177529],[647239.5832376225,4824946.842229432],[647241.7316741055,4824950.933967147],[647239.1633088083,4824954.566665191],[647233.2063643159,4824955.758270821],[647224.1557395548,4824956.904247231],[647218.6704077937,4824960.5396417575],[647214.9685234806,4824967.225389055],[647212.7871324352,4824978.266883243],[647215.4051004486,4824986.002390999],[647222.0976196318,4824991.427172586],[647240.6646218303,4824997.7346859295],[647244.9138912561,4825002.561428591],[647246.6255321521,4825007.410284988],[647245.8166279297,4825019.237466835],[647243.4316792646,4825026.29654806],[647240.8698449971,4825028.896012461],[647231.2813084793,4825029.152361299],[647219.3422211013,4825032.690635595],[647214.0421387443,4825030.829871432],[647211.4631471366,4825023.52856863],[647207.1010083879,4825018.321578917],[647194.7580893701,4825010.06167492],[647186.2799906512,4824997.630817189],[647180.088819505,4824993.661568268],[647171.5347576782,4824996.48523506],[647164.6392862438,4824990.733820445],[647162.6030735909,4824983.733341192],[647169.5812006886,4824973.185910481],[647166.5370811953,4824969.7745871],[647152.2106992679,4824972.3717167815],[647148.1333856165,4824969.648890709],[647147.1208078914,4824966.448787345],[647148.5196825259,4824959.768074822],[647137.8332187511,4824949.655634359],[647139.0604705774,4824946.749086748],[647151.1825406856,4824948.137095939],[647153.277975722,4824946.171843068],[647151.7999371208,4824943.194877397],[647140.7554409602,4824939.8304095995],[647130.9328174661,4824931.592548574],[647123.4216140921,4824924.805421912],[647121.3440372482,4824920.42637866],[647122.7222581442,4824917.267571584],[647127.8932637854,4824917.280910957],[647135.8952085825,4824922.3231741665],[647140.0755499923,4824922.559261377],[647144.6564833558,4824918.159503124],[647146.2351968163,4824913.227246799],[647146.0058464704,4824897.88827389],[647143.0250635529,4824892.322710722],[647139.7105625292,4824889.81662252],[647124.9839332841,4824890.760533664],[647120.524780273,4824888.129362044],[647118.2264505036,4824883.867709238],[647118.3266707859,4824880.769782876],[647124.8161618181,4824872.978372588],[647124.8286764042,4824869.0896036485],[647120.923194369,4824865.159405136],[647118.4985463382,4824864.81736179],[647111.3664063856,4824868.750096684],[647105.609952517,4824866.690527429],[647096.0086193375,4824856.090815037],[647085.9636266764,4824852.092767673],[647069.8162843375,4824843.749752487],[647060.5043110691,4824830.634114218],[647052.6672508635,4824820.639812016],[647044.8591510495,4824815.22411112],[647031.1886477396,4824802.99085643],[647028.2821625818,4824803.249427555],[647027.5808280295,4824807.600902294],[647029.161902627,4824813.62465592],[647036.3724565388,4824821.605126878],[647035.3092874839,4824825.137532334],[647032.7987975419,4824825.393663817],[647020.2483925715,4824823.629817095],[647004.2836936065,4824815.057624648],[646981.4787437742,4824794.13521805],[646972.6136377804,4824791.229891396],[646967.7161467666,4824794.589460691],[646961.5577693004,4824803.132739113],[646957.2749332497,4824807.205799535],[646944.695265967,4824811.575024316],[646935.8651784719,4824807.070451056],[646931.6154306846,4824796.343685194],[646919.6306154454,4824786.825447598],[646917.0227746929,4824776.023515068],[646909.4781486675,4824744.901657231]]}},{"type":"Feature","properties":{"source":"IHM"},"geometry":{"type":"LineString","coordinates":[[641101.326898457,4826561.468340316],[641103.0905724596,4826558.6498735575],[641104.5503835034,4826544.547213518],[641109.2280695429,4826540.290036109],[641120.6896770961,4826542.242241469],[641135.200662514,4826552.447526171],[641142.6661710422,4826555.437927704],[641148.4287382019,4826554.903610661],[641151.822216219,4826551.408333618],[641155.5418780182,4826538.553231065],[641162.62235677,4826524.524398782],[641160.0882648217,4826514.048829608],[641154.4878647155,4826504.186524773],[641133.2877655199,4826488.251578551]]}},{"type":"Feature","properties":{"source":"IHM"},"geometry":{"type":"LineString","coordinates":[[645193.288867451,4824846.320424016],[645187.5234914604,4824830.828643633],[645175.5234432707,4824821.913311685],[645176.5406491108,4824816.724063464],[645185.8984415452,4824810.326287023],[645192.50108274,4824809.524632361],[645204.4242479493,4824812.282612436],[645209.0160463328,4824813.670867931],[645217.7830941145,4824823.7496826565],[645216.5143981068,4824830.4779709],[645210.3072322194,4824837.277204797],[645210.6592020649,4824845.285031993]]}},{"type":"Feature","properties":{"source":"IHM"},"geometry":{"type":"LineString","coordinates":[[641274.0936892782,4825525.879563852],[641252.781102479,4825523.975375994],[641243.4359367744,4825520.800899809],[641239.533659177,4825520.807658701]]}},{"type":"Feature","properties":{"source":"IHM"},"geometry":{"type":"LineString","coordinates":[[641613.6628837178,4826133.272556314],[641617.1243498488,4826125.812245841],[641617.9701274566,4826120.952296079],[641613.1042088534,4826093.527241254],[641612.4049535684,4826087.234675346]]}}]}
