{"type":"FeatureCollection","name":"barreiros-remior-roads","crs":{"type":"name","properties":{"name":"EPSG:25829"}},"source":"\u00a9 OpenStreetMap contributors, ODbL 1.0","features":[{"type":"Feature","properties":{"class":"footway","widthMeters":2},"geometry":{"type":"MultiPolygon","coordinates":[[[[643495.6326988544,4824972.119726612],[643495.6211080881,4824972.025595227],[643495.6006518573,4824971.93298526],[643495.5715141676,4824971.842729743],[643495.5339571142,4824971.755640529],[643488.7352784014,4824957.844688625],[643487.1871755522,4824951.843516721],[643486.8741907123,4824947.125950044],[643487.7318087191,4824943.872239114],[643488.4957167555,4824941.942005471],[643490.1420608326,4824939.57425646],[643498.2460862407,4824934.975717326],[643503.1498480343,4824933.700832023],[643509.70310803,4824932.884545712],[643526.904086659,4824933.582993148],[643531.6891964636,4824934.329449305],[643531.7952559676,4824935.500197542],[643531.8084801339,4824935.595193374],[643531.83074422,4824935.688485374],[643531.8618434166,4824935.779215339],[643531.9014916396,4824935.866548638],[643531.9493241614,4824935.949681884],[643532.0049009667,4824936.027850326],[643532.0677107995,4824936.100334887],[643532.1371758668,4824936.166468775],[643532.2126571534,4824936.225643618],[643532.2934603002,4824936.2773150625],[643532.3788419924,4824936.321007778],[643532.4680167962,4824936.35631983],[643532.5601643848,4824936.382926382],[643532.6544370847,4824936.400582677],[643539.1315091302,4824937.294659452],[643539.1973694616,4824937.301537393],[643561.3428748903,4824938.875174374],[643561.3943018351,4824938.877500309],[643572.8952078157,4824939.101273319],[643572.898562553,4824939.101332962],[643593.8989164006,4824939.439452457],[643593.9162817932,4824939.439581245],[643603.1490617311,4824939.4278849475],[643607.4599338059,4824940.147509746],[643610.8395368407,4824940.960288825],[643613.0575007794,4824941.66364542],[643616.1336162093,4824944.686279983],[643617.087333519,4824946.905521346],[643617.1264584068,4824946.986350505],[643617.1726767105,4824947.063343869],[643617.2256157205,4824947.135880555],[643617.284848531,4824947.203375621],[643619.6164534127,4824949.631081139],[643619.6842061372,4824949.695332987],[643619.7576564227,4824949.752985283],[643619.8361638753,4824949.803535372],[643619.91904401,4824949.846542522],[643620.005574217,4824949.881631765],[643620.0950000625,4824949.908497167],[643620.1865418666,4824949.926904496],[643620.2794015011,4824949.936693262],[643622.9827674459,4824950.094539958],[643623.0871257322,4824950.095178524],[643623.1909822826,4824950.084937594],[643629.7185956856,4824949.095096238],[643635.535140965,4824948.477947851],[643635.5567776485,4824948.475413535],[643644.8417395593,4824947.285201698],[643644.8906319877,4824947.277700946],[643657.154284117,4824945.08456892],[643657.1598156717,4824945.083563646],[643668.6096345616,4824942.96947191],[643675.8489926253,4824942.183701476],[643679.1673524488,4824942.33932486],[643683.1788441748,4824943.273107653],[643683.2672340289,4824943.289533442],[643683.3567419113,4824943.297954357],[643683.4466443681,4824943.2983023375],[643690.3771718114,4824943.013324268],[643690.468195598,4824943.00540388],[643690.5581165361,4824942.989208599],[643697.141791919,4824941.490020336],[643716.8467658731,4824937.7377747195],[643716.8510160604,4824937.736955858],[643735.334154398,4824934.134402335],[643758.1173871353,4824930.079410375],[643758.1273928123,4824930.077577],[643780.6181906065,4824925.838166309],[643789.6884458442,4824924.233529187],[643789.717663912,4824924.227910655],[643811.5704774597,4824919.687567401],[643825.2523426656,4824917.184508284],[643841.7636129444,4824914.406267924],[643841.8022079852,4824914.398991694],[643853.5663812526,4824911.940955373],[643873.0008950314,4824908.061010033],[643901.2694791248,4824903.124784868],[643901.2895429261,4824903.121070024],[643920.5244171662,4824899.356338816],[643945.6381412001,4824894.617690234],[643945.7236077534,4824894.597642541],[643945.8069867677,4824894.57017653],[643945.8876356875,4824894.535503868],[643949.1697608596,4824892.950305044],[643949.2653074829,4824892.8975431565],[643949.3545347871,4824892.8346825],[643949.4363798095,4824892.762471931],[643951.65110445,4824890.582279118],[643953.7918176528,4824888.540774316],[643957.5643036929,4824886.043376392],[643962.6547695273,4824884.264561577],[643970.7343815905,4824882.08564495],[643984.6972353056,4824879.91688196],[643984.7649489787,4824879.903959866],[643999.5128973986,4824876.558897217],[644010.0,4824874.658264486],[644010.0,4824872.625683647],[643999.1347079659,4824874.594857636],[643999.0918411074,4824874.603599203],[643984.3561888966,4824877.945872881],[643970.3733477154,4824880.1177404],[643970.2664524497,4824880.140385046],[643962.098870683,4824882.343025416],[643962.0293694915,4824882.364509067],[643956.7865982935,4824884.19654554],[643956.7095945232,4824884.227088459],[643956.6353829714,4824884.263900089],[643956.5644729112,4824884.306727813],[643952.6138552045,4824886.922049475],[643952.5423505198,4824886.974074678],[643952.4757213969,4824887.032213318],[643950.2650875297,4824889.140398407],[643950.2536973109,4824889.15143455],[643948.1511080903,4824891.221240351],[643945.1371179668,4824892.6769354725],[643920.1502514093,4824897.391647619],[643920.1435874803,4824897.39292845],[643900.9153964389,4824901.156351594],[643872.6449549951,4824906.092901087],[643872.6211923586,4824906.097347126],[643853.1704466075,4824909.98053305],[643853.16169942,4824909.982319997],[643841.4123825596,4824912.437252182],[643824.9134576123,4824915.213415275],[643824.8994279287,4824915.215878832],[643811.1987970244,4824917.722371082],[643811.1753324819,4824917.726954394],[643789.3253812786,4824922.26670294],[643780.2642579977,4824923.869724509],[643780.2532315131,4824923.871739023],[643757.7619243369,4824928.11124573],[643734.9756455297,4824932.166779834],[643734.9595629972,4824932.169778148],[643716.470519871,4824935.773482575],[643696.7501219823,4824939.528665235],[643696.7151527477,4824939.535973717],[643690.2034252306,4824941.018778519],[643683.5000851768,4824941.294414814],[643679.5319860098,4824940.3707328085],[643679.4426185797,4824940.354170975],[643679.3521165391,4824940.3457916835],[643675.8651240089,4824940.182259817],[643675.7876551816,4824940.181630913],[643675.7103701456,4824940.18700101],[643668.356786903,4824940.985169611],[643668.2831239192,4824940.9959526295],[643656.7994387115,4824943.116297434],[643644.5629072278,4824945.304579425],[643635.3132888185,4824946.490260682],[643629.4853040511,4824947.108622825],[643629.4408888718,4824947.1143437205],[643622.9947362584,4824948.091832437],[643620.7873621885,4824947.962946185],[643618.8531296288,4824945.948991293],[643617.8934909051,4824943.715971164],[643617.8508993997,4824943.628786391],[643617.8000586422,4824943.546139924],[643617.7414473096,4824943.468809898],[643617.6756172405,4824943.397524394],[643614.2886552841,4824940.069447635],[643614.2186824193,4824940.006868637],[643614.1431497987,4824939.951126768],[643614.0627230409,4824939.902713243],[643613.9781108933,4824939.862054698],[643613.8900589864,4824939.829509431],[643611.4102140475,4824939.04310562],[643611.3417596251,4824939.024046022],[643607.8932519831,4824938.1946957],[643607.8240777295,4824938.18062222],[643603.3959795244,4824937.441428566],[643603.3133035543,4824937.431145806],[643603.2300585696,4824937.427780734],[643593.9224314059,4824937.439571851],[643572.9324371978,4824937.101619152],[643561.4589518731,4824936.878379665],[643539.3721740522,4824935.308915808],[643533.7153795563,4824934.528067835],[643533.6106051505,4824933.371505281],[643533.5976127645,4824933.277743447],[643533.5758132496,4824933.18563012],[643533.5454019312,4824933.095990646],[643533.5066512973,4824933.0096282],[643533.4599085569,4824932.927316598],[643533.4055925288,4824932.849793358],[643533.3441898891,4824932.777753094],[643533.2762508107,4824932.711841295],[643533.2023840335,4824932.652648535],[643533.1232514097,4824932.600705185],[643533.0395619746,4824932.556476664],[643532.9520655923,4824932.520359261],[643532.8615462377,4824932.492676592],[643532.7688149719,4824932.473676697],[643527.1558876836,4824931.598084641],[643527.0423278268,4824931.58695835],[643509.701880047,4824930.882847755],[643509.6196500517,4824930.882892471],[643509.5377017407,4824930.889693092],[643502.8378295809,4824931.724241688],[643502.7098195187,4824931.748746017],[643497.6154440669,4824933.073187265],[643497.5320550147,4824933.098798148],[643497.4512152395,4824933.131578968],[643497.3735399038,4824933.171280273],[643488.9572921813,4824937.94698649],[643488.8815984646,4824937.994531442],[643488.8104528071,4824938.048645735],[643488.7444236671,4824938.108896991],[643488.6840386216,4824938.174803801],[643488.6297801505,4824938.245839563],[643486.7874966708,4824940.895385881],[643486.7272398131,4824940.993690454],[643486.6786994188,4824941.098277777],[643485.850204033,4824943.191709958],[643485.8130605322,4824943.30482258],[643484.8985926826,4824946.774215729],[643484.8767550522,4824946.879920203],[643484.8664373877,4824946.987362578],[643484.867759893,4824947.0952911135],[643485.1977441772,4824952.069087494],[643485.2082207847,4824952.161569928],[643485.2272503932,4824952.252677742],[643486.8240088591,4824958.442461611],[643486.8541513399,4824958.538880446],[643486.8938678713,4824958.631766172],[643493.5619436675,4824972.2754880795],[643492.9185663179,4824974.323153203],[643493.8725832927,4824974.622905788],[643492.9057020927,4824974.8781326385],[643494.4454360792,4824980.711139006],[643494.4583997234,4824980.755980975],[643495.6526799231,4824984.5525928615],[643496.535476657,4824988.980442906],[643496.5656644389,4824994.88974536],[643495.9193551621,4824998.344059468],[643494.8448026986,4825001.738757497],[643493.1417797641,4825006.312205626],[643491.6701428125,4825008.621583085],[643488.4796039037,4825012.202501334],[643485.4250842149,4825014.602248033],[643481.414600272,4825017.514790906],[643476.1384586337,4825020.239407947],[643469.9762705922,4825023.286558933],[643461.9608601367,4825026.993257748],[643459.0255814628,4825028.267256227],[643455.0038811658,4825029.949434444],[643450.1705995976,4825031.778752435],[643444.4620230099,4825033.751740603],[643444.4515148347,4825033.755438067],[643437.278386614,4825036.32440342],[643437.2702731247,4825036.327348733],[643431.5171827603,4825038.443948078],[643422.3674439066,4825041.532301837],[643417.0172693006,4825043.321712856],[643410.8518213046,4825045.1055606175],[643404.1619072611,4825047.015563905],[643394.3705678821,4825049.659257992],[643384.3761964679,4825052.305425551],[643376.7409363784,4825053.956142034],[643364.651678552,4825056.234271142],[643359.1349955323,4825056.979082365],[643359.1302585512,4825056.979733443],[643349.143932595,4825058.376646254],[643339.7198845587,4825059.583121076],[643332.3960332103,4825060.268050411],[643325.8029682084,4825060.748525747],[643325.7926242938,4825060.749333536],[643320.2731899946,4825061.209183512],[643313.5373374083,4825061.760537597],[643308.39483131,4825061.705740305],[643305.9801677933,4825061.654183994],[643302.900733176,4825061.169963552],[643299.1048165736,4825060.230587415],[643295.5633100324,4825059.005061007],[643291.9124887955,4825057.66486177],[643290.1784470241,4825056.871981907],[643288.0967266441,4825055.834327506],[643286.1566229259,4825054.605209497],[643283.8385670226,4825052.724104976],[643282.2571638777,4825051.246970376],[643279.8269021125,4825048.279137074],[643279.8046133344,4825048.252855231],[643278.1743290668,4825046.396322564],[643275.3364517625,4825042.95130849],[643272.5574010452,4825039.510662705],[643269.4666023684,4825035.36015707],[643269.4392985282,4825035.325142336],[643266.3291607775,4825031.514259365],[643266.284235527,4825031.462894419],[643263.4166442849,4825028.401644859],[643263.3725759689,4825028.357449347],[643258.0691634328,4825023.36076127],[643250.5444615684,4825011.569940908],[643248.8585293714,4825012.645874282],[643254.5534700819,4825021.569553134],[643251.5106211683,4825020.722036788],[643251.4468224883,4825020.70650493],[643248.1890648227,4825020.025856718],[643248.0896746923,4825020.010261078],[643247.9892205236,4825020.004730976],[643243.9901604196,4825019.98605079],[643243.908125114,4825019.989036983],[643243.8266111434,4825019.998741687],[643240.6565559758,4825020.508873893],[643240.5798251163,4825020.524324167],[643240.504537677,4825020.545728307],[643231.8310183856,4825023.382894156],[643231.7646989245,4825023.407212602],[643223.5733974425,4825026.743574757],[643223.5002481232,4825026.776855686],[643214.6873946167,4825031.222202556],[643214.6766572949,4825031.2277001245],[643205.8037292028,4825035.838445218],[643205.8020140379,4825035.839338597],[643197.2554561502,4825040.301500318],[643197.2392459895,4825040.310154104],[643190.7872448881,4825043.831103932],[643183.0835011035,4825047.71471597],[643183.0155874473,4825047.752327306],[643177.9651728609,4825050.811298415],[643177.8795130885,4825050.869447306],[643177.8003246086,4825050.936141195],[643177.7284562335,4825051.010665196],[643177.6646783126,4825051.092220495],[643177.6096744745,4825051.179932912],[643177.5640342992,4825051.272862264],[643175.0641261329,4825057.108501785],[643175.0599837467,4825057.118315609],[643173.0585954661,4825061.931242987],[643173.0514810851,4825061.948819834],[643170.3176823192,4825068.891518186],[643167.9004275185,4825074.296883612],[643168.8133046223,4825074.7051180955],[643168.4559911479,4825075.6391026145],[643177.1915127694,4825078.981041929],[643177.2761555624,4825079.009164836],[643177.3629675324,4825079.02963389],[643186.9245096268,4825080.838242104],[643194.6367969962,4825082.937326874],[643206.8936364931,4825086.314815701],[643214.1266825177,4825088.687748398],[643216.172647734,4825089.666638111],[643217.0424128656,4825092.152842844],[643216.5030382285,4825094.912636536],[643215.3159796102,4825098.04194902],[643213.2174670637,4825101.146554516],[643207.8643831349,4825105.841096582],[643199.8328209575,4825110.692512711],[643193.5971191018,4825114.218853637],[643193.587369932,4825114.22443939],[643189.6359940547,4825116.517948452],[643189.6001855952,4825116.539748919],[643180.3095359624,4825122.466404153],[643170.6719178964,4825126.7399611715],[643170.66333414,4825126.743815848],[643158.6169446869,4825132.22169286],[643139.4150303816,4825139.937580377],[643120.212243048,4825145.312297686],[643120.1519693943,4825145.331240408],[643113.1676840319,4825147.771233144],[643113.1424438745,4825147.780433151],[643105.8847925612,4825150.53683063],[643105.7811152097,4825150.583100567],[643096.8518893569,4825155.192779673],[643096.8287128272,4825155.205132587],[643092.582900317,4825157.540221701],[643082.4640038,4825162.703836669],[643069.1654825686,4825169.329303367],[643069.157334296,4825169.333409431],[643055.6457131596,4825176.21963847],[643033.6809803469,4825186.992561957],[643033.6771032978,4825186.994473918],[643011.07424839,4825198.201845468],[643011.0667321547,4825198.205611754],[643002.5805943134,4825202.502625985],[643002.5522267069,4825202.517566217],[642997.2958271727,4825205.394496158],[642997.2703329351,4825205.408939018],[642993.3186075463,4825207.724773519],[642993.3063749317,4825207.7320596995],[642983.6751396382,4825213.562055141],[642981.7745566651,4825212.028199723],[642981.7650309025,4825212.020607347],[642978.5150277212,4825209.462451282],[642978.458380238,4825209.42099798],[642975.11803311,4825207.15222584],[642968.8480940306,4825202.422039231],[642967.6435792212,4825204.01864315],[642973.9333580862,4825208.76379735],[642973.9737566701,4825208.792728529],[642977.3056109567,4825211.055732311],[642980.5232322802,4825213.588399832],[642981.8202614363,4825214.63516034],[642977.8417792701,4825216.887422521],[642977.7861641119,4825216.921345186],[642968.1128960968,4825223.262894621],[642960.8740418976,4825226.972256539],[642960.8243978717,4825226.999496844],[642953.1665507758,4825231.488122603],[642945.7505239104,4825235.283314753],[642945.6604389731,4825235.335504172],[642945.576268361,4825235.396776836],[642945.4989244018,4825235.46646861],[642940.6365629927,4825240.32963483],[642940.5707209203,4825240.402286048],[642934.560556614,4825247.725619767],[642929.7237843233,4825253.4892157465],[642925.756750939,4825257.118099554],[642923.0131799933,4825258.711286081],[642917.4026442901,4825260.195171553],[642911.5365523649,4825261.080813493],[642906.1697105985,4825260.338837209],[642906.085131101,4825260.330787503],[642902.5180199796,4825260.143721767],[642902.4279285722,4825260.143061237],[642902.3381433468,4825260.150511828],[642897.9632933569,4825260.712925512],[642897.8727988101,4825260.72881474],[642897.784144572,4825260.752942661],[642897.6980790375,4825260.785105595],[642897.6153287491,4825260.825032031],[642892.0883351208,4825263.812225697],[642889.1671784682,4825265.134853781],[642889.0672532994,4825265.187074634],[642888.9738416785,4825265.250211992],[642888.8881310597,4825265.323463249],[642887.2303867764,4825266.910410549],[642887.1648489181,4825266.979418734],[642887.1061679327,4825267.0543445805],[642887.0548753139,4825267.134509459],[642887.0114356363,4825267.219187289],[642886.9762423479,4825267.307611114],[642886.9496142061,4825267.398980051],[642886.9317923912,4825267.492466539],[642886.4278771356,4825271.048446728],[642886.4196644564,4825271.130824445],[642886.4182938039,4825271.2135991845],[642886.5378813558,4825276.025457202],[642886.1125007792,4825278.724838413],[642884.8993270996,4825280.417908795],[642881.9978725079,4825282.028658441],[642879.0231596599,4825283.010191211],[642876.0988731239,4825282.001028979],[642872.8481329303,4825280.174263347],[642872.758733023,4825280.129745333],[642872.6653384544,4825280.094366647],[642872.5688807603,4825280.068480161],[642872.4703220289,4825280.052344072],[642872.3706453042,4825280.046119324],[642868.614729655,4825279.999497985],[642868.5098483757,4825280.003705434],[642868.4059859051,4825280.018883463],[642868.3042865775,4825280.044864844],[642868.2058708942,4825280.0813633185],[642864.7973609671,4825281.553268001],[642864.7131504444,4825281.594417203],[642864.6331623384,4825281.643269755],[642864.5580993181,4825281.699396503],[642864.4886207869,4825281.762304394],[642861.8307934535,4825284.405759187],[642861.7629756792,4825284.480380375],[642861.7030174879,4825284.561451871],[642861.651528509,4825284.648149375],[642859.622539368,4825288.49389348],[642859.5826878136,4825288.578866552],[642859.5509780516,4825288.667201484],[642858.0403676878,4825293.590659455],[642858.018470054,4825293.674960871],[642856.0946286403,4825302.675683156],[642855.0150610377,4825306.706893069],[642831.2544181985,4825304.142944057],[642828.687951359,4825301.080540279],[642827.27599547,4825298.440731492],[642827.2670718713,4825298.4244145],[642822.1244418476,4825289.225249453],[642819.3515272221,4825271.422222742],[642818.4794906011,4825257.150134964],[642816.4832134935,4825257.272109183],[642817.358102997,4825271.590888336],[642817.3681550669,4825271.683800871],[642820.0851556901,4825289.127841242],[642814.8498015165,4825293.189598671],[642814.8273506726,4825293.207539429],[642804.8606639137,4825301.409466103],[642802.2164814117,4825302.504193606],[642799.417036475,4825302.833782212],[642796.4205391357,4825302.581015506],[642786.4104489944,4825296.089253481],[642782.0001059351,4825292.655125149],[642779.4762088822,4825290.359852595],[642779.4022329218,4825290.298795659],[642779.3227475041,4825290.245107108],[642779.2384839262,4825290.199280896],[642779.1502174458,4825290.161738645],[642779.0587601493,4825290.132825757],[642778.9649534796,4825290.112808242],[642776.7025342516,4825289.742451716],[642776.6043146318,4825289.731323719],[642776.5054762242,4825289.729947034],[642776.4069847718,4825289.738335113],[642772.2179091428,4825290.30478149],[642772.123656992,4825290.322160808],[642772.0315014569,4825290.348483156],[642771.9422890329,4825290.383506749],[642768.2371123874,4825292.047202316],[642765.813542578,4825292.179579346],[642762.107333502,4825289.835834065],[642760.4109389955,4825287.416807319],[642760.3482545392,4825287.336463616],[642760.2777188341,4825287.262916584],[642760.2000643549,4825287.196929967],[642760.1160975008,4825287.139189002],[642749.0946150492,4825280.360241179],[642749.0897796663,4825280.357285948],[642744.6291677876,4825277.648432059],[642740.9694555112,4825275.257085815],[642740.8773688963,4825275.203682424],[642740.7801272388,4825275.160370452],[642740.6788324683,4825275.127640706],[642740.5746324438,4825275.105864073],[642734.4624075182,4825274.164749992],[642734.3314905609,4825274.153328991],[642727.6205707189,4825274.010608218],[642727.5395310438,4825274.012170429],[642727.4588840994,4825274.02029076],[642723.439394269,4825274.590374267],[642723.3504048472,4825274.607136701],[642723.2632966414,4825274.631880526],[642723.1787839474,4825274.664402841],[642723.0975597774,4825274.70443696],[642723.0202901774,4825274.751654597],[642718.8397973655,4825277.573896338],[642718.7567287621,4825277.636503205],[642718.6806130682,4825277.70740041],[642711.097071756,4825285.546223856],[642711.0671395919,4825285.578559795],[642708.4809046676,4825288.499006974],[642704.3361190015,4825292.6120780315],[642700.2219390935,4825295.261042791],[642688.9919740926,4825301.043757533],[642688.9237493708,4825301.082344006],[642684.2561552624,4825303.969342834],[642680.4615792411,4825305.671739429],[642672.1481143817,4825307.05998671],[642672.1415699936,4825307.061101885],[642664.9648509054,4825308.308554442],[642664.9308360496,4825308.315075642],[642658.0,4825309.768696747],[642658.0,4825311.8122110665],[642665.3244179366,4825310.276043075],[642672.4808027045,4825309.032125017],[642680.9180702422,4825307.623204198],[642681.0016209249,4825307.605555672],[642681.0833612651,4825307.580843249],[642681.1626951968,4825307.549247137],[642685.1352179237,4825305.767016626],[642685.2519157719,4825305.705097203],[642689.9424536552,4825302.803907198],[642701.1804900848,4825297.0170361865],[642701.2640401983,4825296.9687775755],[642705.5072304289,4825294.236747951],[642705.5921789474,4825294.175533077],[642705.6702609761,4825294.105771279],[642709.9125612271,4825289.895931787],[642709.9568203446,4825289.849085621],[642712.5498198733,4825286.920999667],[642720.0454184769,4825279.173079315],[642723.9483760545,4825276.538201015],[642727.6592831301,4825276.011883745],[642734.2231317767,4825276.151476762],[642740.0565092942,4825277.049656033],[642743.5489863723,4825279.331726674],[642743.5769228644,4825279.349329843],[642748.0492264058,4825282.065283881],[642758.8921730856,4825288.734420279],[642760.4340290453,4825290.933077957],[642762.0884017445,4825307.785373465],[642762.1032770486,4825307.884986484],[642762.1280969563,4825307.982597962],[642762.1626096938,4825308.077217723],[642762.2064651627,4825308.167885944],[642762.2592184921,4825308.253682882],[642762.3203345505,4825308.333738211],[642762.389193375,4825308.407239848],[642762.4650964598,4825308.473442189],[642762.5472738418,4825308.531673677],[642762.6348919113,4825308.581343611],[642762.7270618681,4825308.621948135],[642762.8228487376,4825308.653075357],[642762.921280855,4825308.674409522],[642763.0213597221,4825308.685734215],[642763.1220701362,4825308.686934558],[642763.2223904879,4825308.677998375],[642763.3213031247,4825308.659016315],[642769.4206309862,4825307.166523531],[642769.5123612368,4825307.139366348],[642769.6010766913,4825307.1035680305],[642769.6859654302,4825307.059456201],[642769.7662505559,4825307.00743457],[642769.8411973027,4825306.947979238],[642769.9101197618,4825306.881634335],[642769.9723871581,4825306.809007049],[642770.0274296234,4825306.730762059],[642770.0747434117,4825306.64761546],[642770.1138955096,4825306.560328206],[642770.1445275991,4825306.469699145],[642770.1663593365,4825306.3765577115],[642770.179190919,4825306.28175633],[642770.1829049126,4825306.186162619],[642770.1774673269,4825306.090651446],[642770.0850437817,4825305.211312338],[642775.9105661545,4825303.631149016],[642775.3869889037,4825301.70089855],[642768.7397339557,4825303.503955476],[642768.6439800254,4825303.535183862],[642768.5518530167,4825303.575885723],[642768.4642874682,4825303.625648178],[642768.3821716474,4825303.683966436],[642768.3063385393,4825303.750248915],[642768.2375573971,4825303.823823242],[642768.1765259384,4825303.9039430795],[642768.1238632683,4825303.989795689],[642768.0801035982,4825304.080510178],[642768.0456908272,4825304.175166337],[642768.0209740397,4825304.272803971],[642768.0062039632,4825304.372432642],[642768.0015304259,4825304.473041713],[642768.0070008363,4825304.573610605],[642768.0971560687,4825305.431368456],[642763.9661592613,4825306.442214743],[642762.5987369615,4825292.512944337],[642765.0146011102,4825294.040696842],[642765.1044019387,4825294.0912055],[642765.1989231653,4825294.132206124],[642765.2971614171,4825294.163263478],[642765.3980738645,4825294.18404788],[642765.5005892902,4825294.194338696],[642765.6036194607,4825294.194026686],[642768.5317462217,4825294.034090412],[642768.6231184148,4825294.024876428],[642768.7132600225,4825294.007318929],[642768.8014108106,4825293.981565993],[642768.8868273352,4825293.947834813],[642772.6294203268,4825292.267338587],[642776.5269032363,4825291.7403213475],[642778.3496538219,4825292.038704408],[642780.6827735312,4825294.160480979],[642780.7412070641,4825294.209677968],[642785.2157557748,4825297.6938002445],[642785.2860105231,4825297.743792792],[642795.5426044796,4825304.395417924],[642795.6275163854,4825304.444738747],[642795.7168562033,4825304.4854937745],[642795.8097624673,4825304.517290023],[642795.9053393219,4825304.5398208955],[642796.00266516,4825304.5528691355],[642799.3495838699,4825304.835195306],[642799.4501582673,4825304.8385977885],[642799.5505653815,4825304.831874866],[642802.5879265548,4825304.474275535],[642802.678455116,4825304.459379562],[642802.7672374678,4825304.4362494005],[642802.8535263018,4825304.405079744],[642805.7634858858,4825303.200316916],[642805.852652252,4825303.158135406],[642805.9372290914,4825303.107374407],[642806.016393478,4825303.048527823],[642816.0871207801,4825294.760982635],[642820.858410829,4825291.059261193],[642825.5168024407,4825299.392217888],[642826.9732113553,4825302.115136556],[642827.0264804792,4825302.2034522975],[642827.0885627976,4825302.285811605],[642829.9802492541,4825305.736279537],[642830.0451488972,4825305.806592946],[642830.1164717831,4825305.870381543],[642830.193564884,4825305.927061284],[642830.27572234,4825305.976113212],[642830.3621919225,4825306.01708821],[642830.4521819213,4825306.049611115],[642830.5448683935,4825306.073384148],[642830.6394027071,4825306.088189645],[642855.6521469174,4825308.787249651],[642855.7531276066,4825308.793001428],[642855.8541727859,4825308.788523227],[642855.9542487445,4825308.773860859],[642856.0523316873,4825308.749164323],[642856.1474182077,4825308.71468627],[642856.2385355533,4825308.670779415],[642856.3247515771,4825308.617892935],[642856.4051842735,4825308.556567867],[642856.4790108011,4825308.487431579],[642856.5454759011,4825308.411191347],[642856.6038996236,4825308.328627123],[642856.653684283,4825308.240583552],[642856.6943205734,4825308.147961339],[642856.7253927779,4825308.051708024],[642858.0331605152,4825303.168376722],[642858.0451102597,4825303.118711634],[642859.9651806536,4825294.135632124],[642861.4353839592,4825289.3438708875],[642863.3492801478,4825285.716273855],[642865.7644573931,4825283.314156989],[642868.803061074,4825282.001989771],[642872.0907325175,4825282.0427989],[642875.1976037279,4825283.788716818],[642875.2777921311,4825283.82915323],[642875.3612849697,4825283.862232367],[642878.6897700769,4825285.010882273],[642878.7789669763,4825285.03709223],[642878.8702124623,4825285.054905427],[642878.9627178959,4825285.064167903],[642879.0556837479,4825285.064799602],[642879.1483065101,4825285.056795065],[642879.2397856393,4825285.040223475],[642879.3293304772,4825285.015228061],[642882.7141252594,4825283.898385137],[642882.8019133552,4825283.864765863],[642882.8861566606,4825283.823051706],[642886.0666225865,4825282.057408231],[642886.1419580096,4825282.011114298],[642886.212909499,4825281.958346502],[642886.2789223164,4825281.8995174095],[642886.3394803371,4825281.83508698],[642886.3941100847,4825281.765558965],[642887.8762767271,4825279.697089722],[642887.9268999101,4825279.61900789],[642887.9700457688,4825279.536558427],[642888.0053406827,4825279.450455301],[642888.0324790162,4825279.361444123],[642888.0512257656,4825279.2702956805],[642888.5276392745,4825276.247069551],[642888.5376699778,4825276.15708449],[642888.5395204555,4825276.066561002],[642888.4197385588,4825271.246883109],[642888.863444048,4825268.115785347],[642890.1477460464,4825266.8863318],[642892.945319712,4825265.619659062],[642893.0083249232,4825265.58841733],[642898.4027107443,4825262.672894672],[642902.5035254213,4825262.145709901],[642905.937930546,4825262.325816295],[642911.4058996782,4825263.081773633],[642911.501221933,4825263.090328798],[642911.5969254721,4825263.089732379],[642911.6921336967,4825263.079989838],[642917.7550159316,4825262.164637189],[642917.8614215,4825262.142601689],[642923.654662934,4825260.610393848],[642923.7397495414,4825260.5837793],[642923.8221276321,4825260.549692423],[642923.9011424596,4825260.508404144],[642926.8543272896,4825258.793495226],[642926.9441333187,4825258.734681907],[642927.0271173418,4825258.66658065],[642931.1223617845,4825254.920414483],[642931.2134109923,4825254.82538981],[642936.0960969693,4825249.00708215],[642936.1030952999,4825248.998649392],[642942.085597584,4825241.709021611],[642946.8018804687,4825236.991958094],[642954.1031328904,4825233.25550239],[642954.1532482853,4825233.228020702],[642961.8113240157,4825228.739260929],[642968.034507715,4825225.550352852],[642969.5045536389,4825229.982509076],[642969.5405450466,4825230.075292244],[642969.5855805035,4825230.164038541],[642969.639213974,4825230.247869016],[642969.7009142671,4825230.325953403],[642969.7700702971,4825230.397518347],[642969.8459971357,4825230.461855061],[642969.9279427964,4825230.51832635],[642970.0150956812,4825230.566372914],[642970.1065926193,4825230.605518897],[642970.2015274162,4825230.635376593],[642970.2989598284,4825230.655650288],[642970.397924876,4825230.66613919],[642970.497442399,4825230.666739415],[642970.5965267665,4825230.65744502],[642970.6941966373,4825230.638348056],[642970.789484679,4825230.609637661],[642996.2167624881,4825221.545483832],[643006.4936969652,4825218.227881473],[643012.4740455548,4825217.27096067],[643013.296772647,4825217.463429193],[643013.3060256704,4825218.210187704],[643010.9495740344,4825226.32765929],[643010.9266724546,4825226.424210086],[643010.9134525349,4825226.522555255],[643010.9100444461,4825226.621726438],[643010.916481746,4825226.720747142],[643010.9327010495,4825226.8186423555],[643010.9585426524,4825226.9144481495],[643010.9937521047,4825227.007221169],[643011.037982715,4825227.09604792],[643011.0907989647,4825227.180053767],[643011.1516807969,4825227.258411543],[643011.220028736,4825227.330349696],[643011.2951697917,4825227.395159883],[643011.3763640843,4825227.452203949],[643011.4628121314,4825227.500920206],[643011.5536627187,4825227.540828969],[643011.6480212826,4825227.571537275],[643018.75722157,4825229.500827367],[643019.2810343301,4825227.570640798],[643013.1539968245,4825225.907889394],[643015.268142915,4825218.625108557],[643015.2908683182,4825218.529505783],[643015.3041007816,4825218.432134143],[643015.3077125282,4825218.333933891],[643015.2869175705,4825216.655691976],[643015.2812442522,4825216.560997441],[643015.266623439,4825216.467266587],[643015.243186707,4825216.375342918],[643015.2111449691,4825216.286053678],[643015.1707865766,4825216.200202403],[643015.1224747242,4825216.118561688],[643015.0666441822,4825216.041866239],[643015.003797383,4825215.970806256],[643014.9344999002,4825215.906021225],[643014.8593753584,4825215.848094163],[643014.7790998217,4825215.797546369],[643014.694395709,4825215.754832734],[643014.6060252928,4825215.72033765],[643014.51478384,4825215.694371544],[643012.7380796534,4825215.278729913],[643012.6425898395,4825215.26123055],[643012.545853163,4825215.253072876],[643012.4487813216,4825215.254333771],[643012.3522891721,4825215.265001354],[643006.1017136207,4825216.265161409],[643006.0264218545,4825216.280193816],[643005.9525053077,4825216.300958388],[642995.5879867551,4825219.646834658],[642995.5594187705,4825219.656535224],[642971.0809901599,4825228.382449342],[642969.8076409634,4825224.543329437],[642978.8554325147,4825218.611826526],[642984.0855835153,4825215.650980956],[642984.1107763806,4825215.636229306],[642994.3359631572,4825209.446702161],[642998.2689050288,4825207.141875387],[643003.4983876037,4825204.279677624],[643011.9664716336,4825199.991805064],[643034.5636242018,4825188.787260955],[643056.5333069895,4825178.01190968],[643056.5470356535,4825178.005045052],[643070.0614300075,4825171.117402637],[643083.3601792551,4825164.491822339],[643083.3687813779,4825164.487484823],[643093.5057646164,4825159.314640305],[643093.5331322056,4825159.300136261],[643097.781009026,4825156.963911828],[643106.6480422483,4825152.386339432],[643113.8399811802,4825149.654898985],[643120.7817471804,4825147.229760587],[643140.0067169677,4825141.848834574],[643140.1100362897,4825141.813733998],[643159.3833929945,4825134.069138847],[643159.4244832547,4825134.051551091],[643171.486938411,4825128.566368491],[643181.1891581443,4825124.264165504],[643181.2567192694,4825124.231113152],[643181.3216050982,4825124.193076421],[643190.6581234155,4825118.237160813],[643194.5865076818,4825115.956996841],[643200.8298180434,4825112.426353242],[643200.854607564,4825112.4118609335],[643208.9742225836,4825107.507257023],[643209.0476762179,4825107.458338254],[643209.1165308135,4825107.403133843],[643214.6330989903,4825102.565219528],[643214.6948839196,4825102.506178542],[643214.7514022676,4825102.442077904],[643214.8022412689,4825102.373385754],[643217.0381620672,4825099.065494167],[643217.0973691712,4825098.965918586],[643217.1446627011,4825098.860163683],[643218.4031591549,4825095.542527467],[643218.4298341074,4825095.4620807],[643218.4496011954,4825095.37966409],[643219.0572830348,4825092.27036604],[643219.0720603885,4825092.165544742],[643219.075674347,4825092.059748646],[643219.0680844125,4825091.954163289],[643219.049375637,4825091.849971848],[643219.0197576687,4825091.748341879],[643217.9231767715,4825088.613789206],[643217.8861276055,4825088.522564319],[643217.8402868019,4825088.435425111],[643217.7860987697,4825088.353216364],[643217.7240888416,4825088.276735062],[643217.6548581801,4825088.20672266],[643217.5790779502,4825088.143857904],[643217.4974828126,4825088.088750242],[643217.4108638011,4825088.041933924],[643214.931490246,4825086.855680488],[643214.811618476,4825086.807575257],[643207.4942152349,4825084.406967636],[643207.4481514433,4825084.393073723],[643195.1665946522,4825081.008773809],[643195.163557269,4825081.007941972],[643187.4117182039,4825078.898092257],[643187.3349563603,4825078.880414966],[643177.8225858473,4825077.081107775],[643170.1575658745,4825074.148709149],[643172.1527047295,4825069.68726198],[643172.1702910172,4825069.645412372],[643174.9089340058,4825062.690411734],[643176.904636718,4825057.89115698],[643179.2759911657,4825052.355605747],[643184.018497263,4825049.483130846],[643191.7021139887,4825045.609665263],[643191.7309874917,4825045.594514202],[643198.1892364935,4825042.070154805],[643206.7267925052,4825037.612692967],[643215.593510406,4825033.005174949],[643224.3650731778,4825028.580655797],[643232.4864007949,4825025.272794383],[643241.0517671285,4825022.471006086],[643244.0631150859,4825021.986413391],[643247.8788894432,4825022.004237424],[643251.0056372595,4825022.65751355],[643254.9467747036,4825023.755227731],[643256.6849109462,4825024.8044206565],[643261.9783598575,4825029.791721357],[643264.801267441,4825032.805269618],[643267.8757786696,4825036.572499053],[643270.9650633527,4825040.720971609],[643270.9891730662,4825040.752052239],[643273.783612443,4825044.211750187],[643273.7897046386,4825044.219218802],[643276.6406731122,4825047.680124776],[643276.6611061138,4825047.704147094],[643278.2904254611,4825049.55958093],[643280.7520698374,4825052.565738646],[643280.8431628547,4825052.66297141],[643282.4988023348,4825054.209447632],[643282.5512813868,4825054.255152955],[643284.9418504963,4825056.19510201],[643285.0368037965,4825056.263351643],[643287.0696275998,4825057.551210804],[643287.1586888583,4825057.601445447],[643289.3012418681,4825058.669422482],[643289.3315168336,4825058.683884433],[643291.115865881,4825059.499766987],[643291.1870922812,4825059.529073431],[643294.8828567901,4825060.885771131],[643294.9004460045,4825060.892042318],[643298.4935924201,4825062.135438531],[643298.5803888593,4825062.1611387115],[643302.4623588468,4825063.121810494],[643302.5472478317,4825063.138954829],[643305.7360911237,4825063.640379052],[643305.8700793047,4825063.652289284],[643308.3574835501,4825063.705398708],[643308.3681748771,4825063.705569802],[643313.5622207606,4825063.76091629],[643313.6544567167,4825063.757639788],[643320.4370752991,4825063.202457736],[643320.4385215269,4825063.202338302],[643325.9535084859,4825062.742858854],[643332.5516236139,4825062.262015485],[643332.5720545683,4825062.260315848],[643339.9230798734,4825061.5728451945],[643339.9569503034,4825061.569094448],[643349.4036807829,4825060.359715801],[643349.4152300499,4825060.358168811],[643359.4049583748,4825058.960780066],[643364.9450734075,4825058.212805271],[643364.9964597534,4825058.20450051],[643377.1244034751,4825055.91908134],[643377.1505347204,4825055.913795457],[643384.8212645213,4825054.255410546],[643384.8658968146,4825054.244683303],[643394.8848237605,4825051.592014279],[643394.889545923,4825051.590751654],[643404.6901918658,4825048.944544763],[643404.7040580149,4825048.940693598],[643411.4025899394,4825047.028229863],[643411.4059854897,4825047.027253927],[643417.5928848969,4825045.237199633],[643417.6321422696,4825045.224961169],[643423.0031303178,4825043.428588918],[643423.0057505146,4825043.427708543],[643432.1695956474,4825040.334593426],[643432.1950676733,4825040.3256107615],[643437.9567829275,4825038.205838264],[643445.1206043664,4825035.640206017],[643450.837648245,4825033.6642913995],[643450.864967991,4825033.654402621],[643455.7278973587,4825031.813863423],[643455.7597987438,4825031.801158905],[643459.8034908747,4825030.109782046],[643459.8157565467,4825030.104555272],[643462.76800408,4825028.823191801],[643462.7895963439,4825028.813514952],[643470.8275798219,4825025.09637732],[643470.8511014575,4825025.085125294],[643477.032799404,4825022.028326822],[643477.0483755884,4825022.020454631],[643482.3996748684,4825019.257025934],[643482.4655710501,4825019.219772394],[643482.5284604502,4825019.177640976],[643486.6156232589,4825016.209411436],[643486.6457867799,4825016.1866225675],[643489.7849718174,4825013.720359555],[643489.8520779997,4825013.662657948],[643489.9138196285,4825013.599249065],[643493.21689265,4825009.892027558],[643493.2678043568,4825009.830051378],[643493.3135854242,4825009.7641943935],[643494.8853076502,4825007.297757358],[643494.9371855197,4825007.20601231],[643494.9791190571,4825007.109316677],[643496.7277848495,4825002.413295187],[643496.7440258014,4825002.366112646],[643497.844480302,4824998.88958558],[643497.8740458679,4824998.771715623],[643498.5490813093,4824995.163869454],[643498.5620975901,4824995.069765155],[643498.5661252962,4824994.97485035],[643498.5349594497,4824988.874090323],[643498.5298812854,4824988.778419292],[643498.515671118,4824988.683673288],[643497.6035113026,4824984.108546619],[643497.5767302382,4824984.004003287],[643496.3732400864,4824980.178113001],[643494.9132037752,4824974.647026999],[643495.5895328781,4824972.494486943],[643495.6136394001,4824972.402759417],[643495.6289476394,4824972.309160693],[643495.6353198971,4824972.214532696],[643495.6326988544,4824972.119726612]]],[[[642813.1941611479,4825245.520225108],[642813.1076887532,4825245.4640270565],[642813.0158882382,4825245.41703385],[642777.3782489767,4825229.4364087125],[642777.2890048261,4825229.401424818],[642777.1968211149,4825229.3751464095],[642777.1025448628,4825229.357814946],[642777.007042317,4825229.349589676],[642776.9111909923,4825229.350546174],[642776.8158716083,4825229.360675653],[642776.7219599966,4825229.379885039],[642776.6303190539,4825229.407997829],[642776.5417908131,4825229.444755712],[642776.4571887063,4825229.48982094],[642776.3772900907,4825229.542779438],[642776.3028291061,4825229.603144603],[642776.2344899292,4825229.670361775],[642776.172900487,4825229.743813337],[642776.1186266874,4825229.822824387],[642776.0721672195,4825229.906668941],[642769.9082286357,4825242.409014802],[642769.8690560288,4825242.499451751],[642769.8389759684,4825242.593305493],[642769.8182806321,4825242.689664395],[642769.8071710408,4825242.787592489],[642769.8057551055,4825242.88613857],[642769.8140465796,4825242.984345424],[642769.8319649255,4825243.081259137],[642769.8593360961,4825243.175938353],[642769.895894226,4825243.26746342],[642769.9412842141,4825243.354945325],[642769.9950651721,4825243.437534329],[642770.0567147075,4825243.514428214],[642770.1256339977,4825243.584880086],[642770.2011536068,4825243.648205622],[642770.2825399872,4825243.703789719],[642770.3690026058,4825243.751092472],[642785.1633638229,4825250.921455677],[642786.0356487838,4825249.121700429],[642772.1472532636,4825242.390430404],[642777.4396575132,4825231.655821765],[642811.9057485126,4825247.111101397],[642817.6536812104,4825256.916626575],[642819.3790874212,4825255.905205096],[642813.469426037,4825245.823783385],[642813.4127539943,4825245.737620889],[642813.3475092504,4825245.657753378],[642813.2743857284,4825245.585030297],[642813.1941611479,4825245.520225108]]]]}},{"type":"Feature","properties":{"class":"path","widthMeters":1.5},"geometry":{"type":"MultiPolygon","coordinates":[[[[643566.2403509159,4824975.737471032],[643566.2437948209,4824975.6612327015],[643566.2394733297,4824975.585039078],[643562.1594212225,4824937.797178066],[643560.6680890634,4824937.958201018],[643564.7399167761,4824975.669890877],[643564.1864390332,4824981.415059941],[643565.6795263648,4824981.558900896],[643566.2403509159,4824975.737471032]]],[[[643808.9560935334,4824986.937674839],[643808.946002737,4824986.871312158],[643808.930018804,4824986.8061175],[643790.2339440421,4824923.03781153],[643788.794533914,4824923.459828689],[643807.4425745653,4824987.064300598],[643803.9567527864,4825008.3320281515],[643805.4370019606,4825008.574643861],[643808.950438327,4824987.138433934],[643808.9583202469,4824987.071772814],[643808.9602103626,4824987.004673954],[643808.9560935334,4824986.937674839]]],[[[643263.1643533217,4825054.207363674],[643263.2289723373,4825054.171817027],[643263.2897877003,4825054.130095653],[643263.3462113467,4825054.082602985],[643263.3976976793,4825054.029798261],[643263.4437488433,4825053.9721920835],[643263.4839195395,4825053.910341485],[643263.5178213312,4825053.84484454],[643263.5451263995,4825053.77633458],[643266.7763145935,4825044.345171836],[643266.7958626567,4825044.27806674],[643266.8090789368,4825044.209433289],[643266.8158486529,4825044.1398675535],[643266.8161130109,4825044.0699737],[643266.3037333677,4825032.114426504],[643264.8051090189,4825032.178653142],[643265.3114306908,4825043.992847413],[643262.2270150243,4825052.995611836],[643248.9290514473,4825059.480541911],[643248.9280185797,4825059.481046583],[643237.096972877,4825065.273078036],[643237.0293373297,4825065.310632237],[643236.965930134,4825065.354953934],[643236.9074259297,4825065.405571554],[643236.8544471896,4825065.461946534],[643236.8075575966,4825065.523479057],[643236.7672560465,4825065.589514429],[643236.7339713395,4825065.659350048],[643236.7080576182,4825065.732242876],[643236.6897905994,4825065.807417348],[643235.8658008708,4825070.167612256],[643229.7560341955,4825068.510554527],[643229.666666932,4825068.492069535],[643229.5757161784,4825068.484575329],[643219.6099596992,4825068.271915145],[643219.5427213982,4825068.273496688],[643219.4758951378,4825068.28109546],[643219.4100183189,4825068.294650354],[643219.3456207073,4825068.314052365],[643208.0569460137,4825072.275394515],[643197.8360980245,4825073.320463477],[643190.5767004612,4825071.715808812],[643186.7309296161,4825069.204714868],[643179.1737803895,4825051.373968636],[643177.7927014577,4825051.959306986],[643185.4390186116,4825070.000440844],[643185.4711754876,4825070.066982423],[643185.509725225,4825070.130036083],[643185.554293508,4825070.188989577],[643185.6044475804,4825070.24327047],[643185.6597004491,4825070.292351698],[643185.7195156113,4825070.335756682],[643189.8711812693,4825073.046584474],[643189.9294320395,4825073.080975942],[643189.9905446275,4825073.1099789925],[643190.0540218838,4825073.133357685],[643190.1193474223,4825073.150921835],[643197.630317422,4825074.811185368],[643197.7090650551,4825074.82424184],[643197.78875432,4825074.8288551085],[643197.8684825444,4825074.824972918],[643208.2978216553,4825073.758585999],[643208.384979092,4825073.744449657],[643208.4698711623,4825073.720168156],[643219.7139488879,4825069.774475659],[643229.4519664259,4825069.982276102],[643236.164219097,4825071.802736809],[643246.3635903123,4825077.597570482],[643247.104578942,4825076.293371168],[643237.2886432114,4825070.716388656],[643238.093940039,4825066.455108441],[643249.5870495911,4825060.828517716],[643263.1643533217,4825054.207363674]]]]}},{"type":"Feature","properties":{"class":"residential","widthMeters":5},"geometry":{"type":"MultiPolygon","coordinates":[[[[643232.0805946537,4824982.017134013],[643214.4104411463,4824959.662014927],[643214.293774302,4824959.524871767],[643205.648197792,4824950.073772104],[643205.2951556739,4824949.687704917],[643219.7837227772,4824945.043242258],[643230.1632462898,4824944.34030898],[643250.7305559121,4824943.704039231],[643308.415189696,4824942.102772473],[643345.7881120839,4824941.4012437705],[643345.8734311267,4824941.398184246],[643357.6727681865,4824940.773179176],[643382.6364301712,4824939.662627562],[643382.7663241314,4824939.653454333],[643406.0763811511,4824937.395842046],[643406.3337371058,4824937.357310022],[643406.5856935194,4824937.292234912],[643447.7454610855,4824924.3421453275],[643449.0920278792,4824925.563130811],[643457.3379297015,4824933.055590611],[643465.5574626565,4824947.04110292],[643469.868108496,4824944.507660115],[643461.4559014043,4824930.194313302],[643461.3177400888,4824929.984193798],[643461.1591687271,4824929.789017267],[643460.9817917763,4824929.610758544],[643453.0624210957,4824922.414994182],[643463.4192973307,4824918.47761225],[643473.8143848708,4824916.389267339],[643472.8295751725,4824911.487211662],[643462.2317708544,4824913.616281824],[643462.0314194126,4824913.665208765],[643461.8357825424,4824913.730483269],[643447.5426489692,4824919.164315306],[643405.3343089435,4824932.444317037],[643382.3491498481,4824934.670462497],[643357.4399864416,4824935.778589647],[643357.4188549863,4824935.779619325],[643345.6515877584,4824936.402925672],[643308.3101241066,4824937.103863861],[643308.2876727118,4824937.1043861825],[643250.5878483414,4824938.706074616],[643250.5799161242,4824938.706307407],[643229.9627900138,4824939.344118277],[643229.8711721988,4824939.348636215],[643219.1418423489,4824940.075259455],[643218.8412784357,4824940.114024928],[643218.5476134254,4824940.188873372],[643201.5586163412,4824945.634875175],[643184.6779005578,4824927.688301492],[643147.4587423264,4824886.239589249],[643142.751249203,4824880.276013557],[643138.0786134442,4824872.345020288],[643128.0306294874,4824853.922018196],[643114.2433032002,4824817.981779679],[643114.1407519479,4824817.750257348],[643114.0153065812,4824817.530296422],[643101.4731760346,4824797.91821779],[643097.2608831467,4824800.612023394],[643109.6660622489,4824820.009951607],[643123.4219781256,4824855.868310751],[643123.5613358689,4824856.169936486],[643133.7088580609,4824874.775442163],[643133.7496801935,4824874.8474290315],[643138.529633155,4824882.960574742],[643138.7212945413,4824883.240533119],[643140.5229274719,4824885.522888944],[643138.2127218352,4824885.60269979],[643133.339731063,4824885.335943952],[643131.4867380398,4824885.229874697],[643131.2178107366,4824885.228968948],[643122.8623150216,4824885.650809259],[643122.7438895392,4824885.659612165],[643117.2944364055,4824886.195094704],[643112.8628762021,4824885.852719719],[643106.6198648239,4824884.774874969],[643093.2365404771,4824878.609677196],[643085.5966866479,4824875.0806267215],[643085.3947888045,4824874.997854451],[643085.1864423249,4824874.933002831],[643078.9595804762,4824873.289138212],[643078.6715833443,4824873.230965016],[643078.3787501369,4824873.20698208],[643071.4738304813,4824873.048689034],[643071.2820429901,4824873.051652546],[643071.0910471922,4824873.069311237],[643061.4814204614,4824874.331173737],[643061.2655128012,4824874.3692203285],[643061.0537685639,4824874.426036161],[643060.847816102,4824874.501184311],[643056.2174516065,4824876.424743312],[643055.9858429888,4824876.535219488],[643055.7667791132,4824876.668855394],[643055.5625679503,4824876.824243097],[643051.7035827906,4824880.086483384],[643051.6746029416,4824880.111363915],[643047.7063705311,4824883.571280455],[643047.5076230655,4824883.765009085],[643047.3315746023,4824883.979574403],[643043.1317743666,4824889.720726462],[643039.8641678429,4824892.409053138],[643036.5098046274,4824894.716563263],[643026.7875842188,4824896.773490806],[643026.5223024442,4824896.845049647],[643026.2664756918,4824896.945288165],[643017.0383730334,4824901.159820915],[643016.7781084894,4824901.297762596],[642988.7415062786,4824918.34509237],[642988.5281320134,4824918.490433436],[642982.8367248969,4824922.813687862],[642982.8140086125,4824922.831149584],[642973.9572272327,4824929.720346324],[642973.9483721394,4824929.727266209],[642964.482147595,4824937.159054973],[642964.318028237,4824937.2997874655],[642964.1666815144,4824937.454173241],[642964.0292392778,4824937.621057721],[642957.6683865627,4824946.063454494],[642957.5228239364,4824946.279157635],[642957.4004718582,4824946.508823244],[642957.3026559654,4824946.749962985],[642957.2304360552,4824946.9999642],[642957.1845946023,4824947.256118225],[642957.165628281,4824947.515649729],[642957.173742584,4824947.775746791],[642957.5406440186,4824952.172501644],[642957.5723113986,4824952.41182532],[642957.6269142068,4824952.64697884],[642957.703943295,4824952.875769496],[642957.8026803988,4824953.096063911],[642959.6327090613,4824956.701750261],[642959.7483001916,4824956.905286863],[642959.8824204556,4824957.097120679],[642968.4212359069,4824968.1680134125],[642968.5041091027,4824968.269818463],[642996.8239365924,4825001.251273163],[642996.9654260989,4825001.402852851],[643013.8448862408,4825018.045410967],[643026.8816050333,4825033.688212845],[643028.5986253852,4825042.153381737],[643033.4988403821,4825041.159453679],[643031.6563369223,4825032.075634168],[643031.5952710612,4825031.836065744],[643031.5108414931,4825031.603700262],[643031.4038738996,4825031.380810146],[643031.2754143736,4825031.16957516],[643031.1267191891,4825030.972061081],[643017.6076275564,4825014.750458442],[643017.4423680033,4825014.57078015],[643000.549777051,4824997.915275513],[642972.3403220082,4824965.062361281],[642963.9850319019,4824954.229416003],[642962.4826515617,4824951.2692917185],[642962.2357419544,4824948.310456152],[642967.8263222246,4824940.890398033],[642977.0315291565,4824933.663530222],[642985.8725670795,4824926.786579439],[642991.4496362183,4824922.550177379],[643019.2497319942,4824905.6466525905],[643028.0925615893,4824901.60807648],[643038.0330019619,4824899.504980199],[643038.2710646412,4824899.442222528],[643038.501800184,4824899.356353594],[643038.7229709222,4824899.248206152],[643038.9324319465,4824899.118829014],[643042.7864596372,4824896.467593191],[643042.9578972845,4824896.338477376],[643046.5518044266,4824893.381696512],[643046.7074559432,4824893.242334198],[643046.8509276514,4824893.090462153],[643046.9812175621,4824892.927141033],[643051.2024469083,4824887.156695251],[643054.9461170887,4824883.8925753515],[643058.4940890633,4824880.893253863],[643062.460446179,4824879.245538669],[643071.5514217156,4824878.051781467],[643077.9688888032,4824878.198899821],[643083.6986052473,4824879.711520202],[643091.1409801139,4824883.149349922],[643091.1433456623,4824883.150441136],[643104.8255471449,4824889.4533204455],[643105.0265835845,4824889.535542217],[643105.2339979972,4824889.600004075],[643105.4462247834,4824889.646219451],[643112.1279166414,4824890.799801601],[643112.3606727646,4824890.828820243],[643117.1280189585,4824891.1971374955],[643117.3466453681,4824891.204429554],[643117.5650723024,4824891.192582379],[643123.1737440752,4824890.641454454],[643131.3354344361,4824890.22939871],[643133.0570986614,4824890.327950426],[643133.0633204139,4824890.328298793],[643138.0508552638,4824890.60132497],[643138.2738211338,4824890.603571849],[643144.4653556835,4824890.389672443],[643180.9769611631,4824931.050426232],[643181.0160697494,4824931.0929792],[643198.9858414757,4824950.197372432],[643199.7437865981,4824951.026218982],[643194.5802608212,4824953.661613069],[643155.7224570581,4824973.477241908],[643157.99391908,4824977.931505066],[643196.8521064166,4824958.115680623],[643203.2439787171,4824954.853355129],[643210.5437146287,4824962.833219968],[643228.1292950549,4824985.081342739],[643241.9200337784,4825003.9226665525],[643245.4238269789,4825009.807703884],[643247.5530339224,4825013.386231881],[643251.8499570173,4825010.82958331],[643249.7205716902,4825007.250755507],[643246.1555559675,4825001.262887478],[643246.0248023362,4825001.065229234],[643232.1366512062,4824982.090817649],[643232.0805946537,4824982.017134013]]],[[[643140.7342699469,4825068.717445313],[643145.3287339924,4825071.882139102],[643145.5377316868,4825072.01143045],[643145.7584138841,4825072.1195769105],[643145.9886480421,4825072.205533421],[643161.729748461,4825077.215695194],[643160.4232889166,4825084.173255464],[643159.6366674798,4825087.668954086],[643150.6888025426,4825115.466399044],[643144.869273196,4825123.192492072],[643140.9209823139,4825127.510317274],[643134.3879121243,4825131.846795806],[643118.8835716575,4825139.429904165],[643118.8146753325,4825139.46493103],[643098.7951340002,4825150.035433709],[642993.1410256111,4825202.76883113],[642990.4802686331,4825203.0373241445],[642985.6868732434,4825203.266608538],[642978.7709383109,4825202.917594238],[642968.8871051744,4825200.800985984],[642965.623278345,4825199.76542703],[642965.5345516049,4825199.739073052],[642945.5000567765,4825194.189796927],[642934.9751814547,4825190.449214486],[642934.8535099272,4825190.409449793],[642927.7414054304,4825188.284988691],[642922.5876189208,4825186.276775056],[642922.37821355,4825186.205676055],[642922.1633443107,4825186.153360786],[642921.9446925353,4825186.120238611],[642921.4369203983,4825186.06616247],[642941.960225038,4825174.09892019],[643116.7039877565,4825082.081077779],[643116.9599060108,4825081.926080201],[643117.1954748761,4825081.741619604],[643130.0996598781,4825070.3277456],[643130.2713147129,4825070.160586926],[643130.4261792294,4825069.977763552],[643130.5628309684,4825069.780954745],[643130.6800147586,4825069.571968229],[643130.7766542452,4825069.352723584],[643130.8518617764,4825069.125234613],[643131.8844047418,4825065.413871425],[643127.0673540424,4825064.073713764],[643126.233041613,4825067.072558888],[643114.1081487536,4825077.797141602],[642939.5827496671,4825169.699996503],[642939.488276322,4825169.7523826845],[642917.2690765955,4825182.708509929],[642919.2450561438,4825173.775449421],[642919.2825862605,4825173.562475683],[642919.3015705312,4825173.3470553495],[642919.3018669041,4825173.130800327],[642918.9321183873,4825164.310166879],[642922.6295060493,4825141.540669357],[642922.6324502787,4825141.52209678],[642926.6613356322,4825115.474248913],[642926.6871182052,4825115.226149492],[642926.6880493487,4825114.976715741],[642926.6641197931,4825114.728430742],[642926.6155677547,4825114.48376615],[642926.5428765635,4825114.24515757],[642926.4467698525,4825114.0149803255],[642926.3282043536,4825113.795525806],[642922.3473654117,4825107.232902669],[642918.0723847358,4825109.8260745155],[642921.5808808244,4825115.610015525],[642917.6926442364,4825140.74853058],[642913.955977167,4825163.759921148],[642913.9280848226,4825164.011863591],[642913.925848124,4825164.265335433],[642914.2925872324,4825173.014177146],[642911.3747571157,4825186.205180567],[642888.2213250471,4825201.225595736],[642888.1373604847,4825201.282519608],[642839.5341743681,4825235.692777146],[642839.349987324,4825235.836557735],[642826.7748114165,4825246.63572312],[642826.7713390694,4825246.638710593],[642824.3923156954,4825248.689326597],[642816.9857113742,4825254.434291374],[642816.0197954396,4825255.181062252],[642806.6521638554,4825261.451236027],[642803.8417587846,4825262.901121877],[642800.9582423404,4825263.535737433],[642797.8389164829,4825263.808222833],[642794.8542510853,4825263.841733527],[642792.2382720417,4825263.1508789025],[642787.7267246987,4825261.056041188],[642778.6509924623,4825255.522705745],[642778.6452485918,4825255.519214379],[642759.3578955139,4825243.8310274305],[642759.1850716458,4825243.735418322],[642759.005239606,4825243.653750527],[642747.4628051368,4825238.9526401125],[642747.1915913152,4825238.85991899],[642746.9115469886,4825238.798850842],[642732.0310078033,4825236.437906284],[642731.754986687,4825236.409702019],[642731.4775401079,4825236.412257997],[642687.3354440507,4825239.273681327],[642687.2396694185,4825239.2817411525],[642658.0,4825242.309444441],[642658.0,4825247.336178335],[642687.7068450323,4825244.260100042],[642731.5228125807,4825241.419817342],[642745.8435590041,4825243.691945248],[642756.9358770199,4825248.209728033],[642776.0510468589,4825259.793571483],[642785.2444321307,4825265.398638187],[642785.4929825267,4825265.531565849],[642790.3331953502,4825267.7790121455],[642790.5371496864,4825267.862986325],[642790.7477117509,4825267.928657103],[642793.9051685922,4825268.762510749],[642794.124526012,4825268.810020527],[642794.3472604277,4825268.8376653595],[642794.5715766049,4825268.845222428],[642797.9899726602,4825268.80684197],[642798.1794617445,4825268.797515385],[642801.5548386968,4825268.502662913],[642801.874632181,4825268.453715229],[642805.2352349728,4825267.714100649],[642805.4442820757,4825267.658510596],[642805.6477412396,4825267.585057796],[642805.8440892572,4825267.494292157],[642809.0708686698,4825265.829599098],[642809.3152643591,4825265.685393779],[642818.8719518749,4825259.288676433],[642819.0104596018,4825259.18895677],[642820.0454918703,4825258.388750533],[642820.0486209037,4825258.386327448],[642827.5078411067,4825252.600550935],[642827.6078320108,4825252.518769016],[642830.0340594648,4825250.42746512],[642842.518767365,4825239.705990814],[642890.9850919725,4825205.392628977],[642914.2113940411,4825190.324940572],[642921.0832891123,4825191.0567758605],[642926.0207882986,4825192.980711431],[642926.2129241467,4825193.046719504],[642933.3610937411,4825195.181953634],[642943.9096206541,4825198.930941944],[642944.0794891223,4825198.984578536],[642964.1552669125,4825204.545289466],[642967.4897712053,4825205.603273225],[642967.7223345623,4825205.6649159165],[642977.9205823578,4825207.848855605],[642978.1182829692,4825207.882960652],[642978.3180816735,4825207.901103522],[642985.5575846729,4825208.266446761],[642985.8030343463,4825208.266768975],[642990.785066338,4825208.028461453],[642990.9166160274,4825208.018684824],[642994.0986900057,4825207.697586489],[642994.3226896259,4825207.664679215],[642994.5427936143,4825207.611641939],[642994.7571968113,4825207.538909637],[642994.9641408116,4825207.447078819],[643101.0536027531,4825154.496390539],[643101.1044520746,4825154.4702806035],[643121.1150913995,4825143.904478267],[643136.7321468844,4825136.266241462],[643137.0163221202,4825136.103366892],[643143.9415966204,4825131.506553553],[643144.1848768545,4825131.322753749],[643144.4039727709,4825131.110705122],[643148.6395055741,4825126.478754024],[643148.7914529836,4825126.295825042],[643154.9362630016,4825118.137884595],[643155.0910746772,4825117.906606392],[643155.2192201955,4825117.6595537895],[643155.319111449,4825117.399788511],[643164.4306890516,4825089.093753644],[643164.4899524454,4825088.87656398],[643165.3111156182,4825085.22736395],[643165.3291623207,4825085.139899508],[643167.0519064887,4825075.9654123],[643164.5948487321,4825075.504036985],[643165.353081852,4825073.121793812],[643147.8590983301,4825067.553715014],[643143.6690009368,4825064.667551347],[643141.2364137742,4825062.623912767],[643138.020208496,4825066.452231407],[643140.5443144774,4825068.572755779],[643140.7342699469,4825068.717445313]]],[[[643554.8719689901,4824571.068144871],[643554.619959833,4824571.1721520545],[643554.3807743866,4824571.302981837],[643544.455872751,4824577.457506363],[643544.2423426769,4824577.605825343],[643544.0453708435,4824577.775518328],[643543.8670874968,4824577.964750092],[643543.709420767,4824578.171474097],[643539.6685437112,4824584.083669585],[643533.1980444982,4824589.601427147],[643533.1135033794,4824589.676895748],[643528.9570925087,4824593.560079815],[643525.5749582049,4824593.842859472],[643523.1360462705,4824590.193308813],[643518.9815332508,4824559.696392496],[643514.0272920402,4824560.371295474],[643518.2597007421,4824591.440018423],[643518.3004726594,4824591.663106916],[643518.3612931244,4824591.881582763],[643518.4416616494,4824592.093648142],[643518.5409168875,4824592.297557982],[643518.658242074,4824592.4916343205],[643522.2364387264,4824597.845993274],[643522.3804638579,4824598.040434736],[643522.5426121157,4824598.220041704],[643522.7213644761,4824598.3831316],[643522.9150463666,4824598.528176579],[643523.1218433527,4824598.653817843],[643523.3398181364,4824598.758878369],[643523.566928705,4824598.842373939],[643523.8010474602,4824598.903522357],[643524.0399811507,4824598.941750777],[643524.2814914181,4824598.956701071],[643524.5233157665,4824598.9482331835],[643530.2381868121,4824598.470413816],[643530.4746239253,4824598.439230681],[643530.7070139584,4824598.385660457],[643530.9332421661,4824598.310190633],[643531.1512498752,4824598.213507981],[643531.3590532196,4824598.096492314],[643531.5547611918,4824597.960208471],[643531.7365928529,4824597.805896632],[643536.485495911,4824593.369168583],[643543.1665498075,4824587.671859235],[643543.3281277115,4824587.521248174],[643543.4757807059,4824587.35696274],[643543.6083561262,4824587.18028544],[643547.5395064458,4824581.428630821],[643556.6649538826,4824575.769855336],[643576.4171249316,4824571.191690441],[643593.5735974595,4824572.070432414],[643593.8293585383,4824567.076978072],[643576.3224006264,4824566.180284494],[643576.0900425878,4824566.179195728],[643575.8585870919,4824566.199684673],[643575.6300335972,4824566.241574332],[643555.1338049201,4824570.992197156],[643554.8719689901,4824571.068144871]]],[[[643521.3955277125,4824912.7179032955],[643521.3261831852,4824912.954417631],[643521.2804648327,4824913.196610791],[643521.2588170202,4824913.442128746],[643520.7705086896,4824926.076326781],[643525.7667783645,4824926.269431249],[643526.2307852803,4824914.2639935035],[643578.0982750524,4824826.098790023],[643573.7887237212,4824823.563485836],[643521.6021761921,4824912.271028887],[643521.4878244115,4824912.489366617],[643521.3955277125,4824912.7179032955]]],[[[643605.790309463,4824889.619548615],[643605.7543046451,4824889.369682442],[643605.6932843934,4824889.124721261],[643605.6078709137,4824888.88716287],[643605.4989351428,4824888.659429585],[643605.3675878673,4824888.443843535],[643605.2151683978,4824888.242602991],[643605.0432309114,4824888.057759943],[643604.8535286053,4824887.891199184],[643599.5444439241,4824883.684863839],[643613.0591633155,4824848.248126237],[643622.453668455,4824843.817317124],[643630.5734664437,4824846.6043515],[643632.1967054682,4824841.875176618],[643623.1168778343,4824838.758622268],[643622.8854732797,4824838.691471524],[643622.6486790117,4824838.6469096],[643622.4086946518,4824838.625350441],[643622.1677494546,4824838.626994312],[643621.9280816001,4824838.651825943],[643621.691917403,4824838.699614669],[643621.4614506318,4824838.769916574],[643621.2388221308,4824838.86207861],[643610.0156257385,4824844.155368688],[643609.8044062911,4824844.2676405385],[643609.6048837553,4824844.399585153],[643609.4188847558,4824844.5499945795],[643609.2481121097,4824844.717491824],[643609.0941292371,4824844.900543452],[643608.958345848,4824845.09747363],[643608.8420050367,4824845.306479464],[643608.746171901,4824845.525647514],[643594.2196287771,4824883.615472544],[643594.1441227921,4824883.846651212],[643594.091436226,4824884.084072476],[643594.06206766,4824884.32548958],[643594.0562950134,4824884.568617956],[643594.0741729137,4824884.811156842],[643594.1155321794,4824885.050811055],[643594.1799814214,4824885.2853127085],[643594.2669107465,4824885.512442678],[643594.3754975286,4824885.730051597],[643594.5047141941,4824885.936080197],[643594.6533379455,4824886.128578797],[643594.8199623328,4824886.305725753],[643595.0030105634,4824886.465844696],[643600.2382377535,4824890.613663481],[643583.6296122855,4824928.566136893],[643588.2102031169,4824930.570678644],[643605.5913157786,4824890.852989938],[643605.6807180375,4824890.616903751],[643605.745855204,4824890.373005],[643605.7860630929,4824890.123780649],[643605.8009317163,4824889.871771967],[643605.790309463,4824889.619548615]]]]}},{"type":"Feature","properties":{"class":"service","widthMeters":3},"geometry":{"type":"MultiPolygon","coordinates":[[[[643911.8691839258,4824849.871027711],[643908.8960044069,4824850.271282065],[643909.3490505454,4824853.636610856],[643912.4576753621,4824876.725914266],[643912.4853091883,4824876.874271992],[643912.5277099845,4824877.01910229],[643912.5844485859,4824877.158939245],[643912.6549507062,4824877.292367481],[643912.7385027496,4824877.418036487],[643912.8342590343,4824877.53467429],[643912.9412503514,4824877.641100325],[643913.0583937758,4824877.73623739],[643913.1845036264,4824877.819122543],[643913.3183034672,4824877.888916852],[643913.4584390272,4824877.944913886],[643913.6034919076,4824877.986546864],[643913.7519939385,4824878.013394394],[643913.9024420388,4824878.025184734],[643914.0533134302,4824878.021798546],[643914.2030810498,4824878.003270106],[643940.6511259921,4824873.370286465],[643940.795023944,4824873.337713061],[643940.9350258113,4824873.291160678],[643941.0697771448,4824873.231079688],[643941.1979742913,4824873.1580513455],[643941.3183770061,4824873.072782163],[643941.429820452,4824872.976097078],[643941.5312264684,4824872.868931472],[643941.6216140017,4824872.75232212],[643941.7001085968,4824872.62739716],[643941.7659508571,4824872.495365179],[643941.8185037908,4824872.357503522],[643941.8572589741,4824872.215145933],[643941.8818414698,4824872.069669654],[643941.892013454,4824871.922482093],[643941.8876765178,4824871.77500722],[643941.8688726191,4824871.628671781],[643938.2397365073,4824851.33937171],[643938.2392764618,4824851.336812547],[643937.5097869409,4824847.2988748],[643934.5575767362,4824847.832217942],[643935.2868351185,4824851.86887627],[643938.6506816015,4824870.675029741],[643915.2226197348,4824874.778993857],[643912.3222278841,4824853.236340308],[643911.8691839258,4824849.871027711]]],[[[643814.5695911755,4824907.853765538],[643814.6342748582,4824907.985494343],[643814.7115212793,4824908.110271934],[643814.8005910547,4824908.226903971],[643814.90063163,4824908.33427408],[643815.010685441,4824908.4313545395],[643815.1296990791,4824908.517216119],[643815.2565333747,4824908.591036973],[643815.3899743002,4824908.652110504],[643815.5287445914,4824908.699852133],[643815.6715159727,4824908.733804889],[643815.8169218708,4824908.753643783],[643815.9635704956,4824908.759178922],[643816.1100581618,4824908.750357325],[643816.2549827249,4824908.727263431],[643907.2970606178,4824889.611511464],[643907.4374924118,4824889.574850736],[643907.5737237318,4824889.5247895215],[643907.7044791436,4824889.461796505],[643907.8285344805,4824889.386461447],[643907.9447283035,4824889.299489651],[643908.051972775,4824889.201695371],[643908.149263844,4824889.093994184],[643908.2356906454,4824888.977394417],[643908.3104440287,4824888.852987708],[643908.3728241329,4824888.721938784],[643908.4222469387,4824888.585474562],[643908.4582497368,4824888.444872655],[643908.4804954594,4824888.301449415],[643908.4887758362,4824888.15654761],[643908.4830133441,4824888.011523848],[643908.463261933,4824887.867735881],[643908.4297065209,4824887.72652989],[643905.1648777567,4824876.445222644],[643905.1169571246,4824876.305724459],[643905.0555674798,4824876.171607188],[643904.981302423,4824876.044167665],[643904.8948800522,4824875.924638152],[643904.7971360189,4824875.814174426],[643904.6890154486,4824875.713844605],[643904.5715638013,4824875.624618817],[643904.445916763,4824875.54735982],[643904.3132892641,4824875.482814664],[643904.1749637318,4824875.43160746],[643904.0322776898,4824875.394233349],[643903.8866108253,4824875.371053717],[643903.7393716483,4824875.362292699],[643903.5919838719,4824875.368035005],[643903.4458726462,4824875.388225113],[643814.1523473004,4824892.237264653],[643811.9882694489,4824884.717333496],[643810.9655961203,4824881.1621110365],[643808.0825060047,4824881.991442928],[643809.1052032702,4824885.546748602],[643811.6328249121,4824894.3299542535],[643814.4802623979,4824907.5745522585],[643814.5180893678,4824907.716346395],[643814.5695911755,4824907.853765538]],[[643814.8783627736,4824895.153211118],[643902.662197591,4824878.589039213],[643905.0985729279,4824887.007703935],[643817.0994789889,4824905.484532364],[643814.8783627736,4824895.153211118]]],[[[643690.8460567091,4824926.823468689],[643690.7982918939,4824926.686844157],[643690.7375820271,4824926.555459028],[643690.6644923239,4824926.43053651],[643690.5797032572,4824926.313239646],[643690.4840042224,4824926.204660482],[643690.3782861878,4824926.105809901],[643690.2635333994,4824926.017608213],[643690.140814218,4824925.940876585],[643690.0112711722,4824925.876329398],[643689.8761103216,4824925.824567591],[643689.7365900283,4824925.786073073],[643689.594009241,4824925.761204232],[643689.449695402,4824925.750192599],[643689.3049920887,4824925.753140695],[643689.1612465042,4824925.770021072],[643650.2621164722,4824932.253666389],[643649.1472448183,4824926.303710529],[643649.0441047804,4824923.105167759],[643646.0456632668,4824923.201855342],[643646.1525086465,4824926.515306877],[643646.1605874739,4824926.629738226],[643646.1773876928,4824926.743217535],[643647.3055929885,4824932.764333676],[643623.0185116142,4824937.102379435],[643623.546009258,4824940.0556397075],[643649.3137312178,4824935.453128799],[643688.3464079343,4824928.947224132],[643689.2883680724,4824932.126275037],[643689.3376542276,4824932.266643849],[643689.4006026321,4824932.401440091],[643689.4765940823,4824932.529337816],[643689.5648810747,4824932.649078934],[643689.6645951587,4824932.759485591],[643689.7747554785,4824932.859471752],[643689.8942784226,4824932.948053886],[643690.0219882821,4824933.024360637],[643690.1566288159,4824933.087641401],[643690.2968756085,4824933.137273706],[643690.441349097,4824933.172769333],[643690.588628142,4824933.193779126],[643690.7372640069,4824933.200096415],[643690.8857946082,4824933.191659062],[643691.0327588981,4824933.16855006],[643766.7360273974,4824917.3828003965],[643770.4632594493,4824916.711126124],[643770.6049207221,4824916.678438789],[643770.7427522042,4824916.632190972],[643770.875459114,4824916.572817121],[643771.00179481,4824916.500874992],[643771.1205725018,4824916.417040405],[643771.2306763979,4824916.322100897],[643771.3310721883,4824916.216948326],[643771.4208167605,4824916.102570488],[643771.4990670588,4824915.980041843],[643771.5650880041,4824915.850513418],[643771.6182593992,4824915.715201996],[643771.658081755,4824915.575378686],[643771.6841809824,4824915.432356981],[643771.6963119067,4824915.287480417],[643771.6943605706,4824915.1421099575],[643771.6783453048,4824914.997611206],[643771.6484165561,4824914.855341574],[643766.8612310471,4824896.552495488],[643763.9588651318,4824897.311621363],[643768.3358576396,4824914.0461765705],[643766.183837381,4824914.433986244],[643766.1436672179,4824914.441792383],[643691.7723937216,4824929.949792616],[643690.8460567091,4824926.823468689]]],[[[643493.0642312898,4824975.886459126],[643494.6809352955,4824973.35935245],[643463.4513490365,4824953.380379002],[643461.8346450308,4824955.907485678],[643493.0642312898,4824975.886459126]]],[[[643162.5892581197,4825125.427558306],[643162.7237873197,4825125.472532355],[643162.861963222,4825125.504597769],[643163.0025501796,4825125.5234678015],[643168.3010788397,4825125.980938197],[643168.4514228128,4825125.986346513],[643168.6015523771,4825125.976667978],[643168.7499573921,4825125.951999949],[643168.8951450643,4825125.9125905605],[643169.035654963,4825125.858836225],[643169.1700737111,4825125.791277656],[643173.2675147544,4825123.467538357],[643173.4024570525,4825123.381173678],[643173.527418285,4825123.280909168],[643173.6409728787,4825123.167888657],[643173.7418253883,4825123.043401497],[643173.8288252761,4825122.908867855],[643175.0519344383,4825120.775663361],[643196.5269037703,4825109.133534807],[643196.6569277054,4825109.054251902],[643196.7782426167,4825108.9621937955],[643196.8895980436,4825108.858309381],[643196.989846184,4825108.743669453],[643197.0779537244,4825108.619455669],[643197.1530124912,4825108.486948371],[643197.214248812,4825108.347513383],[643198.5582320022,4825104.809472469],[643198.5988770074,4825104.68679723],[643200.0700648539,4825099.5092012435],[643201.9913482947,4825094.793991226],[643202.0404717084,4825094.653985496],[643202.0755229847,4825094.509811566],[643202.0961591706,4825094.362880078],[643202.1021783552,4825094.214628658],[643202.093521645,4825094.066507844],[643202.0702737396,4825093.919966898],[643201.1242071242,4825089.410832273],[643201.0893612818,4825089.276162081],[643201.0421898174,4825089.145299],[643200.9830984116,4825089.019368467],[643200.9125952583,4825088.899453503],[643200.8312866939,4825088.7865853915],[643200.7398719825,4825088.681734813],[643200.6391373025,4825088.585803497],[643200.5299489853,4825088.499616464],[643196.5509734116,4825085.648020079],[643196.4226195632,4825085.565576838],[643196.2865558444,4825085.496596675],[643196.1441895532,4825085.441793048],[643195.9969931747,4825085.401732787],[643189.6678521063,4825084.020616638],[643183.2606573269,4825081.628141568],[643165.1699235643,4825074.118652945],[643164.0197738999,4825076.889421025],[643182.1355065308,4825084.409286712],[643182.1858624001,4825084.429132194],[643188.7187232452,4825086.868531533],[643188.9236445951,4825086.928815397],[643195.0549978621,4825088.266771199],[643198.3079840585,4825090.598075704],[643199.0399789144,4825094.086903336],[643197.2606597078,4825098.453705012],[643197.2068877218,4825098.609731245],[643195.7307897089,4825103.804607728],[643194.6075342055,4825106.7615821585],[643173.2476540476,4825118.341317936],[643173.1292357552,4825118.4127682075],[643173.0179017277,4825118.494821652],[643172.9145984545,4825118.586780703],[643172.8202041527,4825118.687863586],[643172.7355213013,4825118.797210959],[643172.6612698183,4825118.913893222],[643171.430475473,4825121.060501317],[643168.095199486,4825122.952001842],[643163.6964974703,4825122.572221703],[643158.4790266617,4825118.575098612],[643158.407587461,4825118.523624406],[643153.7801495702,4825115.3915516725],[643152.098578007,4825117.875966509],[643156.68954057,4825120.983350985],[643162.219353878,4825125.219760784],[643162.3359086016,4825125.300604876],[643162.459578658,4825125.370077806],[643162.5892581197,4825125.427558306]]],[[[642820.2312462584,4825238.934412734],[642791.2263909554,4825227.150463925],[642790.0972000732,4825229.929839385],[642818.8432083344,4825241.608625101],[642827.3764979263,4825249.62556031],[642829.4306351965,4825247.439120263],[642820.6937194524,4825239.23088044],[642820.5888513727,4825239.141076315],[642820.4761703712,4825239.061294821],[642820.3566310859,4825238.992211869],[642820.2312462584,4825238.934412734]]],[[[642658.0,4825301.9307751665],[642673.7953614467,4825296.737145091],[642672.858294904,4825293.887249253],[642658.0,4825298.772765012],[642658.0,4825301.9307751665]]]]}},{"type":"Feature","properties":{"class":"tertiary","widthMeters":8},"geometry":{"type":"Polygon","coordinates":[[[643507.4577656422,4824847.969257168],[643544.4076455622,4824764.174996415],[643551.4746989526,4824752.3486698065],[643558.8231157133,4824745.695592632],[643599.9504530068,4824718.209981345],[643600.2727909344,4824717.9703035],[643600.5694654823,4824717.69950575],[643600.8374849244,4824717.400318873],[643601.074146499,4824717.07575993],[643601.2770636634,4824716.729101837],[643605.8866009831,4824707.8609056035],[643606.0420503281,4824707.524644447],[643606.1657241052,4824707.17544413],[643606.2565615327,4824706.816299833],[643606.3137834753,4824706.450292028],[643606.3368991257,4824706.080560056],[643606.9539712862,4824667.793165756],[643606.9502784096,4824667.54518424],[643605.417782681,4824634.178551083],[643605.3906531612,4824633.862321539],[643605.3385366879,4824633.5492384685],[643595.8666603488,4824587.910216918],[643595.956165288,4824578.8667143155],[643597.6267919104,4824570.343062569],[643597.6283497479,4824570.335071296],[643597.7943893743,4824569.478694373],[643609.3521913073,4824546.685239567],[643609.5277327808,4824546.286611803],[643609.6588905957,4824545.871260709],[643617.2394090364,4824516.355196943],[643617.2583041491,4824516.278489374],[643622.9850471047,4824492.0],[643614.7655071847,4824492.0],[643609.4810490552,4824514.403425741],[643602.0191905684,4824543.45746639],[643590.4063795126,4824566.359406179],[643590.2544027666,4824566.697010284],[643590.1342916965,4824567.0472199265],[643590.0470753049,4824567.407034829],[643589.7753810937,4824568.808342803],[643588.0346925394,4824577.689455338],[643587.9806829905,4824578.052629457],[643587.9602023438,4824578.419225986],[643587.8627894928,4824588.261737246],[643587.8815399001,4824588.690183074],[643587.946051874,4824589.11415903],[643597.4408038316,4824634.863403815],[643598.9530108317,4824667.788295732],[643598.3531405391,4824705.008368019],[643594.6520268258,4824712.128866329],[643554.1336933472,4824739.207477231],[643553.6716113768,4824739.567923691],[643545.6627146107,4824746.818983342],[643545.3833280539,4824747.098245356],[643545.132849064,4824747.4037030395],[643544.9137205015,4824747.732377337],[643537.4136725233,4824760.283296662],[643537.1873560667,4824760.721244045],[643500.1445547196,4824844.7262303075],[643469.6755777592,4824912.293930971],[643469.5351903824,4824912.649742614],[643469.429430958,4824913.017336799],[643469.3592665935,4824913.393352094],[643469.3253389004,4824913.774350063],[643469.3279581276,4824914.156846704],[643469.3671003237,4824914.537344311],[643469.4424075563,4824914.912363459],[643472.308712767,4824926.3277882375],[643472.515302018,4824927.153400515],[643468.9289125545,4824931.684863648],[643468.6890637396,4824932.022459857],[643468.4854051635,4824932.383045268],[643468.3201197741,4824932.762754886],[643464.0804207575,4824944.068681052],[643459.2499897446,4824952.519477964],[643453.7027666176,4824960.635706746],[643444.6998751413,4824966.867803145],[643423.8702696906,4824975.227584604],[643374.4737699077,4824992.108332211],[643316.4587322159,4825002.390280598],[643275.8944004129,4825004.096258585],[643275.467399464,4825004.137238057],[643262.8548356665,4825006.034714348],[643262.84096341,4825006.036826226],[643249.0925463993,4825008.154531692],[643248.5410893536,4825008.279924099],[643240.9048254881,4825010.594763571],[643233.9982898004,4825012.692529053],[643233.5285500512,4825012.868057265],[643205.7685329508,4825025.275882457],[643205.4688495847,4825025.425179666],[643156.5746811086,4825052.394320274],[643144.2552319836,4825058.336123084],[643138.6509074317,4825060.617250518],[643134.5160429344,4825061.040726828],[643129.9457946598,4825060.764876168],[643120.1486103545,4825059.03437946],[643110.216933971,4825056.176571491],[643067.3720921291,4825043.873583499],[643067.333761571,4825043.862783045],[643043.6383258842,4825037.313228423],[643043.2323609535,4825037.223436413],[643042.819268384,4825037.176270123],[643042.4035113861,4825037.172239154],[643030.8795821259,4825037.6599958055],[643030.5795078517,4825037.684034561],[643030.282091222,4825037.730572504],[643017.097763029,4825040.30521688],[643016.6629274272,4825040.41577017],[643016.2432082138,4825040.574325562],[643002.5888653827,4825046.627912515],[643002.3418170341,4825046.747749084],[642986.1456769037,4825055.302798817],[642985.6494938197,4825055.61332609],[642917.8454471643,4825105.303115914],[642917.7139496228,4825105.403731701],[642873.7443741679,4825140.513558299],[642845.1094542007,4825150.0913791675],[642686.1852931695,4825153.064193411],[642686.1655229589,4825153.064612118],[642658.0,4825153.730776325],[642658.0,4825161.7330136355],[642686.3447996064,4825161.06260922],[642845.8718553955,4825158.078517307],[642846.2761453195,4825158.050421155],[642846.6755172866,4825157.981560657],[642847.0658717506,4825157.872642665],[642876.9547816471,4825147.875386683],[642877.2823868351,4825147.749576686],[642877.5977041554,4825147.595536749],[642877.8983065848,4825147.414452531],[642878.1818803616,4825147.207717852],[642922.6410931934,4825111.706914465],[642990.1416489132,4825062.239536158],[643005.9568402604,4825053.885709417],[643019.0734879953,4825048.070506989],[643031.5192905129,4825045.640082398],[643042.1133193817,4825045.191684293],[643065.1832419069,4825051.568343481],[643108.0057771337,4825063.864925454],[643118.1390680863,4825066.780747367],[643118.549415881,4825066.87574751],[643128.7801212865,4825068.682817938],[643129.2348863083,4825068.736526286],[643134.3588705341,4825069.0457992945],[643134.6834083077,4825069.052193043],[643135.0073959101,4825069.032251126],[643140.0358434273,4825068.51725761],[643139.6283111351,4825064.538072087],[643141.1362989612,4825068.242930075],[643147.387660872,4825065.698439116],[643147.6173605861,4825065.596419177],[643160.1485473813,4825059.552493012],[643160.3427873937,4825059.45217633],[643209.1859899147,4825032.511147623],[643236.5636806986,4825020.274209864],[643243.2266874615,4825018.250412347],[643250.5906162779,4825016.018127896],[643264.0519272307,4825013.944646143],[643276.445152867,4825012.08016782],[643317.0617967343,4825010.37198979],[643317.5917589834,4825010.314144478],[643376.1735019666,4824999.931759467],[643376.4741939966,4824999.866448526],[643376.7689759653,4824999.778216973],[643426.556419399,4824982.763868379],[643426.752761457,4824982.690976232],[643448.0967796333,4824974.124739689],[643448.502045174,4824973.935125494],[643448.8835987753,4824973.70143649],[643458.8643716102,4824966.79241858],[643459.1551728356,4824966.570792945],[643459.4245222856,4824966.323539738],[643459.6701694907,4824966.052724809],[643459.8900620181,4824965.760610875],[643465.9453607544,4824956.901008735],[643466.1157210054,4824956.628923074],[643471.1855095479,4824947.759372252],[643467.7127855762,4824945.774381517],[643471.4581048236,4824947.178868518],[643475.5907759714,4824936.158351571],[643479.12552456,4824931.692137548],[643488.1068326693,4824929.714803979],[643505.5143821214,4824929.418039703],[643523.0258435723,4824930.16615483],[643562.3494295132,4824933.269676141],[643562.614896003,4824933.281772661],[643585.8706622361,4824933.568104617],[643585.9603328324,4824933.568203489],[643603.9499743066,4824933.386385799],[643604.4751865112,4824933.346394923],[643648.1105213594,4824927.113316394],[643648.2439195667,4824927.0919565875],[643720.9238226512,4824914.191983362],[643721.3559293321,4824914.090270954],[643766.5411903135,4824900.768791055],[643766.7249922933,4824900.709745779],[643810.7801397652,4824885.374950864],[643875.707949936,4824865.019206464],[643875.7779103867,4824864.99656459],[643907.6571195317,4824854.354541711],[643910.76908813,4824854.052438904],[643936.4215063321,4824851.546701136],[643943.8934987175,4824850.820798781],[644003.7240297338,4824856.943537495],[644010.0,4824857.836930111],[644010.0,4824849.756281042],[644004.7734078678,4824849.012268783],[644004.6168976339,4824848.9931284],[643944.3110293793,4824842.821746198],[643943.9140849668,4824842.800977684],[643943.5170391636,4824842.819708088],[643935.6469036861,4824843.584289954],[643909.9949120514,4824846.089986215],[643906.433497294,4824846.4357202295],[643905.9881744633,4824846.504449988],[643905.5534071904,4824846.622829131],[643873.279618441,4824857.3965718765],[643808.3274274459,4824877.759959994],[643808.2091068587,4824877.799089629],[643764.186292253,4824893.122630062],[643719.306871882,4824906.353942294],[643646.9123671947,4824919.203260091],[643603.6051985491,4824925.3894617995],[643585.9243184155,4824925.5681589],[643562.8463212023,4824925.28401569],[643523.583355482,4824922.185278686],[643523.4393736196,4824922.176524271],[643505.7364319556,4824921.4202288315],[643505.4975196847,4824921.417164719],[643487.5698797673,4824921.722795508],[643487.1716251144,4824921.749502862],[643486.7780150077,4824921.815768504],[643479.8093478963,4824923.349997064],[643477.5404690942,4824914.313894004],[643507.444203572,4824847.999669454],[643507.4577656422,4824847.969257168]]]}},{"type":"Feature","properties":{"class":"track","widthMeters":2.5},"geometry":{"type":"MultiPolygon","coordinates":[[[[643655.8107643061,4824637.096486213],[643655.909362121,4824637.08936015],[643656.0070884901,4824637.07446496],[643672.0212255921,4824633.981249696],[643702.6232443438,4824632.704121832],[643741.398666897,4824637.409796253],[643770.5132046817,4824642.561497647],[643770.5542369293,4824642.568056744],[643777.691468498,4824643.587603687],[643777.8208075076,4824643.599265336],[643777.9506584221,4824643.597445042],[643778.0796197181,4824643.58216245],[643778.2062994741,4824643.553582512],[643778.3293303943,4824643.5120137],[643778.4473845655,4824643.457904679],[643784.7968143167,4824640.138290567],[643784.9077531786,4824640.0727981785],[643785.01136201,4824639.99623517],[643785.1065402906,4824639.909414787],[643785.1922770481,4824639.813259223],[643785.2676615972,4824639.708789831],[643785.3318932125,4824639.597116272],[643801.5361112631,4824607.72928905],[643810.6816396469,4824598.794376632],[643808.9345836386,4824597.006138587],[643799.641717096,4824606.084996056],[643799.5497313,4824606.185211368],[643799.4691799651,4824606.294828784],[643799.401017051,4824606.412550118],[643783.2845015533,4824638.107898187],[643777.6461414897,4824641.055750256],[643770.9283414141,4824640.096118715],[643741.8007975965,4824634.942115954],[643741.7335899912,4824634.932099404],[643702.8233973262,4824630.210069668],[643702.7222037393,4824630.201941831],[643702.620684325,4824630.202052517],[643671.823705713,4824631.487316729],[643671.7308325582,4824631.49466745],[643671.638764827,4824631.508914866],[643655.6302531061,4824634.601043558],[643631.7248840487,4824635.380545982],[643601.5154522975,4824633.11557218],[643601.3285376263,4824635.608574969],[643631.6049909104,4824637.8785737585],[643631.7391863926,4824637.881408349],[643655.8107643061,4824637.096486213]]],[[[643334.2810693682,4824877.658450613],[643334.2105405006,4824877.548477196],[643323.9002841284,4824863.1836777],[643323.8214464437,4824863.084806459],[643323.7330227606,4824862.994406485],[643297.1593003842,4824838.443832162],[643287.784278609,4824824.649076321],[643287.7141992718,4824824.5556635475],[643266.3769852438,4824798.722097511],[643264.4494505229,4824800.3141433345],[643285.7494407918,4824826.102641517],[643295.1720684035,4824839.967446356],[643295.2587205041,4824840.0805091895],[643295.3576735805,4824840.182979085],[643321.9432983854,4824864.744549664],[643332.10304147,4824878.899646014],[643350.6252648394,4824921.121569687],[643356.3630243596,4824938.664696404],[643358.739162379,4824937.88754255],[643352.9824822517,4824920.286566318],[643352.939110247,4824920.172979161],[643334.3397346172,4824877.775184764],[643334.2810693682,4824877.658450613]]],[[[642760.2602906652,4825018.741236214],[642760.2971711211,4825018.740796472],[642775.2644003583,4825018.341426601],[642793.337123955,4825020.577842376],[642813.7467108188,4825028.689440453],[642813.8838069255,4825028.734946512],[642836.6352539574,4825034.852478848],[642836.7427269233,4825034.876356329],[642836.8518840101,4825034.890684724],[642836.961878468,4825034.895352885],[642851.9905836555,4825034.870749149],[642852.1262249283,4825034.863144524],[642852.2602398224,4825034.840864638],[642866.7430169673,4825031.615749429],[642866.8560788597,4825031.584944791],[642894.8591919794,4825022.525397719],[642894.9277219013,4825022.501002364],[642921.1616835573,4825012.292773221],[642921.3217621276,4825012.217021294],[642941.9870127757,4825000.579168653],[642942.1008510644,4825000.506699349],[642942.2062136974,4825000.422380481],[642955.1372998346,4824988.875418019],[642955.2245416796,4824988.7894715285],[642955.302954507,4824988.695400453],[642955.3717856574,4824988.594107751],[642964.1244929056,4824974.248868423],[642971.2564490484,4824967.552453299],[642969.5452085941,4824965.729912187],[642962.2899250736,4824972.542123215],[642962.2117511077,4824972.622413384],[642962.1410819668,4824972.709382071],[642962.0784856124,4824972.802330317],[642953.3340800513,4824987.133963605],[642940.6421659322,4824998.467354656],[642920.1723656711,4825009.995137362],[642894.055043048,4825020.157979613],[642866.1423581504,4825029.188271412],[642851.8500315762,4825032.3709758995],[642837.1239475551,4825032.39508421],[642814.6028280964,4825026.339483599],[642794.1114528568,4825018.195379502],[642794.0110961411,4825018.160356741],[642793.9081268247,4825018.133986606],[642793.8032894543,4825018.116459772],[642775.4783340053,4825015.848831474],[642775.3850766056,4825015.840822468],[642775.2914813593,4825015.839814183],[642760.2489244717,4825016.241194019],[642731.9417183007,4825016.161058665],[642731.9311219925,4825016.161073581],[642694.7682284882,4825016.370903853],[642694.6582770348,4825016.376372432],[642694.5492331398,4825016.391493823],[642694.4419425814,4825016.41615074],[642658.0,4825026.499452019],[642658.0,4825029.0933873635],[642694.9484939509,4825018.869925882],[642731.939939179,4825018.661063647],[642760.2602906652,4825018.741236214]]]]}},{"type":"Feature","properties":{"class":"unclassified","widthMeters":4},"geometry":{"type":"Polygon","coordinates":[[[642931.443879265,4824529.495720955],[642960.3261644727,4824547.266729108],[642990.4640429887,4824576.85611318],[643008.4096829359,4824617.832866876],[643030.8547955783,4824708.724678388],[643030.8739739669,4824708.796568648],[643041.1630204848,4824744.671795687],[643041.2343317264,4824744.877468131],[643041.327573225,4824745.074172148],[643041.4416403845,4824745.259577461],[643041.5751818958,4824745.431487647],[643050.9600176689,4824756.242722188],[643051.0964139387,4824756.385030916],[643097.9930921475,4824800.718494564],[643100.7409670338,4824797.81174662],[643053.9159976839,4824753.546072465],[643044.8859907102,4824743.143597062],[643034.7292221433,4824707.729588807],[643012.2520098404,4824616.707789252],[643012.2040722973,4824616.544027315],[643012.1423502596,4824616.384947557],[642993.9730207149,4824574.8974250285],[642993.8882169456,4824574.72647864],[642993.7875072968,4824574.564392509],[642993.6718085876,4824574.4126422005],[642993.5421740916,4824574.272609188],[642962.9675337736,4824544.254412163],[642962.7987544467,4824544.106363888],[642962.6144455668,4824543.978164864],[642933.5268006584,4824526.080800749],[642933.5002020762,4824526.064718472],[642876.1586620114,4824492.0],[642868.3268924864,4824492.0],[642931.443879265,4824529.495720955]]]}}]}
