{"type":"FeatureCollection","name":"barreiros-anguieira-coastline","crs":{"type":"name","properties":{"name":"EPSG:25829"}},"features":[{"type":"Feature","properties":{"source":"IHM"},"geometry":{"type":"LineString","coordinates":[[641778.2557390338,4824776.142048863],[641792.270205744,4824763.7158045005],[641806.4111511699,4824746.070017656],[641804.2330079458,4824740.935095478],[641780.835203208,4824718.285215712],[641777.4652800254,4824712.191794847],[641779.348310502,4824705.287098419],[641779.1036031758,4824698.893018889],[641775.7012284012,4824693.187804412],[641767.1581643887,4824684.507345007],[641766.6700099609,4824677.397011767],[641766.4457641989,4824671.181144088],[641769.5327556939,4824667.335215659],[641780.1400090392,4824665.125904535],[641800.1353792197,4824654.926002382],[641815.2439721038,4824625.145068095],[641828.6634430683,4824604.18406281],[641836.0320974475,4824588.906362823],[641836.2151964651,4824585.976887543],[641831.4158391331,4824579.464349001],[641829.5219130437,4824573.113200097],[641829.6120193161,4824568.848421993],[641836.5259388167,4824554.061115873],[641835.2468431143,4824546.145173056],[641831.7220690581,4824541.259572024],[641829.881963338,4824532.74288677],[641814.7527775674,4824522.178778202],[641811.3454346999,4824518.617896718],[641811.6043618819,4824515.923357496],[641814.6021615901,4824514.008902152],[641821.4662389376,4824513.8205775935],[641825.3170508617,4824510.924144577],[641824.4124883241,4824491.016077279],[641821.9569145015,4824484.475288775],[641805.7648508344,4824461.488712136],[641802.7091568641,4824459.257491561],[641786.5393695023,4824446.304802388],[641786.8747527077,4824437.311858417],[641783.5361405063,4824428.963542408],[641785.3986272496,4824422.269525101],[641794.4341505552,4824413.77144991],[641794.9707250615,4824405.582758246],[641793.3517474671,4824397.304093339],[641793.2307830087,4824387.345952809],[641804.7970039193,4824372.656878123],[641815.9494236001,4824372.20356896],[641821.3764553461,4824369.284872435],[641824.6016158976,4824365.408549192],[641840.5636689989,4824337.334577321],[641855.1916130604,4824317.0]]}},{"type":"Feature","properties":{"source":"IHM"},"geometry":{"type":"LineString","coordinates":[[641871.6928500977,4824881.594474343],[641865.5048460236,4824889.952611152],[641859.7708516797,4824896.709230354],[641846.2460655046,4824910.056793299],[641833.7078065895,4824925.280790931],[641829.277630079,4824929.987198469],[641806.2337117367,4824947.9892756175],[641788.1196712437,4824964.406670463],[641782.7116167838,4824967.214664194],[641772.2513088273,4824968.22705045],[641770.0647742592,4824968.847535817],[641743.364989192,4824988.19482642],[641730.8717416644,4824996.331036943],[641727.4912879097,4824999.159666191],[641724.5703345466,4825002.420223216],[641716.2688361773,4825013.3116464],[641710.6661864367,4825019.9822669495],[641699.6457048911,4825030.694080089],[641697.0687627412,4825034.117466816],[641692.350024773,4825041.784543095],[641689.4251486086,4825047.911707818],[641689.7299783682,4825049.929260948],[641691.5165375855,4825052.944764232]]}},{"type":"Feature","properties":{"source":"IHM"},"geometry":{"type":"LineString","coordinates":[[641239.533659177,4825520.807658701],[641238.2815080992,4825520.803527769],[641233.1878737982,4825518.685214222],[641217.717767573,4825510.5707586445],[641232.7554994576,4825536.542804184],[641245.456577668,4825564.132377398],[641253.305185014,4825576.608705657],[641262.7744132002,4825588.085824088],[641272.3437311405,4825597.109504968],[641288.025229359,4825608.217444125],[641293.2875484916,4825610.7615779815],[641297.0169357769,4825611.673436226],[641309.3908360192,4825612.578433044],[641348.5301333108,4825612.324940326]]}},{"type":"Feature","properties":{"source":"IHM"},"geometry":{"type":"LineString","coordinates":[[642140.0,4825190.73196398],[642126.8137031244,4825189.049116077],[642089.871827276,4825185.744684138],[642053.9221873723,4825185.183696822],[642041.6487602415,4825184.457265304],[642022.9547455221,4825183.228319132],[642010.4222691098,4825182.907576751],[641995.1006715125,4825183.05007375],[641979.510018215,4825184.453587704],[641950.080512741,4825188.475557881],[641929.6114197266,4825192.864914321],[641888.4988983067,4825200.340118614],[641866.121283214,4825205.200430977],[641857.0889076634,4825207.476192336],[641833.2524125394,4825214.850233274],[641816.9333392986,4825217.8498446755],[641810.3375157692,4825218.377145084],[641800.6839344628,4825218.317622327],[641794.8477426216,4825218.072095012],[641785.0007519897,4825216.841836851],[641748.7662952557,4825211.79866248],[641725.1933858325,4825205.167480987],[641713.8120888526,4825200.838250735],[641705.9307426084,4825196.816270828],[641692.778509307,4825188.349671343],[641689.8398351122,4825185.565399187],[641688.1559550803,4825182.6631733095],[641687.5572525996,4825180.406081428],[641688.3777821191,4825174.83449417],[641691.154665892,4825168.826428493],[641698.333875585,4825157.889065134],[641701.4442285092,4825151.77693197],[641708.6079412102,4825133.5392238805],[641710.155845117,4825126.427434939],[641710.355173125,4825123.109408925],[641710.0291004318,4825119.802511981],[641708.2155650421,4825112.708639852],[641704.920572033,4825103.839039475],[641699.0432909484,4825090.992687007],[641691.5465267556,4825066.067665378],[641691.0180469744,4825063.545388905],[641691.5165375855,4825052.944764232]]}},{"type":"Feature","properties":{"source":"IHM"},"geometry":{"type":"LineString","coordinates":[[641620.5684674946,4825812.205723428],[641606.3856486328,4825820.473111341],[641594.2002068777,4825828.649340821],[641587.2163505057,4825833.813109103],[641582.1611517885,4825838.6953542335],[641556.1102384861,4825866.145852782],[641550.6666282384,4825872.975489225],[641534.2251133916,4825895.650985333],[641526.9444637484,4825907.99746817],[641516.7087816985,4825927.1594387265],[641503.2410549329,4825957.464416652],[641501.6622271953,4825962.0]]}},{"type":"Feature","properties":{"source":"IHM"},"geometry":{"type":"LineString","coordinates":[[641274.0936892782,4825525.879563852],[641252.781102479,4825523.975375994],[641243.4359367744,4825520.800899809],[641239.533659177,4825520.807658701]]}}]}
