{"type":"FeatureCollection","name":"barreiros-pena-de-salsa-roads","crs":{"type":"name","properties":{"name":"EPSG:25829"}},"source":"\u00a9 OpenStreetMap contributors, ODbL 1.0","features":[{"type":"Feature","properties":{"class":"footway","widthMeters":2},"geometry":{"type":"Polygon","coordinates":[[[644719.3561264836,4824847.485179133],[644726.5107236883,4824847.4076024955],[644731.3713914244,4824847.687948011],[644736.557367231,4824848.278551196],[644740.5371853914,4824849.413751965],[644745.7779514855,4824851.250927604],[644745.8458040686,4824851.272038194],[644749.8300859099,4824852.357980854],[644749.9305486903,4824852.379883574],[644750.032729517,4824852.391354321],[644752.0339712477,4824852.512290657],[644752.1309543892,4824852.513439306],[644755.3736156955,4824852.394475147],[644755.381479856,4824852.394155638],[644759.07761083,4824852.229415755],[644759.1168126438,4824852.226896164],[644764.2731422568,4824851.793643055],[644764.3598341983,4824851.782525889],[644764.4452242835,4824851.763881387],[644766.891276354,4824851.1166191],[644766.9942766188,4824851.0833024755],[644767.0930719611,4824851.039047166],[644769.1030729528,4824850.004594459],[644769.1840463547,4824849.958014127],[644769.2603198857,4824849.904081135],[644769.331227951,4824849.843266125],[644769.396151777,4824849.776099795],[644769.4545248115,4824849.703168265],[644769.5058376667,4824849.625107967],[644769.5496425652,4824849.542600089],[644770.5317640189,4824847.463732469],[644770.5354259769,4824847.455893537],[644772.7560922096,4824842.648118142],[644772.7670573825,4824842.623513123],[644774.0751649776,4824839.578561923],[644775.7365104833,4824835.816654253],[644776.3888881691,4824835.52199592],[644778.3328666125,4824835.328853477],[644783.8098704368,4824834.853489701],[644787.1621850431,4824834.925799093],[644789.1245173865,4824835.631860974],[644791.4793323149,4824838.385151103],[644792.8758593056,4824840.772504885],[644792.9567474809,4824840.890513392],[644797.1783910585,4824846.192035587],[644799.8971541366,4824850.060003235],[644799.9270407563,4824850.100331963],[644804.9688309728,4824856.558318207],[644808.2649182965,4824861.2001932375],[644808.2940806586,4824861.2392131975],[644809.4579811196,4824862.71991332],[644809.5161039379,4824862.787434476],[644809.5800057026,4824862.849514531],[644809.6491792017,4824862.90566073],[644811.3034059234,4824864.130266362],[644811.3843723505,4824864.184309743],[644811.470209822,4824864.230224642],[644811.5601049202,4824864.267575958],[644811.6532057769,4824864.296009739],[644811.7486301452,4824864.31525654],[644814.2291728405,4824864.691002452],[644814.3344651749,4824864.701291838],[644814.4402553054,4824864.700399952],[644814.545359192,4824864.6883367775],[644814.6486004755,4824864.665237329],[644816.3801079104,4824864.18035918],[644816.4927148022,4824864.141455696],[644816.5998958935,4824864.089436403],[644819.1354090659,4824862.66632666],[644819.2227855684,4824862.6111624455],[644819.3040028994,4824862.547275914],[644819.3781938409,4824862.475349229],[644820.6851558898,4824861.070179449],[644820.7480186373,4824860.995609499],[644820.8033181273,4824860.9152704105],[644820.8505283287,4824860.829926404],[644820.8892001591,4824860.740389304],[644820.9189657565,4824860.647510826],[644820.9395419785,4824860.552174465],[644821.6430033596,4824856.295539517],[644822.3093529223,4824852.98247538],[644822.3215276239,4824852.907198006],[644822.3279307857,4824852.831211785],[644822.5258956015,4824848.524268364],[644822.5269471175,4824848.480867775],[644822.5400224897,4824843.28201762],[644823.3718203651,4824842.0856576245],[644826.3656072682,4824840.311160633],[644830.0145916918,4824839.10383633],[644830.0292745007,4824839.098851665],[644834.817889121,4824837.431650247],[644836.7300916944,4824837.11056252],[644838.8125556258,4824838.010830115],[644838.8879283386,4824838.039860732],[644838.9653980875,4824838.0627137525],[644843.1081443676,4824839.104926082],[644850.1335473055,4824841.835314082],[644850.150354321,4824841.841672827],[644864.4515686423,4824847.105979998],[644864.5208052973,4824847.128638526],[644871.8363598244,4824849.231017661],[644871.9285293476,4824849.252838532],[644872.0223499228,4824849.265841268],[644872.1169798507,4824849.269909214],[644872.2115701712,4824849.265005876],[644875.7906393654,4824848.908909908],[644875.8980939614,4824848.892278077],[644876.0031075611,4824848.864077866],[644876.1044385772,4824848.824642689],[644878.585040883,4824847.700376753],[644878.6801511256,4824847.650964456],[644878.7694266818,4824847.591656712],[644880.567859775,4824846.252662714],[644880.6479699682,4824846.186269636],[644880.7207479215,4824846.111912032],[644880.7854057638,4824846.030394873],[644880.8412435297,4824845.942600639],[644880.8876567372,4824845.84947976],[644882.0609166502,4824843.15251502],[644882.1072380433,4824843.0219947],[644883.2448118656,4824838.939098402],[644884.4890946145,4824834.6036579665],[644886.2173226492,4824832.194347903],[644888.4586250109,4824830.273822562],[644890.0,4824829.51422273],[644890.0,4824827.284551556],[644887.4615523478,4824828.535515418],[644887.388252584,4824828.575525261],[644887.3185466453,4824828.621511401],[644887.2529206359,4824828.673153145],[644884.8243807161,4824830.754118453],[644884.7381317439,4824830.837499374],[644884.662488052,4824830.930608423],[644882.7630761646,4824833.578564644],[644882.7019243486,4824833.675001767],[644882.6521655528,4824833.777781755],[644882.6144486155,4824833.885564388],[644881.3213488549,4824838.39109739],[644881.3192364529,4824838.398566819],[644880.1992516011,4824842.418334077],[644879.1599027305,4824844.807478396],[644877.6613876312,4824845.923173348],[644875.4287922573,4824846.935036847],[644872.2044245485,4824847.255842141],[644865.1082468728,4824845.216508578],[644850.8496699685,4824839.967896329],[644843.7746764455,4824837.218235195],[644843.6564007459,4824837.180534629],[644839.5318660336,4824836.142903878],[644837.2526028573,4824835.157558229],[644837.163045268,4824835.123830332],[644837.0706737695,4824835.098817556],[644836.9763343118,4824835.082748969],[644836.8808908683,4824835.075771729],[644836.7852175226,4824835.077949737],[644836.6901904643,4824835.089263045],[644834.4033266115,4824835.473262066],[644834.3208425742,4824835.490716273],[644834.2401219616,4824835.5150565365],[644829.3789936451,4824837.207504283],[644825.6346636311,4824838.446375186],[644825.5343752179,4824838.485667283],[644825.4388946041,4824838.535517931],[644822.1650028997,4824840.476040475],[644822.0760096628,4824840.535443369],[644821.9938727141,4824840.604014659],[644821.9195323985,4824840.680969305],[644821.853839801,4824840.765426293],[644820.7197598108,4824842.3965532435],[644820.6664639096,4824842.482106559],[644820.6220512156,4824842.5725904545],[644820.5869729542,4824842.667085631],[644820.5615855141,4824842.764632034],[644820.5461468272,4824842.864238609],[644820.5408137479,4824842.964893371],[644820.5270080491,4824848.454125979],[644820.3335491206,4824852.663038843],[644819.6788472538,4824855.918191087],[644819.6725970252,4824855.952319584],[644819.015444766,4824859.928738685],[644818.0201958732,4824860.998772562],[644815.725451049,4824862.286746038],[644814.3162280696,4824862.681374104],[644812.2937545519,4824862.375015275],[644810.9472543207,4824861.378216139],[644809.8815193786,4824860.022401005],[644806.5863907425,4824855.381876093],[644806.5592695429,4824855.345461739],[644801.5189548328,4824848.889365458],[644798.7974235809,4824845.017459546],[644798.7615804512,4824844.969576373],[644794.5659747695,4824839.700752458],[644793.1605383533,4824837.298168072],[644793.1121695898,4824837.223342916],[644793.0573327043,4824837.153120005],[644790.4722705912,4824834.130620906],[644790.4009989967,4824834.055533696],[644790.3223462449,4824833.988217473],[644790.2371553147,4824833.929393713],[644790.1463392592,4824833.879692875],[644790.0508714203,4824833.839647638],[644787.6856101818,4824832.98860892],[644787.5822717894,4824832.957612065],[644787.4761955154,4824832.937928253],[644787.368616048,4824832.929786597],[644783.7988890351,4824832.852787622],[644783.690856461,4824832.856300408],[644778.1537279064,4824833.33688257],[644778.1413280714,4824833.33803662],[644776.0279030014,4824833.548014299],[644775.92082187,4824833.564552094],[644775.8161585475,4824833.592578088],[644775.7151417674,4824833.631763257],[644774.5646452226,4824834.151406097],[644774.471927635,4824834.199256245],[644774.3847004555,4824834.256506632],[644774.3039132553,4824834.322534019],[644774.2304454993,4824834.396619622],[644774.165096971,4824834.477956929],[644774.108579067,4824834.565660488],[644774.0615070515,4824834.65877554],[644772.2435898731,4824838.775220044],[644772.2395538287,4824838.784485575],[644770.9347684819,4824841.821703402],[644768.7215645819,4824846.613322737],[644767.8862083944,4824848.381530653],[644766.2745401665,4824849.210980274],[644764.0183398788,4824849.808004914],[644758.9689317701,4824850.232274099],[644755.2963579736,4824850.395964018],[644752.1061487731,4824850.513003857],[644750.2564151473,4824850.401223253],[644746.4060340679,4824849.351776143],[644741.1708262439,4824847.516548982],[644741.1143083029,4824847.498599483],[644737.026708071,4824846.332655025],[644736.9467921235,4824846.313373792],[644736.8655624731,4824846.300721974],[644731.5699780908,4824845.697636052],[644731.5144054767,4824845.69287274],[644726.5917009223,4824845.408949168],[644726.5232780072,4824845.407348806],[644719.3222762899,4824845.485428602],[644719.2979518494,4824845.485988363],[644713.8155239136,4824845.678906648],[644713.7855558954,4824845.680411629],[644699.9738093433,4824846.5819504345],[644686.0062145533,4824847.257446513],[644677.8894102941,4824847.504257967],[644677.8786340641,4824847.50464381],[644663.0062402182,4824848.1174546],[644662.9874949813,4824848.11840328],[644654.6785516437,4824848.617128636],[644654.6339420133,4824848.620809816],[644652.001969876,4824848.897430673],[644651.9253698494,4824848.908492816],[644651.8498547472,4824848.925445822],[644649.5662984911,4824849.531805599],[644649.476242329,4824849.560335139],[644649.3892800967,4824849.597235235],[644649.306187849,4824849.642176591],[644649.2277071053,4824849.694758145],[644649.1545382311,4824849.754510658],[644647.0534422913,4824851.64261009],[644646.9804786728,4824851.715308529],[644646.9153799964,4824851.7951265415],[644646.8588368783,4824851.881217358],[644644.6106283086,4824855.721747423],[644644.5890935324,4824855.760478087],[644643.1247605752,4824858.537242724],[644641.2577052335,4824862.023552474],[644639.8167226346,4824864.128573641],[644638.4631462174,4824866.033282447],[644636.9964973498,4824867.576571036],[644634.5880754153,4824869.073612398],[644631.9058764844,4824870.695179522],[644623.9428225551,4824874.027029313],[644623.860636211,4824874.065897009],[644620.1009247195,4824876.0578944655],[644613.2489806657,4824878.765486442],[644604.0652621415,4824881.169630146],[644593.1888786089,4824883.698642512],[644593.1832280703,4824883.699973694],[644576.0213467445,4824887.795669094],[644560.6617015649,4824889.889756925],[644548.2865272284,4824891.455913255],[644548.275295951,4824891.45739933],[644543.0367445061,4824892.180759506],[644537.5097982659,4824890.8043197505],[644537.4968115423,4824890.801177506],[644532.811502099,4824889.700609589],[644526.5107588291,4824888.198592225],[644526.4643601846,4824888.188688374],[644524.0360159866,4824887.73029806],[644520.7941064456,4824885.895182363],[644517.8942647636,4824883.653089189],[644517.8338157312,4824883.609842836],[644517.7703215678,4824883.571205759],[644516.4042190034,4824882.807988361],[644516.1160543333,4824879.986232445],[644516.8079181708,4824875.280150026],[644516.8166897413,4824875.195711638],[644517.0395352427,4824871.550088678],[644517.8392677205,4824864.683380938],[644517.8459177418,4824864.578995794],[644517.8416279802,4824864.474487042],[644517.826445368,4824864.37099806],[644517.80053601,4824864.269661066],[644517.764183367,4824864.171584737],[644517.7177851545,4824864.077842073],[644516.6750204746,4824862.222017635],[644516.6205230529,4824862.135669594],[644516.5575044352,4824862.055329025],[644516.4866216509,4824861.981833555],[644516.4086137204,4824861.915949444],[644516.324293951,4824861.858363599],[644516.2345414566,4824861.809676403],[644516.1402919922,4824861.770395471],[644516.0425281987,4824861.740930341],[644513.6715080224,4824861.1565376315],[644513.572355143,4824861.137351432],[644501.9080511597,4824859.486202537],[644501.8845237806,4824859.483156316],[644488.9268984103,4824857.961510069],[644481.2947316559,4824856.777424576],[644481.2555764891,4824856.7721397495],[644474.2605258562,4824855.968366696],[644469.1345834841,4824855.113373299],[644463.7127644507,4824853.633098425],[644460.6879978778,4824851.360901692],[644457.55182817,4824848.314321156],[644457.4738585638,4824848.246064291],[644457.3892439305,4824848.186242699],[644453.857821246,4824845.954641444],[644453.7840184339,4824845.912286162],[644453.7068819423,4824845.876358644],[644453.6269703032,4824845.847119033],[644447.8248649845,4824843.999997555],[644447.7280517376,4824843.974437664],[644447.6291677064,4824843.958687707],[644447.5292043132,4824843.952905593],[644432.2844888853,4824843.835644723],[644419.6733172531,4824843.132705927],[644414.8397478539,4824842.597785136],[644414.7368315797,4824842.591742193],[644409.3482781632,4824842.553589986],[644409.3340148652,4824842.553590721],[644400.4284557279,4824842.617563173],[644400.2938592535,4824842.627639141],[644388.5616044308,4824844.308009633],[644374.1292603113,4824846.262979944],[644364.5005400663,4824847.4774648305],[644364.4978840386,4824847.477803452],[644343.6606340795,4824850.162736153],[644312.013137643,4824854.092644593],[644280.1007072688,4824857.8395789405],[644280.0883062738,4824857.841113585],[644253.0447199162,4824861.359489995],[644228.509762681,4824864.398322498],[644206.5414982045,4824867.048380772],[644206.5304362981,4824867.049777792],[644188.2100526391,4824869.467317206],[644172.1992862122,4824871.567839914],[644172.1904856918,4824871.569034268],[644151.923830444,4824874.411214871],[644138.971480981,4824876.164031699],[644113.8443084373,4824875.30339423],[644071.619201553,4824873.5636701025],[644059.678661356,4824873.063743693],[644050.9764142146,4824872.015244175],[644044.0047841598,4824871.0154760545],[644035.9059482159,4824869.292386059],[644035.803200924,4824869.276058701],[644031.2000088394,4824868.788386241],[644031.1038790775,4824868.782863696],[644031.0076638061,4824868.786612187],[644030.9122550784,4824868.799596959],[644022.4856622942,4824870.362841438],[643999.1347079659,4824874.594857636],[643999.0918411074,4824874.603599203],[643984.3561888966,4824877.945872881],[643970.3733477154,4824880.1177404],[643970.2664524497,4824880.140385046],[643962.098870683,4824882.343025416],[643962.0293694915,4824882.364509067],[643956.7865982935,4824884.19654554],[643956.7095945232,4824884.227088459],[643956.6353829714,4824884.263900089],[643956.5644729112,4824884.306727813],[643952.6138552045,4824886.922049475],[643952.5423505198,4824886.974074678],[643952.4757213969,4824887.032213318],[643950.2650875297,4824889.140398407],[643950.2536973109,4824889.15143455],[643948.1511080903,4824891.221240351],[643945.1371179668,4824892.6769354725],[643920.1502514093,4824897.391647619],[643920.1435874803,4824897.39292845],[643900.9153964389,4824901.156351594],[643872.6449549951,4824906.092901087],[643872.6211923586,4824906.097347126],[643853.1704466075,4824909.98053305],[643853.16169942,4824909.982319997],[643841.4123825596,4824912.437252182],[643824.9134576123,4824915.213415275],[643824.8994279287,4824915.215878832],[643811.1987970244,4824917.722371082],[643811.1753324819,4824917.726954394],[643789.3253812786,4824922.26670294],[643780.2642579977,4824923.869724509],[643780.2532315131,4824923.871739023],[643757.7619243369,4824928.11124573],[643734.9756455297,4824932.166779834],[643734.9595629972,4824932.169778148],[643716.470519871,4824935.773482575],[643696.7501219823,4824939.528665235],[643696.7151527477,4824939.535973717],[643690.2034252306,4824941.018778519],[643683.5000851768,4824941.294414814],[643679.5319860098,4824940.3707328085],[643679.4426185797,4824940.354170975],[643679.3521165391,4824940.3457916835],[643675.8651240089,4824940.182259817],[643675.7876551816,4824940.181630913],[643675.7103701456,4824940.18700101],[643668.356786903,4824940.985169611],[643668.2831239192,4824940.9959526295],[643656.7994387115,4824943.116297434],[643644.5629072278,4824945.304579425],[643635.3132888185,4824946.490260682],[643629.4853040511,4824947.108622825],[643629.4408888718,4824947.1143437205],[643622.9947362584,4824948.091832437],[643620.7873621885,4824947.962946185],[643618.8531296288,4824945.948991293],[643617.8934909051,4824943.715971164],[643617.8508993997,4824943.628786391],[643617.8000586422,4824943.546139924],[643617.7414473096,4824943.468809898],[643617.6756172405,4824943.397524394],[643614.2886552841,4824940.069447635],[643614.2186824193,4824940.006868637],[643614.1431497987,4824939.951126768],[643614.0627230409,4824939.902713243],[643613.9781108933,4824939.862054698],[643613.8900589864,4824939.829509431],[643611.4102140475,4824939.04310562],[643611.3417596251,4824939.024046022],[643607.8932519831,4824938.1946957],[643607.8240777295,4824938.18062222],[643603.3959795244,4824937.441428566],[643603.3133035543,4824937.431145806],[643603.2300585696,4824937.427780734],[643593.9224314059,4824937.439571851],[643572.9324371978,4824937.101619152],[643561.4589518731,4824936.878379665],[643539.3721740522,4824935.308915808],[643533.7153795563,4824934.528067835],[643533.6106051505,4824933.371505281],[643533.5976127645,4824933.277743447],[643533.5758132496,4824933.18563012],[643533.5454019312,4824933.095990646],[643533.5066512973,4824933.0096282],[643533.4599085569,4824932.927316598],[643533.4055925288,4824932.849793358],[643533.3441898891,4824932.777753094],[643533.2762508107,4824932.711841295],[643533.2023840335,4824932.652648535],[643533.1232514097,4824932.600705185],[643533.0395619746,4824932.556476664],[643532.9520655923,4824932.520359261],[643532.8615462377,4824932.492676592],[643532.7688149719,4824932.473676697],[643527.1558876836,4824931.598084641],[643527.0423278268,4824931.58695835],[643509.701880047,4824930.882847755],[643509.6196500517,4824930.882892471],[643509.5377017407,4824930.889693092],[643502.8378295809,4824931.724241688],[643502.7098195187,4824931.748746017],[643497.6154440669,4824933.073187265],[643497.5320550147,4824933.098798148],[643497.4512152395,4824933.131578968],[643497.3735399038,4824933.171280273],[643488.9572921813,4824937.94698649],[643488.8815984646,4824937.994531442],[643488.8104528071,4824938.048645735],[643488.7444236671,4824938.108896991],[643488.6840386216,4824938.174803801],[643488.6297801505,4824938.245839563],[643486.7874966708,4824940.895385881],[643486.7272398131,4824940.993690454],[643486.6786994188,4824941.098277777],[643485.850204033,4824943.191709958],[643485.8130605322,4824943.30482258],[643484.8985926826,4824946.774215729],[643484.8767550522,4824946.879920203],[643484.8664373877,4824946.987362578],[643484.867759893,4824947.0952911135],[643485.1977441772,4824952.069087494],[643485.2082207847,4824952.161569928],[643485.2272503932,4824952.252677742],[643486.8240088591,4824958.442461611],[643486.8541513399,4824958.538880446],[643486.8938678713,4824958.631766172],[643493.5619436675,4824972.2754880795],[643492.9185663179,4824974.323153203],[643493.8725832927,4824974.622905788],[643492.9057020927,4824974.8781326385],[643494.4454360792,4824980.711139006],[643494.4583997234,4824980.755980975],[643495.6526799231,4824984.5525928615],[643496.535476657,4824988.980442906],[643496.5656644389,4824994.88974536],[643495.9193551621,4824998.344059468],[643494.8448026986,4825001.738757497],[643493.1417797641,4825006.312205626],[643491.6701428125,4825008.621583085],[643488.4796039037,4825012.202501334],[643485.4250842149,4825014.602248033],[643481.414600272,4825017.514790906],[643476.1384586337,4825020.239407947],[643469.9762705922,4825023.286558933],[643461.9608601367,4825026.993257748],[643459.0255814628,4825028.267256227],[643455.0038811658,4825029.949434444],[643450.1705995976,4825031.778752435],[643444.4620230099,4825033.751740603],[643444.4515148347,4825033.755438067],[643437.278386614,4825036.32440342],[643437.2702731247,4825036.327348733],[643431.5171827603,4825038.443948078],[643422.3674439066,4825041.532301837],[643417.0172693006,4825043.321712856],[643410.8518213046,4825045.1055606175],[643404.1619072611,4825047.015563905],[643400.0,4825048.139292661],[643400.0,4825050.210912113],[643404.6901918658,4825048.944544763],[643404.7040580149,4825048.940693598],[643411.4025899394,4825047.028229863],[643411.4059854897,4825047.027253927],[643417.5928848969,4825045.237199633],[643417.6321422696,4825045.224961169],[643423.0031303178,4825043.428588918],[643423.0057505146,4825043.427708543],[643432.1695956474,4825040.334593426],[643432.1950676733,4825040.3256107615],[643437.9567829275,4825038.205838264],[643445.1206043664,4825035.640206017],[643450.837648245,4825033.6642913995],[643450.864967991,4825033.654402621],[643455.7278973587,4825031.813863423],[643455.7597987438,4825031.801158905],[643459.8034908747,4825030.109782046],[643459.8157565467,4825030.104555272],[643462.76800408,4825028.823191801],[643462.7895963439,4825028.813514952],[643470.8275798219,4825025.09637732],[643470.8511014575,4825025.085125294],[643477.032799404,4825022.028326822],[643477.0483755884,4825022.020454631],[643482.3996748684,4825019.257025934],[643482.4655710501,4825019.219772394],[643482.5284604502,4825019.177640976],[643486.6156232589,4825016.209411436],[643486.6457867799,4825016.1866225675],[643489.7849718174,4825013.720359555],[643489.8520779997,4825013.662657948],[643489.9138196285,4825013.599249065],[643493.21689265,4825009.892027558],[643493.2678043568,4825009.830051378],[643493.3135854242,4825009.7641943935],[643494.8853076502,4825007.297757358],[643494.9371855197,4825007.20601231],[643494.9791190571,4825007.109316677],[643496.7277848495,4825002.413295187],[643496.7440258014,4825002.366112646],[643497.844480302,4824998.88958558],[643497.8740458679,4824998.771715623],[643498.5490813093,4824995.163869454],[643498.5620975901,4824995.069765155],[643498.5661252962,4824994.97485035],[643498.5349594497,4824988.874090323],[643498.5298812854,4824988.778419292],[643498.515671118,4824988.683673288],[643497.6035113026,4824984.108546619],[643497.5767302382,4824984.004003287],[643496.3732400864,4824980.178113001],[643494.9132037752,4824974.647026999],[643495.5895328781,4824972.494486943],[643495.6136394001,4824972.402759417],[643495.6289476394,4824972.309160693],[643495.6353198971,4824972.214532696],[643495.6326988544,4824972.119726612],[643495.6211080881,4824972.025595227],[643495.6006518573,4824971.93298526],[643495.5715141676,4824971.842729743],[643495.5339571142,4824971.755640529],[643488.7352784014,4824957.844688625],[643487.1871755522,4824951.843516721],[643486.8741907123,4824947.125950044],[643487.7318087191,4824943.872239114],[643488.4957167555,4824941.942005471],[643490.1420608326,4824939.57425646],[643498.2460862407,4824934.975717326],[643503.1498480343,4824933.700832023],[643509.70310803,4824932.884545712],[643526.904086659,4824933.582993148],[643531.6891964636,4824934.329449305],[643531.7952559676,4824935.500197542],[643531.8084801339,4824935.595193374],[643531.83074422,4824935.688485374],[643531.8618434166,4824935.779215339],[643531.9014916396,4824935.866548638],[643531.9493241614,4824935.949681884],[643532.0049009667,4824936.027850326],[643532.0677107995,4824936.100334887],[643532.1371758668,4824936.166468775],[643532.2126571534,4824936.225643618],[643532.2934603002,4824936.2773150625],[643532.3788419924,4824936.321007778],[643532.4680167962,4824936.35631983],[643532.5601643848,4824936.382926382],[643532.6544370847,4824936.400582677],[643539.1315091302,4824937.294659452],[643539.1973694616,4824937.301537393],[643561.3428748903,4824938.875174374],[643561.3943018351,4824938.877500309],[643572.8952078157,4824939.101273319],[643572.898562553,4824939.101332962],[643593.8989164006,4824939.439452457],[643593.9162817932,4824939.439581245],[643603.1490617311,4824939.4278849475],[643607.4599338059,4824940.147509746],[643610.8395368407,4824940.960288825],[643613.0575007794,4824941.66364542],[643616.1336162093,4824944.686279983],[643617.087333519,4824946.905521346],[643617.1264584068,4824946.986350505],[643617.1726767105,4824947.063343869],[643617.2256157205,4824947.135880555],[643617.284848531,4824947.203375621],[643619.6164534127,4824949.631081139],[643619.6842061372,4824949.695332987],[643619.7576564227,4824949.752985283],[643619.8361638753,4824949.803535372],[643619.91904401,4824949.846542522],[643620.005574217,4824949.881631765],[643620.0950000625,4824949.908497167],[643620.1865418666,4824949.926904496],[643620.2794015011,4824949.936693262],[643622.9827674459,4824950.094539958],[643623.0871257322,4824950.095178524],[643623.1909822826,4824950.084937594],[643629.7185956856,4824949.095096238],[643635.535140965,4824948.477947851],[643635.5567776485,4824948.475413535],[643644.8417395593,4824947.285201698],[643644.8906319877,4824947.277700946],[643657.154284117,4824945.08456892],[643657.1598156717,4824945.083563646],[643668.6096345616,4824942.96947191],[643675.8489926253,4824942.183701476],[643679.1673524488,4824942.33932486],[643683.1788441748,4824943.273107653],[643683.2672340289,4824943.289533442],[643683.3567419113,4824943.297954357],[643683.4466443681,4824943.2983023375],[643690.3771718114,4824943.013324268],[643690.468195598,4824943.00540388],[643690.5581165361,4824942.989208599],[643697.141791919,4824941.490020336],[643716.8467658731,4824937.7377747195],[643716.8510160604,4824937.736955858],[643735.334154398,4824934.134402335],[643758.1173871353,4824930.079410375],[643758.1273928123,4824930.077577],[643780.6181906065,4824925.838166309],[643789.6884458442,4824924.233529187],[643789.717663912,4824924.227910655],[643811.5704774597,4824919.687567401],[643825.2523426656,4824917.184508284],[643841.7636129444,4824914.406267924],[643841.8022079852,4824914.398991694],[643853.5663812526,4824911.940955373],[643873.0008950314,4824908.061010033],[643901.2694791248,4824903.124784868],[643901.2895429261,4824903.121070024],[643920.5244171662,4824899.356338816],[643945.6381412001,4824894.617690234],[643945.7236077534,4824894.597642541],[643945.8069867677,4824894.57017653],[643945.8876356875,4824894.535503868],[643949.1697608596,4824892.950305044],[643949.2653074829,4824892.8975431565],[643949.3545347871,4824892.8346825],[643949.4363798095,4824892.762471931],[643951.65110445,4824890.582279118],[643953.7918176528,4824888.540774316],[643957.5643036929,4824886.043376392],[643962.6547695273,4824884.264561577],[643970.7343815905,4824882.08564495],[643984.6972353056,4824879.91688196],[643984.7649489787,4824879.903959866],[643999.5128973986,4824876.558897217],[644022.8443590166,4824872.330413785],[644022.8484299358,4824872.329667287],[644031.1339959943,4824870.792585133],[644035.5406967257,4824871.25944086],[644043.6214599877,4824872.9786857525],[644043.6876069293,4824872.990451584],[644050.7036576793,4824873.996589863],[644050.7259897566,4824873.999536104],[644059.4781911676,4824875.054054416],[644059.5559807577,4824875.060359464],[644071.5358710033,4824875.561933381],[644113.7654430728,4824877.3018417],[644113.7723781319,4824877.302103331],[644138.9875442327,4824878.165754692],[644139.071890953,4824878.165084179],[644139.1558811103,4824878.157307786],[644152.1944299219,4824876.392825764],[644152.199204458,4824876.392167915],[644172.4638485835,4824873.5502693495],[644188.4705851604,4824871.450275335],[644205.8393980224,4824869.158304518],[644209.9443726415,4824892.925797044],[644209.9702188208,4824893.037092231],[644210.0085917714,4824893.144712676],[644210.0589905477,4824893.247253434],[644230.2956470355,4824929.089655394],[644233.171376406,4824934.636257367],[644222.3146510356,4824945.096033872],[644223.7022890073,4824946.536332752],[644235.0965020504,4824935.558720459],[644235.1640502807,4824935.486891898],[644235.2241964188,4824935.408760294],[644235.2763557173,4824935.32508525],[644235.3200210781,4824935.236680262],[644235.3547679819,4824935.144404815],[644235.3802586157,4824935.0491560185],[644235.3962451569,4824934.951859893],[644235.4025721824,4824934.853462361],[644235.3991781805,4824934.754920054],[644235.3860961478,4824934.65719101],[644235.3634532694,4824934.561225362],[644235.3314696816,4824934.467956098],[644235.2904563323,4824934.378289991],[644232.0629830522,4824928.153257188],[644232.0460024484,4824928.121887796],[644211.8857196604,4824892.4147560485],[644207.8257703751,4824868.907956799],[644228.7508664897,4824866.383737185],[644228.7540215496,4824866.383351498],[644253.2936046631,4824863.343946046],[644253.299699593,4824863.343172127],[644280.340136464,4824859.825205466],[644312.2496723952,4824856.078610963],[644312.2562914995,4824856.077811415],[644343.9093793618,4824852.147208647],[644343.9139443123,4824852.146631115],[644364.7521483861,4824849.461575474],[644374.3840888393,4824848.246684417],[644374.3931805303,4824848.245495299],[644388.833843846,4824846.28939809],[644388.841391885,4824846.2883463465],[644400.5104612216,4824844.617025694],[644409.341249719,4824844.553590352],[644414.6710573775,4824844.591326626],[644419.4804346361,4824845.123570125],[644419.5347779784,4824845.128088302],[644432.1971453286,4824845.833880715],[644432.2451066396,4824845.835400962],[644447.3624257738,4824845.951681913],[644452.8979384664,4824847.713932652],[644456.2328822671,4824849.8213736005],[644459.339902355,4824852.839637217],[644459.436077352,4824852.921899863],[644462.6643704778,4824855.346985211],[644462.7424391912,4824855.400057407],[644462.8251644922,4824855.445531649],[644462.911809184,4824855.483002697],[644463.0016011427,4824855.512136633],[644468.6566992204,4824857.056101774],[644468.7555567215,4824857.077783137],[644473.9565716952,4824857.945298442],[644474.0069412382,4824857.952388394],[644481.007637045,4824858.756810111],[644488.6385716639,4824859.940704445],[644488.675250601,4824859.945701611],[644501.6394799211,4824861.468123377],[644513.2419768122,4824863.110523125],[644515.1435095512,4824863.579199807],[644515.8151365168,4824864.774504712],[644515.0497870992,4824871.345990696],[644515.0449362796,4824871.400660981],[644514.8230079132,4824875.031280148],[644514.1192138348,4824879.818512489],[644514.1105876826,4824879.900616737],[644514.10876336,4824879.9831527285],[644514.1137533004,4824880.065557938],[644514.4674285412,4824883.528804152],[644514.4817382391,4824883.623648122],[644514.5050688296,4824883.716684833],[644514.5372056679,4824883.807058334],[644514.5778530904,4824883.893937175],[644514.6266371347,4824883.976522059],[644514.6831089807,4824884.054053193],[644514.746749079,4824884.125817278],[644514.8169719315,4824884.191154076],[644514.8931314776,4824884.249462476],[644514.9745270385,4824884.300206034],[644516.7298457421,4824885.280871622],[644519.6274584557,4824887.521241407],[644519.7465161191,4824887.600377382],[644523.1950360555,4824889.552446984],[644523.2930939447,4824889.60107077],[644523.3958784547,4824889.6386868125],[644523.502158266,4824889.664844487],[644526.0700618285,4824890.14957895],[644532.3493304761,4824891.646477036],[644532.3525463304,4824891.647238041],[644537.0329605902,4824892.746656092],[644542.7406941161,4824894.16811941],[644542.834149091,4824894.186715108],[644542.9289497158,4824894.196331444],[644543.0242352353,4824894.196881104],[644543.1191404922,4824894.188359099],[644548.5432567887,4824893.439375385],[644560.9175804505,4824891.873326713],[644560.9271129135,4824891.872073732],[644576.3404920922,4824889.770659969],[644576.437536626,4824889.7525106035],[644593.6446682786,4824885.6460161805],[644604.5316543563,4824883.114538476],[644604.5584224614,4824883.107923985],[644613.8137323521,4824880.68503886],[644613.9279873556,4824880.647659618],[644620.8875558816,4824877.897539105],[644620.9882259244,4824877.851153387],[644624.7567762255,4824875.854472889],[644632.7460070578,4824872.511670327],[644632.8129270972,4824872.480723755],[644632.877385136,4824872.444930694],[644635.6281008229,4824870.7819406465],[644635.638646956,4824870.775475404],[644638.1610748837,4824869.2075695135],[644638.231196147,4824869.159741682],[644638.2970088817,4824869.106139658],[644638.3580389404,4824869.047149617],[644639.9619281224,4824867.359449222],[644640.0521855571,4824867.249842964],[644641.4520757574,4824865.279962907],[644641.462120417,4824865.2655623015],[644642.9387663485,4824863.108443301],[644642.9951321259,4824863.015672614],[644644.8893559793,4824859.478631724],[644644.8923518443,4824859.472994451],[644646.3478355285,4824856.713010388],[644648.5061334298,4824853.026071334],[644650.3122662483,4824851.403033431],[644652.2881630277,4824850.878367429],[644654.820727417,4824850.612194348],[644663.0979566138,4824850.115372561],[644677.9555862416,4824849.503170125],[644686.0759604408,4824849.256250118],[644686.0938722263,4824849.255544727],[644700.0788385505,4824848.579208532],[644700.0956680753,4824848.578252389],[644712.9047283586,4824847.742162264],[644713.2348820369,4824854.083153469],[644715.2321766084,4824853.979161185],[644714.902217421,4824847.641905406],[644719.3561264836,4824847.485179133]]]}},{"type":"Feature","properties":{"class":"path","widthMeters":1.5},"geometry":{"type":"MultiPolygon","coordinates":[[[[644408.9934729454,4824852.264108703],[644409.0176883468,4824852.336243771],[644409.049088148,4824852.405553987],[644410.4969961834,4824855.213252848],[644412.1748526928,4824859.524151466],[644412.2039187687,4824859.589442454],[644412.2390674795,4824859.651670407],[644412.2799796595,4824859.710270265],[644412.3262838076,4824859.764709917],[644412.377559462,4824859.814495027],[644412.4333410166,4824859.859173523],[644412.4931219504,4824859.8983397065],[644412.5563594258,4824859.931637929],[644412.6224792184,4824859.958765828],[644412.6908809312,4824859.979477071],[644412.7609434463,4824859.99358359],[644412.8320305648,4824860.0009572925],[644417.3565130053,4824860.253206149],[644422.5290387899,4824860.80732155],[644422.566055846,4824860.81036213],[644428.4008854073,4824861.1444337685],[644431.9986760736,4824862.063564589],[644439.1706420508,4824864.683586892],[644439.6853441774,4824863.274657611],[644432.4780792648,4824860.6417400995],[644432.4063691569,4824860.619542896],[644428.7018520873,4824859.673146585],[644428.6310006975,4824859.658644915],[644428.5590819754,4824859.651034704],[644422.6703437098,4824859.313876538],[644417.4972590283,4824858.759701263],[644417.4591202801,4824858.756597304],[644413.3975882437,4824858.530158849],[644411.8805623029,4824854.632480475],[644411.8482194433,4824854.560759585],[644410.4530115937,4824851.855253852],[644410.1806072473,4824847.977287331],[644410.091045492,4824843.5384354135],[644408.5913507257,4824843.56869443],[644408.6812904561,4824848.026279513],[644408.6829813584,4824848.063703598],[644408.9675158312,4824852.114355414],[644408.976691195,4824852.189891276],[644408.9934729454,4824852.264108703]]],[[[644314.7532784159,4824861.256524475],[644314.7483138167,4824861.191703055],[644314.7377543193,4824861.127555096],[644314.7216792646,4824861.064562585],[644312.8510508335,4824854.868662133],[644311.415070035,4824855.302204688],[644313.2477250627,4824861.372329533],[644312.351663632,4824878.066510533],[644313.8495075294,4824878.146907418],[644314.7526108141,4824861.321532305],[644314.7532784159,4824861.256524475]]],[[[644664.8111515269,4824855.950129397],[644664.858908766,4824855.999818495],[644664.9110255492,4824856.044913962],[644664.9670618013,4824856.085035011],[644680.0769957533,4824865.885783508],[644684.924680734,4824876.380629455],[644686.8541669181,4824884.853413869],[644684.0348053782,4824885.28650459],[644684.2625535352,4824886.769114039],[644687.1889685018,4824886.319578514],[644688.4068843024,4824891.636280452],[644689.8690124175,4824891.301345571],[644688.6767212393,4824886.096505619],[644695.7276211007,4824885.061505174],[644695.5097708731,4824883.577409059],[644688.3416067747,4824884.6296227025],[644686.3697862522,4824875.970939199],[644686.3484495523,4824875.895637063],[644686.3193815427,4824875.82296852],[644681.3478503054,4824865.060005443],[644681.3154082211,4824864.9976297375],[644681.2772677634,4824864.938566018],[644681.2337641086,4824864.883333332],[644681.1852795641,4824864.832417063],[644681.1322402095,4824864.78626466],[644681.0751121514,4824864.745281706],[644665.9930613243,4824854.962619025],[644663.7514445187,4824848.858081705],[644662.3433752152,4824849.375131835],[644664.6711619858,4824855.714333602],[644664.697865553,4824855.777868472],[644664.730288516,4824855.838683862],[644664.7681570951,4824855.896266246],[644664.8111515269,4824855.950129397]]],[[[644382.0544224764,4824893.751666317],[644383.4926561319,4824893.325656982],[644378.43805681,4824876.261019467],[644378.4158505277,4824876.196867696],[644378.3879344496,4824876.13498667],[644366.3966015414,4824852.473485513],[644365.3534148483,4824848.288214649],[644363.8979452603,4824848.650993201],[644364.9616052777,4824852.918403156],[644364.9865410995,4824852.998879503],[644365.0203456044,4824853.076051345],[644377.0191627953,4824876.752320616],[644382.0544224764,4824893.751666317]]],[[[644623.5384575976,4824878.851392842],[644623.5659447998,4824878.916414499],[644624.6639548282,4824881.206790804],[644624.6985098837,4824881.270725176],[644624.739090675,4824881.331014935],[644624.7853161643,4824881.3870939845],[644624.8367523123,4824881.438435765],[644626.7467531998,4824883.16851708],[644626.797708958,4824883.210734167],[644626.8521875597,4824883.2482955],[644626.9097649169,4824883.280908683],[644629.3234235785,4824884.510720194],[644629.3956824143,4824884.5428581545],[644629.4709236032,4824884.567208746],[644629.5483105718,4824884.583501226],[644629.626982889,4824884.591554446],[644631.628694074,4824884.690242657],[644631.7030955721,4824884.690215923],[644631.7771283274,4824884.682817627],[644631.8500637807,4824884.668120577],[644631.9211841716,4824884.646269407],[644631.9897896014,4824884.617479155],[644632.0552049219,4824884.582033146],[644632.1167863782,4824884.540280208],[644634.169874281,4824882.99424485],[644635.7088190654,4824882.137841845],[644637.2164848464,4824882.605839948],[644638.2356235493,4824883.912306346],[644639.4183353387,4824882.989705227],[644638.2546417962,4824881.497929372],[644638.2049998745,4824881.440533516],[644638.1498121454,4824881.388447824],[644638.0896435945,4824881.342205525],[644638.0251101983,4824881.302280026],[644637.9568726189,4824881.269080064],[644637.8856294396,4824881.242945525],[644635.8469473944,4824880.610113406],[644635.7735197394,4824880.591330428],[644635.6985713101,4824880.580054181],[644635.6228675027,4824880.576399822],[644635.5471814276,4824880.58040467],[644635.4722860138,4824880.592027827],[644635.398946116,4824880.6111505935],[644635.3279107035,4824880.637577681],[644635.2599052115,4824880.671039209],[644633.3953081731,4824881.708663511],[644633.3088460991,4824881.76489441],[644631.431365807,4824883.17869209],[644629.8612820308,4824883.1012839405],[644627.6797359595,4824881.989738836],[644625.9528971112,4824880.425565937],[644624.9963068004,4824878.430181811],[644625.078598954,4824874.96735136],[644623.5790223354,4824874.931714794],[644623.4924565874,4824878.574376878],[644623.494102623,4824878.644950618],[644623.5023766832,4824878.715056981],[644623.5172054657,4824878.784074873],[644623.5384575976,4824878.851392842]]],[[[643566.2437948209,4824975.6612327015],[643566.2394733297,4824975.585039078],[643562.1594212225,4824937.797178066],[643560.6680890634,4824937.958201018],[643564.7399167761,4824975.669890877],[643564.1864390332,4824981.415059941],[643565.6795263648,4824981.558900896],[643566.2403509159,4824975.737471032],[643566.2437948209,4824975.6612327015]]],[[[643808.946002737,4824986.871312158],[643808.930018804,4824986.8061175],[643790.2339440421,4824923.03781153],[643788.794533914,4824923.459828689],[643807.4425745653,4824987.064300598],[643803.9567527864,4825008.3320281515],[643805.4370019606,4825008.574643861],[643808.950438327,4824987.138433934],[643808.9583202469,4824987.071772814],[643808.9602103626,4824987.004673954],[643808.9560935334,4824986.937674839],[643808.946002737,4824986.871312158]]]]}},{"type":"Feature","properties":{"class":"residential","widthMeters":5},"geometry":{"type":"MultiPolygon","coordinates":[[[[643425.8695204407,4824352.0],[643420.6839196973,4824352.0],[643431.8185686561,4824392.491452295],[643436.6396108529,4824391.165725274],[643425.8695204407,4824352.0]]],[[[643653.0841680135,4824454.463387029],[643653.309952809,4824454.382808675],[643653.5269814949,4824454.280974522],[643664.5014204524,4824448.473965728],[643678.2108144471,4824444.76823605],[643676.9061091854,4824439.941462368],[643662.9268810616,4824443.720129794],[643662.6627575111,4824443.807560615],[643662.4099843933,4824443.923798084],[643651.6177181186,4824449.634412122],[643648.8938265537,4824449.915879852],[643648.6826254935,4824449.946865604],[643648.4748376199,4824449.99575532],[643648.271977823,4824450.062192565],[643629.4305774944,4824457.136939725],[643629.2276326767,4824457.223544586],[643618.1242500797,4824462.552743847],[643620.2877653891,4824467.060426345],[643631.2915883891,4824461.779011887],[643649.7281032589,4824454.856294947],[643652.6146963019,4824454.558014794],[643652.8517033043,4824454.521968631],[643653.0841680135,4824454.463387029]]],[[[643555.1338049201,4824570.992197156],[643554.8719689901,4824571.068144871],[643554.619959833,4824571.1721520545],[643554.3807743866,4824571.302981837],[643544.455872751,4824577.457506363],[643544.2423426769,4824577.605825343],[643544.0453708435,4824577.775518328],[643543.8670874968,4824577.964750092],[643543.709420767,4824578.171474097],[643539.6685437112,4824584.083669585],[643533.1980444982,4824589.601427147],[643533.1135033794,4824589.676895748],[643528.9570925087,4824593.560079815],[643525.5749582049,4824593.842859472],[643523.1360462705,4824590.193308813],[643518.9815332508,4824559.696392496],[643514.0272920402,4824560.371295474],[643518.2597007421,4824591.440018423],[643518.3004726594,4824591.663106916],[643518.3612931244,4824591.881582763],[643518.4416616494,4824592.093648142],[643518.5409168875,4824592.297557982],[643518.658242074,4824592.4916343205],[643522.2364387264,4824597.845993274],[643522.3804638579,4824598.040434736],[643522.5426121157,4824598.220041704],[643522.7213644761,4824598.3831316],[643522.9150463666,4824598.528176579],[643523.1218433527,4824598.653817843],[643523.3398181364,4824598.758878369],[643523.566928705,4824598.842373939],[643523.8010474602,4824598.903522357],[643524.0399811507,4824598.941750777],[643524.2814914181,4824598.956701071],[643524.5233157665,4824598.9482331835],[643530.2381868121,4824598.470413816],[643530.4746239253,4824598.439230681],[643530.7070139584,4824598.385660457],[643530.9332421661,4824598.310190633],[643531.1512498752,4824598.213507981],[643531.3590532196,4824598.096492314],[643531.5547611918,4824597.960208471],[643531.7365928529,4824597.805896632],[643536.485495911,4824593.369168583],[643543.1665498075,4824587.671859235],[643543.3281277115,4824587.521248174],[643543.4757807059,4824587.35696274],[643543.6083561262,4824587.18028544],[643547.5395064458,4824581.428630821],[643556.6649538826,4824575.769855336],[643576.4171249316,4824571.191690441],[643593.5735974595,4824572.070432414],[643593.8293585383,4824567.076978072],[643576.3224006264,4824566.180284494],[643576.0900425878,4824566.179195728],[643575.8585870919,4824566.199684673],[643575.6300335972,4824566.241574332],[643555.1338049201,4824570.992197156]]],[[[643521.4878244115,4824912.489366617],[643521.3955277125,4824912.7179032955],[643521.3261831852,4824912.954417631],[643521.2804648327,4824913.196610791],[643521.2588170202,4824913.442128746],[643520.7705086896,4824926.076326781],[643525.7667783645,4824926.269431249],[643526.2307852803,4824914.2639935035],[643578.0982750524,4824826.098790023],[643573.7887237212,4824823.563485836],[643521.6021761921,4824912.271028887],[643521.4878244115,4824912.489366617]]],[[[643605.8009317163,4824889.871771967],[643605.790309463,4824889.619548615],[643605.7543046451,4824889.369682442],[643605.6932843934,4824889.124721261],[643605.6078709137,4824888.88716287],[643605.4989351428,4824888.659429585],[643605.3675878673,4824888.443843535],[643605.2151683978,4824888.242602991],[643605.0432309114,4824888.057759943],[643604.8535286053,4824887.891199184],[643599.5444439241,4824883.684863839],[643613.0591633155,4824848.248126237],[643622.453668455,4824843.817317124],[643630.5734664437,4824846.6043515],[643632.1967054682,4824841.875176618],[643623.1168778343,4824838.758622268],[643622.8854732797,4824838.691471524],[643622.6486790117,4824838.6469096],[643622.4086946518,4824838.625350441],[643622.1677494546,4824838.626994312],[643621.9280816001,4824838.651825943],[643621.691917403,4824838.699614669],[643621.4614506318,4824838.769916574],[643621.2388221308,4824838.86207861],[643610.0156257385,4824844.155368688],[643609.8044062911,4824844.2676405385],[643609.6048837553,4824844.399585153],[643609.4188847558,4824844.5499945795],[643609.2481121097,4824844.717491824],[643609.0941292371,4824844.900543452],[643608.958345848,4824845.09747363],[643608.8420050367,4824845.306479464],[643608.746171901,4824845.525647514],[643594.2196287771,4824883.615472544],[643594.1441227921,4824883.846651212],[643594.091436226,4824884.084072476],[643594.06206766,4824884.32548958],[643594.0562950134,4824884.568617956],[643594.0741729137,4824884.811156842],[643594.1155321794,4824885.050811055],[643594.1799814214,4824885.2853127085],[643594.2669107465,4824885.512442678],[643594.3754975286,4824885.730051597],[643594.5047141941,4824885.936080197],[643594.6533379455,4824886.128578797],[643594.8199623328,4824886.305725753],[643595.0030105634,4824886.465844696],[643600.2382377535,4824890.613663481],[643583.6296122855,4824928.566136893],[643588.2102031169,4824930.570678644],[643605.5913157786,4824890.852989938],[643605.6807180375,4824890.616903751],[643605.745855204,4824890.373005],[643605.7860630929,4824890.123780649],[643605.8009317163,4824889.871771967]]],[[[643447.7454610855,4824924.3421453275],[643449.0920278792,4824925.563130811],[643457.3379297015,4824933.055590611],[643465.5574626565,4824947.04110292],[643469.868108496,4824944.507660115],[643461.4559014043,4824930.194313302],[643461.3177400888,4824929.984193798],[643461.1591687271,4824929.789017267],[643460.9817917763,4824929.610758544],[643453.0624210957,4824922.414994182],[643463.4192973307,4824918.47761225],[643473.8143848708,4824916.389267339],[643472.8295751725,4824911.487211662],[643462.2317708544,4824913.616281824],[643462.0314194126,4824913.665208765],[643461.8357825424,4824913.730483269],[643447.5426489692,4824919.164315306],[643405.3343089435,4824932.444317037],[643400.0,4824932.960952471],[643400.0,4824937.984348231],[643406.0763811511,4824937.395842046],[643406.3337371058,4824937.357310022],[643406.5856935194,4824937.292234912],[643447.7454610855,4824924.3421453275]]]]}},{"type":"Feature","properties":{"class":"service","widthMeters":3},"geometry":{"type":"MultiPolygon","coordinates":[[[[644728.3903256764,4824812.30584511],[644740.5844592535,4824811.334674779],[644743.0788341827,4824830.247400992],[644746.0530777714,4824829.855131855],[644743.3724715868,4824809.530372589],[644735.24661155,4824747.799688473],[644737.8765363599,4824745.369488308],[644759.8612785188,4824741.9736714605],[644763.2117200913,4824742.755514108],[644765.5537807851,4824745.358353105],[644776.718874892,4824828.276854951],[644779.6920427086,4824827.876513679],[644768.4651531471,4824744.499082739],[644768.4378084966,4824744.3519483395],[644768.3959387331,4824744.208270976],[644768.3399606239,4824744.0694808],[644768.270431369,4824743.936959314],[644768.1880430552,4824743.8120256215],[644768.0936157674,4824743.6959233],[644765.126584559,4824740.398526031],[644765.0192133276,4824740.2907348275],[644764.9014753457,4824740.194374605],[644764.7745818768,4824740.1104366975],[644764.6398383739,4824740.03978464],[644764.4986310496,4824739.983145285],[644764.3524126153,4824739.941101329],[644760.2601986858,4824738.986162316],[644760.1191680356,4824738.96028923],[644759.9763113393,4824738.947999998],[644759.8329339301,4824738.949406913],[644759.690345899,4824738.964497117],[644736.9659380516,4824742.47456453],[644736.8208547209,4824742.504373763],[644736.6794185339,4824742.54834612],[644736.54300851,4824742.606052866],[644736.4129546629,4824742.676931353],[644736.2905250327,4824742.760290509],[644736.1769133226,4824742.855317571],[644732.640052489,4824746.123578226],[644732.5395689191,4824746.225751314],[644732.4492940428,4824746.337047022],[644732.3700518204,4824746.456449525],[644732.3025655148,4824746.582869011],[644732.2474510894,4824746.715151616],[644732.2052115869,4824746.8520899685],[644732.1762325373,4824746.992434196],[644732.1607784391,4824747.134903346],[644732.158990346,4824747.278197067],[644732.1708845779,4824747.421007483],[644740.1920607159,4824808.356427016],[644728.4064730022,4824809.295059764],[644726.0347863438,4824808.670564366],[644724.384294653,4824806.4575870745],[644717.7910535393,4824747.872173261],[644717.7635117754,4824747.709033812],[644717.7181708704,4824747.54991992],[644717.6555824323,4824747.39676733],[644717.576507899,4824747.251439265],[644715.2732211202,4824743.523920149],[644715.188917446,4824743.401498053],[644715.0929112579,4824743.288020784],[644714.9861453058,4824743.18460265],[644714.8696679972,4824743.092259185],[644714.744623102,4824743.011897173],[644714.6122385209,4824742.944305742],[644714.4738142281,4824742.890148618],[644714.3307095057,4824742.849957608],[644714.1843295963,4824742.824127373],[644705.9729020897,4824741.791529223],[644705.817021427,4824741.780134027],[644705.6608012343,4824741.785021044],[644705.505937621,4824741.806137218],[644705.3541119674,4824741.843253285],[644700.6614617849,4824743.253239023],[644700.5294075408,4824743.29973902],[644700.4022638178,4824743.358348292],[644700.2811382114,4824743.428556273],[644700.1670858909,4824743.509751354],[644700.061100408,4824743.601226217],[644699.9641050408,4824743.70218399],[644699.8769447515,4824743.811745193],[644699.8003788254,4824743.928955398],[644699.7350742561,4824744.052793543],[644699.6815999355,4824744.18218083],[644698.2977429917,4824748.030216425],[644698.2574097982,4824748.16075695],[644698.2291220329,4824748.294425935],[644698.2131143912,4824748.430114367],[644698.209519684,4824748.566696479],[644698.2183677354,4824748.703039088],[644705.834885768,4824817.4354817085],[644705.8576467644,4824817.577914218],[644705.893982968,4824817.717502053],[644705.9435583885,4824817.852954482],[644706.005914617,4824817.983019019],[644706.0804750635,4824818.106492995],[644706.1665502901,4824818.222234683],[644706.2633443844,4824818.329173854],[644706.3699623202,4824818.426321673],[644706.4854182329,4824818.512779843],[644711.9327632878,4824822.196966627],[644712.0615235532,4824822.274932851],[644712.1974495819,4824822.339601645],[644712.3391725725,4824822.39032178],[644712.485265347,4824822.426582494],[644712.6342567224,4824822.448018636],[644712.7846463269,4824822.454414338],[644716.5829106848,4824822.425188736],[644716.7362985091,4824822.416138355],[644716.8879556961,4824822.391443585],[644717.0362908742,4824822.351363553],[644717.1797475305,4824822.296318827],[644721.1201192453,4824820.547896931],[644721.2410505968,4824820.48757727],[644721.3560622712,4824820.416618352],[644721.4642207391,4824820.335596139],[644721.5646480975,4824820.245168272],[644725.1062558682,4824816.754777249],[644725.2081762562,4824816.643694259],[644725.29843176,4824816.522941867],[644725.3761107109,4824816.39373979],[644725.4404284755,4824816.257393094],[644725.4907353816,4824816.115279015],[644725.5265232805,4824815.968833044],[644726.3166840062,4824811.847049278],[644727.8892890663,4824812.261136282],[644728.0542716852,4824812.294805216],[644728.2219883697,4824812.309771021],[644728.3903256764,4824812.30584511]],[[644713.2274902409,4824819.450918087],[644708.7402875772,4824816.416101569],[644701.238414654,4824748.718231226],[644702.2487604643,4824745.908803086],[644705.9134624786,4824744.807681678],[644713.0982353148,4824745.711176611],[644714.8475106157,4824748.542112464],[644721.4485269566,4824807.196614439],[644721.4745608645,4824807.353014786],[644721.5169579888,4824807.505793439],[644721.5752446344,4824807.653243431],[644721.6487695753,4824807.793717328],[644721.7367113311,4824807.925645645],[644723.5481884053,4824810.354471946],[644722.6680419581,4824814.945656018],[644719.6535159706,4824817.91658762],[644716.2480147132,4824819.427676775],[644713.2274902409,4824819.450918087]]],[[[644359.5822038447,4824738.617580305],[644356.5957711177,4824738.902570774],[644366.0383701932,4824837.852149475],[644369.0248029202,4824837.567159006],[644359.5822038447,4824738.617580305]]],[[[644334.6888547462,4824739.891996543],[644355.1656536553,4824839.001044655],[644358.1036025477,4824838.394038636],[644337.6268036385,4824739.284990524],[644334.6888547462,4824739.891996543]]],[[[644317.9561347059,4824749.124474402],[644345.8904268489,4824839.993656228],[644348.757989579,4824839.112132554],[644320.823697436,4824748.242950727],[644317.9561347059,4824749.124474402]]],[[[643911.8691839258,4824849.871027711],[643908.8960044069,4824850.271282065],[643909.3490505454,4824853.636610856],[643912.4576753621,4824876.725914266],[643912.4853091883,4824876.874271992],[643912.5277099845,4824877.01910229],[643912.5844485859,4824877.158939245],[643912.6549507062,4824877.292367481],[643912.7385027496,4824877.418036487],[643912.8342590343,4824877.53467429],[643912.9412503514,4824877.641100325],[643913.0583937758,4824877.73623739],[643913.1845036264,4824877.819122543],[643913.3183034672,4824877.888916852],[643913.4584390272,4824877.944913886],[643913.6034919076,4824877.986546864],[643913.7519939385,4824878.013394394],[643913.9024420388,4824878.025184734],[643914.0533134302,4824878.021798546],[643914.2030810498,4824878.003270106],[643940.6511259921,4824873.370286465],[643940.795023944,4824873.337713061],[643940.9350258113,4824873.291160678],[643941.0697771448,4824873.231079688],[643941.1979742913,4824873.1580513455],[643941.3183770061,4824873.072782163],[643941.429820452,4824872.976097078],[643941.5312264684,4824872.868931472],[643941.6216140017,4824872.75232212],[643941.7001085968,4824872.62739716],[643941.7659508571,4824872.495365179],[643941.8185037908,4824872.357503522],[643941.8572589741,4824872.215145933],[643941.8818414698,4824872.069669654],[643941.892013454,4824871.922482093],[643941.8876765178,4824871.77500722],[643941.8688726191,4824871.628671781],[643938.2397365073,4824851.33937171],[643938.2392764618,4824851.336812547],[643937.5097869409,4824847.2988748],[643934.5575767362,4824847.832217942],[643935.2868351185,4824851.86887627],[643938.6506816015,4824870.675029741],[643915.2226197348,4824874.778993857],[643912.3222278841,4824853.236340308],[643911.8691839258,4824849.871027711]]],[[[643814.5695911755,4824907.853765538],[643814.6342748582,4824907.985494343],[643814.7115212793,4824908.110271934],[643814.8005910547,4824908.226903971],[643814.90063163,4824908.33427408],[643815.010685441,4824908.4313545395],[643815.1296990791,4824908.517216119],[643815.2565333747,4824908.591036973],[643815.3899743002,4824908.652110504],[643815.5287445914,4824908.699852133],[643815.6715159727,4824908.733804889],[643815.8169218708,4824908.753643783],[643815.9635704956,4824908.759178922],[643816.1100581618,4824908.750357325],[643816.2549827249,4824908.727263431],[643907.2970606178,4824889.611511464],[643907.4374924118,4824889.574850736],[643907.5737237318,4824889.5247895215],[643907.7044791436,4824889.461796505],[643907.8285344805,4824889.386461447],[643907.9447283035,4824889.299489651],[643908.051972775,4824889.201695371],[643908.149263844,4824889.093994184],[643908.2356906454,4824888.977394417],[643908.3104440287,4824888.852987708],[643908.3728241329,4824888.721938784],[643908.4222469387,4824888.585474562],[643908.4582497368,4824888.444872655],[643908.4804954594,4824888.301449415],[643908.4887758362,4824888.15654761],[643908.4830133441,4824888.011523848],[643908.463261933,4824887.867735881],[643908.4297065209,4824887.72652989],[643905.1648777567,4824876.445222644],[643905.1169571246,4824876.305724459],[643905.0555674798,4824876.171607188],[643904.981302423,4824876.044167665],[643904.8948800522,4824875.924638152],[643904.7971360189,4824875.814174426],[643904.6890154486,4824875.713844605],[643904.5715638013,4824875.624618817],[643904.445916763,4824875.54735982],[643904.3132892641,4824875.482814664],[643904.1749637318,4824875.43160746],[643904.0322776898,4824875.394233349],[643903.8866108253,4824875.371053717],[643903.7393716483,4824875.362292699],[643903.5919838719,4824875.368035005],[643903.4458726462,4824875.388225113],[643814.1523473004,4824892.237264653],[643811.9882694489,4824884.717333496],[643810.9655961203,4824881.1621110365],[643808.0825060047,4824881.991442928],[643809.1052032702,4824885.546748602],[643811.6328249121,4824894.3299542535],[643814.4802623979,4824907.5745522585],[643814.5180893678,4824907.716346395],[643814.5695911755,4824907.853765538]],[[643814.8783627736,4824895.153211118],[643902.662197591,4824878.589039213],[643905.0985729279,4824887.007703935],[643817.0994789889,4824905.484532364],[643814.8783627736,4824895.153211118]]],[[[643690.8460567091,4824926.823468689],[643690.7982918939,4824926.686844157],[643690.7375820271,4824926.555459028],[643690.6644923239,4824926.43053651],[643690.5797032572,4824926.313239646],[643690.4840042224,4824926.204660482],[643690.3782861878,4824926.105809901],[643690.2635333994,4824926.017608213],[643690.140814218,4824925.940876585],[643690.0112711722,4824925.876329398],[643689.8761103216,4824925.824567591],[643689.7365900283,4824925.786073073],[643689.594009241,4824925.761204232],[643689.449695402,4824925.750192599],[643689.3049920887,4824925.753140695],[643689.1612465042,4824925.770021072],[643650.2621164722,4824932.253666389],[643649.1472448183,4824926.303710529],[643649.0441047804,4824923.105167759],[643646.0456632668,4824923.201855342],[643646.1525086465,4824926.515306877],[643646.1605874739,4824926.629738226],[643646.1773876928,4824926.743217535],[643647.3055929885,4824932.764333676],[643623.0185116142,4824937.102379435],[643623.546009258,4824940.0556397075],[643649.3137312178,4824935.453128799],[643688.3464079343,4824928.947224132],[643689.2883680724,4824932.126275037],[643689.3376542276,4824932.266643849],[643689.4006026321,4824932.401440091],[643689.4765940823,4824932.529337816],[643689.5648810747,4824932.649078934],[643689.6645951587,4824932.759485591],[643689.7747554785,4824932.859471752],[643689.8942784226,4824932.948053886],[643690.0219882821,4824933.024360637],[643690.1566288159,4824933.087641401],[643690.2968756085,4824933.137273706],[643690.441349097,4824933.172769333],[643690.588628142,4824933.193779126],[643690.7372640069,4824933.200096415],[643690.8857946082,4824933.191659062],[643691.0327588981,4824933.16855006],[643766.7360273974,4824917.3828003965],[643770.4632594493,4824916.711126124],[643770.6049207221,4824916.678438789],[643770.7427522042,4824916.632190972],[643770.875459114,4824916.572817121],[643771.00179481,4824916.500874992],[643771.1205725018,4824916.417040405],[643771.2306763979,4824916.322100897],[643771.3310721883,4824916.216948326],[643771.4208167605,4824916.102570488],[643771.4990670588,4824915.980041843],[643771.5650880041,4824915.850513418],[643771.6182593992,4824915.715201996],[643771.658081755,4824915.575378686],[643771.6841809824,4824915.432356981],[643771.6963119067,4824915.287480417],[643771.6943605706,4824915.1421099575],[643771.6783453048,4824914.997611206],[643771.6484165561,4824914.855341574],[643766.8612310471,4824896.552495488],[643763.9588651318,4824897.311621363],[643768.3358576396,4824914.0461765705],[643766.183837381,4824914.433986244],[643766.1436672179,4824914.441792383],[643691.7723937216,4824929.949792616],[643690.8460567091,4824926.823468689]]],[[[643494.6809352955,4824973.35935245],[643463.4513490365,4824953.380379002],[643461.8346450308,4824955.907485678],[643493.0642312898,4824975.886459126],[643494.6809352955,4824973.35935245]]]]}},{"type":"Feature","properties":{"class":"tertiary","widthMeters":8},"geometry":{"type":"Polygon","coordinates":[[[644079.4896767243,4824420.042606735],[644084.0349848883,4824463.086071882],[644115.3820515163,4824772.6450888645],[644124.4630268092,4824862.358388697],[644095.9709253239,4824861.994355248],[644004.7734078678,4824849.012268783],[644004.6168976339,4824848.9931284],[643944.3110293793,4824842.821746198],[643943.9140849668,4824842.800977684],[643943.5170391636,4824842.819708088],[643935.6469036861,4824843.584289954],[643909.9949120514,4824846.089986215],[643906.433497294,4824846.4357202295],[643905.9881744633,4824846.504449988],[643905.5534071904,4824846.622829131],[643873.279618441,4824857.3965718765],[643808.3274274459,4824877.759959994],[643808.2091068587,4824877.799089629],[643764.186292253,4824893.122630062],[643719.306871882,4824906.353942294],[643646.9123671947,4824919.203260091],[643603.6051985491,4824925.3894617995],[643585.9243184155,4824925.5681589],[643562.8463212023,4824925.28401569],[643523.583355482,4824922.185278686],[643523.4393736196,4824922.176524271],[643505.7364319556,4824921.4202288315],[643505.4975196847,4824921.417164719],[643487.5698797673,4824921.722795508],[643487.1716251144,4824921.749502862],[643486.7780150077,4824921.815768504],[643479.8093478963,4824923.349997064],[643477.5404690942,4824914.313894004],[643507.444203572,4824847.999669454],[643507.4577656422,4824847.969257168],[643544.4076455622,4824764.174996415],[643551.4746989526,4824752.3486698065],[643558.8231157133,4824745.695592632],[643599.9504530068,4824718.209981345],[643600.2727909344,4824717.9703035],[643600.5694654823,4824717.69950575],[643600.8374849244,4824717.400318873],[643601.074146499,4824717.07575993],[643601.2770636634,4824716.729101837],[643605.8866009831,4824707.8609056035],[643606.0420503281,4824707.524644447],[643606.1657241052,4824707.17544413],[643606.2565615327,4824706.816299833],[643606.3137834753,4824706.450292028],[643606.3368991257,4824706.080560056],[643606.9539712862,4824667.793165756],[643606.9502784096,4824667.54518424],[643605.417782681,4824634.178551083],[643605.3906531612,4824633.862321539],[643605.3385366879,4824633.5492384685],[643595.8666603488,4824587.910216918],[643595.956165288,4824578.8667143155],[643597.6267919104,4824570.343062569],[643597.6283497479,4824570.335071296],[643597.7943893743,4824569.478694373],[643609.3521913073,4824546.685239567],[643609.5277327808,4824546.286611803],[643609.6588905957,4824545.871260709],[643617.2394090364,4824516.355196943],[643617.2583041491,4824516.278489374],[643623.2743579088,4824490.773468735],[643623.3492255879,4824490.359879116],[643623.3802808775,4824489.940716722],[643623.8538287488,4824467.806064626],[643623.835223048,4824467.325811951],[643623.7591519642,4824466.85125743],[643623.1104158609,4824463.937334164],[643616.5634993687,4824434.551790496],[643616.4332598331,4824434.096249894],[643613.0364772865,4824424.423935024],[643597.606252738,4824380.449264909],[643597.4562834693,4824380.081436915],[643597.2705710594,4824379.730297177],[643597.05094696,4824379.399308552],[643576.8416171964,4824352.0],[643566.9008897807,4824352.0],[643590.2563164098,4824383.664708729],[643605.4878801989,4824427.073214604],[643608.8065557284,4824436.523120704],[643615.3016659494,4824465.676134014],[643615.8453230237,4824468.118074564],[643615.3911385417,4824489.347639946],[643609.4810490552,4824514.403425741],[643602.0191905684,4824543.45746639],[643590.4063795126,4824566.359406179],[643590.2544027666,4824566.697010284],[643590.1342916965,4824567.0472199265],[643590.0470753049,4824567.407034829],[643589.7753810937,4824568.808342803],[643588.0346925394,4824577.689455338],[643587.9806829905,4824578.052629457],[643587.9602023438,4824578.419225986],[643587.8627894928,4824588.261737246],[643587.8815399001,4824588.690183074],[643587.946051874,4824589.11415903],[643597.4408038316,4824634.863403815],[643598.9530108317,4824667.788295732],[643598.3531405391,4824705.008368019],[643594.6520268258,4824712.128866329],[643554.1336933472,4824739.207477231],[643553.6716113768,4824739.567923691],[643545.6627146107,4824746.818983342],[643545.3833280539,4824747.098245356],[643545.132849064,4824747.4037030395],[643544.9137205015,4824747.732377337],[643537.4136725233,4824760.283296662],[643537.1873560667,4824760.721244045],[643500.1445547196,4824844.7262303075],[643469.6755777592,4824912.293930971],[643469.5351903824,4824912.649742614],[643469.429430958,4824913.017336799],[643469.3592665935,4824913.393352094],[643469.3253389004,4824913.774350063],[643469.3279581276,4824914.156846704],[643469.3671003237,4824914.537344311],[643469.4424075563,4824914.912363459],[643472.308712767,4824926.3277882375],[643472.515302018,4824927.153400515],[643468.9289125545,4824931.684863648],[643468.6890637396,4824932.022459857],[643468.4854051635,4824932.383045268],[643468.3201197741,4824932.762754886],[643464.0804207575,4824944.068681052],[643459.2499897446,4824952.519477964],[643453.7027666176,4824960.635706746],[643444.6998751413,4824966.867803145],[643423.8702696906,4824975.227584604],[643400.0,4824983.385004659],[643400.0,4824991.839252571],[643426.556419399,4824982.763868379],[643426.752761457,4824982.690976232],[643448.0967796333,4824974.124739689],[643448.502045174,4824973.935125494],[643448.8835987753,4824973.70143649],[643458.8643716102,4824966.79241858],[643459.1551728356,4824966.570792945],[643459.4245222856,4824966.323539738],[643459.6701694907,4824966.052724809],[643459.8900620181,4824965.760610875],[643465.9453607544,4824956.901008735],[643466.1157210054,4824956.628923074],[643471.1855095479,4824947.759372252],[643467.7127855762,4824945.774381517],[643471.4581048236,4824947.178868518],[643475.5907759714,4824936.158351571],[643479.12552456,4824931.692137548],[643488.1068326693,4824929.714803979],[643505.5143821214,4824929.418039703],[643523.0258435723,4824930.16615483],[643562.3494295132,4824933.269676141],[643562.614896003,4824933.281772661],[643585.8706622361,4824933.568104617],[643585.9603328324,4824933.568203489],[643603.9499743066,4824933.386385799],[643604.4751865112,4824933.346394923],[643648.1105213594,4824927.113316394],[643648.2439195667,4824927.0919565875],[643720.9238226512,4824914.191983362],[643721.3559293321,4824914.090270954],[643766.5411903135,4824900.768791055],[643766.7249922933,4824900.709745779],[643810.7801397652,4824885.374950864],[643875.707949936,4824865.019206464],[643875.7779103867,4824864.99656459],[643907.6571195317,4824854.354541711],[643910.76908813,4824854.052438904],[643936.4215063321,4824851.546701136],[643943.8934987175,4824850.820798781],[644003.7240297338,4824856.943537495],[644095.0985156684,4824869.950815656],[644095.6111355588,4824869.990411286],[644128.8430164232,4824870.41500321],[644129.0561178005,4824870.412047851],[644150.5594814052,4824869.540452057],[644150.8404366261,4824869.519132154],[644181.6908996276,4824866.081654726],[644181.8169590249,4824866.065577528],[644234.7203495067,4824858.462570004],[644314.1167241624,4824848.295650364],[644314.1695864041,4824848.288522655],[644347.7879201018,4824843.527137859],[644356.9981724692,4824842.680987552],[644367.8927341837,4824841.693317428],[644405.3979045978,4824838.2748815],[644438.2201455882,4824839.771787363],[644483.3040840076,4824844.399658951],[644483.3997236419,4824844.408317574],[644521.0779184335,4824847.363941106],[644521.5189540746,4824847.374135871],[644557.378663503,4824846.224051855],[644557.5519116054,4824846.214730824],[644623.1908348144,4824841.253591841],[644669.7344494581,4824838.425966453],[644744.799038014,4824834.044469745],[644778.4392395116,4824832.069846841],[644863.4754387662,4824827.104403133],[644863.776370119,4824827.075386446],[644864.0742503555,4824827.0237239655],[644884.7572344698,4824822.625562842],[644885.1286447279,4824822.527731953],[644890.0,4824820.9909993475],[644890.0,4824812.602371091],[644882.9052124392,4824814.8405144345],[644862.7066349048,4824819.135668266],[644777.9722875085,4824824.083486204],[644744.3322198215,4824826.058101282],[644669.2635455243,4824830.439836474],[644669.2540661123,4824830.440401076],[644622.676243218,4824833.2701046895],[644622.6173354491,4824833.274120049],[644557.035496136,4824838.230944501],[644521.483311179,4824839.371165667],[644484.0732244891,4824836.436573573],[644438.9241826611,4824831.802019113],[644438.6979648749,4824831.785263533],[644405.4892978895,4824830.270734152],[644404.9439835914,4824830.283093013],[644367.1694736313,4824833.726078564],[644356.2734804745,4824834.713878458],[644356.2686872403,4824834.714315907],[644346.9582673528,4824835.5696686525],[644346.7632837337,4824835.5924192015],[644313.0741447762,4824840.36383219],[644233.6737174733,4824850.531270782],[644233.6127661229,4824850.539552585],[644180.7418338343,4824858.137895382],[644150.0946301674,4824861.552724873],[644132.4945652534,4824862.266108269],[644123.341372016,4824771.839348714],[644091.993416246,4824462.271551233],[644091.9916513783,4824462.254487893],[644087.4452387737,4824419.200563838],[644087.0425808288,4824415.422521263],[644080.6803008108,4824352.0],[644072.6401485468,4824352.0],[644079.0837696509,4824416.23337158],[644079.0863201977,4824416.258027321],[644079.4896767243,4824420.042606735]]]}},{"type":"Feature","properties":{"class":"track","widthMeters":2.5},"geometry":{"type":"MultiPolygon","coordinates":[[[[643613.0901642132,4824392.05437055],[643615.1935843754,4824403.603431766],[643615.2206689144,4824403.720112443],[643615.258797341,4824403.833664968],[643615.307619534,4824403.943046621],[643615.3666871741,4824404.047252987],[643615.4354578615,4824404.145327169],[643615.5133000965,4824404.2363685835],[643615.599499078,4824404.319541225],[643629.5757060923,4824416.567748434],[643608.8121265272,4824424.582687901],[643609.7124060685,4824426.914960774],[643632.207256474,4824418.231734273],[643653.1140714826,4824417.514600346],[643686.1267119688,4824417.888052494],[643686.2535847886,4824417.883038577],[643720.8292671716,4824414.752016729],[643748.1830689806,4824414.905286811],[643748.2772810382,4824414.902260621],[643768.4683332796,4824413.490161024],[643768.4869112264,4824413.488722517],[643790.6492567299,4824411.606396043],[643801.1677137812,4824412.257023428],[643818.099894674,4824416.264082336],[643818.2086910964,4824416.284787721],[643818.3188931835,4824416.295782014],[643818.4296358669,4824416.2969789095],[643818.5400498342,4824416.288369013],[643827.5573474221,4824415.181532268],[643827.6663439857,4824415.1632306315],[643827.7732978859,4824415.135372705],[643827.877372986,4824415.098176276],[643827.9777556557,4824415.0519321365],[643841.451287437,4824408.107155062],[643841.5838340326,4824408.028118288],[643869.9723226959,4824388.629068229],[643880.7387386891,4824384.006466062],[643903.164617191,4824381.279174535],[643903.2691156418,4824381.261946351],[643927.2138539691,4824376.264050655],[643927.2558817337,4824376.254519477],[643959.271184753,4824368.41136914],[643988.2178151633,4824362.051513291],[644001.5026918324,4824361.613504991],[644013.5142352494,4824371.872685286],[644041.0555653545,4824403.495818852],[644041.121097018,4824403.565490801],[644041.1917641291,4824403.629948065],[644054.7079999911,4824415.042394154],[644054.8143249891,4824415.122861644],[644054.9286165623,4824415.191545403],[644055.0495741625,4824415.247663859],[644067.2993585896,4824420.155065163],[644067.4181793516,4824420.195865133],[644067.5404953961,4824420.224532122],[644074.8812569566,4824421.55987029],[644074.9904447778,4824421.574794744],[644075.100522759,4824421.580044287],[644075.2106353058,4824421.575578116],[644083.5730213439,4824420.8661466325],[644083.3616904402,4824418.3750947965],[644075.165038646,4824419.070466048],[644068.1119937475,4824417.787465643],[644056.1666328771,4824413.0020198375],[644042.8778542533,4824401.781627475],[644015.3388647399,4824370.161181391],[644015.2758544768,4824370.09399958],[644015.2080683047,4824370.031639947],[644002.7577736248,4824359.397717776],[644002.6665288814,4824359.32680929],[644002.569125822,4824359.264630028],[644002.466396884,4824359.211711394],[644002.3592200208,4824359.168505646],[644002.2485112,4824359.135382036],[644002.1352165738,4824359.112623647],[644002.0203043938,4824359.10042498],[644001.9047567357,4824359.098890289],[643988.020602474,4824359.556657038],[643987.9064260551,4824359.565671341],[643987.7935539752,4824359.585098278],[643958.7200696837,4824365.9728251565],[643958.6908774952,4824365.9796068035],[643926.6819507347,4824373.821195076],[643902.8101924234,4824378.803857926],[643880.2591950163,4824381.546365612],[643880.1423611618,4824381.566233542],[643880.0279339396,4824381.597076613],[643879.9169419048,4824381.638617586],[643868.8742952533,4824386.379820451],[643868.7654249457,4824386.432952865],[643868.6622091974,4824386.496374521],[643840.2371746142,4824405.920397947],[643827.0309805479,4824412.7273788685],[643818.4577237649,4824413.779711404],[643801.6394329264,4824409.799604969],[643801.5347522456,4824409.779502324],[643801.4287394835,4824409.768391271],[643790.7120449982,4824409.105501754],[643790.5290867088,4824409.107601577],[643768.2846227166,4824410.996902666],[643748.1499137551,4824412.405061789],[643720.7832847171,4824412.251719832],[643720.6635475432,4824412.256794102],[643686.0914272578,4824415.387493381],[643653.1138476023,4824415.014437855],[643653.0568564067,4824415.015092601],[643632.4054519191,4824415.723465578],[643617.5750225756,4824402.726650963],[643615.5199413575,4824391.443000071],[643615.4954739448,4824391.335698272],[643615.461663157,4824391.230964509],[643615.4187710918,4824391.129610668],[643611.0573209232,4824381.969506079],[643610.9981996053,4824381.859789836],[643610.9284464845,4824381.756506312],[643610.8487549844,4824381.660682259],[643610.7599173269,4824381.573270275],[643610.6628166566,4824381.4951393325],[643610.5584182624,4824381.42706614],[643610.4477599799,4824381.369727421],[643604.9821360257,4824378.874996223],[643604.8675169449,4824378.829371285],[643604.7489587072,4824378.7952668425],[643604.6276161019,4824378.773015082],[643604.5046710384,4824378.762832743],[643604.3813210344,4824378.764819003],[643604.2587675522,4824378.778954514],[643593.6275369929,4824380.540468492],[643594.0361962853,4824383.006841859],[643604.2910877941,4824381.307684397],[643608.9957351825,4824383.455075202],[643613.0901642132,4824392.05437055]]],[[[643655.909362121,4824637.08936015],[643656.0070884901,4824637.07446496],[643672.0212255921,4824633.981249696],[643702.6232443438,4824632.704121832],[643741.398666897,4824637.409796253],[643770.5132046817,4824642.561497647],[643770.5542369293,4824642.568056744],[643777.691468498,4824643.587603687],[643777.8208075076,4824643.599265336],[643777.9506584221,4824643.597445042],[643778.0796197181,4824643.58216245],[643778.2062994741,4824643.553582512],[643778.3293303943,4824643.5120137],[643778.4473845655,4824643.457904679],[643784.7968143167,4824640.138290567],[643784.9077531786,4824640.0727981785],[643785.01136201,4824639.99623517],[643785.1065402906,4824639.909414787],[643785.1922770481,4824639.813259223],[643785.2676615972,4824639.708789831],[643785.3318932125,4824639.597116272],[643801.5361112631,4824607.72928905],[643810.6816396469,4824598.794376632],[643808.9345836386,4824597.006138587],[643799.641717096,4824606.084996056],[643799.5497313,4824606.185211368],[643799.4691799651,4824606.294828784],[643799.401017051,4824606.412550118],[643783.2845015533,4824638.107898187],[643777.6461414897,4824641.055750256],[643770.9283414141,4824640.096118715],[643741.8007975965,4824634.942115954],[643741.7335899912,4824634.932099404],[643702.8233973262,4824630.210069668],[643702.7222037393,4824630.201941831],[643702.620684325,4824630.202052517],[643671.823705713,4824631.487316729],[643671.7308325582,4824631.49466745],[643671.638764827,4824631.508914866],[643655.6302531061,4824634.601043558],[643631.7248840487,4824635.380545982],[643601.5154522975,4824633.11557218],[643601.3285376263,4824635.608574969],[643631.6049909104,4824637.8785737585],[643631.7391863926,4824637.881408349],[643655.8107643061,4824637.096486213],[643655.909362121,4824637.08936015]]]]}},{"type":"Feature","properties":{"class":"unclassified","widthMeters":4},"geometry":{"type":"Polygon","coordinates":[[[644371.2930215539,4824404.467614627],[644365.9740788862,4824352.0],[644361.9535773486,4824352.0],[644367.2861863277,4824404.602423142],[644082.9988743993,4824413.835166244],[644083.1287131573,4824417.833058426],[644367.6570452868,4824408.592487758],[644391.9312069569,4824699.46978641],[644354.8581433085,4824705.321106947],[644354.7866567321,4824705.333723511],[644311.318663689,4824713.821497357],[644311.0872038594,4824713.881249125],[644154.4463296898,4824764.478294036],[644119.0389388077,4824770.268395761],[644119.6844766667,4824774.215962211],[644155.2405172866,4824768.401552084],[644155.3878357616,4824768.3717384655],[644155.532499232,4824768.3309455095],[644312.2027643356,4824717.724406943],[644355.5176100251,4824709.266537401],[644392.2781371264,4824703.464545173],[644400.8785929143,4824799.238611953],[644403.3118320499,4824834.404636442],[644407.3022909816,4824834.128525025],[644404.8676383538,4824798.942072252],[644404.8643933968,4824798.901248904],[644396.2455684021,4824702.922623938],[644648.8577234151,4824674.267796723],[644667.5100150221,4824834.664060616],[644671.4832401004,4824834.202018975],[644652.827185176,4824673.773393265],[644890.0,4824641.545592108],[644890.0,4824637.508832528],[644652.3515917183,4824669.801258846],[644619.1250507082,4824399.822758521],[644890.0,4824393.083617441],[644890.0,4824389.082379687],[644618.6401577855,4824395.833584495],[644613.392762885,4824352.0],[644609.3642030391,4824352.0],[644614.6261947784,4824395.955517716],[644371.2930215539,4824404.467614627]],[[644371.6596624496,4824408.457235699],[644615.109431088,4824399.941060135],[644648.3823098348,4824670.296072499],[644395.9005746278,4824698.936105664],[644371.6596624496,4824408.457235699]]]}}]}
