{"type":"FeatureCollection","name":"barreiros-a-pasada-coastline","crs":{"type":"name","properties":{"name":"EPSG:25829"}},"features":[{"type":"Feature","properties":{"source":"IHM"},"geometry":{"type":"LineString","coordinates":[[646281.2215649721,4824684.268561033],[646287.3854872806,4824687.66966287],[646290.9408530821,4824694.714046],[646290.2618532113,4824701.3994741775],[646287.032564329,4824705.718135212],[646276.267450753,4824711.005950573],[646249.83680399,4824713.5968208825],[646218.241434809,4824711.430692622],[646141.5799187426,4824700.827624511],[646105.5357428972,4824701.098592392],[646080.0,4824704.579104653]]}},{"type":"Feature","properties":{"source":"IHM"},"geometry":{"type":"LineString","coordinates":[[646846.8332577222,4824720.0633755205],[646886.1800689824,4824733.935852141],[646909.4781486675,4824744.901657231]]}},{"type":"Feature","properties":{"source":"IHM"},"geometry":{"type":"LineString","coordinates":[[646643.2919639023,4824773.560297084],[646683.9078730452,4824742.668787939],[646692.0419991415,4824740.946471066],[646694.7193781269,4824733.793606656],[646695.1161799784,4824731.535528798],[646701.8433956663,4824723.571138954],[646713.0637008813,4824714.849368864],[646735.9135205419,4824703.826172993],[646776.0370683088,4824695.491923935],[646806.1524434005,4824695.872690382]]}},{"type":"Feature","properties":{"source":"IHM"},"geometry":{"type":"LineString","coordinates":[[647204.671002005,4824301.528596399],[647205.5674285104,4824300.4482088545],[647207.9464551639,4824300.30036567],[647231.875509137,4824307.969828668],[647243.4713261828,4824309.824206176],[647262.0683822434,4824308.954282067],[647280.7726266012,4824305.408876368],[647299.7874276848,4824296.181219788],[647342.9218125804,4824260.904080888],[647357.214800155,4824246.0]]}},{"type":"Feature","properties":{"source":"IHM"},"geometry":{"type":"LineString","coordinates":[[647217.0427504102,4824434.193990016],[647182.9578752994,4824413.568058233],[647179.4431657628,4824410.968680928],[647166.1077224904,4824391.531139247],[647165.2554811127,4824372.533936695],[647168.8794326745,4824358.723946888],[647175.7727982542,4824348.752445966],[647191.0585503147,4824333.786966838],[647198.3912959701,4824323.680670033],[647200.7321551153,4824317.165071213],[647211.098315773,4824308.025333908],[647210.2651263352,4824305.4847427765],[647204.671002005,4824301.528596399]]}},{"type":"Feature","properties":{"source":"IHM"},"geometry":{"type":"LineString","coordinates":[[646282.6989504796,4824678.767236628],[646292.3875700216,4824675.789380712],[646295.5613438888,4824676.614129526],[646298.6495367518,4824689.892990321],[646308.2555447553,4824703.680590726],[646320.6610003238,4824713.962440552],[646335.2443052987,4824733.314321471],[646344.6930774243,4824740.965010747],[646345.6603412679,4824748.4863548],[646339.8700564814,4824756.860409046],[646339.9355308178,4824760.5286282785],[646345.1486937196,4824770.842631017],[646346.8031478834,4824782.42354076],[646349.7106299743,4824786.564848179],[646358.7890891616,4824794.518610148],[646358.153102677,4824797.00482893],[646355.7702659328,4824798.819604841],[646355.524126997,4824801.214320485],[646359.0758130674,4824816.203384233],[646363.8488158543,4824818.907546917],[646367.1873354604,4824818.102535962],[646364.2662446153,4824807.916270578],[646362.1758520119,4824802.248274608],[646375.495028689,4824802.483149329],[646388.1249142037,4824806.536483836],[646395.141327677,4824815.300913808],[646400.5885202474,4824815.619723891],[646403.1347840319,4824804.830439104],[646409.264171312,4824799.0639234455],[646422.4637383793,4824796.262843362],[646433.8360337862,4824796.477588199],[646452.1327012754,4824801.154686096],[646456.4593781661,4824804.315860786],[646463.3126214074,4824819.4436956905],[646467.0131226795,4824822.046751511],[646470.769845712,4824822.073167963],[646484.2998348383,4824814.868153727],[646492.2136647471,4824811.385176218],[646519.3943400461,4824810.700599326],[646523.7846507287,4824811.685353091],[646528.4185854986,4824821.49796355],[646532.8459510333,4824823.005773315],[646540.8831100097,4824820.536691753],[646541.6461684415,4824820.375566254],[646563.5270640168,4824851.476611403],[646557.3399561055,4824863.953081842],[646557.661886999,4824876.593896681],[646553.8720069114,4824894.000663987],[646555.2032996553,4824898.529892522],[646557.6889065842,4824900.150886528],[646566.662304521,4824899.946806578],[646570.9960935131,4824904.997173037],[646576.1393698225,4824909.609647546],[646586.9275377981,4824911.034171115],[646597.7636954366,4824921.360082218],[646601.1612723714,4824922.289874302],[646609.7199043487,4824919.987829615],[646616.0339110057,4824911.692105297],[646623.5110502748,4824901.566170956],[646625.0530451112,4824893.48844903],[646624.8488444709,4824877.683414891],[646626.1458992355,4824874.900535026],[646628.8880327062,4824875.504900013],[646633.5515694958,4824879.884708895],[646636.1516876301,4824878.852581849],[646638.263274905,4824875.031904391],[646641.5400035065,4824874.836812854],[646647.6244752867,4824881.858881027],[646651.4299742682,4824881.130882548],[646654.9497591675,4824877.207638437],[646659.3751651179,4824860.681500199],[646660.6262311095,4824847.430572896],[646657.8550847073,4824842.236505317],[646652.6292758641,4824837.333266027],[646641.8882365756,4824825.609297475],[646634.5002764467,4824812.41409551],[646633.738519595,4824806.597244705],[646635.3697964769,4824798.132572301],[646643.1614699174,4824786.19123745],[646647.1819636538,4824779.323263751],[646643.2919639023,4824773.560297084]]}},{"type":"Feature","properties":{"source":"IHM"},"geometry":{"type":"LineString","coordinates":[[646806.1524434005,4824695.872690382],[646805.9357762632,4824698.390267955],[646810.8996242378,4824713.054926745],[646822.6865640411,4824729.046647956],[646826.171351522,4824731.534071702],[646833.9576904731,4824732.415526026],[646837.4422472941,4824730.480562865],[646841.9252193251,4824723.167239672],[646846.8332577222,4824720.0633755205]]}},{"type":"Feature","properties":{"source":"IHM"},"geometry":{"type":"LineString","coordinates":[[647217.0427504102,4824434.193990016],[647231.4364476344,4824441.476592906],[647238.3087558309,4824447.57199736],[647240.4686936,4824452.252888305],[647233.0154448145,4824458.645236526],[647233.4981241447,4824470.534072323],[647236.187150253,4824488.671545566],[647238.9435003074,4824493.054394297],[647245.2317819474,4824499.248115194],[647244.3516458143,4824506.217977906],[647241.586116395,4824509.990805739],[647238.3400726713,4824515.408716957],[647246.4162238021,4824531.086475476],[647250.101185155,4824538.44537252],[647260.347596741,4824550.592835039],[647267.3343650403,4824572.091405643],[647273.9707235068,4824582.304067341],[647271.7830350355,4824585.889551734],[647267.1050174809,4824589.175949505],[647265.040798172,4824596.342066027],[647270.8717147928,4824611.959496963],[647272.2108667799,4824633.423072682],[647269.9387370748,4824636.806696574],[647264.2053257196,4824639.214351164],[647256.4276254901,4824647.144055771],[647242.917868588,4824651.158994206],[647237.640425922,4824658.199079598],[647234.8629283938,4824663.993948912],[647235.367296526,4824668.260737711],[647243.3808663045,4824679.41472832],[647245.3649219369,4824685.847394459],[647240.7016179238,4824695.834399299],[647241.9555404542,4824701.662136932],[647247.0433971689,4824705.47388938],[647260.3804669287,4824706.010914703],[647272.769134768,4824706.316039392],[647277.5811829094,4824707.966122077],[647278.0557167898,4824710.276626545],[647276.2217911431,4824712.103132029],[647267.2796958799,4824715.284861959],[647264.518101825,4824721.091180145],[647276.4343586571,4824738.875545908],[647277.2980614995,4824744.072483394],[647269.3798778822,4824748.465610961],[647267.0218672388,4824751.7140117595],[647267.6954240119,4824769.629513515],[647266.4932210024,4824771.758781079],[647261.7771320898,4824772.366456162],[647250.8038294322,4824768.692257118],[647249.0647976878,4824772.08758069],[647249.5885373282,4824776.943709753],[647258.5935918042,4824795.1975417845],[647254.7146169085,4824796.690287463],[647247.6826967818,4824796.047120068],[647221.0898543086,4824799.0195200015],[647215.6574110901,4824801.711599425],[647214.8345645135,4824806.071506799],[647219.7132037366,4824817.945644995],[647217.835873286,4824823.226907309],[647213.7438100865,4824825.2261337275],[647204.0442256636,4824826.480139369],[647196.7747723886,4824831.143139006],[647194.7082502474,4824838.420338321],[647198.2990904443,4824843.432613493],[647215.8158754973,4824861.53970466],[647215.7432347288,4824866.693874831],[647209.3436861219,4824874.4316171305],[647210.4168228003,4824881.133199249],[647214.3551517141,4824886.1419943515],[647222.7172292736,4824890.236666256],[647231.0360333368,4824890.041337474],[647239.9585523576,4824891.792673633],[647241.1606067882,4824893.352437377],[647240.279207129,4824899.644469836],[647242.8331073399,4824902.933957169],[647244.0336355666,4824906.40487674],[647239.7643006978,4824912.067012226],[647240.9571054874,4824916.626694942],[647237.8109883454,4824918.602209058],[647225.9284091456,4824916.608162479],[647221.741562613,4824917.4052543435],[647216.6515272651,4824921.804907987],[647214.5463442607,4824926.792272747],[647216.968765161,4824939.023672736],[647220.7234720818,4824941.350560354],[647233.0861239934,4824942.82177529],[647239.5832376225,4824946.842229432],[647241.7316741055,4824950.933967147],[647239.1633088083,4824954.566665191],[647233.2063643159,4824955.758270821],[647224.1557395548,4824956.904247231],[647218.6704077937,4824960.5396417575],[647214.9685234806,4824967.225389055],[647212.7871324352,4824978.266883243],[647215.4051004486,4824986.002390999],[647222.0976196318,4824991.427172586],[647240.6646218303,4824997.7346859295],[647244.9138912561,4825002.561428591],[647246.6255321521,4825007.410284988],[647245.8166279297,4825019.237466835],[647243.4316792646,4825026.29654806],[647240.8698449971,4825028.896012461],[647231.2813084793,4825029.152361299],[647219.3422211013,4825032.690635595],[647214.0421387443,4825030.829871432],[647211.4631471366,4825023.52856863],[647207.1010083879,4825018.321578917],[647194.7580893701,4825010.06167492],[647186.2799906512,4824997.630817189],[647180.088819505,4824993.661568268],[647171.5347576782,4824996.48523506],[647164.6392862438,4824990.733820445],[647162.6030735909,4824983.733341192],[647169.5812006886,4824973.185910481],[647166.5370811953,4824969.7745871],[647152.2106992679,4824972.3717167815],[647148.1333856165,4824969.648890709],[647147.1208078914,4824966.448787345],[647148.5196825259,4824959.768074822],[647137.8332187511,4824949.655634359],[647139.0604705774,4824946.749086748],[647151.1825406856,4824948.137095939],[647153.277975722,4824946.171843068],[647151.7999371208,4824943.194877397],[647140.7554409602,4824939.8304095995],[647130.9328174661,4824931.592548574],[647123.4216140921,4824924.805421912],[647121.3440372482,4824920.42637866],[647122.7222581442,4824917.267571584],[647127.8932637854,4824917.280910957],[647135.8952085825,4824922.3231741665],[647140.0755499923,4824922.559261377],[647144.6564833558,4824918.159503124],[647146.2351968163,4824913.227246799],[647146.0058464704,4824897.88827389],[647143.0250635529,4824892.322710722],[647139.7105625292,4824889.81662252],[647124.9839332841,4824890.760533664],[647120.524780273,4824888.129362044],[647118.2264505036,4824883.867709238],[647118.3266707859,4824880.769782876],[647124.8161618181,4824872.978372588],[647124.8286764042,4824869.0896036485],[647120.923194369,4824865.159405136],[647118.4985463382,4824864.81736179],[647111.3664063856,4824868.750096684],[647105.609952517,4824866.690527429],[647096.0086193375,4824856.090815037],[647085.9636266764,4824852.092767673],[647069.8162843375,4824843.749752487],[647060.5043110691,4824830.634114218],[647052.6672508635,4824820.639812016],[647044.8591510495,4824815.22411112],[647031.1886477396,4824802.99085643],[647028.2821625818,4824803.249427555],[647027.5808280295,4824807.600902294],[647029.161902627,4824813.62465592],[647036.3724565388,4824821.605126878],[647035.3092874839,4824825.137532334],[647032.7987975419,4824825.393663817],[647020.2483925715,4824823.629817095],[647004.2836936065,4824815.057624648],[646981.4787437742,4824794.13521805],[646972.6136377804,4824791.229891396],[646967.7161467666,4824794.589460691],[646961.5577693004,4824803.132739113],[646957.2749332497,4824807.205799535],[646944.695265967,4824811.575024316],[646935.8651784719,4824807.070451056],[646931.6154306846,4824796.343685194],[646919.6306154454,4824786.825447598],[646917.0227746929,4824776.023515068],[646909.4781486675,4824744.901657231]]}}]}
