{"type":"FeatureCollection","name":"barreiros-a-pasada-roads","crs":{"type":"name","properties":{"name":"EPSG:25829"}},"source":"\u00a9 OpenStreetMap contributors, ODbL 1.0","features":[{"type":"Feature","properties":{"class":"footway","widthMeters":2},"geometry":{"type":"MultiPolygon","coordinates":[[[[646089.3200928333,4824653.474617678],[646089.3417372025,4824653.565193131],[646089.3717134688,4824653.65336237],[646089.4097616663,4824653.738360758],[646089.4555518262,4824653.819451155],[646089.5086868383,4824653.895930314],[646089.568705895,4824653.967134979],[646091.637148131,4824656.201110469],[646091.7071856101,4824656.269682417],[646091.7835998016,4824656.331068343],[646091.8656565667,4824656.3846784895],[646091.9525675565,4824656.429997805],[646092.0434977858,4824656.466590891],[646097.3125718087,4824658.292432269],[646097.4078186898,4824658.320227821],[646103.6055941617,4824659.799608172],[646103.7206289403,4824659.820049276],[646107.8794284714,4824660.31058029],[646107.986701199,4824660.317415994],[646108.0940879129,4824660.312698095],[646110.3209419244,4824660.094492289],[646110.4138098091,4824660.080967544],[646110.5050008672,4824660.058796534],[646110.5937119459,4824660.028174528],[646110.6791617345,4824659.989371223],[646110.7605976458,4824659.942728377],[646110.8373024442,4824659.8886567885],[646110.9086005625,4824659.827632686],[646110.9738640526,4824659.760193531],[646111.032518115,4824659.686933285],[646111.0840461623,4824659.608497176],[646111.1279943681,4824659.5255760215],[646112.2631937432,4824657.116872761],[646112.3050601194,4824657.01343496],[646112.3351412598,4824656.905976607],[646112.3530625892,4824656.795835797],[646112.4357880035,4824656.014438419],[646135.8496416959,4824663.810603707],[646147.2838860864,4824668.806088017],[646153.4705639407,4824673.610943332],[646154.6973304488,4824672.031372525],[646148.412037457,4824667.14992821],[646148.3446051539,4824667.101896474],[646148.2734308139,4824667.059607274],[646148.1990022777,4824667.023350466],[646136.6088573772,4824661.959755092],[646136.5244287837,4824661.9273322355],[646112.630881793,4824653.971442354],[646112.7723585678,4824652.184226167],[646130.7625890137,4824655.287201054],[646141.938007569,4824657.790358455],[646147.6448563018,4824659.189559987],[646151.4525542004,4824661.032642182],[646154.0620454906,4824662.784883432],[646154.1230331273,4824662.822732959],[646159.4144299335,4824665.849149499],[646159.428303071,4824665.85693844],[646162.9974096073,4824667.823602171],[646163.0888137366,4824667.86806965],[646165.8990145911,4824669.062630216],[646166.0075990604,4824669.101558201],[646170.51555801,4824670.429738193],[646174.6001896973,4824671.747845997],[646177.3626035132,4824673.1538159745],[646181.5142708183,4824677.13330878],[646181.5526534554,4824677.168234453],[646185.2089396014,4824680.325737248],[646185.3198119573,4824680.408805021],[646188.5230409678,4824682.478629981],[646188.5980578414,4824682.522602373],[646188.6766110964,4824682.55989163],[646192.8641123659,4824684.328921358],[646192.9370302687,4824684.35642915],[646196.2180766579,4824685.450142549],[646196.290215196,4824685.4712126935],[646196.3637323766,4824685.486805762],[646200.622185009,4824686.22401813],[646200.7460086028,4824686.237580645],[646205.185678525,4824686.445391754],[646205.2713397922,4824686.445728368],[646210.1970376021,4824686.253950497],[646219.9678127461,4824686.17859338],[646233.6524915585,4824686.310128371],[646233.6641995447,4824686.310172364],[646245.761050277,4824686.2848102115],[646245.7690975274,4824686.284760959],[646252.0327611362,4824686.221220107],[646252.1211479986,4824686.216405569],[646252.2087628318,4824686.20379374],[646253.7341672163,4824685.9147954695],[646253.8263553916,4824685.89275772],[646253.9160429273,4824685.862090669],[646254.0024240415,4824685.823069839],[646254.0847226585,4824685.776045805],[646254.1621993814,4824685.721441048],[646255.3705010951,4824684.781068163],[646255.4543348276,4824684.707987018],[646255.529534893,4824684.626048636],[646255.5951711453,4824684.536266506],[646256.4981677842,4824683.144782557],[646256.5518683235,4824683.051368285],[646256.5952064001,4824682.952718474],[646256.6276788603,4824682.849978445],[646256.6489086995,4824682.744341007],[646256.6586494399,4824682.63703261],[646256.7184502245,4824681.00494761],[646256.7157031159,4824680.885725586],[646256.6987831743,4824680.767678335],[646256.1364172403,4824678.022000907],[646256.114926398,4824677.936459414],[646255.272449257,4824675.115869628],[646254.5111221173,4824670.887482194],[646254.4908629315,4824670.798475141],[646253.6909367769,4824667.902025799],[646252.7548013795,4824663.33773673],[646252.7396702768,4824663.098563751],[646274.0008372925,4824679.010746088],[646276.1119671054,4824682.244195687],[646278.25102453,4824687.073278808],[646280.0796583246,4824686.263279767],[646277.9078391353,4824681.360234496],[646277.8722071181,4824681.2878317945],[646277.830853288,4824681.218537837],[646275.5788679073,4824677.76935097],[646275.5279055944,4824677.698289746],[646275.4709300338,4824677.631952424],[646275.4083769096,4824677.5708462745],[646275.3407245561,4824677.515438568],[646252.5929569324,4824660.4906616155],[646252.5762115171,4824659.794357103],[646252.6414015644,4824658.983544225],[646252.766117017,4824658.557122176],[646253.3884565157,4824658.015382556],[646258.6951959991,4824656.988653328],[646263.8607030372,4824656.033965723],[646268.7028609391,4824655.611324659],[646268.7603742331,4824655.6046219645],[646272.6675565176,4824655.034181644],[646272.6801279188,4824655.032264532],[646281.5795935192,4824653.617154924],[646290.5616648998,4824652.407662675],[646297.6988867288,4824651.8265015],[646306.7972766418,4824651.981111707],[646312.7308118846,4824653.398675299],[646317.7944132546,4824655.800514301],[646321.7011906188,4824658.804630552],[646325.4643598521,4824662.609660644],[646332.3305090645,4824669.867986056],[646336.3168525249,4824674.22463343],[646340.9749691619,4824680.443281041],[646341.01942917,4824680.498448883],[646351.2102998507,4824692.264889462],[646360.8407792142,4824703.4191070385],[646360.8440236193,4824703.422846025],[646375.5620130528,4824720.299893803],[646375.6116521655,4824720.3528100625],[646378.288231414,4824723.00625024],[646379.0133468244,4824724.611557635],[646378.1025378486,4824729.243736954],[646378.0962956529,4824729.278764004],[646377.3417683563,4824733.997172345],[646374.9203945111,4824745.901842578],[646374.9155806571,4824745.927178243],[646372.6983363206,4824758.477051256],[646371.747868008,4824762.6433638325],[646371.7303803802,4824762.743043668],[646371.7230572018,4824762.8439805675],[646371.6876988199,4824764.465487522],[646371.6900628502,4824764.559375794],[646371.7012245285,4824764.65262821],[646371.7210854017,4824764.74442223],[646371.7494702853,4824764.833948174],[646371.7861288078,4824764.92041637],[646372.3581137251,4824766.110707292],[646372.409345341,4824766.204199253],[646372.4702387134,4824766.291705952],[646373.2090800849,4824767.2411825685],[646373.2659908829,4824767.308041618],[646373.3285469342,4824767.369650967],[646373.3962659962,4824767.4255356705],[646374.5648533046,4824768.306603073],[646374.6357338532,4824768.355406667],[646382.886629178,4824773.5276871715],[646388.6067560504,4824777.73135621],[646388.6467436544,4824777.759267176],[646393.5214499036,4824780.987908673],[646393.605363891,4824781.037772867],[646393.6937396281,4824781.079218304],[646397.0653287364,4824782.4639071515],[646397.1518900932,4824782.494888416],[646397.2409309743,4824782.517788826],[646397.3316987429,4824782.53241481],[646397.423426166,4824782.538642739],[646400.9932016403,4824782.616499364],[646401.0713576853,4824782.615148121],[646405.1433333883,4824782.385321884],[646412.3363800388,4824782.641423916],[646418.3356240905,4824782.992263809],[646425.2652796234,4824784.098569056],[646436.5726021777,4824786.723154183],[646453.1653632284,4824791.247355001],[646453.1704388265,4824791.248724596],[646469.5747319415,4824795.629018177],[646469.6476575256,4824795.645596385],[646478.0569599367,4824797.229146497],[646478.1803602631,4824797.244516103],[646486.5240864669,4824797.75994163],[646486.5780346328,4824797.761814493],[646504.6659146443,4824797.901245923],[646522.6839416445,4824798.649762415],[646522.7036238967,4824798.650386011],[646540.6736125136,4824799.042667113],[646540.7386667236,4824799.041970462],[646552.3447885569,4824798.539772773],[646552.4294439047,4824798.532496617],[646564.8838539106,4824796.926578636],[646564.9132156479,4824796.922348981],[646576.5731614735,4824795.065763817],[646576.5753828858,4824795.065407544],[646586.5733781359,4824793.450378686],[646598.5417072573,4824791.522827364],[646598.5625220654,4824791.519249145],[646604.7524755409,4824790.3877262855],[646604.8677168308,4824790.359505061],[646608.4634459992,4824789.249107142],[646608.5550514838,4824789.215848295],[646608.6429845156,4824789.17383047],[646608.7264099318,4824789.123452741],[646611.3670400444,4824787.347728165],[646611.4406323265,4824787.293184314],[646611.5089247957,4824787.232135201],[646611.57134442,4824787.165093078],[646611.6273674455,4824787.092620489],[646613.1952195903,4824784.860116548],[646613.2451348087,4824784.781495767],[646613.2875197504,4824784.698572471],[646613.322006821,4824784.612065834],[646613.3482969225,4824784.522726106],[646613.3661620474,4824784.43132811],[646613.3754472556,4824784.33866452],[646613.3760720189,4824784.245538981],[646613.3680309189,4824784.15275915],[646613.1040633668,4824782.18025612],[646613.0857266445,4824782.081365778],[646611.7831387222,4824776.608274675],[646611.7809661735,4824776.599329264],[646609.4864417891,4824767.337771346],[646609.477296106,4824767.303475439],[646606.9625891069,4824758.503793266],[646606.9601991368,4824758.495563707],[646603.6273180841,4824747.2001471585],[646603.5981033673,4824747.115348461],[646603.5614082023,4824747.033508473],[646601.6950245036,4824743.325948618],[646601.6452203258,4824743.238311603],[646601.5868465592,4824743.15613371],[646601.5204963223,4824743.080249927],[646601.4468437802,4824743.011431284],[646601.3666372944,4824742.9503770275],[646601.2806918191,4824742.897707512],[646601.1898806209,4824742.853957896],[646599.4364153381,4824742.11563784],[646599.3494694163,4824742.083683255],[646599.2599396817,4824742.059911098],[646599.168594361,4824742.044525351],[646599.0762172602,4824742.037658035],[646598.9836010383,4824742.039368074],[646598.8915404063,4824742.049640797],[646595.2789886273,4824742.62321905],[646592.8943902545,4824741.715890616],[646591.448787351,4824738.72886657],[646590.0846269231,4824734.63919024],[646602.789217093,4824730.302241546],[646602.829278072,4824730.287604891],[646630.3379992859,4824719.566712692],[646649.1177907924,4824713.571333697],[646663.5393848496,4824714.572422102],[646669.8478146177,4824716.361919829],[646669.9421530366,4824716.383806195],[646670.0381661432,4824716.39646454],[646670.1349534544,4824716.399776143],[646670.231607226,4824716.393709947],[646670.3272209667,4824716.378322844],[646670.4208979389,4824716.353759148],[646676.6939905208,4824714.37964028],[646676.7816549566,4824714.347482234],[646676.8659376757,4824714.307287501],[646676.9461038008,4824714.259406549],[646677.0214543479,4824714.204256859],[646677.091332321,4824714.142319293],[646677.1551284408,4824714.074133895],[646677.2122864563,4824714.000295189],[646677.2623079958,4824713.921446988],[646677.3047569118,4824713.838276785],[646677.3392630842,4824713.751509756],[646681.8428579906,4824700.680337501],[646686.8184582622,4824697.771908879],[646685.8091643631,4824696.045257257],[646680.5135162921,4824699.140766056],[646680.4286920758,4824699.196302448],[646680.3499272921,4824699.260142463],[646680.2780315989,4824699.33162986],[646680.2137440434,4824699.4100297885],[646680.1577254657,4824699.494536341],[646680.1105517052,4824699.584280839],[646680.0727076818,4824699.678340759],[646675.6126164802,4824712.623248456],[646670.1058531111,4824714.356206375],[646663.9852075714,4824712.619976968],[646663.8843033699,4824712.596921654],[646663.7815565387,4824712.584419894],[646649.0652980643,4824711.562877084],[646648.970775256,4824711.560795897],[646648.876478365,4824711.567650747],[646648.783250301,4824711.583380359],[646648.6919244198,4824711.607844129],[646629.6999234364,4824717.6709702145],[646629.6409232827,4824717.69186193],[646602.1229034478,4824728.416378053],[646589.3786832246,4824732.766855204],[646587.411652989,4824728.1360407015],[646593.1355430642,4824724.952323353],[646603.3948626425,4824720.013556719],[646613.0254127269,4824715.46991315],[646613.0542379984,4824715.455743166],[646627.3668249003,4824708.132219352],[646640.0562613718,4824702.914701247],[646640.1336733715,4824702.878940688],[646664.0703052076,4824690.556974336],[646664.1364922185,4824690.519656249],[646674.3213868142,4824684.255635322],[646681.0186994014,4824680.223505739],[646693.3995537309,4824673.268109748],[646693.4217192517,4824673.255281313],[646701.0605221546,4824668.702710675],[646708.6765981581,4824665.090230578],[646708.7555237246,4824665.048377777],[646708.830399117,4824664.999648141],[646708.9006267621,4824664.944430573],[646708.9656461801,4824664.883165761],[646709.0249384575,4824664.816342653],[646711.5250269409,4824661.731476149],[646714.4079192923,4824659.395628602],[646718.506020231,4824656.305617851],[646722.4207808127,4824654.309110733],[646728.1713780131,4824652.299553049],[646738.1890479304,4824650.623896004],[646744.8074747301,4824649.561569792],[646749.8857319374,4824648.951091183],[646753.2006427825,4824657.399084793],[646753.2396853585,4824657.486126901],[646753.2868444114,4824657.56905262],[646753.3416907635,4824657.647107272],[646753.4037252769,4824657.719580511],[646753.4723833974,4824657.785812781],[646753.5470402912,4824657.8452013265],[646753.6270165322,4824657.897205673],[646761.0151121396,4824662.214436551],[646761.1050424338,4824662.26104571],[646761.1992264225,4824662.298318326],[646761.2966977896,4824662.325871985],[646761.3964564917,4824662.343423992],[646761.4974790172,4824662.350794264],[646761.5987288881,4824662.347907184],[646765.6107967101,4824662.029590835],[646769.7913198228,4824664.047256262],[646773.5683942391,4824667.522039394],[646774.3911821366,4824670.457091773],[646776.3169442863,4824669.917239809],[646775.4174515412,4824666.708565582],[646775.3884775356,4824666.6209757095],[646775.3515545998,4824666.536428826],[646775.3069970027,4824666.455644549],[646775.2551839952,4824666.379310475],[646775.1965565827,4824666.3080763165],[646775.1316137712,4824666.242548384],[646771.0364072166,4824662.475094241],[646770.9611307087,4824662.412365572],[646770.880076374,4824662.357305301],[646770.7940224507,4824662.310442087],[646766.2362720536,4824660.1107136905],[646766.1387677423,4824660.069859595],[646766.0374953457,4824660.039527278],[646765.9335866988,4824660.020055737],[646765.8282031002,4824660.011662589],[646765.7225223324,4824660.014441638],[646761.7532916281,4824660.329359302],[646754.9356834483,4824656.345492538],[646751.9755864267,4824648.80173589],[646755.8163774913,4824648.627929179],[646761.9911613422,4824649.101824849],[646767.3874305383,4824649.960079438],[646772.8511590656,4824651.664063886],[646776.7611233038,4824653.457556209],[646776.7753342479,4824653.46394122],[646786.46093706,4824657.725340772],[646808.0537977391,4824668.058018898],[646808.0675929312,4824668.064491504],[646826.7906415571,4824676.675771611],[646829.5109531275,4824679.239796484],[646830.4104552359,4824681.042001718],[646830.824949481,4824683.056495547],[646831.1973901734,4824685.419567528],[646831.2236101554,4824685.538382835],[646831.5013069067,4824686.511159906],[646831.5287766614,4824686.593625437],[646831.563303809,4824686.673394022],[646831.6046274919,4824686.749862998],[646832.048956636,4824687.492942927],[646832.0999588473,4824687.569928591],[646832.1578454179,4824687.641881095],[646832.22212269,4824687.7081868285],[646832.2922425056,4824687.768280334],[646832.367606882,4824687.821649133],[646832.4475731103,4824687.867838096],[646833.2545580643,4824688.285504993],[646833.347716252,4824688.327826046],[646845.3211367269,4824693.044133135],[646860.0476084824,4824698.976264424],[646860.1311308243,4824699.005682138],[646860.2169281315,4824699.027595732],[646860.3043276345,4824699.041833372],[646860.3926440002,4824699.048283416],[646860.4811847062,4824699.046895285],[646862.7871262537,4824698.908449215],[646862.8790296784,4824698.898652643],[646862.9696361019,4824698.880412896],[646863.0581715446,4824698.853885785],[646863.1438797183,4824698.819297907],[646863.2260284856,4824698.776944721],[646866.2191035835,4824697.05426271],[646869.367483366,4824695.912254034],[646873.0022941306,4824695.795300054],[646877.2668799022,4824696.616709451],[646880.4402200052,4824697.579946985],[646898.4872439492,4824703.538197328],[646898.522380861,4824703.549085334],[646919.7905400385,4824709.713148557],[646923.4323970928,4824715.836537961],[646929.2348424483,4824726.1657628575],[646931.5675810088,4824731.505859258],[646925.4342555654,4824746.171380003],[646923.1094749372,4824745.314830291],[646922.356204478,4824742.310465007],[646922.0971174345,4824739.787066754],[646922.0925047853,4824739.749247511],[646921.8546103534,4824738.066198982],[646919.87429495,4824738.346111296],[646920.1095227682,4824740.010294144],[646920.3739967895,4824742.586159282],[646920.3987904068,4824742.727220099],[646921.2980128307,4824746.313704343],[646921.32619714,4824746.40670154],[646921.363274639,4824746.496524105],[646921.4088952108,4824746.582323857],[646921.462628068,4824746.663290603],[646921.5239658202,4824746.738659789],[646921.5923292651,4824746.807719716],[646921.6670728581,4824746.869818261],[646921.7474908078,4824746.924369039],[646921.8328237408,4824746.970856936],[646921.9222658726,4824747.008842974],[646924.8634013592,4824748.092484469],[646922.7537386075,4824760.614929836],[646922.7417548503,4824760.719245697],[646922.7407754186,4824760.824243079],[646922.7508111112,4824760.928764341],[646922.7717512804,4824761.031657095],[646926.3702645255,4824774.933171718],[646926.3999372825,4824775.028074505],[646926.4388881942,4824775.119561323],[646926.4867321524,4824775.206727641],[646940.094791588,4824797.316548298],[646940.149553802,4824797.396556652],[646940.2118067022,4824797.47088574],[646940.2809650967,4824797.538836849],[646940.3563788801,4824797.599771224],[646940.437339145,4824797.653116067],[646940.5230848459,4824797.698369924],[646940.6128099527,4824797.735107399],[646940.7056710282,4824797.762983148],[646940.8007951564,4824797.781735136],[646940.897288148,4824797.791187088],[646940.9942429457,4824797.791250153],[646941.0907481518,4824797.781923739],[646941.1858965944,4824797.763295516],[646941.2787938556,4824797.735540595],[646941.3685666791,4824797.698919877],[646941.4543711791,4824797.653777608],[646941.5354007733,4824797.600538133],[646951.8816353832,4824790.060068069],[646951.9547575687,4824790.0013331715],[646952.0220554296,4824789.936005994],[646963.6578708224,4824777.529255384],[646966.1236442378,4824777.861405313],[646970.0790930507,4824779.038592393],[646970.1747845759,4824779.0620083595],[646975.8287336292,4824780.153534446],[646981.8001193873,4824782.070171621],[646986.9500691069,4824785.042771112],[646986.9880114513,4824785.063590442],[646991.9093429641,4824787.627007869],[646991.990899886,4824787.664928577],[646992.075534133,4824787.695367956],[646992.1625610552,4824787.718079768],[646996.8032017519,4824788.7086268645],[646996.9379711003,4824788.727917235],[647003.1013063644,4824789.185125744],[647003.118586246,4824789.186257251],[647016.1762683972,4824789.927805615],[647016.1958265108,4824789.928724334],[647029.0885457797,4824790.407899926],[647034.8932008813,4824793.2348834],[647045.8716836647,4824799.384644876],[647051.6634441512,4824802.988814042],[647051.6971736498,4824803.008896167],[647056.9432604194,4824805.994467033],[647061.89065669,4824809.0133045055],[647070.5045031717,4824814.470806447],[647075.3852832173,4824818.003433539],[647082.8432142871,4824823.454608668],[647082.9614028157,4824823.528923984],[647092.0540213966,4824828.395824847],[647098.7282585512,4824832.369294806],[647102.7727803849,4824835.178605485],[647105.5563474908,4824838.183811988],[647105.5714514367,4824838.199763494],[647109.3252072643,4824842.077938187],[647112.2046458488,4824845.32515472],[647112.2691854918,4824845.391483115],[647112.3395806232,4824845.451560957],[647112.4152283211,4824845.504873689],[647114.8696426979,4824847.069837665],[647114.9571984131,4824847.119647172],[647115.0493209716,4824847.160395478],[647118.0621764377,4824848.315361076],[647118.1287701731,4824848.338234639],[647125.0477457606,4824850.445518012],[647125.0822994916,4824850.4553671405],[647133.8248159131,4824852.778335152],[647139.0604396889,4824854.81844059],[647139.1402628616,4824854.845725684],[647139.2221016736,4824854.86618599],[647139.3053737418,4824854.87967591],[647142.6257694298,4824855.274697105],[647142.7105787755,4824855.281144111],[647142.7956292054,4824855.280360946],[647142.8803054488,4824855.272353276],[647145.5953776301,4824854.898520824],[647145.6973821266,4824854.87903282],[647145.7968154916,4824854.849071086],[647150.0311351288,4824853.329190506],[647157.5373117877,4824851.079662684],[647157.5819296133,4824851.065141986],[647166.3972936879,4824847.9656737605],[647175.2114580646,4824845.276487146],[647175.3017864478,4824845.2441150285],[647175.3885963392,4824845.20323455],[647175.4710884653,4824845.154222103],[647175.5485033073,4824845.097528955],[647175.6201280932,4824845.033677089],[647175.6853033616,4824844.9632544],[647175.7434290325,4824844.886909281],[647175.7939699331,4824844.805344655],[647175.8364607246,4824844.719311502],[647177.1978371877,4824841.593479284],[647177.2087500073,4824841.567423294],[647179.960565771,4824834.727484362],[647179.9645577632,4824834.717404368],[647181.338682269,4824831.191960598],[647183.3893377434,4824826.281194063],[647183.3959679599,4824826.264915602],[647185.6865014754,4824820.496613325],[647189.6904698317,4824810.654595169],[647189.6957807449,4824810.641267485],[647194.7402815205,4824797.713223519],[647198.400722688,4824789.270520962],[647200.5887638018,4824785.611342605],[647203.157891772,4824783.572503745],[647208.0791258046,4824780.889835674],[647208.1496180608,4824780.847561411],[647208.2164003223,4824780.799640631],[647212.2119419809,4824777.67602539],[647212.2436838044,4824777.650145912],[647217.30255829,4824773.350167368],[647222.5847657676,4824769.165753423],[647222.6153166039,4824769.14055142],[647227.7377707713,4824764.741608501],[647227.7632921063,4824764.718923442],[647231.9278956299,4824760.887887447],[647231.9301402947,4824760.885816233],[647234.1817872727,4824758.8017844],[647234.2444619433,4824758.738358328],[647234.3012374814,4824758.669601371],[647237.4222406916,4824754.526777636],[647237.4594254454,4824754.473950607],[647240.6026384706,4824749.687144948],[647240.6214415451,4824749.657380627],[647242.2916129456,4824746.907543153],[647246.081311487,4824741.403229094],[647246.1416819049,4824741.303575077],[647248.400951297,4824737.03073761],[647248.440973298,4824736.945574683],[647248.4728133024,4824736.857026963],[647248.4961893833,4824736.765878493],[647248.5108945575,4824736.672936347],[647248.9143509154,4824733.014972138],[647248.920368432,4824732.900853004],[647248.913326693,4824732.78679249],[647248.5515383322,4824729.75651232],[647248.537422541,4824729.670397974],[647248.5158530035,4824729.585842128],[647248.4869939707,4824729.503488668],[647247.0468144232,4824725.905086832],[647247.0034901929,4824725.811219925],[647246.9507062451,4824725.72232763],[647242.0789750832,4824718.40772065],[647238.4357222478,4824712.110079894],[647238.406352855,4824712.062440059],[647233.6688152947,4824704.8383745225],[647223.7682947023,4824687.579419981],[647223.7523075767,4824687.552533828],[647214.8837649773,4824673.155420152],[647213.4570686844,4824670.21114086],[647213.0095807683,4824667.798050538],[647212.9075727399,4824665.800815495],[647213.2638328233,4824664.391835946],[647215.0867495955,4824662.982278437],[647215.1305106131,4824662.9464173475],[647223.7466855245,4824655.468406916],[647223.8220369786,4824655.39575562],[647226.486518325,4824652.542965365],[647226.5360117989,4824652.485784534],[647226.5810424907,4824652.425026917],[647229.7115855225,4824647.849056855],[647229.7687879178,4824647.754653825],[647229.8152373816,4824647.654521446],[647229.8503679715,4824647.549879734],[647230.9390715222,4824643.595820928],[647230.9577011095,4824643.515292004],[647230.9696165684,4824643.433499639],[647231.4474568461,4824638.8252043305],[647231.7755436024,4824636.995736209],[647236.0444687586,4824635.295111828],[647236.0611252068,4824635.2883020695],[647239.2336231071,4824633.957830722],[647239.3294186218,4824633.911517842],[647242.7238467804,4824632.041449587],[647242.8105077565,4824631.987774183],[647242.8912540744,4824631.925555167],[647242.9652466847,4824631.855439068],[647243.0317167175,4824631.778154474],[647243.089973471,4824631.694504462],[647243.1394115894,4824631.605358255],[647244.5013810695,4824628.824008655],[647244.529774535,4824628.760526502],[647246.1356370151,4824624.806701898],[647246.14432352,4824624.784563192],[647247.6968183122,4824620.685118053],[647247.7301602034,4824620.579868618],[647250.0333912579,4824611.617936299],[647253.2138346644,4824600.230652988],[647253.2258251114,4824600.18328454],[647254.6657642288,4824593.847948848],[647254.6798527327,4824593.772762607],[647254.688152868,4824593.69671943],[647255.1219578688,4824587.550433009],[647255.1243453166,4824587.493743082],[647255.259186461,4824577.662973508],[647255.2577339563,4824577.593664265],[647254.7881888737,4824569.160804782],[647254.7802904552,4824569.0792832635],[647254.7657472522,4824568.998681538],[647254.7446568223,4824568.919540293],[647253.3256352135,4824564.354898298],[647253.3008515378,4824564.284546202],[647253.2708929034,4824564.216237138],[647250.4725890827,4824558.432404335],[647250.4018647983,4824558.309350435],[647247.3107144242,4824553.719143583],[647247.2969294266,4824553.699199686],[647239.0547858233,4824542.078350263],[647234.220076407,4824534.653718279],[647232.7635839798,4824529.18636898],[647230.3825268472,4824519.31727106],[647227.5232456072,4824506.853488165],[647223.6869197555,4824489.287835346],[647221.5473013307,4824477.921302811],[647221.5389082455,4824477.881243167],[647220.1588496601,4824471.906298228],[647220.1391902745,4824471.833738968],[647220.1141356246,4824471.762861594],[647217.9548423071,4824466.315294802],[647217.920894177,4824466.239092019],[647217.880712669,4824466.165983976],[647217.83457742,4824466.096479455],[647214.9047379722,4824462.0588241],[647209.0088077525,4824453.223506801],[647201.9346257184,4824441.946393001],[647201.9076986333,4824441.90570763],[647198.5075479954,4824437.030963956],[647198.4453266244,4824436.950763424],[647198.3752954009,4824436.87728382],[647198.2981759005,4824436.811282251],[647198.2147627337,4824436.753438773],[647195.0509853532,4824434.7894847095],[647188.5430150812,4824430.552322627],[647188.4944444145,4824430.522633036],[647182.6270250385,4824427.161651826],[647175.5099665915,4824422.586185356],[647161.1770433815,4824413.3167840615],[647161.0902779798,4824413.266650356],[647160.9989307275,4824413.225452022],[647154.2128325738,4824410.565489395],[647154.1036395397,4824410.529776855],[647153.9910710466,4824410.506823893],[647141.0463306239,4824408.634139633],[647141.0416865207,4824408.633478899],[647133.7736790843,4824407.616817349],[647130.3254416902,4824406.556074439],[647127.8584254624,4824403.985126724],[647127.836624385,4824403.96310078],[647122.8020588148,4824399.031837683],[647118.8034121157,4824394.226874681],[647118.7943670308,4824394.216159378],[647115.3113367301,4824390.1481809495],[647109.9387902289,4824383.57555257],[647107.8656711167,4824379.7954197265],[647107.1227915721,4824376.60190911],[647107.0510185265,4824373.202480934],[647107.3622168704,4824370.3493711455],[647110.0593097841,4824363.824583072],[647121.0133814717,4824368.288266986],[647126.7459100089,4824371.013469463],[647126.8356609348,4824371.050901135],[647126.9286231955,4824371.079438424],[647127.0239177066,4824371.09881147],[647127.1206433286,4824371.108837076],[647132.2054590621,4824371.386948557],[647132.2466259544,4824371.388350552],[647138.8063112595,4824371.476559969],[647138.8958477319,4824371.473751287],[647138.9847736032,4824371.4629412005],[647147.792835918,4824369.9892639555],[647147.8092165029,4824369.986383085],[647158.2841922465,4824368.054199519],[647165.5733935538,4824367.075211735],[647171.911796846,4824370.12549745],[647176.7733561978,4824373.849209648],[647177.9895026687,4824372.261447776],[647173.0462422337,4824368.47515662],[647172.9617756434,4824368.417077416],[647172.8718070996,4824368.367950437],[647166.1707755224,4824365.143153914],[647166.0814633023,4824365.105390839],[647165.9889134815,4824365.076455512],[647165.8939962802,4824365.056620004],[647165.7976041784,4824365.046070822],[647165.7006435246,4824365.044907157],[647165.6040260128,4824365.053139952],[647157.9937326345,4824366.075252517],[647157.945447101,4824366.082943639],[647147.4546009385,4824368.018054617],[647138.7433602301,4824369.475532635],[647132.2941158204,4824369.388808339],[647127.4266321833,4824369.12258373],[647121.8464080958,4824366.469785684],[647121.7944250514,4824366.446860314],[647110.8120025755,4824361.971623714],[647116.0358944288,4824348.88182731],[647123.1161950849,4824333.279892198],[647123.1183672834,4824333.275071784],[647131.9778623373,4824313.475026809],[647140.7610579415,4824294.573314326],[647140.7639166226,4824294.56710694],[647149.9793350062,4824274.37529178],[647162.7771754302,4824247.428367109],[647162.7812209886,4824247.41974309],[647163.4389957703,4824246.0],[647161.2347707489,4824246.0],[647160.9685264745,4824246.574662452],[647148.1694622164,4824273.524164008],[647148.1630330529,4824273.537971524],[647138.9458713911,4824293.733606364],[647130.1611105566,4824312.638687271],[647130.1551927647,4824312.651663896],[647121.2938648207,4824332.455805189],[647114.2050876331,4824348.076418928],[647114.1869358746,4824348.11901118],[647108.5887493193,4824362.14669864],[647105.459419178,4824369.717151952],[647106.3835770317,4824370.099162765],[647105.3894729771,4824369.99073247],[647105.0557658972,4824373.050205487],[647105.0500927622,4824373.179744348],[647105.1254345302,4824376.74819998],[647105.1329933063,4824376.851600932],[647105.151217331,4824376.953663546],[647105.9488117651,4824380.382384005],[647105.9734394164,4824380.469981887],[647106.0059277392,4824380.554978471],[647106.0460077331,4824380.636669991],[647108.2294691112,4824384.618001318],[647108.277251648,4824384.6963682575],[647108.3320182695,4824384.770023978],[647113.7700590704,4824391.422776317],[647113.7847004601,4824391.440276873],[647117.2705911684,4824395.511596093],[647121.2973079042,4824400.350289378],[647121.3662213063,4824400.425021384],[647126.426074068,4824405.3810528135],[647129.0619547673,4824408.127978993],[647129.135837666,4824408.1975383],[647129.216389613,4824408.259251864],[647129.3027811503,4824408.312484206],[647129.3941226888,4824408.356687184],[647129.489473668,4824408.391405635],[647133.261999439,4824409.551905771],[647133.3390546369,4824409.572286079],[647133.4174881928,4824409.586464857],[647140.7622976843,4824410.613869612],[647153.5904494489,4824412.469687273],[647160.175403772,4824415.050807087],[647174.4250010648,4824424.266319767],[647174.4272767886,4824424.267787159],[647181.5669972228,4824428.857822734],[647181.610723249,4824428.884377976],[647187.4756373559,4824432.243924114],[647193.9687888857,4824436.471438117],[647193.9870015833,4824436.483017999],[647196.9849783315,4824438.344049263],[647200.2533532032,4824443.029868047],[647207.3220602743,4824454.298254085],[647207.3373783783,4824454.3219250385],[647213.2520347092,4824463.185304259],[647213.2744679527,4824463.217532557],[647216.1419414515,4824467.16924047],[647218.2271089612,4824472.429799186],[647219.5856069045,4824478.311397618],[647221.7241177745,4824489.672046366],[647221.7298867698,4824489.70042669],[647225.5704209345,4824507.285348406],[647225.5727111761,4824507.295577413],[647228.4344203585,4824519.7699438585],[647228.43699382,4824519.780879509],[647230.8221374528,4824529.666915313],[647230.8279457669,4824529.689801304],[647232.3286034967,4824535.322937346],[647232.361124938,4824535.423369568],[647232.4040526588,4824535.51981378],[647232.4569082606,4824535.6111951815],[647237.3896327828,4824543.186348329],[647237.411957698,4824543.219187724],[647245.6585764386,4824554.84634678],[647248.7032157633,4824559.367487002],[647251.4379814122,4824565.019992335],[647252.7981485333,4824569.39531398],[647253.2588988931,4824577.670223428],[647253.1249226759,4824587.437934349],[647252.6985133307,4824593.479436784],[647251.2809818091,4824599.716185222],[647248.1043147082,4824611.089947822],[647248.0989282007,4824611.110037837],[647245.8068698748,4824620.028496777],[647244.2781670799,4824624.065117881],[647242.6898718749,4824627.975689762],[647241.4821137633,4824630.442116206],[647238.4110041757,4824632.13406085],[647235.2959353249,4824633.440447799],[647230.5192303612,4824635.343357928],[647230.4270706585,4824635.385603697],[647230.3396619839,4824635.436963598],[647230.2579027337,4824635.496909748],[647230.1826332392,4824635.564826013],[647230.1146271289,4824635.640014341],[647230.0545833774,4824635.72170194],[647230.0031191215,4824635.809049213],[647229.9607633167,4824635.901158396],[647229.9279513007,4824635.99708278],[647229.9050203195,4824636.095836443],[647229.4723168748,4824638.508665195],[647229.4619471821,4824638.582045319],[647228.9888294155,4824643.144796693],[647227.9665057828,4824646.857770495],[647224.9731563434,4824651.233202259],[647222.3961782499,4824653.992305078],[647213.8409558743,4824661.417414576],[647212.1460027803,4824662.728025074],[647207.3947470417,4824661.591605816],[647207.2798307957,4824661.5711245835],[647192.9016498973,4824659.866890228],[647192.8068932982,4824659.860202158],[647192.7119296208,4824659.862535255],[647192.6176157742,4824659.873868466],[647192.5248028032,4824659.894099526],[647192.4343282097,4824659.923045878],[647192.3470083954,4824659.960446324],[647192.2636312941,4824660.00596338],[647192.1849492629,4824660.05918632],[647174.2758132798,4824673.455947326],[647174.2458703155,4824673.479244624],[647150.5622621957,4824692.638585872],[647150.4842519233,4824692.708776142],[647150.4140267646,4824692.78675501],[647150.3523600583,4824692.871663749],[647150.2999308956,4824692.962567322],[647148.3492950115,4824696.796400267],[647103.7657491651,4824731.4352509845],[647103.7209619732,4824731.4721817095],[647080.5056021176,4824751.775392267],[647080.4375906591,4824751.840785249],[647080.3760448294,4824751.912296866],[647080.3215124971,4824751.989290537],[647080.2744790982,4824752.071080878],[647080.2353633146,4824752.15693981],[647080.2045133472,4824752.246103032],[647080.1822038164,4824752.33777683],[647080.168633317,4824752.431145145],[647080.163922651,4824752.525376828],[647080.1299096986,4824764.8645939855],[647065.6023546756,4824785.429413264],[647065.5494709011,4824785.512710375],[647065.5050531784,4824785.6008135425],[647065.4695339188,4824785.692865075],[647061.3991213441,4824798.020856506],[647057.1693790385,4824803.821952634],[647052.7034663282,4824801.280382229],[647046.9088270093,4824797.674421587],[647046.869195035,4824797.651006769],[647035.8455789334,4824791.475963189],[647035.7947195821,4824791.449361545],[647029.7744785568,4824788.517383402],[647029.6787661946,4824788.476781154],[647029.5793554918,4824788.446335942],[647029.477321018,4824788.42637686],[647029.3737657046,4824788.417119653],[647016.2798914906,4824787.930467861],[647003.2406287792,4824787.189965541],[646997.1539713129,4824786.738445144],[646992.7128492718,4824785.790485405],[646987.931140258,4824783.299794382],[646982.7073880383,4824780.284595393],[646982.6125336083,4824780.236380884],[646982.5130931553,4824780.198518],[646976.3828233373,4824778.230883769],[646976.2667651426,4824778.20116936],[646970.6023186044,4824777.107616676],[646966.6195324749,4824775.922293697],[646966.5442915461,4824775.903047659],[646966.4677839434,4824775.889698726],[646963.6084409541,4824775.504533339],[646960.474561273,4824773.707336076],[646958.5724501633,4824772.61647704],[646954.8386830664,4824767.776204044],[646946.7318573518,4824753.623587247],[646946.7277106172,4824753.616417035],[646933.5481029289,4824731.043496293],[646931.0475790679,4824725.31930641],[646931.0030526295,4824725.229848692],[646925.1700509521,4824714.84622895],[646925.1576752503,4824714.8248225115],[646921.3076517577,4824708.351423718],[646920.4481727743,4824708.862594802],[646920.7265429682,4824707.902120942],[646899.0967898456,4824701.633258431],[646881.0557520943,4824695.676984438],[646881.0326995747,4824695.669681514],[646877.7977842957,4824694.687753415],[646877.6964650322,4824694.662691161],[646873.2708963974,4824693.81027457],[646873.1607370022,4824693.795349078],[646873.0496016331,4824693.79274285],[646869.1440190941,4824693.918409205],[646869.0391776441,4824693.927321033],[646868.9358529516,4824693.947199619],[646868.8351889397,4824693.977824887],[646865.4549977557,4824695.203918284],[646865.3744765937,4824695.237161952],[646865.2971541919,4824695.277287321],[646862.4323385634,4824696.926148839],[646860.5860620152,4824697.0369971525],[646846.0648557964,4824691.187551122],[646846.0577017268,4824691.18470128],[646834.1283617967,4824686.485757432],[646833.6195016545,4824686.222389403],[646833.3884744482,4824685.83602789],[646833.1635139837,4824685.0479870485],[646832.7969341335,4824682.722101102],[646832.7886091531,4824682.676253772],[646832.3430688245,4824680.510872097],[646832.321946963,4824680.426842219],[646832.2936305489,4824680.344956116],[646832.2583321579,4824680.265828517],[646831.2210168445,4824678.187506444],[646831.1783028041,4824678.110592529],[646831.1289938414,4824678.037730566],[646831.0734716196,4824677.969484524],[646831.012165894,4824677.906382642],[646828.0432188716,4824675.108006862],[646827.9605839477,4824675.038163064],[646827.8708868605,4824674.97765588],[646827.7751776655,4824674.927193649],[646808.910220488,4824666.25064563],[646787.309873341,4824655.914385059],[646787.2809430755,4824655.901102976],[646777.5878997721,4824651.636429811],[646773.6268781722,4824649.8195175845],[646773.5076784919,4824649.773806382],[646767.9137522983,4824648.029216915],[646767.773095169,4824647.996280194],[646762.2652222491,4824647.120275489],[646762.1846724312,4824647.110794787],[646755.9086152775,4824646.629126702],[646755.7868868042,4824646.627216944],[646750.4889530344,4824646.866963504],[646750.4148047485,4824646.873089505],[646744.5491472827,4824647.578224803],[646744.5100203126,4824647.583714569],[646737.8688344185,4824648.649693851],[646737.8623381768,4824648.65075851],[646727.7571601972,4824650.341053041],[646727.6738031479,4824650.3586760955],[646727.5922487556,4824650.383330727],[646721.6969820663,4824652.443443454],[646721.5725492534,4824652.496625631],[646717.5194739582,4824654.563672519],[646717.4435957281,4824654.606637632],[646717.3717488816,4824654.656049547],[646713.189892486,4824657.809212783],[646713.1624034698,4824657.830702154],[646710.184555076,4824660.243487308],[646710.107025709,4824660.3133105105],[646710.0371935184,4824660.390831782],[646707.6141980225,4824663.380573022],[646700.16065575,4824666.915959631],[646700.0772593304,4824666.96046125],[646692.4088116697,4824671.530699559],[646680.0260089276,4824678.487190141],[646680.0000097833,4824678.5023149615],[646673.2857542938,4824682.544645051],[646673.2776633841,4824682.549568552],[646663.1211190706,4824688.796153191],[646639.2562330773,4824701.081186617],[646626.5679297354,4824706.298238813],[646626.4926938757,4824706.332882515],[646612.1575058649,4824713.667970958],[646602.5379451665,4824718.206429792],[646602.5308843385,4824718.209794876],[646592.2414748452,4824723.16304659],[646592.189142191,4824723.190167088],[646585.6535662272,4824726.825356847],[646585.5706734081,4824726.876915337],[646585.4932026489,4824726.936310444],[646585.4218922075,4824727.002976165],[646585.3574216362,4824727.076277207],[646585.3004053073,4824727.155515049],[646585.2513865577,4824727.239934593],[646585.2108325115,4824727.3287313655],[646585.1791296283,4824727.421059175],[646585.1565800208,4824727.516038187],[646585.1433985751,4824727.612763297],[646585.1397109041,4824727.710312763],[646585.1455521493,4824727.807756989],[646585.1608666466,4824727.90416738],[646585.1855084564,4824727.998625194],[646585.2192427547,4824728.0902302945],[646587.8857966684,4824734.367874792],[646589.5719532653,4824739.422877548],[646589.6204439775,4824739.542081136],[646591.2672422378,4824742.944831637],[646591.3123951663,4824743.027875013],[646591.3651872835,4824743.106284079],[646591.4251468924,4824743.179358251],[646591.4917382546,4824743.246444612],[646591.5643663768,4824743.306943745],[646591.6423823277,4824743.360315093],[646591.7250890355,4824743.406081782],[646591.8117475167,4824743.443834887],[646594.8168958478,4824744.587279653],[646594.91604455,4824744.6192011265],[646595.0179758478,4824744.640636054],[646595.121583843,4824744.651351879],[646595.2257444464,4824744.651232341],[646595.3293275732,4824744.640278737],[646598.9233046488,4824744.069649659],[646600.0742428167,4824744.554267598],[646601.7345390811,4824747.85243602],[646605.0407481259,4824759.057458872],[646607.5494005571,4824767.835954373],[646609.8385496176,4824777.075815474],[646611.1284138389,4824782.495445331],[646611.3338519711,4824784.030586051],[646610.097183831,4824785.791508792],[646607.7325870617,4824787.381611312],[646604.3343759972,4824788.431013621],[646599.1242680952,4824789.383420811],[646595.8804312665,4824776.474987086],[646596.6216384651,4824774.401420488],[646594.7383410431,4824773.7282259995],[646593.894945422,4824776.087670149],[646593.866469208,4824776.181661478],[646593.8473501059,4824776.2779928055],[646593.8377725243,4824776.37573499],[646593.8378288415,4824776.473945283],[646593.8475185144,4824776.571676419],[646593.8667480835,4824776.667985756],[646597.1470845102,4824789.721664963],[646586.2551355688,4824791.475860588],[646576.2575571492,4824793.090822002],[646564.6133717466,4824794.944897671],[646552.2158469529,4824796.543480661],[646540.6847232479,4824797.042433175],[646522.7571172619,4824796.651077277],[646504.7320360856,4824795.902267735],[646504.6982375683,4824795.901435664],[646486.6204506373,4824795.7620820375],[646478.3658521589,4824795.252162288],[646470.054544122,4824793.687065431],[646453.6889433155,4824789.317103514],[646437.0803294469,4824784.788580249],[646437.0433742563,4824784.779256826],[646425.6834932369,4824782.142472156],[646425.6150419407,4824782.129080789],[646418.6015617714,4824781.009393112],[646418.5022911944,4824780.998593544],[646412.4417483733,4824780.6441688575],[646412.4189490015,4824780.643096461],[646405.1685080979,4824780.384950957],[646405.0765752521,4824780.385906728],[646400.9977067232,4824780.616122002],[646397.6530365027,4824780.54317491],[646394.544161308,4824779.266380891],[646389.7714616617,4824776.105300953],[646384.0412346678,4824771.894209427],[646383.9801960455,4824771.852731982],[646375.7345068727,4824766.683715085],[646374.706116256,4824765.908350297],[646374.114405294,4824765.147949291],[646373.6924403638,4824764.269847421],[646373.7203670811,4824762.989150625],[646374.6537367941,4824758.897788585],[646374.6635344137,4824758.8493513595],[646376.8828353881,4824746.287837526],[646379.3058342554,4824734.375177881],[646379.313353236,4824734.33376721],[646380.0683947138,4824729.612143456],[646381.0374039905,4824724.683969874],[646381.0520469538,4824724.581992182],[646381.0561200449,4824724.47904911],[646381.0495800326,4824724.3762332825],[646381.0324963318,4824724.274635973],[646381.0050502667,4824724.175335522],[646380.9675331459,4824724.079385891],[646380.0348413032,4824722.014532365],[646379.9934802682,4824721.9330974445],[646379.9448615264,4824721.855776042],[646379.889390674,4824721.7832132],[646379.8275304702,4824721.716014267],[646377.0454929847,4824718.958027541],[646362.3529895104,4824702.110204389],[646352.7236222539,4824690.9572748775],[646352.7226107566,4824690.95610517],[646342.5544418392,4824679.2158761835],[646337.8881338483,4824672.986293006],[646337.8255368017,4824672.910752249],[646333.8004376492,4824668.511749046],[646333.7891324008,4824668.499597649],[646326.909642341,4824661.227169395],[646326.8941892241,4824661.211193092],[646323.0755226156,4824657.350048282],[646322.9740864879,4824657.260501632],[646318.9289631192,4824654.150004228],[646318.8414075427,4824654.089799677],[646318.7479581173,4824654.039225259],[646313.4934585766,4824651.546836737],[646313.3971615769,4824651.507162563],[646313.2972604057,4824651.477719258],[646307.1558100686,4824650.010483277],[646307.0488626015,4824649.991007581],[646306.9404330354,4824649.983255638],[646297.6837161287,4824649.825954958],[646297.5855672448,4824649.8291093735],[646290.3731274197,4824650.416395309],[646290.3208338047,4824650.422041238],[646281.3008762983,4824651.636635092],[646281.2772903913,4824651.6400977895],[646272.3723320689,4824653.056080799],[646268.5001011707,4824653.621418291],[646263.6390945624,4824654.045704538],[646263.5443057936,4824654.058570663],[646258.3276031052,4824655.022720235],[646258.3193910497,4824655.024273502],[646252.7446596401,4824656.102852861],[646252.6427773591,4824656.128177549],[646252.5441115029,4824656.164043797],[646252.4497495017,4824656.210056313],[646252.3607313506,4824656.265707978],[646252.2780381491,4824656.330385434],[646251.2319892325,4824657.240959395],[646251.1634035766,4824657.306640486],[646251.1013574211,4824657.378531184],[646251.0464102981,4824657.45598318],[646250.9990577205,4824657.538298011],[646250.959726714,4824657.624733361],[646250.9287719652,4824657.714509758],[646250.6930408692,4824658.520512021],[646250.6694188538,4824658.619850443],[646250.6560500386,4824658.721079866],[646250.578462531,4824659.686088376],[646250.5755350201,4824659.790272647],[646250.6052119713,4824661.024293705],[646250.6069181163,4824661.063389714],[646250.7631905753,4824663.53354342],[646250.7815872275,4824663.671322949],[646251.7384701783,4824668.336770282],[646251.754163015,4824668.402061777],[646252.5508693696,4824671.286852558],[646253.3140437508,4824675.525499513],[646253.34004674,4824675.634492112],[646254.185949932,4824678.46655222],[646254.7154013589,4824681.051528913],[646254.6701049203,4824682.287760822],[646254.0091889265,4824683.306207577],[646253.1245032968,4824683.994723011],[646251.9236990683,4824684.222223566],[646245.7528333624,4824684.284823043],[646233.6658604796,4824684.310164486],[646219.9783737616,4824684.178602506],[646219.9610500901,4824684.1785860555],[646210.1660111697,4824684.254130307],[646210.134818765,4824684.25485764],[646205.2363682819,4824684.445574659],[646200.9018567519,4824684.242685782],[646196.7791011976,4824683.528964942],[646193.6064973815,4824682.471400102],[646189.5352468635,4824680.751481053],[646186.4635799545,4824678.766667349],[646182.8794906249,4824675.671512422],[646178.6398774083,4824671.6077209255],[646178.5660709126,4824671.543596104],[646178.4863550648,4824671.4869853705],[646178.4014918994,4824671.438429889],[646175.4365355682,4824669.9293730045],[646175.3644911044,4824669.896233107],[646175.2900472096,4824669.868906122],[646171.117573316,4824668.522451699],[646171.0930868939,4824668.514894964],[646166.6282530379,4824667.199420919],[646163.9180534723,4824666.047368915],[646160.4004851055,4824664.109103958],[646155.1471673199,4824661.104466729],[646152.5090586125,4824659.333009236],[646152.3872755937,4824659.263108445],[646148.4212019654,4824657.343365892],[646148.3242949949,4824657.302598772],[646148.2236435385,4824657.272230971],[646142.4045064194,4824655.845498644],[646142.3849518148,4824655.8409119425],[646131.1755519102,4824653.330143134],[646131.1269512868,4824653.32051496],[646112.9841650916,4824650.191227089],[646113.5632482242,4824645.97491426],[646111.58184872,4824645.702781931],[646111.0077053282,4824649.883128434],[646102.5994188682,4824648.7063224325],[646102.4891570805,4824648.69707171],[646091.7942165242,4824648.393800143],[646092.3074078271,4824644.369315617],[646090.3234728256,4824644.116329631],[646089.7878509274,4824648.316716561],[646086.0638193433,4824648.12886735],[646085.9443841362,4824648.129984825],[646085.8259340951,4824648.145334261],[646081.0710729974,4824649.053002415],[646080.9868099296,4824649.072903456],[646080.9045841349,4824649.100018669],[646080.8250120042,4824649.134144789],[646080.0,4824649.531093392],[646080.0,4824651.750551356],[646081.5744177857,4824650.993031542],[646086.0829939119,4824650.132377384],[646089.5716269963,4824650.308352523],[646089.3066577788,4824653.196372442],[646089.3024767346,4824653.289404212],[646089.3069680695,4824653.382421518],[646089.3200928333,4824653.474617678]],[[646110.3819754713,4824656.417160546],[646109.5608785689,4824658.15939088],[646108.0064893398,4824658.311702954],[646104.0130206812,4824657.840672741],[646097.9204782799,4824656.386411037],[646092.9347201578,4824654.658744385],[646091.3390077929,4824652.935330382],[646091.5726899503,4824650.388322348],[646102.3770795944,4824650.694697512],[646110.7907970671,4824651.872263627],[646110.576387873,4824654.580804181],[646110.3819754713,4824656.417160546]],[[646953.2132307829,4824768.943509694],[646957.1104608716,4824773.995688115],[646957.1741989801,4824774.070417833],[646957.2449607071,4824774.138534315],[646957.3220634088,4824774.199380437],[646957.4047632694,4824774.252369212],[646959.4795932464,4824775.442282365],[646961.6863333544,4824776.707789559],[646950.6276171119,4824788.499205103],[646941.2312729929,4824795.347382649],[646928.268774971,4824774.28644388],[646924.7613732058,4824760.736904499],[646926.954255372,4824747.7204889115],[646932.8033729892,4824733.7345433505],[646944.9984667208,4824754.621271602],[646953.1373009398,4824768.829767742],[646953.2132307829,4824768.943509694]],[[647210.9025013287,4824665.752562709],[647211.0155641459,4824667.96624161],[647211.0310255918,4824668.097566715],[647211.5151625222,4824670.708287808],[647211.5353379106,4824670.795236451],[647211.5631861179,4824670.880039694],[647211.5984852741,4824670.962021901],[647213.1059493275,4824674.0729819685],[647213.1544369055,4824674.161388637],[647222.0412508107,4824688.588163789],[647231.948827005,4824705.859417918],[647231.9800198681,4824705.9102230845],[647236.7185599066,4824713.135817256],[647240.3635967126,4824719.436541742],[647240.396891182,4824719.49012055],[647245.2285757312,4824726.744599985],[647246.5812537433,4824730.124372355],[647246.9138160353,4824732.9098597495],[647246.5438368007,4824736.264301368],[647244.4009011056,4824740.317123028],[647240.6280889473,4824745.796910609],[647240.5970466587,4824745.844875829],[647238.9211790296,4824748.604091804],[647235.8053683017,4824753.349166446],[647232.7576252983,4824757.394744487],[647230.5727350642,4824759.416989024],[647226.4218224596,4824763.235430686],[647221.3273484863,4824767.6103454195],[647216.0471284981,4824771.793184931],[647216.0204318878,4824771.815094028],[647210.9640041704,4824776.11299285],[647207.6798589763,4824778.680456003],[647199.5113738637,4824770.557494211],[647199.7141349618,4824767.576719789],[647200.6103411325,4824763.331861597],[647200.626913783,4824763.225125982],[647200.6318775818,4824763.117225544],[647200.6251746158,4824763.009419169],[647200.6068830893,4824762.9029646525],[647199.4864214408,4824757.989309651],[647199.4556600511,4824757.882293548],[647199.4131916558,4824757.779360829],[647199.3595428083,4824757.681787726],[647194.1370912177,4824749.322493679],[647194.075948268,4824749.23532392],[647194.0058836283,4824749.155149276],[647193.9276916235,4824749.08287869],[647185.2378559199,4824741.869831426],[647185.160247891,4824741.811534608],[647185.0773535689,4824741.761036524],[647184.9899539448,4824741.718812942],[647184.8988724565,4824741.685261672],[647184.8049672305,4824741.66069882],[647174.3647902025,4824739.46504397],[647174.2786704336,4824739.450825006],[647174.1916387994,4824739.444170069],[647174.1043583759,4824739.445129863],[647166.5644107203,4824739.85762095],[647166.4568132047,4824739.869373769],[647166.351116192,4824739.892686761],[647166.2485579599,4824739.9272868065],[647160.6239204225,4824742.17073554],[647160.5301496445,4824742.213871999],[647149.254280808,4824748.124210534],[647142.7852381949,4824750.172310582],[647135.1066499188,4824749.2157625975],[647120.5036151898,4824743.826582359],[647112.2143594829,4824739.100000864],[647105.8603972828,4824732.340527744],[647149.7527803587,4824698.238670744],[647149.8356919714,4824698.166612882],[647149.9101998578,4824698.085895809],[647149.9754049557,4824697.997493512],[647150.0305204568,4824697.902472711],[647151.9858274279,4824694.059459085],[647175.4889965212,4824675.046087693],[647193.0630049754,4824661.9000156885],[647206.9863634574,4824663.550340304],[647211.1611804119,4824664.548885246],[647210.9317106148,4824665.456419563],[647210.9121457317,4824665.553999457],[647210.9023770514,4824665.653040828],[647210.9025013287,4824665.752562709]],[[647201.982058232,4824781.952372633],[647199.2025382015,4824784.158176905],[647199.1344598177,4824784.217400589],[647199.071997112,4824784.282519876],[647199.0156586628,4824784.353004557],[647198.9659031843,4824784.428280738],[647196.6508352633,4824788.299892829],[647196.5916209577,4824788.415315781],[647192.8979495402,4824796.934662957],[647192.8838363582,4824796.968941963],[647187.8352043922,4824809.907573341],[647183.8323603229,4824819.746827926],[647183.829234951,4824819.754603477],[647181.5403986038,4824825.518631738],[647179.4885223369,4824830.432321741],[647179.4795726056,4824830.454495869],[647178.1030744727,4824833.986029399],[647175.3585544117,4824840.807834065],[647174.1868924025,4824843.498066308],[647165.7935818621,4824846.058851131],[647165.7537068998,4824846.071937624],[647156.9406812101,4824849.1705836775],[647149.4313789891,4824851.421048199],[647149.3806157928,4824851.437752142],[647145.2192786369,4824852.931436151],[647142.7346211243,4824853.273543303],[647139.6680070747,4824852.908714029],[647134.498790311,4824850.894484649],[647134.392519943,4824850.859781963],[647125.6132622887,4824848.527051464],[647118.7451748467,4824846.435266879],[647115.8596309796,4824845.329105652],[647113.6083280275,4824843.893647951],[647110.8071366322,4824840.734672775],[647110.777468546,4824840.702651384],[647107.0161687104,4824836.816682636],[647104.1661911163,4824833.739777761],[647104.088451683,4824833.664468207],[647104.0030283759,4824833.598001623],[647099.8404195084,4824830.706668104],[647099.7814907801,4824830.668726838],[647093.0575579085,4824826.66567081],[647093.0179156906,4824826.643276327],[647083.9669154542,4824821.798652034],[647076.5635935743,4824816.387392031],[647076.5598172761,4824816.384645351],[647071.6521187479,4824812.832535111],[647071.600994073,4824812.797886191],[647062.9539270325,4824807.319336596],[647062.9396059779,4824807.310431494],[647058.898788341,4824804.844776625],[647063.1075555929,4824799.072447807],[647063.1642008219,4824798.985640452],[647063.2115558906,4824798.893435809],[647063.2491120065,4824798.796824542],[647067.3219282018,4824786.4615533035],[647081.9457926695,4824765.760400945],[647082.0003196854,4824765.674197915],[647082.0457817141,4824765.58288876],[647082.0817057618,4824765.487423475],[647082.1077180689,4824765.388795296],[647082.1235479992,4824765.2880303655],[647082.1290308557,4824765.186177058],[647082.1626684132,4824752.983145632],[647104.31140722,4824733.612758511],[647110.859955141,4824740.579235844],[647110.9314918487,4824740.648136537],[647111.0095106009,4824740.709601001],[647111.0932417578,4824740.763022901],[647119.5846318874,4824745.604862612],[647119.657759895,4824745.642660331],[647119.7337489548,4824745.67431528],[647134.5223860644,4824751.131991191],[647134.6321309288,4824751.165475492],[647134.7449890319,4824751.186168058],[647142.7549889531,4824752.1840011235],[647142.8623103581,4824752.191538437],[647142.9698203902,4824752.187502594],[647143.0762746539,4824752.171940305],[647143.1804409731,4824752.145031701],[647149.9421440708,4824750.00427529],[647150.0248425002,4824749.974026268],[647150.1045592516,4824749.936619408],[647161.4128773926,4824744.009272306],[647166.8372969761,4824741.845682713],[647174.0820823518,4824741.449339193],[647184.1510158571,4824743.566918485],[647192.5262937659,4824750.518865272],[647197.5739777625,4824758.598418343],[647198.6081229204,4824763.133542356],[647197.742773113,4824767.232250153],[647197.7235097256,4824767.370957697],[647197.4850197462,4824770.876979498],[647197.4830842183,4824770.97204736],[647197.4901869893,4824771.066869273],[647197.5062638383,4824771.160587891],[647197.5311694043,4824771.252355845],[647197.5646784999,4824771.341343401],[647197.6064881479,4824771.426745964],[647197.6562203203,4824771.507791356],[647197.7134253563,4824771.583746794],[647197.7775860286,4824771.653925513],[647205.9446845958,4824779.775508487],[647202.125061318,4824781.857665389],[647202.0515254964,4824781.901947355],[647201.982058232,4824781.952372633]]],[[[647170.4138644882,4824251.278885627],[647175.6774752925,4824258.150091537],[647175.7033552628,4824258.182463369],[647192.1284307189,4824277.87664498],[647192.134783547,4824277.884186317],[647196.6724694091,4824283.217213424],[647198.1956976968,4824281.921151858],[647193.6612068582,4824276.591879781],[647177.2525646759,4824256.917402182],[647172.1361603588,4824250.238362092],[647171.1971560806,4824246.0],[647169.1486601483,4824246.0],[647170.2313853522,4824250.88707194],[647170.2606826479,4824250.99191671],[647170.3012029518,4824251.092955623],[647170.3524660675,4824251.188991294],[647170.4138644882,4824251.278885627]]]]}},{"type":"Feature","properties":{"class":"path","widthMeters":1.5},"geometry":{"type":"MultiPolygon","coordinates":[[[[647199.1703187904,4824436.216278648],[647199.1792787559,4824436.14649488],[647199.1816601679,4824436.076178565],[647199.1774420696,4824436.005948494],[647199.1666615809,4824435.936422697],[647199.149413571,4824435.86821301],[647199.125849824,4824435.801919684],[647199.0961777037,4824435.738126107],[647197.2441419815,4824432.200446484],[647194.3842838597,4824426.611255156],[647193.8525015838,4824424.609967864],[647192.4028081093,4824424.9951805705],[647192.955202949,4824427.074040326],[647192.979814028,4824427.150078762],[647193.012376733,4824427.223066565],[647195.910391285,4824432.886829281],[647195.9136107357,4824432.893049451],[647197.590916155,4824436.096966703],[647197.0140386014,4824437.27268071],[647198.3606719021,4824437.933421775],[647199.1050408515,4824436.4163494],[647199.1330357911,4824436.351802219],[647199.1548591199,4824436.284915766],[647199.1703187904,4824436.216278648]]],[[[647259.8236562264,4824619.070561718],[647259.8672212552,4824619.131343055],[647259.916622621,4824619.18748384],[647259.9713691836,4824619.238425929],[647260.0309166616,4824619.283662867],[647261.5215852727,4824620.30302805],[647263.0672145326,4824621.81112428],[647264.2448440015,4824624.609575383],[647264.2770910391,4824624.676678646],[647264.3158320576,4824624.740254214],[647264.3606853138,4824624.799675631],[647264.4112088361,4824624.854357374],[647264.4669047799,4824624.903760625],[647266.3072407439,4824626.379658921],[647267.388362351,4824627.41530931],[647268.0125847029,4824628.343670308],[647268.417276644,4824629.760774182],[647268.7919096609,4824632.200338906],[647270.2745296836,4824631.972659595],[647269.892726846,4824629.48640587],[647269.8725859869,4824629.394296371],[647269.4223435611,4824627.817689028],[647269.3969004919,4824627.743521746],[647269.3638531236,4824627.672416142],[647269.3235626649,4824627.605149401],[647268.5879940384,4824626.5111911],[647268.5395194995,4824626.446851706],[647268.4844239469,4824626.388082509],[647267.3210374455,4824625.273627229],[647267.2714438355,4824625.230136301],[647265.5536717492,4824623.85253083],[647264.3909119141,4824621.089415071],[647264.3584731421,4824621.021959078],[647264.319472159,4824620.958072394],[647264.2742974203,4824620.898391342],[647264.2233988731,4824620.843510354],[647262.5224942825,4824619.183909396],[647262.4740682687,4824619.140591393],[647262.4220748103,4824619.1016272],[647261.0027959539,4824618.131080533],[647259.3579312294,4824615.576149349],[647259.3147026865,4824615.515791518],[647259.2657185309,4824615.460003283],[647259.211458744,4824615.409331296],[647259.152455002,4824615.364272078],[647259.0892854651,4824615.325267151],[647259.0225691135,4824615.292698713],[647254.6456817873,4824613.418305021],[647249.413870553,4824610.693747091],[647248.721037687,4824612.024154029],[647253.9779738669,4824614.7617962165],[647254.0291391606,4824614.7860322045],[647258.2209969915,4824616.5811873665],[647259.8236562264,4824619.070561718]]],[[[646317.936509705,4824676.561677217],[646317.9194379618,4824676.489070304],[646317.8952388705,4824676.418518108],[646307.6198945388,4824650.704805074],[646306.2269901594,4824651.261417497],[646316.4745540158,4824676.9056108],[646317.4359222701,4824682.153399911],[646318.9113683185,4824681.883105705],[646317.936509705,4824676.561677217]]],[[[647037.664202967,4824773.604698282],[647036.3088538577,4824772.962025121],[647028.6589504216,4824789.095093118],[647030.0142995309,4824789.737766279],[647037.664202967,4824773.604698282]]],[[[647178.7500846216,4824850.708555587],[647178.8141742181,4824850.743504346],[647183.5921022204,4824853.054752426],[647184.1831696404,4824858.170535911],[647184.1889058113,4824858.210646994],[647184.6624693837,4824860.985064234],[647185.6490053459,4824874.823469308],[647183.7462168817,4824887.979772714],[647183.7391621349,4824888.05547039],[647183.7398070635,4824888.131493359],[647183.7481450404,4824888.207060454],[647183.7640903896,4824888.281395194],[647183.7874792666,4824888.35373376],[647183.8180713415,4824888.423332845],[647183.8555522686,4824888.489477292],[647183.8995369168,4824888.551487439],[647183.9495733266,4824888.60872611],[647184.0051473543,4824888.660605153],[647184.0656879551,4824888.7065914925],[647184.1305730505,4824888.746212599],[647193.9901825226,4824894.100543051],[647198.1233406449,4824898.289940587],[647200.0603423902,4824905.213531052],[647201.6911843625,4824923.971892021],[647200.2207423731,4824932.376392926],[647200.2116663487,4824932.448953504],[647200.2096998058,4824932.522053054],[647200.2148614394,4824932.594996656],[647200.2271021802,4824932.667090871],[647200.2463056617,4824932.737650335],[647200.2722893257,4824932.806004273],[647200.3048061584,4824932.871502877],[647202.0775068973,4824936.043838837],[647202.1063653008,4824936.091269653],[647206.237517986,4824942.347257523],[647207.3516212604,4824946.04696533],[647204.4002892533,4824955.37139598],[647204.3867402846,4824955.41978001],[647201.5282557339,4824967.124232506],[647201.5132421541,4824967.2044005925],[647201.507022661,4824967.285724929],[647201.5096708086,4824967.367243743],[647201.5211552785,4824967.447992963],[647203.8612327712,4824979.25379751],[647204.8224410178,4824985.167878442],[647203.1491518508,4824984.40053314],[647203.1362637699,4824984.394769051],[647200.3990492979,4824983.201360557],[647200.3737897878,4824983.190891313],[647198.5675999407,4824982.480582021],[647196.86365573,4824979.781275751],[647196.8128311761,4824979.710282636],[647196.7541004176,4824979.645677251],[647194.0487885252,4824976.997356931],[647193.990215842,4824976.945707573],[647193.9265900705,4824976.900428697],[647193.8586010175,4824976.8620112],[647188.9830187651,4824974.432777624],[647188.9316134112,4824974.409535751],[647186.2748848188,4824973.32676675],[647182.1967597896,4824969.292765819],[647176.7796822172,4824961.13684478],[647176.7339039993,4824961.075048043],[647176.6820380936,4824961.018264158],[647176.6246298508,4824960.967090184],[647176.5622828981,4824960.922064198],[647176.4956527904,4824960.883659633],[647173.4615699641,4824959.336408551],[647171.6446070911,4824953.0183710195],[647171.6230329532,4824952.954358841],[647171.5957868056,4824952.892547435],[647171.5630896693,4824952.833438217],[647171.5252067834,4824952.777510679],[647171.4824454541,4824952.725218508],[647171.4351525614,4824952.676985898],[647164.3808856871,4824946.102796283],[647162.1203457566,4824942.706679835],[647161.2314316673,4824934.988066004],[647161.2186786777,4824934.911996075],[647161.198180292,4824934.837638231],[647161.1701533112,4824934.765778916],[647161.1348941621,4824934.69717815],[647161.0927757624,4824934.632561486],[647156.7786687907,4824928.704412034],[647156.7671654759,4824928.689023202],[647151.0362500189,4824921.223697393],[647151.1938870276,4824918.269821197],[647153.0067401382,4824913.224949439],[647153.0307747471,4824913.144012157],[647153.0455600756,4824913.060886349],[647153.8270470335,4824906.563891269],[647156.8230825706,4824897.523489747],[647156.8422392562,4824897.454952981],[647156.8548139265,4824897.3849091055],[647156.8606933698,4824897.313988735],[647157.1383173612,4824889.441982757],[647157.13719673,4824889.366790134],[647157.1285518016,4824889.292087714],[647157.1124694891,4824889.21862653],[647157.0891114787,4824889.147145135],[647154.8344291295,4824883.264148903],[647154.8048731801,4824883.197045928],[647154.7689060039,4824883.133149719],[647154.7268713745,4824883.073070993],[647154.6791710581,4824883.0173839815],[647154.6262609732,4824882.966620941],[647154.5686468334,4824882.921267062],[647154.5068793134,4824882.881755838],[647146.4790076289,4824878.283366539],[647146.4717891247,4824878.279284592],[647138.1859778486,4824873.654061704],[647135.8510512337,4824869.932624218],[647137.2788402345,4824864.999490074],[647137.296465053,4824864.924289262],[647137.3062621449,4824864.847674555],[647137.3081276038,4824864.7704585185],[647137.3020416448,4824864.693460094],[647136.7785494109,4824860.701457652],[647140.0911618673,4824854.228349786],[647138.7558556948,4824853.545006955],[647135.3369161529,4824860.2258863915],[647135.3059868977,4824860.2946425965],[647135.2821167825,4824860.366156596],[647135.2655470134,4824860.439705744],[647135.2564450272,4824860.514546832],[647135.2549027988,4824860.589923593],[647135.2609359127,4824860.665074348],[647135.7943913477,4824864.733053319],[647134.3168118029,4824869.838218087],[647134.3004820767,4824869.906437968],[647134.2905973608,4824869.975885102],[647134.2872441241,4824870.045951983],[647134.2904516999,4824870.1160256835],[647134.3001920291,4824870.185493216],[647134.3163799058,4824870.253746894],[647134.3388737222,4824870.320189654],[647134.3674767081,4824870.384240269],[647134.4019386517,4824870.445338439],[647137.0174311199,4824874.613945561],[647137.0605216573,4824874.675536378],[647137.1095608958,4824874.732504582],[647137.1640562437,4824874.7842779355],[647137.2234603041,4824874.830336385],[647137.2871763725,4824874.8702172795],[647145.7370489726,4824879.587020842],[647153.5294163834,4824884.050512578],[647155.6338738229,4824889.541536709],[647155.3654146689,4824897.153674455],[647152.3794918,4824906.16356146],[647152.3594693048,4824906.235925473],[647152.3467824683,4824906.309928818],[647151.566426173,4824912.797523985],[647149.7450103,4824917.8662245],[647149.7237240507,4824917.935933403],[647149.7093047628,4824918.007379324],[647149.7018886168,4824918.079887506],[647149.5236099272,4824921.420557201],[647149.5234020099,4824921.496385008],[647149.530851857,4824921.571846253],[647149.5458833161,4824921.646169567],[647149.5683427348,4824921.718595212],[647149.5980005319,4824921.788382852],[647149.6345535442,4824921.854819114],[647149.6776281253,4824921.917224884],[647155.5714830616,4824929.59480235],[647159.7638520644,4824935.355667848],[647160.6508581967,4824943.057714518],[647160.6622830115,4824943.1276543215],[647160.6802579918,4824943.196203593],[647160.7046226534,4824943.262750313],[647160.7351594645,4824943.326700337],[647160.7715957868,4824943.387482711],[647163.1809141383,4824947.007116043],[647163.2335309531,4824947.076963958],[647163.2939203876,4824947.140212488],[647170.2604682294,4824953.63265278],[647172.1099909443,4824960.063909082],[647172.1349552465,4824960.136501793],[647172.1672091845,4824960.206162409],[647172.2064148568,4824960.272161147],[647172.252161533,4824960.333806582],[647172.303969957,4824960.390452899],[647172.3612973687,4824960.441506654],[647172.4235431886,4824960.486432993],[647172.4900553112,4824960.524761254],[647175.6389972131,4824962.130585499],[647180.9898459318,4824970.186792754],[647181.0354763679,4824970.248409965],[647181.0871593278,4824970.30504643],[647185.3261417559,4824974.498164331],[647185.3809821366,4824974.54732493],[647185.4403798103,4824974.590869715],[647185.5037620005,4824974.62837878],[647185.570517508,4824974.6594904205],[647188.3393495146,4824975.787947981],[647193.0839115622,4824978.151901419],[647195.6420800255,4824980.656178114],[647197.4303032168,4824983.488995082],[647197.4759898062,4824983.55355697],[647197.5282213023,4824983.61294866],[647197.586416844,4824983.666509661],[647197.6499292452,4824983.713644328],[647197.718052191,4824983.753828482],[647197.7900280936,4824983.786615238],[647199.8120941677,4824984.5818208605],[647202.5303031307,4824985.76694307],[647205.4757469031,4824987.1176793855],[647205.5441396983,4824987.145062693],[647205.6148891035,4824987.1656039115],[647205.6873124754,4824987.179104843],[647205.7607110196,4824987.1854352215],[647205.834376532,4824987.184533966],[647205.9075982326,4824987.176409772],[647205.979669624,4824987.161141029],[647206.0498953075,4824987.138875061],[647206.1175976932,4824987.109826705],[647206.1821235381,4824987.074276243],[647206.2428502485,4824987.032566693],[647206.2991918878,4824986.985100498],[647206.35060483,4824986.932335649],[647206.3965930043,4824986.874781258],[647206.4367126828,4824986.812992657],[647206.4705767606,4824986.747566024],[647206.4978584921,4824986.679132647],[647206.5182946424,4824986.608352821],[647206.5316880286,4824986.535909483],[647206.5379094211,4824986.462501621],[647206.5368987914,4824986.388837528],[647206.5286658907,4824986.315627971],[647205.3397259591,4824979.00036928],[647205.3351268603,4824978.974863486],[647203.024771986,4824967.319010993],[647205.8379498636,4824955.800072811],[647208.8515862185,4824946.278797966],[647208.8705836543,4824946.206400694],[647208.8822704037,4824946.132470407],[647208.8865300716,4824946.057743418],[647208.8833202338,4824945.982963979],[647208.8726728585,4824945.908876861],[647208.8546939896,4824945.836219943],[647207.6421059833,4824941.8094646],[647207.6177744453,4824941.740901982],[647207.5869144502,4824941.6750193825],[647207.5498163756,4824941.612436724],[647203.3733845326,4824935.287880615],[647201.7442231657,4824932.372415486],[647203.1856341462,4824924.133845057],[647203.194047935,4824924.069430768],[647203.1968561347,4824924.004530023],[647203.1940376776,4824923.939629723],[647201.548644379,4824905.013895683],[647201.539378125,4824904.944761889],[647201.5237292711,4824904.876787935],[647199.5156475345,4824897.699130199],[647199.4915462312,4824897.627216763],[647199.4603051313,4824897.558105196],[647199.4222437222,4824897.4925022675],[647199.3777512398,4824897.431078868],[647199.3272826872,4824897.374463144],[647194.979815933,4824892.9678409025],[647194.9255902811,4824892.918024323],[647194.8667408834,4824892.873765297],[647194.8038350075,4824892.835490452],[647185.3055582051,4824887.677384254],[647187.1451336241,4824874.958149928],[647187.1523645633,4824874.87796297],[647187.1509581954,4824874.797462928],[647186.1560597445,4824860.841754976],[647186.1472658538,4824860.768894968],[647185.6709308687,4824857.978241144],[647185.0348713807,4824852.473044082],[647185.0224719201,4824852.398711578],[647185.0026755952,4824852.325998627],[647184.9756822721,4824852.255639346],[647184.9417644787,4824852.188344094],[647184.901264653,4824852.124792289],[647184.8545916862,4824852.06562556],[647184.8022167941,4824852.011441259],[647184.7446687601,4824851.962786439],[647184.6825285959,4824851.920152324],[647184.6164236761,4824851.8839693535],[647179.635042425,4824849.47430394],[647175.524158086,4824843.876102017],[647174.3151210268,4824844.763924854],[647178.5362516642,4824850.512260176],[647178.5822708883,4824850.568926949],[647178.6335811036,4824850.6208514515],[647178.6896962186,4824850.667541773],[647178.7500846216,4824850.708555587]]]]}},{"type":"Feature","properties":{"class":"residential","widthMeters":5},"geometry":{"type":"MultiPolygon","coordinates":[[[[646611.7488521726,4824387.09182168],[646661.1447951762,4824369.144519003],[646659.4373284263,4824364.44509805],[646609.8480939057,4824382.462630409],[646609.6583271241,4824382.5405338025],[646609.4755860823,4824382.633732953],[646559.2964983993,4824410.877302482],[646477.8785559657,4824448.52463184],[646479.9770546037,4824453.062946887],[646561.4852946174,4824415.37386429],[646561.6622864967,4824415.283314699],[646611.7488521726,4824387.09182168]]],[[[646715.9933239013,4824564.68146457],[646719.068523592,4824568.623944355],[646810.6068778911,4824497.2225081725],[646807.5316782005,4824493.280028387],[646715.9933239013,4824564.68146457]]]]}},{"type":"Feature","properties":{"class":"service","widthMeters":3},"geometry":{"type":"MultiPolygon","coordinates":[[[[646868.5831230198,4824387.15925443],[646905.8542504179,4824343.095284811],[646903.5637386442,4824341.157875248],[646866.2926112461,4824385.221844867],[646868.5831230198,4824387.15925443]]],[[[646798.8453122902,4824397.6914392775],[646798.7706631764,4824397.814719848],[646798.708189745,4824397.944595402],[646798.6584687117,4824398.07986701],[646798.6219590695,4824398.2192859305],[646798.598997853,4824398.361565134],[646798.5897970255,4824398.505391188],[646798.5944415234,4824398.649436382],[646798.6128884716,4824398.79237098],[646798.6449675792,4824398.932875499],[646798.6903827123,4824399.069652891],[646798.7487146267,4824399.201440511],[646798.8194248388,4824399.32702178],[646798.9018605961,4824399.44523741],[646798.9952609035,4824399.554996108],[646835.8640364879,4824438.884952714],[646838.0527330302,4824436.833219922],[646802.085306225,4824398.464781777],[646860.59439368,4824327.377648189],[646858.2780712765,4824325.471172246],[646798.9314479729,4824397.575891741],[646798.8453122902,4824397.6914392775]]],[[[647152.280840097,4824513.0879735425],[647150.5625750893,4824510.628793728],[647114.3892149016,4824535.903651076],[647116.1074799093,4824538.362830891],[647152.280840097,4824513.0879735425]]],[[[646989.338556078,4824687.040548551],[646987.8055597729,4824692.840537719],[646990.7059591511,4824693.607142864],[646992.1860208028,4824688.007428423],[647011.0048348213,4824656.09902076],[647008.4207737924,4824654.575003502],[646989.4967252527,4824686.661842494],[646989.432510618,4824686.783071055],[646989.3796401499,4824686.909659352],[646989.338556078,4824687.040548551]]],[[[646475.8162154783,4824757.874140366],[646493.0316612785,4824756.560875265],[646493.1263102578,4824756.550625108],[646542.4705504057,4824749.616285978],[646542.6587751806,4824749.577400227],[646573.1507355613,4824741.209484371],[646573.3000892743,4824741.159938251],[646580.5732348455,4824738.315586909],[646588.3090994705,4824754.055594448],[646594.2394670655,4824774.483027003],[646597.1205124427,4824773.646619485],[646591.1536143267,4824753.093355818],[646591.1117578949,4824752.96958845],[646591.0592900482,4824752.849932914],[646582.6657871243,4824735.7718420075],[646578.2148436948,4824726.102553633],[646575.4897010108,4824727.356984721],[646579.2835138384,4824735.598713885],[646572.2808206262,4824738.337297849],[646541.9577024898,4824746.658878288],[646492.7559846982,4824753.5731887715],[646475.5880261082,4824754.882831353],[646475.8162154783,4824757.874140366]]]]}},{"type":"Feature","properties":{"class":"tertiary","widthMeters":8},"geometry":{"type":"Polygon","coordinates":[[[647085.2801430977,4824351.344262849],[647073.4901296872,4824341.900761444],[647073.3171501611,4824341.769750235],[647062.60024295,4824334.1013653865],[647062.2497950827,4824333.877205856],[647061.8779610941,4824333.690656431],[647061.4887628617,4824333.543734892],[647061.0864100801,4824333.438030389],[647060.6752547277,4824333.374686257],[647043.8558884499,4824331.672889162],[647043.3313545893,4824331.654426794],[647015.1184576568,4824332.5143780215],[647014.9786501726,4824332.521089498],[646918.270922147,4824338.8611455],[646905.279066092,4824338.151749164],[646878.8271780055,4824331.9484796915],[646861.443190399,4824322.959068666],[646852.0415419444,4824316.897608799],[646851.7516896618,4824316.727531685],[646851.4485836979,4824316.58238574],[646851.1343636129,4824316.46319552],[646806.7527787057,4824301.729363439],[646770.2141704513,4824285.341778089],[646741.5651901221,4824268.347982515],[646728.9739633355,4824260.704924873],[646716.4119599693,4824253.085050398],[646716.0005327666,4824252.867173901],[646715.566576785,4824252.6985775875],[646694.8237685695,4824246.00064422],[646694.8213841167,4824246.0],[646627.780892277,4824246.0],[646692.7355986317,4824253.733094459],[646712.6630285867,4824260.167739019],[646724.823320794,4824267.54394285],[646737.4314056238,4824275.197233569],[646737.466310898,4824275.218179265],[646766.3287234114,4824292.338577003],[646766.7325036847,4824292.548017765],[646803.6635687398,4824309.1116202],[646804.0401862669,4824309.258159847],[646848.1326692795,4824323.896015664],[646857.2687652976,4824329.7862677425],[646857.5989127621,4824329.977473158],[646875.5933912834,4824339.28257434],[646875.8916871247,4824339.421584734],[646876.2004006474,4824339.535603415],[646876.5174421637,4824339.623858589],[646903.7957256952,4824346.02092722],[646904.1411238525,4824346.08606521],[646904.4909067821,4824346.120630322],[646918.0747061922,4824346.862348633],[646918.5544679643,4824346.859730002],[647015.4321531897,4824340.508531786],[647043.3122137999,4824339.658725671],[647058.810722655,4824341.226877342],[647068.573571874,4824348.212594728],[647080.5122549366,4824357.775176749],[647080.7519454153,4824357.952902906],[647081.0042177839,4824358.112266528],[647092.3188688742,4824364.682633208],[647092.7271784235,4824364.919312385],[647090.769883644,4824372.775202377],[647090.698233971,4824373.130820791],[647090.6590972182,4824373.491468051],[647090.6527952808,4824373.854177877],[647091.0471680564,4824387.941140601],[647091.076848932,4824388.3282044],[647091.1439103315,4824388.710568242],[647095.2984822259,4824407.10230791],[647095.3512969309,4824407.310047008],[647103.3462634183,4824435.564101279],[647103.3890847053,4824435.705420458],[647108.6638036071,4824452.021637028],[647108.8027195809,4824452.388738925],[647108.9769458534,4824452.740458495],[647125.1419064407,4824481.706942538],[647125.3610365826,4824482.056032249],[647142.5532721624,4824506.544903634],[647142.6039920861,4824506.61550578],[647148.1748013026,4824514.194881104],[647181.6448920581,4824561.707922548],[647185.3377052969,4824566.958883432],[647201.3132310825,4824590.565540428],[647207.1173643604,4824599.317189997],[647211.5163248092,4824608.175769581],[647213.5859722039,4824617.978719637],[647211.4631723057,4824627.958565529],[647205.2112890148,4824638.692342147],[647200.0418022866,4824644.3143406985],[647052.0558467971,4824761.182902362],[647040.3575374678,4824768.287150563],[647036.1457197084,4824769.369467982],[647033.3672730844,4824769.85124732],[647027.229084057,4824767.628108122],[647008.2234997065,4824755.182432916],[646990.8318692065,4824741.24015443],[646990.6946695948,4824741.134954902],[646959.146192983,4824718.010006128],[646958.728247293,4824717.741868485],[646949.8431574112,4824712.791619638],[646949.5603683873,4824712.6484425245],[646949.2671304605,4824712.528106179],[646922.5004518861,4824702.764077863],[646921.1296748605,4824706.521865821],[646922.4201777924,4824702.735759354],[646863.1253004133,4824682.524966614],[646811.0371805291,4824659.38423587],[646801.7010237033,4824654.955763157],[646773.8777689629,4824641.758015434],[646773.51523297,4824641.607372497],[646773.1396757517,4824641.492994105],[646761.7764388415,4824638.633344409],[646761.3900825373,4824638.55612404],[646760.9980035422,4824638.517287965],[646753.764293453,4824638.159216831],[646753.7218440948,4824637.904018554],[646750.5297229675,4824618.70041768],[646750.4263777724,4824618.244969491],[646750.2706511366,4824617.8046713],[646743.6722353927,4824602.126527437],[646743.4056326515,4824601.603964762],[646720.9511070288,4824564.578494657],[646720.9133370701,4824564.517457379],[646691.43924203,4824517.827979371],[646685.809873028,4824502.419386108],[646664.2418683391,4824366.169406496],[646664.1967733536,4824365.931433017],[646650.1578337643,4824302.42251022],[646650.0360166794,4824301.988911304],[646649.8662275169,4824301.571755382],[646649.650618858,4824301.176331144],[646637.9179360473,4824282.2749557225],[646637.6840343397,4824281.938015085],[646637.416857114,4824281.626799191],[646614.7467161132,4824257.808181023],[646607.6271098227,4824246.0],[646598.2854705078,4824246.0],[646608.121819317,4824262.314018304],[646608.3669766622,4824262.674597295],[646608.6499245688,4824263.006349935],[646631.3381187691,4824286.843935885],[646642.4937121144,4824304.815619025],[646656.3591986549,4824367.53988026],[646677.9688876155,4824504.053188875],[646678.0476668708,4824504.431482377],[646678.1625799196,4824504.800409384],[646684.0716332968,4824520.974548976],[646684.2386761546,4824521.365838995],[646684.4463342071,4824521.73717352],[646714.1293516011,4824568.75760234],[646736.4127531705,4824605.500904447],[646742.7149819918,4824620.475294353],[646745.7438278261,4824638.696641286],[646736.9679376726,4824640.136153756],[646736.6550459085,4824640.200401572],[646736.3482781866,4824640.289410574],[646723.5768213735,4824644.554856971],[646723.0763639483,4824644.760586075],[646702.9249698482,4824654.687201139],[646702.7853398182,4824654.759426755],[646606.1198774506,4824707.193975612],[646575.0241561151,4824723.171962124],[646567.4886745926,4824727.047599228],[646550.8071904508,4824732.979694314],[646506.2647609242,4824740.0676781805],[646459.6606386993,4824742.115196184],[646419.5327629304,4824737.577319233],[646406.1185378267,4824731.8053247295],[646394.6170216678,4824725.398277442],[646384.2025157628,4824715.712132588],[646331.6233914698,4824654.168255137],[646331.3074104112,4824653.838534087],[646330.9559055892,4824653.546979015],[646323.3929901893,4824647.970828356],[646323.0720538931,4824647.757279938],[646322.7320516531,4824647.575616762],[646322.3761413043,4824647.427526058],[646314.406854805,4824644.553729824],[646314.0697652746,4824644.448736098],[646313.7247305412,4824644.373875782],[646313.3744387067,4824644.3297321],[646297.1535085598,4824643.00949782],[646296.8087416138,4824642.996365758],[646296.4641255229,4824643.012992487],[646296.1222241599,4824643.059254309],[646273.7123717288,4824647.082346384],[646251.4367784905,4824649.814486175],[646251.2514068756,4824649.841642715],[646235.7293146013,4824652.488286375],[646209.6855207027,4824653.551358786],[646171.0912140651,4824648.854890665],[646126.1751113776,4824643.188860266],[646126.0750220907,4824643.177512686],[646112.9730795982,4824641.858951763],[646112.8720333792,4824641.850075252],[646091.7113287675,4824640.261287947],[646084.6269967835,4824639.38355634],[646084.3911264935,4824639.361401925],[646080.0,4824639.079837265],[646080.0,4824647.096266551],[646083.7609442266,4824647.337423116],[646090.8236105625,4824648.212470402],[646091.0159554193,4824648.231595467],[646112.2224842029,4824649.82382334],[646125.2238437475,4824651.132261737],[646170.0986870074,4824656.793087386],[646170.1161193684,4824656.79524755],[646209.0412549197,4824661.531973615],[646209.3638926377,4824661.558041348],[646209.6875817057,4824661.557936533],[646236.3119054853,4824660.471167678],[646236.8210961517,4824660.417587672],[646252.5036979336,4824657.743575829],[646274.7966668833,4824655.009304877],[646275.0165033597,4824654.976116562],[646297.0234083621,4824651.025362965],[646312.1943297529,4824652.260136205],[646319.1143433875,4824654.7555552265],[646325.8390121214,4824659.713665162],[646378.2690921166,4824721.083086227],[646378.5861838689,4824721.413840685],[646389.523281409,4824731.586028595],[646389.8950124129,4824731.892173365],[646390.3008400368,4824732.1514270995],[646402.4035610678,4824738.893382236],[646402.769144335,4824739.073280066],[646416.9142959071,4824745.159784243],[646417.2810495946,4824745.296737999],[646417.6594346631,4824745.397183697],[646418.0458265484,4824745.460159163],[646459.0733653284,4824750.099774867],[646459.3854671082,4824750.122749078],[646459.6984097543,4824750.121253897],[646506.8437225154,4824748.049959083],[646507.2967610268,4824748.004111934],[646552.4285757352,4824740.822339905],[646552.7885565793,4824740.747954144],[646553.1401888395,4824740.640836437],[646570.420814653,4824734.49568085],[646570.9100795598,4824734.283990126],[646578.6810723766,4824730.287224878],[646609.8158932595,4824714.289147754],[646609.8949928539,4824714.24737935],[646706.5306662564,4824661.828989014],[646726.368280224,4824652.05694264],[646738.5788390328,4824647.978826507],[646750.5747704776,4824646.011129488],[646760.2075307745,4824646.48795443],[646770.8051873372,4824649.1549396925],[646798.2724677188,4824662.183833706],[646807.6535235422,4824666.633603618],[646807.7437972854,4824666.675058468],[646860.0411305546,4824689.908734603],[646860.3746221152,4824690.039346317],[646919.7988842257,4824710.294240134],[646946.2270975722,4824719.934802102],[646954.6173286891,4824724.609344787],[646985.8954334547,4824747.536111723],[647003.3694957223,4824761.544472952],[647003.6801111319,4824761.769885258],[647023.2368297213,4824774.576466901],[647023.6393760383,4824774.807859446],[647024.066024708,4824774.991045034],[647031.6418265335,4824777.734861152],[647032.0389793004,4824777.855788844],[647032.4465270081,4824777.934900745],[647032.860079506,4824777.9713446535],[647033.2751819593,4824777.964727991],[647033.6873628369,4824777.915122034],[647037.6699258339,4824777.22455035],[647037.9820701242,4824777.157493437],[647042.9227156321,4824775.887888007],[647043.2972871378,4824775.77178631],[647043.6586898505,4824775.619564445],[647044.003450161,4824775.432685486],[647056.4183871254,4824767.893237596],[647056.8211786259,4824767.613452076],[647205.2498060139,4824650.3953002915],[647205.4910701585,4824650.188697208],[647205.7151803627,4824649.963602032],[647211.393823077,4824643.787878446],[647211.6685935558,4824643.454600326],[647211.9058253762,4824643.093637468],[647218.6987098362,4824631.431023021],[647218.8922171076,4824631.0542332055],[647219.0447957304,4824630.659093492],[647219.154734768,4824630.25003477],[647221.5872713522,4824618.814034486],[647221.6527003502,4824618.401728943],[647221.6748008825,4824617.984849607],[647221.6533322238,4824617.567937252],[647221.5885282169,4824617.155533014],[647219.2387600221,4824606.025781968],[647219.1553132421,4824605.699262102],[647219.0446766044,4824605.380925611],[647218.9076354811,4824605.073032256],[647214.1715035366,4824595.535460314],[647213.9224202014,4824595.1036909865],[647207.9699421467,4824586.128362629],[647207.9491460535,4824586.097321374],[647191.9430055319,4824562.445425706],[647191.9021855139,4824562.386259314],[647188.1877921238,4824557.104612738],[647154.6917995577,4824509.554799788],[647154.6447704291,4824509.489445908],[647149.0758613466,4824501.9126558155],[647132.0271718354,4824477.628253547],[647116.1547384893,4824449.185957955],[647111.0239101043,4824433.314835973],[647103.0782411769,4824405.234998309],[647099.0331327084,4824387.327838733],[647098.6649898115,4824374.177805091],[647101.118776152,4824364.329173319],[647109.4278017137,4824346.99248198],[647157.8331420854,4824246.0],[647148.9617043799,4824246.0],[647102.2136258385,4824343.534785283],[647095.5989076563,4824357.336322727],[647085.2801430977,4824351.344262849]]]}},{"type":"Feature","properties":{"class":"track","widthMeters":2.5},"geometry":{"type":"MultiPolygon","coordinates":[[[[646760.7321645691,4824246.0],[646726.3443167743,4824263.0037681395],[646727.4524260494,4824265.244771003],[646766.3724025309,4824246.0],[646760.7321645691,4824246.0]]],[[[647098.1096137677,4824361.985618679],[647096.5619908684,4824363.9489992745],[647105.609765582,4824371.080853063],[647107.1573884813,4824369.117472467],[647098.1096137677,4824361.985618679]]],[[[647233.9857789658,4824536.107241537],[647232.6040269809,4824534.023792125],[647187.9394073231,4824563.64554656],[647189.321159308,4824565.728995972],[647233.9857789658,4824536.107241537]]],[[[646080.0,4824580.713700254],[646082.8864896452,4824643.410691635],[646085.3838443941,4824643.295716601],[646080.0,4824526.354072231],[646080.0,4824580.713700254]]],[[[646126.6174122737,4824647.978018185],[646160.9757804758,4824608.498520734],[646176.4141562367,4824594.192000435],[646176.5110227038,4824594.0916241],[646192.9661703377,4824575.01598966],[646191.0731674714,4824573.383035238],[646174.6636483293,4824592.4057748355],[646159.2272836377,4824606.710431506],[646159.1339972947,4824606.806675885],[646124.7315696556,4824646.336799851],[646126.6174122737,4824647.978018185]]],[[[647227.365032072,4824624.652009347],[647227.3037608588,4824624.526311099],[647227.2288333055,4824624.408243012],[647223.3243195531,4824618.955729286],[647223.2469492232,4824618.858316547],[647223.1602795195,4824618.769076577],[647223.0651688416,4824618.688893234],[647222.9625591905,4824618.618560673],[647222.8534668391,4824618.558775486],[647222.7389722666,4824618.510129803],[647218.1057515247,4824616.808454513],[647217.2438525376,4824619.15518205],[647221.5158007722,4824620.724170267],[647225.1144410272,4824625.7495426],[647229.7368221006,4824636.756352864],[647232.0418131936,4824635.788356965],[647227.365032072,4824624.652009347]]],[[[646845.885418131,4824602.429457202],[646845.7712900762,4824602.481084028],[646845.6629020564,4824602.543873989],[646845.5613424983,4824602.617196552],[646845.4676312578,4824602.700315416],[646845.382709378,4824602.792395905],[646802.4566611345,4824654.291862478],[646799.0976173151,4824657.691205686],[646800.8758936203,4824659.448400434],[646804.2721174664,4824656.01143114],[646804.3431658071,4824655.933172381],[646847.098186274,4824604.63889216],[646850.7625547404,4824603.197819614],[646853.3860945324,4824603.048728256],[646853.2442525842,4824600.552755326],[646850.4206444231,4824600.713216234],[646850.2890360988,4824600.727719062],[646850.1597001315,4824600.756061443],[646850.034087657,4824600.797925381],[646845.885418131,4824602.429457202]]],[[[646999.0348418861,4824698.207155062],[646999.1476193432,4824698.232250012],[647011.238197453,4824700.3415450305],[647011.3619976611,4824700.356824944],[647011.4867043532,4824700.359689932],[647011.6110756532,4824700.350111468],[647011.7338730244,4824700.328184933],[647011.853873604,4824700.294128683],[647011.9698823807,4824700.248281863],[647012.0807440951,4824700.19110103],[647012.1853547444,4824700.123155616],[647012.282672576,4824700.045122246],[647012.3717284618,4824699.957778005],[647027.1609992982,4824683.928512118],[647065.696864099,4824649.826946557],[647090.2900348367,4824631.429022271],[647127.9328028631,4824606.372603974],[647127.9907245003,4824606.331630415],[647158.9477192417,4824583.087025355],[647159.0061221453,4824583.0403779],[647185.7248477611,4824560.358560796],[647184.1069320898,4824558.452688585],[647157.4167102695,4824581.1103085065],[647126.5179938127,4824604.31115429],[647088.8761515993,4824629.366956332],[647088.8200084757,4824629.4065969335],[647064.1581761197,4824647.855886343],[647064.0785696692,4824647.920703601],[647025.4568334975,4824682.098259365],[647025.3665128532,4824682.186724355],[647010.9964682817,4824697.761614273],[646999.6914571639,4824695.789367503],[646989.6933431271,4824692.052934431],[646989.5819431953,4824692.017148877],[646989.467685257,4824691.991936294],[646989.3515704349,4824691.977517597],[646989.2346161216,4824691.97401912],[646989.1178470653,4824691.981471517],[646989.0022863909,4824691.9998094905],[646980.0733487181,4824693.848819542],[646979.9553286856,4824693.879329135],[646979.8408415973,4824693.921189259],[646979.7309762393,4824693.974001818],[646979.6267774442,4824694.037264559],[646979.5292361552,4824694.110375847],[646979.4392800018,4824694.192640382],[646969.6891463108,4824704.023989113],[646969.6217609703,4824704.097592491],[646955.8265161888,4824720.429536401],[646957.7363704446,4824722.042749568],[646971.4993927182,4824705.748953309],[646980.9491308096,4824696.220502363],[646989.1560395894,4824694.521010511],[646998.9248631736,4824698.171754579],[646999.0348418861,4824698.207155062]]]]}},{"type":"Feature","properties":{"class":"unclassified","widthMeters":4},"geometry":{"type":"MultiPolygon","coordinates":[[[[646150.3799640905,4824480.747132421],[646159.7944954956,4824479.253814137],[646194.902622115,4824521.137951229],[646213.7381818051,4824544.765475509],[646224.3238166904,4824563.383151407],[646235.9457423154,4824589.081717042],[646240.2264014799,4824609.154809914],[646240.2276033185,4824609.160406365],[646249.9689206212,4824654.207458753],[646253.8785519305,4824653.362010336],[646244.1378395421,4824608.31775527],[646239.8128450222,4824588.036762711],[646239.7569209296,4824587.829674905],[646239.6791396525,4824587.6297675865],[646227.9303886503,4824561.650763891],[646227.846692344,4824561.486344897],[646217.138136746,4824542.652479982],[646217.0558070407,4824542.519988265],[646216.9634020492,4824542.394315861],[646198.0150541432,4824518.625308856],[646197.9839254974,4824518.587230882],[646162.1324730756,4824475.8163031],[646162.0379921893,4824475.711347945],[646130.0246561351,4824442.580042333],[646129.8812108921,4824442.445503028],[646115.0605902451,4824429.855854261],[646114.8738474655,4824429.715154971],[646114.6719601875,4824429.597211413],[646103.5925027786,4824423.965912212],[646093.1430888249,4824412.706648533],[646085.3848985077,4824397.962372337],[646081.1138043426,4824378.37139803],[646080.0,4824372.461303853],[646080.0,4824392.040981476],[646081.5345021909,4824399.079550946],[646081.5806449223,4824399.253280014],[646081.6421996278,4824399.422164468],[646081.7186690848,4824399.584840105],[646089.7267492184,4824414.804026599],[646089.8153521282,4824414.955828125],[646089.9169408676,4824415.099264197],[646090.030730811,4824415.233226981],[646100.9028675378,4824426.947975263],[646101.0282768483,4824427.071698415],[646101.164087062,4824427.183905809],[646101.3092444644,4824427.283726859],[646101.4626228188,4824427.370387079],[646112.6500559809,4824433.056566564],[646127.2165241686,4824445.4303208515],[646156.4915719369,4824475.727711688],[646149.7950188434,4824476.789908492],[646080.0,4824484.85887363],[646080.0,4824488.885516002],[646150.296333334,4824480.758594162],[646150.3799640905,4824480.747132421]]],[[[646307.4244405731,4824311.289640405],[646307.2828946684,4824311.475146016],[646294.4897863852,4824330.441435359],[646294.3918324235,4824330.602550663],[646294.3094864737,4824330.772174554],[646294.2434804494,4824330.948799367],[646294.194401031,4824331.130855212],[646294.1626844498,4824331.316723924],[646294.1486126118,4824331.504753452],[646294.1523105913,4824331.693272535],[646294.1737455198,4824331.8806055635],[646297.2304587875,4824350.692282249],[646297.2611027384,4824350.843679921],[646297.3033396045,4824350.992261056],[646310.7006616602,4824392.025323107],[646315.634877061,4824436.221553966],[646315.6743932815,4824479.524599047],[646315.6829038999,4824479.707092584],[646315.708031659,4824479.8880481515],[646315.7495668905,4824480.065955841],[646315.8071630212,4824480.239331177],[646326.1143759717,4824507.098220479],[646326.1804178689,4824507.250986825],[646326.2589325792,4824507.397733302],[646326.3493764065,4824507.537443726],[646349.3196436788,4824539.976766679],[646364.4384182384,4824569.777825192],[646364.5445537526,4824569.962053208],[646364.6696465798,4824570.13397323],[646385.8772942905,4824596.241729653],[646385.977194587,4824596.355612679],[646418.4004532418,4824630.608341564],[646418.5380032038,4824630.740427453],[646418.6875079867,4824630.858812394],[646466.9404867075,4824665.457091163],[646467.1361884779,4824665.580914662],[646523.9171350935,4824697.059124226],[646548.5542457568,4824714.477356531],[646563.1520138927,4824725.838220123],[646567.450439558,4824731.885589126],[646570.710751092,4824729.568183529],[646566.2422266403,4824723.281505951],[646566.122118358,4824723.128813845],[646565.9877624458,4824722.988495038],[646565.8404265814,4824722.861873469],[646550.9746958233,4824711.2924652025],[646550.9009153391,4824711.237718717],[646526.1370277969,4824693.729856214],[646525.9521664715,4824693.613751037],[646469.1770576338,4824662.138777819],[646421.1738488139,4824627.719588691],[646388.9342436392,4824593.660875865],[646367.9090133477,4824567.777685109],[646352.8203727191,4824538.036024468],[646352.6690026602,4824537.785105539],[646329.7588984553,4824505.430746733],[646319.6740543052,4824479.151313685],[646319.6347746662,4824436.107521548],[646319.6224265813,4824435.887438618],[646314.6532048989,4824391.377653206],[646314.6201928422,4824391.176021063],[646314.5667815289,4824390.978809124],[646301.1538456928,4824349.897925484],[646298.2490619704,4824332.021256185],[646310.5336770107,4824313.808828199],[646335.8528199028,4824284.361050582],[646335.9800476026,4824284.196484597],[646350.7976516874,4824262.818754508],[646350.8924170824,4824262.668137409],[646350.9734195288,4824262.509693115],[646351.0400177707,4824262.34467595],[646351.0916845832,4824262.174392271],[646351.1280109463,4824262.0001901295],[646353.7278755233,4824246.0],[646349.6754138087,4824246.0],[646347.2523703334,4824260.911990663],[646332.751877779,4824281.832215971],[646307.4244405731,4824311.289640405]]]]}}]}
