{"type":"FeatureCollection","name":"barreiros-pena-de-salsa-coastline","crs":{"type":"name","properties":{"name":"EPSG:25829"}},"features":[{"type":"Feature","properties":{"source":"IHM"},"geometry":{"type":"LineString","coordinates":[[644807.0793785889,4824867.600453694],[644801.5787230113,4824867.515122112],[644790.4687156776,4824872.008905657],[644764.0005681703,4824878.660407125],[644733.9798060546,4824882.946463167],[644721.650535787,4824887.7807421805],[644720.3915133022,4824889.586972936],[644715.4695407233,4824894.892091285],[644704.2574958919,4824896.628193216],[644698.4197047169,4824901.31356588],[644692.5369753096,4824902.086772607],[644686.737256634,4824899.383915374],[644686.4185740779,4824893.176902273],[644681.9244223573,4824892.880024897],[644616.970474116,4824904.458332457],[644538.9283292383,4824912.610892019],[644456.7609057357,4824915.3532279],[644415.9104286818,4824926.5411106115],[644387.4047114117,4824928.783470719],[644368.0032931216,4824928.855047582],[644346.0497379946,4824921.360527449],[644329.4302252163,4824911.925176676],[644303.565941802,4824890.146418026],[644281.859617239,4824881.290737531],[644278.4926612705,4824882.307275774],[644279.6290951304,4824886.198448902],[644286.0633597499,4824893.970246067],[644295.067557992,4824909.986353805],[644296.2640807396,4824915.967754217],[644293.0749838226,4824924.121588156],[644296.9130552147,4824937.271033267],[644297.7198605189,4824940.332885206],[644296.3332088524,4824943.947594662],[644293.5505049599,4824945.976704976],[644256.8895378187,4824956.24446789],[644234.4877381801,4824962.8409650475],[644191.0822963201,4824969.630751452],[644160.4924547517,4824977.884966171],[644142.7548959882,4824980.626308238],[644116.000302927,4824989.763100491],[644097.8548484053,4824993.81804868],[644063.7047859528,4824997.051722563],[644054.0173219605,4824996.288235687],[644049.3669237138,4824989.721639897],[644046.8804393029,4824989.623831631],[644035.2153629779,4824997.429205562],[644015.3413927207,4825005.980699605],[643985.6767363871,4825013.311082551],[643949.1067935199,4825022.015744908],[643912.0313809584,4825028.298609215],[643845.6756201214,4825040.209760102],[643819.2993760364,4825043.78904944],[643795.3137638175,4825044.775166818],[643781.9408734991,4825042.933097691],[643776.0340708066,4825039.939848892],[643772.0997556612,4825035.766613426],[643762.7552249804,4825038.2331687845],[643740.7905850742,4825045.207314822],[643708.8383806365,4825050.345428877],[643650.5620838067,4825050.22016367],[643630.2758810024,4825047.485983105],[643612.0655030259,4825037.985058335],[643603.3698073335,4825032.032245923],[643589.5496528241,4825018.991925546],[643561.6592826694,4825003.083968267],[643559.244548551,4824994.721077976],[643561.5319885252,4824987.88100546],[643560.7754510079,4824986.609248759],[643557.0369412955,4824978.184712442],[643550.817394689,4824971.296030129],[643546.5396904664,4824992.238207144],[643545.4867278218,4825010.871536485],[643539.247760751,4825026.049461063],[643528.3484676009,4825036.6165501345],[643514.8045358718,4825043.904834501],[643465.3652489868,4825057.8703498505],[643433.6409319971,4825063.325747122],[643400.0,4825073.322521598]]}},{"type":"Feature","properties":{"source":"IHM"},"geometry":{"type":"LineString","coordinates":[[644807.0793785889,4824867.600453694],[644818.5640522679,4824886.937574872],[644824.0069418715,4824889.699517004],[644831.0546231968,4824889.98491869],[644836.1993788562,4824887.8403197285],[644838.7617769062,4824883.673287054],[644835.7492361879,4824871.630215357],[644836.6562918345,4824865.916315882],[644837.2449227711,4824859.6066424865],[644840.0997308249,4824854.245890623],[644844.9491211331,4824851.561577442],[644849.817755966,4824851.355520616],[644867.8865694914,4824856.512246734],[644879.7853003892,4824865.269268038],[644887.7767801587,4824868.997405374],[644890.0,4824868.035811705]]}}]}
