{"type":"FeatureCollection","name":"barreiros-longara-roads","crs":{"type":"name","properties":{"name":"EPSG:25829"}},"source":"\u00a9 OpenStreetMap contributors, ODbL 1.0","features":[{"type":"Feature","properties":{"class":"footway","widthMeters":2},"geometry":{"type":"Polygon","coordinates":[[[646089.3069680695,4824653.382421518],[646089.3200928333,4824653.474617678],[646089.3417372025,4824653.565193131],[646089.3717134688,4824653.65336237],[646089.4097616663,4824653.738360758],[646089.4555518262,4824653.819451155],[646089.5086868383,4824653.895930314],[646089.568705895,4824653.967134979],[646091.637148131,4824656.201110469],[646091.7071856101,4824656.269682417],[646091.7835998016,4824656.331068343],[646091.8656565667,4824656.3846784895],[646091.9525675565,4824656.429997805],[646092.0434977858,4824656.466590891],[646097.3125718087,4824658.292432269],[646097.4078186898,4824658.320227821],[646103.6055941617,4824659.799608172],[646103.7206289403,4824659.820049276],[646107.8794284714,4824660.31058029],[646107.986701199,4824660.317415994],[646108.0940879129,4824660.312698095],[646110.3209419244,4824660.094492289],[646110.4138098091,4824660.080967544],[646110.5050008672,4824660.058796534],[646110.5937119459,4824660.028174528],[646110.6791617345,4824659.989371223],[646110.7605976458,4824659.942728377],[646110.8373024442,4824659.8886567885],[646110.9086005625,4824659.827632686],[646110.9738640526,4824659.760193531],[646111.032518115,4824659.686933285],[646111.0840461623,4824659.608497176],[646111.1279943681,4824659.5255760215],[646112.2631937432,4824657.116872761],[646112.3050601194,4824657.01343496],[646112.3351412598,4824656.905976607],[646112.3530625892,4824656.795835797],[646112.4357880035,4824656.014438419],[646135.8496416959,4824663.810603707],[646147.2838860864,4824668.806088017],[646153.4705639407,4824673.610943332],[646154.6973304488,4824672.031372525],[646148.412037457,4824667.14992821],[646148.3446051539,4824667.101896474],[646148.2734308139,4824667.059607274],[646148.1990022777,4824667.023350466],[646136.6088573772,4824661.959755092],[646136.5244287837,4824661.9273322355],[646112.630881793,4824653.971442354],[646112.7723585678,4824652.184226167],[646130.7625890137,4824655.287201054],[646141.938007569,4824657.790358455],[646147.6448563018,4824659.189559987],[646151.4525542004,4824661.032642182],[646154.0620454906,4824662.784883432],[646154.1230331273,4824662.822732959],[646159.4144299335,4824665.849149499],[646159.428303071,4824665.85693844],[646162.9974096073,4824667.823602171],[646163.0888137366,4824667.86806965],[646165.8990145911,4824669.062630216],[646166.0075990604,4824669.101558201],[646170.51555801,4824670.429738193],[646174.6001896973,4824671.747845997],[646177.3626035132,4824673.1538159745],[646181.5142708183,4824677.13330878],[646181.5526534554,4824677.168234453],[646185.2089396014,4824680.325737248],[646185.3198119573,4824680.408805021],[646188.5230409678,4824682.478629981],[646188.5980578414,4824682.522602373],[646188.6766110964,4824682.55989163],[646192.8641123659,4824684.328921358],[646192.9370302687,4824684.35642915],[646196.2180766579,4824685.450142549],[646196.290215196,4824685.4712126935],[646196.3637323766,4824685.486805762],[646200.622185009,4824686.22401813],[646200.7460086028,4824686.237580645],[646205.185678525,4824686.445391754],[646205.2713397922,4824686.445728368],[646210.1970376021,4824686.253950497],[646219.9678127461,4824686.17859338],[646233.6524915585,4824686.310128371],[646233.6641995447,4824686.310172364],[646245.761050277,4824686.2848102115],[646245.7690975274,4824686.284760959],[646252.0327611362,4824686.221220107],[646252.1211479986,4824686.216405569],[646252.2087628318,4824686.20379374],[646253.7341672163,4824685.9147954695],[646253.8263553916,4824685.89275772],[646253.9160429273,4824685.862090669],[646254.0024240415,4824685.823069839],[646254.0847226585,4824685.776045805],[646254.1621993814,4824685.721441048],[646255.3705010951,4824684.781068163],[646255.4543348276,4824684.707987018],[646255.529534893,4824684.626048636],[646255.5951711453,4824684.536266506],[646256.4981677842,4824683.144782557],[646256.5518683235,4824683.051368285],[646256.5952064001,4824682.952718474],[646256.6276788603,4824682.849978445],[646256.6489086995,4824682.744341007],[646256.6586494399,4824682.63703261],[646256.7184502245,4824681.00494761],[646256.7157031159,4824680.885725586],[646256.6987831743,4824680.767678335],[646256.1364172403,4824678.022000907],[646256.114926398,4824677.936459414],[646255.272449257,4824675.115869628],[646254.5111221173,4824670.887482194],[646254.4908629315,4824670.798475141],[646253.6909367769,4824667.902025799],[646252.7548013795,4824663.33773673],[646252.7396702768,4824663.098563751],[646274.0008372925,4824679.010746088],[646276.1119671054,4824682.244195687],[646278.25102453,4824687.073278808],[646280.0796583246,4824686.263279767],[646277.9078391353,4824681.360234496],[646277.8722071181,4824681.2878317945],[646277.830853288,4824681.218537837],[646275.5788679073,4824677.76935097],[646275.5279055944,4824677.698289746],[646275.4709300338,4824677.631952424],[646275.4083769096,4824677.5708462745],[646275.3407245561,4824677.515438568],[646252.5929569324,4824660.4906616155],[646252.5762115171,4824659.794357103],[646252.6414015644,4824658.983544225],[646252.766117017,4824658.557122176],[646253.3884565157,4824658.015382556],[646258.6951959991,4824656.988653328],[646263.8607030372,4824656.033965723],[646268.7028609391,4824655.611324659],[646268.7603742331,4824655.6046219645],[646272.6675565176,4824655.034181644],[646272.6801279188,4824655.032264532],[646281.5795935192,4824653.617154924],[646290.5616648998,4824652.407662675],[646297.6988867288,4824651.8265015],[646306.7972766418,4824651.981111707],[646312.7308118846,4824653.398675299],[646317.7944132546,4824655.800514301],[646321.7011906188,4824658.804630552],[646325.4643598521,4824662.609660644],[646332.3305090645,4824669.867986056],[646336.3168525249,4824674.22463343],[646340.9749691619,4824680.443281041],[646341.01942917,4824680.498448883],[646351.2102998507,4824692.264889462],[646360.8407792142,4824703.4191070385],[646360.8440236193,4824703.422846025],[646375.5620130528,4824720.299893803],[646375.6116521655,4824720.3528100625],[646378.288231414,4824723.00625024],[646379.0133468244,4824724.611557635],[646378.1025378486,4824729.243736954],[646378.0962956529,4824729.278764004],[646377.3417683563,4824733.997172345],[646374.9203945111,4824745.901842578],[646374.9155806571,4824745.927178243],[646372.6983363206,4824758.477051256],[646371.747868008,4824762.6433638325],[646371.7303803802,4824762.743043668],[646371.7230572018,4824762.8439805675],[646371.6876988199,4824764.465487522],[646371.6900628502,4824764.559375794],[646371.7012245285,4824764.65262821],[646371.7210854017,4824764.74442223],[646371.7494702853,4824764.833948174],[646371.7861288078,4824764.92041637],[646372.3581137251,4824766.110707292],[646372.409345341,4824766.204199253],[646372.4702387134,4824766.291705952],[646373.2090800849,4824767.2411825685],[646373.2659908829,4824767.308041618],[646373.3285469342,4824767.369650967],[646373.3962659962,4824767.4255356705],[646374.5648533046,4824768.306603073],[646374.6357338532,4824768.355406667],[646382.886629178,4824773.5276871715],[646388.6067560504,4824777.73135621],[646388.6467436544,4824777.759267176],[646393.5214499036,4824780.987908673],[646393.605363891,4824781.037772867],[646393.6937396281,4824781.079218304],[646397.0653287364,4824782.4639071515],[646397.1518900932,4824782.494888416],[646397.2409309743,4824782.517788826],[646397.3316987429,4824782.53241481],[646397.423426166,4824782.538642739],[646400.9932016403,4824782.616499364],[646401.0713576853,4824782.615148121],[646405.1433333883,4824782.385321884],[646412.3363800388,4824782.641423916],[646418.3356240905,4824782.992263809],[646425.2652796234,4824784.098569056],[646436.5726021777,4824786.723154183],[646453.1653632284,4824791.247355001],[646453.1704388265,4824791.248724596],[646469.5747319415,4824795.629018177],[646469.6476575256,4824795.645596385],[646478.0569599367,4824797.229146497],[646478.1803602631,4824797.244516103],[646486.5240864669,4824797.75994163],[646486.5780346328,4824797.761814493],[646504.6659146443,4824797.901245923],[646522.6839416445,4824798.649762415],[646522.7036238967,4824798.650386011],[646540.6736125136,4824799.042667113],[646540.7386667236,4824799.041970462],[646552.3447885569,4824798.539772773],[646552.4294439047,4824798.532496617],[646564.8838539106,4824796.926578636],[646564.9132156479,4824796.922348981],[646576.5731614735,4824795.065763817],[646576.5753828858,4824795.065407544],[646586.5733781359,4824793.450378686],[646598.5417072573,4824791.522827364],[646598.5625220654,4824791.519249145],[646604.7524755409,4824790.3877262855],[646604.8677168308,4824790.359505061],[646608.4634459992,4824789.249107142],[646608.5550514838,4824789.215848295],[646608.6429845156,4824789.17383047],[646608.7264099318,4824789.123452741],[646611.3670400444,4824787.347728165],[646611.4406323265,4824787.293184314],[646611.5089247957,4824787.232135201],[646611.57134442,4824787.165093078],[646611.6273674455,4824787.092620489],[646613.1952195903,4824784.860116548],[646613.2451348087,4824784.781495767],[646613.2875197504,4824784.698572471],[646613.322006821,4824784.612065834],[646613.3482969225,4824784.522726106],[646613.3661620474,4824784.43132811],[646613.3754472556,4824784.33866452],[646613.3760720189,4824784.245538981],[646613.3680309189,4824784.15275915],[646613.1040633668,4824782.18025612],[646613.0857266445,4824782.081365778],[646611.7831387222,4824776.608274675],[646611.7809661735,4824776.599329264],[646609.4864417891,4824767.337771346],[646609.477296106,4824767.303475439],[646606.9625891069,4824758.503793266],[646606.9601991368,4824758.495563707],[646603.6273180841,4824747.2001471585],[646603.5981033673,4824747.115348461],[646603.5614082023,4824747.033508473],[646601.6950245036,4824743.325948618],[646601.6452203258,4824743.238311603],[646601.5868465592,4824743.15613371],[646601.5204963223,4824743.080249927],[646601.4468437802,4824743.011431284],[646601.3666372944,4824742.9503770275],[646601.2806918191,4824742.897707512],[646601.1898806209,4824742.853957896],[646599.4364153381,4824742.11563784],[646599.3494694163,4824742.083683255],[646599.2599396817,4824742.059911098],[646599.168594361,4824742.044525351],[646599.0762172602,4824742.037658035],[646598.9836010383,4824742.039368074],[646598.8915404063,4824742.049640797],[646595.2789886273,4824742.62321905],[646592.8943902545,4824741.715890616],[646591.448787351,4824738.72886657],[646590.0846269231,4824734.63919024],[646602.789217093,4824730.302241546],[646602.829278072,4824730.287604891],[646630.3379992859,4824719.566712692],[646649.1177907924,4824713.571333697],[646663.5393848496,4824714.572422102],[646669.8478146177,4824716.361919829],[646669.9421530366,4824716.383806195],[646670.0381661432,4824716.39646454],[646670.1349534544,4824716.399776143],[646670.231607226,4824716.393709947],[646670.3272209667,4824716.378322844],[646670.4208979389,4824716.353759148],[646676.6939905208,4824714.37964028],[646676.7816549566,4824714.347482234],[646676.8659376757,4824714.307287501],[646676.9461038008,4824714.259406549],[646677.0214543479,4824714.204256859],[646677.091332321,4824714.142319293],[646677.1551284408,4824714.074133895],[646677.2122864563,4824714.000295189],[646677.2623079958,4824713.921446988],[646677.3047569118,4824713.838276785],[646677.3392630842,4824713.751509756],[646681.8428579906,4824700.680337501],[646686.8184582622,4824697.771908879],[646685.8091643631,4824696.045257257],[646680.5135162921,4824699.140766056],[646680.4286920758,4824699.196302448],[646680.3499272921,4824699.260142463],[646680.2780315989,4824699.33162986],[646680.2137440434,4824699.4100297885],[646680.1577254657,4824699.494536341],[646680.1105517052,4824699.584280839],[646680.0727076818,4824699.678340759],[646675.6126164802,4824712.623248456],[646670.1058531111,4824714.356206375],[646663.9852075714,4824712.619976968],[646663.8843033699,4824712.596921654],[646663.7815565387,4824712.584419894],[646649.0652980643,4824711.562877084],[646648.970775256,4824711.560795897],[646648.876478365,4824711.567650747],[646648.783250301,4824711.583380359],[646648.6919244198,4824711.607844129],[646629.6999234364,4824717.6709702145],[646629.6409232827,4824717.69186193],[646602.1229034478,4824728.416378053],[646589.3786832246,4824732.766855204],[646587.411652989,4824728.1360407015],[646593.1355430642,4824724.952323353],[646603.3948626425,4824720.013556719],[646613.0254127269,4824715.46991315],[646613.0542379984,4824715.455743166],[646627.3668249003,4824708.132219352],[646640.0562613718,4824702.914701247],[646640.1336733715,4824702.878940688],[646664.0703052076,4824690.556974336],[646664.1364922185,4824690.519656249],[646674.3213868142,4824684.255635322],[646681.0186994014,4824680.223505739],[646690.0,4824675.1779329125],[646690.0,4824672.883937274],[646680.0260089276,4824678.487190141],[646680.0000097833,4824678.5023149615],[646673.2857542938,4824682.544645051],[646673.2776633841,4824682.549568552],[646663.1211190706,4824688.796153191],[646639.2562330773,4824701.081186617],[646626.5679297354,4824706.298238813],[646626.4926938757,4824706.332882515],[646612.1575058649,4824713.667970958],[646602.5379451665,4824718.206429792],[646602.5308843385,4824718.209794876],[646592.2414748452,4824723.16304659],[646592.189142191,4824723.190167088],[646585.6535662272,4824726.825356847],[646585.5706734081,4824726.876915337],[646585.4932026489,4824726.936310444],[646585.4218922075,4824727.002976165],[646585.3574216362,4824727.076277207],[646585.3004053073,4824727.155515049],[646585.2513865577,4824727.239934593],[646585.2108325115,4824727.3287313655],[646585.1791296283,4824727.421059175],[646585.1565800208,4824727.516038187],[646585.1433985751,4824727.612763297],[646585.1397109041,4824727.710312763],[646585.1455521493,4824727.807756989],[646585.1608666466,4824727.90416738],[646585.1855084564,4824727.998625194],[646585.2192427547,4824728.0902302945],[646587.8857966684,4824734.367874792],[646589.5719532653,4824739.422877548],[646589.6204439775,4824739.542081136],[646591.2672422378,4824742.944831637],[646591.3123951663,4824743.027875013],[646591.3651872835,4824743.106284079],[646591.4251468924,4824743.179358251],[646591.4917382546,4824743.246444612],[646591.5643663768,4824743.306943745],[646591.6423823277,4824743.360315093],[646591.7250890355,4824743.406081782],[646591.8117475167,4824743.443834887],[646594.8168958478,4824744.587279653],[646594.91604455,4824744.6192011265],[646595.0179758478,4824744.640636054],[646595.121583843,4824744.651351879],[646595.2257444464,4824744.651232341],[646595.3293275732,4824744.640278737],[646598.9233046488,4824744.069649659],[646600.0742428167,4824744.554267598],[646601.7345390811,4824747.85243602],[646605.0407481259,4824759.057458872],[646607.5494005571,4824767.835954373],[646609.8385496176,4824777.075815474],[646611.1284138389,4824782.495445331],[646611.3338519711,4824784.030586051],[646610.097183831,4824785.791508792],[646607.7325870617,4824787.381611312],[646604.3343759972,4824788.431013621],[646599.1242680952,4824789.383420811],[646595.8804312665,4824776.474987086],[646596.6216384651,4824774.401420488],[646594.7383410431,4824773.7282259995],[646593.894945422,4824776.087670149],[646593.866469208,4824776.181661478],[646593.8473501059,4824776.2779928055],[646593.8377725243,4824776.37573499],[646593.8378288415,4824776.473945283],[646593.8475185144,4824776.571676419],[646593.8667480835,4824776.667985756],[646597.1470845102,4824789.721664963],[646586.2551355688,4824791.475860588],[646576.2575571492,4824793.090822002],[646564.6133717466,4824794.944897671],[646552.2158469529,4824796.543480661],[646540.6847232479,4824797.042433175],[646522.7571172619,4824796.651077277],[646504.7320360856,4824795.902267735],[646504.6982375683,4824795.901435664],[646486.6204506373,4824795.7620820375],[646478.3658521589,4824795.252162288],[646470.054544122,4824793.687065431],[646453.6889433155,4824789.317103514],[646437.0803294469,4824784.788580249],[646437.0433742563,4824784.779256826],[646425.6834932369,4824782.142472156],[646425.6150419407,4824782.129080789],[646418.6015617714,4824781.009393112],[646418.5022911944,4824780.998593544],[646412.4417483733,4824780.6441688575],[646412.4189490015,4824780.643096461],[646405.1685080979,4824780.384950957],[646405.0765752521,4824780.385906728],[646400.9977067232,4824780.616122002],[646397.6530365027,4824780.54317491],[646394.544161308,4824779.266380891],[646389.7714616617,4824776.105300953],[646384.0412346678,4824771.894209427],[646383.9801960455,4824771.852731982],[646375.7345068727,4824766.683715085],[646374.706116256,4824765.908350297],[646374.114405294,4824765.147949291],[646373.6924403638,4824764.269847421],[646373.7203670811,4824762.989150625],[646374.6537367941,4824758.897788585],[646374.6635344137,4824758.8493513595],[646376.8828353881,4824746.287837526],[646379.3058342554,4824734.375177881],[646379.313353236,4824734.33376721],[646380.0683947138,4824729.612143456],[646381.0374039905,4824724.683969874],[646381.0520469538,4824724.581992182],[646381.0561200449,4824724.47904911],[646381.0495800326,4824724.3762332825],[646381.0324963318,4824724.274635973],[646381.0050502667,4824724.175335522],[646380.9675331459,4824724.079385891],[646380.0348413032,4824722.014532365],[646379.9934802682,4824721.9330974445],[646379.9448615264,4824721.855776042],[646379.889390674,4824721.7832132],[646379.8275304702,4824721.716014267],[646377.0454929847,4824718.958027541],[646362.3529895104,4824702.110204389],[646352.7236222539,4824690.9572748775],[646352.7226107566,4824690.95610517],[646342.5544418392,4824679.2158761835],[646337.8881338483,4824672.986293006],[646337.8255368017,4824672.910752249],[646333.8004376492,4824668.511749046],[646333.7891324008,4824668.499597649],[646326.909642341,4824661.227169395],[646326.8941892241,4824661.211193092],[646323.0755226156,4824657.350048282],[646322.9740864879,4824657.260501632],[646318.9289631192,4824654.150004228],[646318.8414075427,4824654.089799677],[646318.7479581173,4824654.039225259],[646313.4934585766,4824651.546836737],[646313.3971615769,4824651.507162563],[646313.2972604057,4824651.477719258],[646307.1558100686,4824650.010483277],[646307.0488626015,4824649.991007581],[646306.9404330354,4824649.983255638],[646297.6837161287,4824649.825954958],[646297.5855672448,4824649.8291093735],[646290.3731274197,4824650.416395309],[646290.3208338047,4824650.422041238],[646281.3008762983,4824651.636635092],[646281.2772903913,4824651.6400977895],[646272.3723320689,4824653.056080799],[646268.5001011707,4824653.621418291],[646263.6390945624,4824654.045704538],[646263.5443057936,4824654.058570663],[646258.3276031052,4824655.022720235],[646258.3193910497,4824655.024273502],[646252.7446596401,4824656.102852861],[646252.6427773591,4824656.128177549],[646252.5441115029,4824656.164043797],[646252.4497495017,4824656.210056313],[646252.3607313506,4824656.265707978],[646252.2780381491,4824656.330385434],[646251.2319892325,4824657.240959395],[646251.1634035766,4824657.306640486],[646251.1013574211,4824657.378531184],[646251.0464102981,4824657.45598318],[646250.9990577205,4824657.538298011],[646250.959726714,4824657.624733361],[646250.9287719652,4824657.714509758],[646250.6930408692,4824658.520512021],[646250.6694188538,4824658.619850443],[646250.6560500386,4824658.721079866],[646250.578462531,4824659.686088376],[646250.5755350201,4824659.790272647],[646250.6052119713,4824661.024293705],[646250.6069181163,4824661.063389714],[646250.7631905753,4824663.53354342],[646250.7815872275,4824663.671322949],[646251.7384701783,4824668.336770282],[646251.754163015,4824668.402061777],[646252.5508693696,4824671.286852558],[646253.3140437508,4824675.525499513],[646253.34004674,4824675.634492112],[646254.185949932,4824678.46655222],[646254.7154013589,4824681.051528913],[646254.6701049203,4824682.287760822],[646254.0091889265,4824683.306207577],[646253.1245032968,4824683.994723011],[646251.9236990683,4824684.222223566],[646245.7528333624,4824684.284823043],[646233.6658604796,4824684.310164486],[646219.9783737616,4824684.178602506],[646219.9610500901,4824684.1785860555],[646210.1660111697,4824684.254130307],[646210.134818765,4824684.25485764],[646205.2363682819,4824684.445574659],[646200.9018567519,4824684.242685782],[646196.7791011976,4824683.528964942],[646193.6064973815,4824682.471400102],[646189.5352468635,4824680.751481053],[646186.4635799545,4824678.766667349],[646182.8794906249,4824675.671512422],[646178.6398774083,4824671.6077209255],[646178.5660709126,4824671.543596104],[646178.4863550648,4824671.4869853705],[646178.4014918994,4824671.438429889],[646175.4365355682,4824669.9293730045],[646175.3644911044,4824669.896233107],[646175.2900472096,4824669.868906122],[646171.117573316,4824668.522451699],[646171.0930868939,4824668.514894964],[646166.6282530379,4824667.199420919],[646163.9180534723,4824666.047368915],[646160.4004851055,4824664.109103958],[646155.1471673199,4824661.104466729],[646152.5090586125,4824659.333009236],[646152.3872755937,4824659.263108445],[646148.4212019654,4824657.343365892],[646148.3242949949,4824657.302598772],[646148.2236435385,4824657.272230971],[646142.4045064194,4824655.845498644],[646142.3849518148,4824655.8409119425],[646131.1755519102,4824653.330143134],[646131.1269512868,4824653.32051496],[646112.9841650916,4824650.191227089],[646113.5632482242,4824645.97491426],[646111.58184872,4824645.702781931],[646111.0077053282,4824649.883128434],[646102.5994188682,4824648.7063224325],[646102.4891570805,4824648.69707171],[646091.7942165242,4824648.393800143],[646092.3074078271,4824644.369315617],[646090.3234728256,4824644.116329631],[646089.7878509274,4824648.316716561],[646086.0638193433,4824648.12886735],[646085.9443841362,4824648.129984825],[646085.8259340951,4824648.145334261],[646081.0710729974,4824649.053002415],[646080.9868099296,4824649.072903456],[646080.9045841349,4824649.100018669],[646080.8250120042,4824649.134144789],[646072.7162884345,4824653.03559892],[646072.6337629257,4824653.080187508],[646066.7959092997,4824656.59771678],[646066.6962910006,4824656.666277575],[646066.6056771082,4824656.746361972],[646058.486391137,4824664.847737034],[646058.4610030757,4824664.874011985],[646052.4957269101,4824671.277761664],[646052.4889223364,4824671.285140307],[646048.8384878587,4824675.283624662],[646048.8198091849,4824675.30467148],[646044.7941254372,4824679.971384696],[646041.465507356,4824682.236830473],[646035.2678805254,4824684.180394592],[646028.7038439538,4824685.419726019],[646024.4727668709,4824685.520454355],[646018.0554732777,4824684.678497499],[646013.5607918415,4824683.080662662],[646013.4640863162,4824683.051692397],[646013.3649526973,4824683.032619891],[646013.2644012789,4824683.023639515],[646006.66829909,4824682.769051034],[646006.5665980987,4824682.77030188],[646001.4689687564,4824683.092773301],[646001.3844028945,4824683.101746036],[645995.7340528887,4824683.945550257],[645995.6806562019,4824683.955010999],[645987.4636641265,4824685.6418704735],[645983.6143149502,4824686.390410427],[645983.5081427441,4824686.417162947],[645983.4055317087,4824686.4553625565],[645980.4198189176,4824687.757141423],[645980.3525276692,4824687.789522414],[645980.2878404765,4824687.826834715],[645975.8405680689,4824690.61840632],[645972.7598575641,4824692.54134543],[645969.2632575049,4824694.559971391],[645964.6964644699,4824695.879934013],[645964.6052425139,4824695.911138153],[645957.4652639307,4824698.744868093],[645957.3851695048,4824698.780801684],[645957.3085351139,4824698.823621191],[645952.3141665874,4824701.90940843],[645948.2094617992,4824704.107246939],[645944.8519736953,4824704.740044571],[645941.905501595,4824704.7767468775],[645937.5283598908,4824702.862812844],[645931.750368922,4824698.016000036],[645931.6992549796,4824697.975879163],[645927.5634555442,4824694.94143315],[645927.4983073644,4824694.897464724],[645927.4299072893,4824694.85874861],[645922.6114410282,4824692.376149618],[645922.5035814296,4824692.328403323],[645919.0451672983,4824691.035599677],[645917.121331384,4824672.297971997],[645917.1057186428,4824672.197006266],[645917.0798856129,4824672.098160471],[645917.0441019351,4824672.002466348],[645916.9987411137,4824671.910922739],[645916.9442766174,4824671.824485158],[645916.8812769378,4824671.744055829],[645916.8103996553,4824671.670474258],[645916.7323845752,4824671.60450848],[645916.6480460064,4824671.546847033],[645916.5582642611,4824671.498091779],[645916.4639764663,4824671.458751615],[645916.3661667829,4824671.42923717],[645915.3293638498,4824671.173359406],[645915.3253322705,4824671.172373304],[645911.9011452837,4824670.342363241],[645911.4299966336,4824672.286075913],[645914.8521667867,4824673.115597104],[645915.2036716761,4824673.202346747],[645917.0054669409,4824690.7513323845],[645914.4973691154,4824690.743007412],[645914.3991167604,4824690.747518253],[645911.3627006453,4824691.03708253],[645911.2530789614,4824691.053711071],[645906.9184968559,4824691.9595240485],[645906.8953450249,4824691.96464938],[645903.9390810806,4824692.655971528],[645903.8393086349,4824692.684842882],[645903.7430690653,4824692.7239074595],[645903.6514006131,4824692.772743829],[645903.5652922068,4824692.830825137],[645903.485672792,4824692.897524798],[645903.4134013104,4824692.972123249],[645901.7477788907,4824694.880424934],[645901.6873159459,4824694.956927084],[645901.634591363,4824695.0389543045],[645901.5901064655,4824695.125726653],[645901.5542842313,4824695.216419068],[645901.5274652705,4824695.310169214],[645901.5099045872,4824695.406085683],[645901.1235983287,4824698.308890683],[645901.1150436387,4824698.42159505],[645901.1192620477,4824698.534544871],[645901.5187992363,4824702.778104374],[645901.7101487505,4824705.34706778],[645901.0303900318,4824707.490493711],[645899.3779033554,4824709.07035768],[645895.1443694134,4824710.616468935],[645889.589678225,4824712.004122161],[645889.4812677666,4824712.037848081],[645885.210115311,4824713.637735748],[645877.8075883962,4824715.599495562],[645871.0973489087,4824716.413241556],[645864.7492719487,4824716.428819938],[645858.8092560765,4824716.146295719],[645852.949808378,4824715.195211438],[645849.6036843699,4824713.991707969],[645845.5957049105,4824710.861606023],[645842.4979096015,4824706.278677303],[645842.4415813107,4824706.203256015],[645842.378410735,4824706.133465431],[645840.4015150828,4824704.146010856],[645840.3279066348,4824704.079031479],[645840.2480051114,4824704.019700313],[645840.1626018925,4824703.968605001],[645840.0725428491,4824703.926251615],[645836.5887064125,4824702.49496529],[645836.5029297549,4824702.464213499],[645836.4147099425,4824702.441397445],[645836.3247794918,4824702.426706576],[645831.3034995337,4824701.839825902],[645831.2071290246,4824701.833259198],[645831.110574539,4824701.836021075],[645827.9258177335,4824702.081452291],[645824.3516004537,4824701.80435512],[645819.4486375555,4824700.066399702],[645814.1599794131,4824697.561128713],[645814.0683067634,4824697.523150347],[645809.23339989,4824695.795855763],[645809.1366509236,4824695.766712546],[645803.8562024535,4824694.463090583],[645803.7131068411,4824694.438617567],[645793.2667948019,4824693.424916312],[645785.4022365154,4824692.213305075],[645785.3921908895,4824692.211809633],[645780.2337630028,4824691.470656359],[645773.7291343014,4824688.755221993],[645770.5273695727,4824686.625940248],[645770.4431316123,4824686.575696016],[645770.3543766212,4824686.533945945],[645770.2619584684,4824686.501091693],[645766.8421059818,4824685.471244095],[645766.7519558974,4824685.448607812],[645766.6600934991,4824685.43443958],[645762.8792035442,4824685.0301064],[645762.7901160327,4824685.024585514],[645762.7008911096,4824685.027030509],[645762.6122396359,4824685.037421904],[645762.5248679034,4824685.05567691],[645762.4394720084,4824685.081650089],[645759.2719047925,4824686.201793286],[645759.1902954711,4824686.234761246],[645759.111901187,4824686.274777541],[645759.0373292582,4824686.3215321675],[645758.967157391,4824686.374662919],[645756.4328078591,4824688.475252737],[645756.3548819976,4824688.547141146],[645756.2850050356,4824688.626875664],[645756.2239624168,4824688.713560045],[645756.1724402838,4824688.806219923],[645754.9209280913,4824691.3680117745],[645754.8846800156,4824691.451680863],[645754.8562039423,4824691.538303912],[645754.835736634,4824691.627160699],[645754.8234482646,4824691.717512431],[645754.3976448794,4824696.458711789],[645753.7590057267,4824702.8175648395],[645753.7566932692,4824702.844153778],[645753.3413497396,4824708.492053934],[645752.5880060772,4824710.807417848],[645750.9475763928,4824712.124376349],[645748.6646686814,4824712.438103247],[645747.3387184836,4824712.175371938],[645742.9595159548,4824707.133839572],[645742.9368344533,4824707.108605373],[645738.4633093557,4824702.298312084],[645735.9014945455,4824699.210399524],[645733.9699791812,4824695.768810264],[645733.9363271258,4824695.713168642],[645730.6757220965,4824690.697788992],[645730.6204195431,4824690.6209462155],[645730.5580979682,4824690.549677666],[645730.4893159715,4824690.484622139],[645730.4146900588,4824690.426362736],[645726.4754089519,4824687.64076292],[645726.3716296083,4824687.5765013],[645721.9787343579,4824685.214402968],[645721.9021578206,4824685.177336057],[645721.8227077615,4824685.146912215],[645714.93983262,4824682.841880048],[645714.8428918482,4824682.814758304],[645714.7437155275,4824682.797519985],[645714.6433086217,4824682.790339768],[645714.5426885644,4824682.793290411],[645711.5882521614,4824683.029167061],[645711.486959413,4824683.0424895445],[645711.387554613,4824683.066077574],[645711.2910753193,4824683.099684944],[645711.1985285551,4824683.142960872],[645711.1108802964,4824683.195453654],[645711.0290453905,4824683.256615387],[645710.9538780063,4824683.325807683],[645707.6659467976,4824686.678407231],[645704.4645660609,4824689.777557718],[645704.4019015075,4824689.844028714],[645704.3455643692,4824689.915940928],[645704.2960247926,4824689.9926942345],[645702.4999126587,4824693.076023061],[645702.4587287079,4824693.154529302],[645702.4246595663,4824693.23637453],[645702.3979729955,4824693.320915495],[645701.3339323859,4824697.297938584],[645701.3156302591,4824697.380031107],[645701.3042913952,4824697.463371255],[645701.2999960071,4824697.547369468],[645701.2367241413,4824704.557315472],[645701.2425638202,4824704.674628894],[645701.6135921172,4824708.08079817],[645701.5476233425,4824716.9840683965],[645700.6096432905,4824722.416126823],[645700.6021588044,4824722.467343992],[645700.0122078956,4824727.392223111],[645699.0676653914,4824733.420625448],[645699.0646427316,4824733.44133152],[645698.587741112,4824736.965858732],[645698.0671608063,4824739.551864761],[645697.7005379122,4824740.51011349],[645697.5342660885,4824740.589034103],[645697.0552354861,4824740.62760547],[645696.4469583648,4824740.555700082],[645696.0393653158,4824740.422227902],[645695.8156462001,4824740.282533752],[645695.6563752119,4824739.916934998],[645695.3337136543,4824738.8256458165],[645694.9795326742,4824736.998216559],[645694.9621276953,4824736.923772924],[645694.939086434,4824736.850876501],[645694.200025043,4824734.790330325],[645694.1689606999,4824734.71381976],[645694.1316896898,4824734.640133046],[645694.0884661585,4824734.569772642],[645692.6168575763,4824732.382212728],[645692.5605909562,4824732.306537745],[645692.497446243,4824732.236499321],[645692.4279849593,4824732.172720283],[645692.3528247994,4824732.115767794],[645692.2726341349,4824732.066148312],[645692.1881260723,4824732.024303085],[645692.1000521111,4824731.990604228],[645692.0091954607,4824731.965351412],[645688.8814359256,4824731.253002863],[645688.7700256392,4824731.234175936],[645688.65720267,4824731.2280373145],[645684.0027548558,4824731.238134163],[645683.9524521537,4824731.239509415],[645675.2724378869,4824731.69559532],[645675.25716416,4824731.696515096],[645671.4895054264,4824731.952345569],[645671.0722849932,4824730.396356014],[645671.1267188418,4824722.766031555],[645671.1235870175,4824722.679496526],[645670.6155710262,4824716.301617541],[645670.6121152244,4824716.266204191],[645670.061074517,4824711.498550321],[645670.038024241,4824711.371607308],[645668.7075376244,4824706.031467211],[645668.7016236417,4824706.008859786],[645667.6383927246,4824702.130118063],[645667.6131054711,4824702.05093599],[645665.4620628142,4824696.170752944],[645665.4410212092,4824696.117936973],[645663.7945914707,4824692.304320789],[645663.7564427365,4824692.22560852],[645663.7115615889,4824692.150531028],[645663.6602914112,4824692.079662728],[645663.6030244689,4824692.013545828],[645659.5902940029,4824687.77079436],[645658.8637671932,4824688.457932479],[645659.1616329588,4824687.503324714],[645651.3924946709,4824685.079124525],[645651.3055164979,4824685.056221971],[645651.2168323012,4824685.041227212],[645644.2056920822,4824684.177972038],[645644.1000049758,4824684.17061352],[645643.994132492,4824684.174477383],[645643.8892629342,4824684.189520258],[645634.5324713157,4824686.042129651],[645634.528732044,4824686.0428774245],[645627.5734338178,4824687.447583624],[645627.5075150133,4824687.463238238],[645619.1055976871,4824689.761843633],[645613.8405027011,4824690.885580906],[645613.7430679975,4824690.911575689],[645607.9518084708,4824692.774098019],[645604.7973355121,4824693.771581905],[645604.7187809219,4824693.800083848],[645604.6428803098,4824693.83504499],[645604.570163704,4824693.876221193],[645600.9497632334,4824696.13109275],[645600.878469771,4824696.179892786],[645600.8116545562,4824696.234664389],[645600.7498163113,4824696.2949987305],[645600.6934166094,4824696.360445465],[645598.8586392065,4824698.685529165],[645597.674558895,4824700.171781213],[645596.0305227276,4824701.295757642],[645594.3797380016,4824701.438361128],[645593.0309749509,4824701.163988055],[645592.2917142397,4824700.27740093],[645591.1650161729,4824698.566060906],[645591.1073884779,4824698.487204084],[645591.0423429239,4824698.414345142],[645590.9705000033,4824698.348179106],[645590.8925450506,4824698.289337157],[645590.8092217053,4824698.23838061],[645589.3478445444,4824697.439996225],[645589.2631559134,4824697.39878295],[645589.1749655657,4824697.365719968],[645589.084055811,4824697.341100571],[645588.9912330827,4824697.325143148],[645588.897320783,4824697.317989254],[645588.8031519796,4824697.319702351],[645588.7095620156,4824697.330267238],[645583.2930280509,4824698.201709304],[645583.2224226991,4824698.215692315],[645574.0285332118,4824700.383037366],[645574.0076720306,4824700.38819234],[645568.7339989118,4824701.751646999],[645568.6963738921,4824701.76216277],[645562.9054552817,4824703.503305105],[645562.7913389895,4824703.545337841],[645559.511839429,4824704.985377506],[645559.4542034839,4824705.012913735],[645556.0546506953,4824706.772583193],[645555.9644355673,4824706.825435054],[645555.8802320148,4824706.887417714],[645555.8029605584,4824706.957853575],[645553.374049662,4824709.4163688505],[645553.3152505299,4824709.481348173],[645553.26236608,4824709.551225817],[645553.2158024464,4824709.625465148],[645552.14646553,4824711.508985253],[645551.3211662117,4824712.347541286],[645550.3550621334,4824712.780788818],[645548.9253510603,4824712.668070573],[645548.1475154101,4824712.149256173],[645546.6905856929,4824709.849771816],[645546.6032639301,4824709.732026597],[645545.334256175,4824708.26002579],[645545.2671352831,4824708.189433899],[645545.1934647326,4824708.125707302],[645545.1139435412,4824708.069450664],[645545.0293262401,4824708.0211977735],[645544.9404157146,4824707.981406472],[645544.848055586,4824707.950454319],[645544.7531222068,4824707.928634999],[645544.6565163456,4824707.916155546],[645544.5591546403,4824707.913134369],[645541.7380558848,4824707.963081692],[645541.6533594901,4824707.968181543],[645541.5694003124,4824707.980443037],[645541.4867828147,4824707.999777898],[645528.1950610344,4824711.7117173495],[645528.1922222764,4824711.712514634],[645519.2488488989,4824714.238554343],[645515.7295975148,4824715.171153978],[645515.6264251054,4824715.204578469],[645515.5274790445,4824715.24897914],[645511.1638461429,4824717.498896981],[645511.0729518303,4824717.551996491],[645510.9881430598,4824717.614356787],[645510.9103596255,4824717.685286833],[645510.8404634717,4824717.764000629],[645509.605080201,4824719.312242915],[645508.1290467582,4824721.135585795],[645507.3015882435,4824722.008952233],[645505.7744657069,4824722.642173384],[645504.3303025641,4824722.790190831],[645502.8529502561,4824722.342398685],[645502.1866307709,4824721.606931275],[645502.1380503906,4824721.556928887],[645500.6103481943,4824720.090440833],[645500.530994554,4824720.0218883185],[645500.4448984187,4824719.962022612],[645500.35300654,4824719.911502021],[645500.2563294019,4824719.870882096],[645500.1559301096,4824719.840609509],[645500.0529126987,4824719.821017152],[645499.9484099946,4824719.812320471],[645497.453264653,4824719.7360142935],[645497.3616867461,4824719.737409862],[645497.2706206222,4824719.747178265],[645497.1808301857,4824719.76523756],[645491.1933324802,4824721.257727958],[645491.1905991861,4824721.258413373],[645480.4416562744,4824723.96997319],[645480.3501678583,4824723.997766842],[645476.779764198,4824725.271851908],[645473.9146423306,4824725.838313128],[645473.8393671621,4824725.856247683],[645470.888359362,4824726.681208609],[645470.7936841421,4824726.71284854],[645470.7026350498,4824726.75376975],[645470.6161193425,4824726.803564478],[645470.5349991041,4824726.861736545],[645468.4548319123,4824728.516704681],[645468.3713767749,4824728.591086115],[645468.2967453398,4824728.674317758],[645468.2318703028,4824728.765359436],[645466.5500182093,4824731.428988147],[645466.5204584174,4824731.478960392],[645465.2344521099,4824733.804545099],[645463.2231217187,4824735.820578592],[645462.1156161564,4824736.421025996],[645461.0,4824736.2367306305],[645461.0,4824738.263836676],[645462.1278750586,4824738.450157164],[645462.2215607058,4824738.461124725],[645462.3158629477,4824738.463216389],[645462.4099427501,4824738.456413546],[645462.5029630578,4824738.440776723],[645462.5940962426,4824738.416445046],[645462.6825314661,4824738.383634999],[645462.7674818949,4824738.342638506],[645464.3046254822,4824737.509257701],[645464.3871824119,4824737.459196656],[645464.4645268335,4824737.401407425],[645464.5359377615,4824737.336428704],[645466.749522721,4824735.1176677095],[645466.8120743134,4824735.04884693],[645466.8679619918,4824734.9745127605],[645466.9167023834,4824734.895308117],[645468.2566275992,4824732.472217677],[645469.8325502829,4824729.976354383],[645471.6217713995,4824728.552861143],[645474.3405368952,4824727.79282408],[645477.2401888976,4824727.219535932],[645477.3119788099,4824727.202568896],[645477.3823226262,4824727.180355852],[645480.9772660219,4824725.897513874],[645491.6784333239,4824723.198006072],[645497.5303675848,4824721.739307275],[645499.5028181475,4824721.799628476],[645500.7278766509,4824722.9755995935],[645501.5567349588,4824723.890473445],[645501.6201267573,4824723.954407202],[645501.689011977,4824724.01238023],[645501.7628322312,4824724.063922596],[645501.8409891296,4824724.108616496],[645501.9228491287,4824724.146099639],[645502.0077486677,4824724.176068185],[645503.9423790465,4824724.762463375],[645504.038495939,4824724.786469002],[645504.1365164522,4824724.8008462805],[645504.2354785416,4824724.805454101],[645504.3344109212,4824724.80024724],[645506.1241231691,4824724.616813229],[645506.2199657181,4824724.60226667],[645506.3139494434,4824724.578508387],[645506.4051911425,4824724.545761649],[645508.2641983225,4824723.774924575],[645508.3587519141,4824723.729775321],[645508.4480622218,4824723.674980195],[645508.5311487222,4824723.611140786],[645508.6070992221,4824723.538957973],[645509.6077034991,4824722.482839536],[645509.6590213163,4824722.424265837],[645511.1617884825,4824720.567898812],[645511.1662012262,4824720.562408323],[645512.2704300504,4824719.178535156],[645516.347211058,4824717.07652004],[645519.7690098785,4824716.169745279],[645519.7846661207,4824716.165460096],[645528.7344314787,4824713.637614984],[645541.9014453617,4824709.960502335],[645544.1256683578,4824709.921122649],[645545.0404775201,4824710.982266538],[645546.5715364886,4824713.398749711],[645546.6319428339,4824713.483906071],[645546.7008986276,4824713.562300144],[645546.7776522154,4824713.633077392],[645546.8613669423,4824713.695466307],[645548.0322331508,4824714.476431091],[645548.1197475174,4824714.5285662925],[645548.2121117752,4824714.571527757],[645548.3083674747,4824714.604869681],[645548.4075157854,4824714.62824608],[645548.508527861,4824714.641414382],[645550.452549486,4824714.794680807],[645550.5525146635,4824714.797545909],[645550.6522661228,4824714.79041205],[645550.7508062245,4824714.773350576],[645550.8471494452,4824714.746532124],[645550.9403322327,4824714.710224912],[645552.3111470519,4824714.095485618],[645552.3940715345,4824714.0535672875],[645552.4727473176,4824714.004133115],[645552.5464951447,4824713.947609895],[645552.6146783051,4824713.884485629],[645553.6639908011,4824712.818318114],[645553.7222603773,4824712.753717619],[645553.7746946819,4824712.684297081],[645553.8208968622,4824712.610581913],[645554.8897540638,4824710.727906773],[645557.1145247315,4824708.4760198565],[645560.345198905,4824706.803764996],[645563.539662676,4824705.401064841],[645569.2535330609,4824703.683088422],[645574.4978880568,4824702.3272136655],[645583.6462683604,4824700.170596839],[645588.68932842,4824699.359241329],[645589.6316083778,4824699.87403082],[645590.652290827,4824701.424343879],[645590.7194902989,4824701.51485765],[645591.7196705147,4824702.714362626],[645591.7849045717,4824702.785341229],[645591.8566700666,4824702.849708598],[645591.9343000506,4824702.9068665365],[645592.0170730737,4824702.9562838515],[645592.1042198894,4824702.997501285],[645592.1949306036,4824703.030135786],[645592.2883622015,4824703.053884068],[645594.1225746658,4824703.42701003],[645594.217043011,4824703.4415656915],[645594.3124695045,4824703.4470356],[645594.4079823169,4824703.443369781],[645596.4642278479,4824703.265740453],[645596.5659154768,4824703.251667302],[645596.6656244908,4824703.227243135],[645596.7623041141,4824703.192725344],[645596.8549354951,4824703.148477691],[645596.9425424448,4824703.09496648],[645598.927405148,4824701.737977541],[645599.006590627,4824701.677853583],[645599.0794143195,4824701.610163553],[645599.1451563465,4824701.535576582],[645600.4243475243,4824699.929941821],[645600.4272335598,4824699.926301968],[645602.1552974561,4824697.736448752],[645605.5205123753,4824695.640512829],[645608.5571399207,4824694.680293139],[645608.5618068062,4824694.678804828],[645614.3073368793,4824692.830989511],[645619.5508255911,4824691.711863698],[645619.6059790961,4824691.698444932],[645628.0025885856,4824689.40129166],[645634.9227930851,4824688.003673062],[645644.1204256973,4824686.182576551],[645650.882884838,4824687.015212565],[645658.3166526462,4824689.334767276],[645662.0284823084,4824693.259369459],[645663.5935617908,4824696.884554491],[645665.7205441482,4824702.698965264],[645666.7696892289,4824706.526320858],[645668.0817227432,4824711.792396211],[645668.6232984004,4824716.478157613],[645669.1264605826,4824722.795099525],[645669.0713701745,4824730.5174579285],[645669.0747516492,4824730.6070672795],[645669.086146998,4824730.696013422],[645669.105464588,4824730.783581114],[645669.7707632933,4824733.264758338],[645669.8008543479,4824733.358329183],[645669.8399860373,4824733.448493953],[645669.887780311,4824733.534381566],[645669.94377543,4824733.615162265],[645670.0074304267,4824733.690055629],[645670.0781303317,4824733.758338116],[645670.1551921151,4824733.819350052],[645670.237871285,4824733.872501999],[645670.32536908,4824733.91728046],[645670.4168401861,4824733.95325283],[645670.5114009033,4824733.980071581],[645670.6081376829,4824733.997477619],[645670.7061159533,4824734.005302783],[645670.804389149,4824734.003471475],[645675.3850222579,4824733.692438653],[645684.0322620698,4824733.238074861],[645688.5480073934,4824733.228278898],[645691.178628077,4824733.827403864],[645692.3595006682,4824735.58278201],[645693.0306488309,4824737.453982151],[645693.3793951178,4824739.25337061],[645693.4021648032,4824739.346633798],[645693.7559646076,4824740.543237142],[645693.7981451586,4824740.659091256],[645694.1060162775,4824741.365794334],[645694.1506126615,4824741.455580892],[645694.2039749048,4824741.540450997],[645694.2655666923,4824741.619551662],[645694.3347689981,4824741.692087891],[645694.4108863067,4824741.75733066],[645694.4931536041,4824741.814624249],[645695.0830965362,4824742.182994992],[645695.1892271768,4824742.240664756],[645695.3015366668,4824742.285118025],[645695.9193247649,4824742.487421582],[645696.015166453,4824742.513612613],[645696.1131341066,4824742.5301636895],[645696.919090965,4824742.625437108],[645697.0178266164,4824742.632177624],[645697.1167450126,4824742.629125683],[645697.8776180736,4824742.567860465],[645697.9675753433,4824742.55649307],[645698.0561331679,4824742.537024127],[645698.142563467,4824742.509613702],[645698.2261556513,4824742.474487148],[645698.9201262752,4824742.145095276],[645699.0041251654,4824742.100204906],[645699.083472501,4824742.047527025],[645699.1574485259,4824741.987539471],[645699.2253822063,4824741.92078639],[645699.2866573187,4824741.847873295],[645699.3407180391,4824741.769461578],[645699.3870739848,4824741.686262509],[645699.425304663,4824741.5990307825],[645699.9649768627,4824740.18848003],[645699.9914926661,4824740.1094527],[645700.0113345827,4824740.028491567],[645700.5547412266,4824737.329094679],[645700.5653771679,4824737.265834454],[645701.0451787268,4824733.719875327],[645701.9909033843,4824727.683928072],[645701.9958580364,4824727.648074122],[645702.5848825318,4824722.730928653],[645703.4007486716,4824718.006060006],[645705.3900035651,4824717.841043445],[645705.487681273,4824717.828069388],[645705.5836079379,4824717.805545273],[645705.6768521828,4824717.773689794],[645705.7665086752,4824717.7328122435],[645705.8517069167,4824717.683309512],[645705.9316196953,4824717.625662235],[645706.005471117,4824717.560430124],[645706.0725441392,4824717.488246536],[645706.1321875324,4824717.409812318],[645706.1838222033,4824717.325889011],[645707.8243070212,4824714.33918569],[645707.8672984773,4824714.250899705],[645707.9014236808,4824714.158822831],[645707.9263535732,4824714.063842934],[645709.5549255486,4824706.330842935],[645711.093110827,4824699.678089183],[645712.0660792505,4824696.809237554],[645713.5218292248,4824693.854705508],[645714.1706134323,4824693.083752739],[645716.4463815085,4824693.094226338],[645719.3268321832,4824697.02356807],[645720.939850948,4824695.841125486],[645717.7614481455,4824691.505334951],[645717.7028181722,4824691.4327216325],[645717.6376740437,4824691.365890426],[645717.5665831763,4824691.3054234395],[645717.4901647833,4824691.251847354],[645717.409084482,4824691.2056288235],[645717.3240484954,4824691.167170421],[645717.2357975009,4824691.136807125],[645717.1451001798,4824691.114803405],[645717.0527465208,4824691.101350916],[645716.9595409399,4824691.096566833],[645713.7115813183,4824691.08161899],[645713.6143986516,4824691.085903196],[645713.518092058,4824691.099609586],[645713.4235728699,4824691.12260846],[645713.3317355056,4824691.154682182],[645713.2434490062,4824691.195527244],[645713.1595488116,4824691.244757138],[645713.0808288543,4824691.301906009],[645713.0080340478,4824691.366433067],[645712.9418532362,4824691.437727705],[645711.9133655132,4824692.65988362],[645711.8413072608,4824692.756843219],[645711.7814665015,4824692.86178434],[645710.2430761702,4824695.984039956],[645710.1930830274,4824696.104839616],[645709.1830412585,4824699.083004071],[645709.1557623657,4824699.178916883],[645707.6041182586,4824705.8898809645],[645707.5998800194,4824705.909068681],[645705.9998717868,4824713.506438554],[645704.6894121169,4824715.892290715],[645703.5550705484,4824715.986388834],[645703.6139671055,4824708.037598431],[645703.6081141438,4824707.921901358],[645703.237173664,4824704.5165382745],[645703.2987694286,4824697.692289013],[645704.2954338675,4824693.967095209],[645705.9547587021,4824691.118584809],[645709.0663580217,4824688.106348733],[645709.0847751005,4824688.088050724],[645712.1200537328,4824684.993073024],[645714.4983257803,4824684.803196253],[645721.1066973745,4824687.016298886],[645725.3706037187,4824689.309038752],[645729.1034252443,4824691.9486439675],[645732.2418017722,4824696.776014848],[645734.2018404695,4824700.268427207],[645734.2496762909,4824700.345288345],[645734.3042672833,4824700.417508313],[645736.9421365386,4824703.597093961],[645736.9794836555,4824703.639603401],[645741.4607290716,4824708.458198196],[645746.0534153287,4824713.745502508],[645746.1185046991,4824713.813663699],[645746.1897218679,4824713.875394477],[645746.2664342432,4824713.9301465135],[645746.3479604217,4824713.97743347],[645746.433576241,4824714.016835317],[645746.5225212125,4824714.048002064],[645746.6140052755,4824714.0706568705],[645748.4403727197,4824714.432543698],[645748.549956442,4824714.448014214],[645748.6605785816,4824714.451280899],[645748.7708842467,4824714.442303746],[645751.4939857379,4824714.068083543],[645751.599956748,4824714.047641964],[645751.7031076635,4824714.0158992205],[645751.8022370127,4824713.973225045],[645751.896190165,4824713.920116493],[645751.9838727812,4824713.857192158],[645754.0726770111,4824712.180272682],[645754.1449909774,4824712.116235732],[645754.2107893497,4824712.045520706],[645754.2694582267,4824711.968787379],[645754.3204502255,4824711.886751675],[645754.3632895885,4824711.800178991],[645754.3975766229,4824711.709877053],[645755.280701486,4824708.9956371365],[645755.3110138396,4824708.879006536],[645755.3270770274,4824708.759576598],[645755.7503282508,4824703.0041465005],[645756.3881598118,4824696.653334543],[645756.3891567625,4824696.642853397],[645756.7989293167,4824692.080152774],[645757.8749217198,4824689.877642414],[645760.1064513072,4824688.0280442145],[645762.892249694,4824687.042905495],[645766.3547013208,4824687.413184475],[645769.5433031739,4824688.373393715],[645772.7015497873,4824690.473734442],[645772.783650527,4824690.52283882],[645772.870067771,4824690.563873333],[645779.5805355601,4824693.365237666],[645779.6595626833,4824693.394384365],[645779.7407623345,4824693.41677706],[645779.8235584171,4824693.432256883],[645785.1027288369,4824694.190758219],[645792.9900090513,4824695.405869989],[645793.0456869137,4824695.412854722],[645803.4474975502,4824696.422237598],[645808.6081771671,4824697.696291371],[645813.3486670579,4824699.389855017],[645818.6384448304,4824701.895656382],[645818.7324459857,4824701.934463374],[645823.8081946332,4824703.733666234],[645823.892091294,4824703.75932206],[645823.9779137498,4824703.777525831],[645824.0650014358,4824703.788137432],[645827.8482925309,4824704.0814434],[645827.9253574776,4824704.084435088],[645828.0024237912,4824704.081478818],[645831.1676006868,4824703.837556515],[645835.9559432528,4824704.39721177],[645839.1258524037,4824705.699525383],[645840.8938285458,4824707.476944575],[645844.0272027047,4824712.112509224],[645844.0901092777,4824712.195840978],[645844.1613617578,4824712.272159406],[645844.2401833917,4824712.340632527],[645848.4989569647,4824715.66659654],[645848.5857303572,4824715.727252758],[645848.6784302047,4824715.778395075],[645848.7760174533,4824715.819450249],[645852.3599001974,4824717.108468619],[645852.4479501487,4824717.135626225],[645852.5381260392,4824717.154563972],[645858.5448377437,4824718.129551611],[645858.6575480511,4824718.141340998],[645864.6792211414,4824718.4277490685],[645864.7291843304,4824718.428875255],[645871.161438717,4824718.4130903],[645871.2793719936,4824718.405820311],[645878.117158153,4824717.576606822],[645878.252940094,4824717.550511768],[645885.7705084231,4824715.558264578],[645885.8651176577,4824715.528091098],[645890.1295783019,4824713.93071005],[645895.6802575074,4824712.544059083],[645895.780934277,4824712.513193744],[645900.2606584332,4824710.877172389],[645900.3555941065,4824710.836837833],[645900.4458698173,4824710.786938388],[645900.5305250628,4824710.728004969],[645900.6086591403,4824710.660664606],[645902.5973370724,4824708.759384157],[645902.6661440718,4824708.686668414],[645902.727335843,4824708.607437424],[645902.7802991229,4824708.522485241],[645902.8245031146,4824708.432663253],[645902.8595048062,4824708.338871653],[645903.6749407399,4824705.767626183],[645903.6993941118,4824705.675489308],[645903.7149632599,4824705.581442656],[645903.7215067049,4824705.486340846],[645903.7189649853,4824705.391048082],[645903.5125489394,4824702.619808915],[645903.5109084708,4824702.600351375],[645903.1211020749,4824698.460144448],[645903.4526794598,4824695.96858634],[645904.7082733243,4824694.530053897],[645907.3392127824,4824693.914808861],[645911.6078393984,4824693.022778836],[645914.5399679041,4824692.743159825],[645917.9313722036,4824692.7544167],[645921.747942589,4824694.181104171],[645926.4438584287,4824696.6005620025],[645930.4899316024,4824699.56917564],[645936.3532404135,4824704.48755651],[645936.4290247487,4824704.545210043],[645936.5099491571,4824704.595394059],[645936.5952798811,4824704.637653531],[645941.3017616114,4824706.695593659],[645941.4011076004,4824706.732888378],[645941.503846223,4824706.759445809],[645941.6088205886,4824706.774966898],[645941.714848631,4824706.779276873],[645944.9640135168,4824706.738804118],[645945.0507666423,4824706.733948356],[645945.136770775,4824706.721580155],[645948.7310775283,4824706.044148476],[645948.8299561184,4824706.020247261],[645948.9258948629,4824705.986424179],[645949.0179009646,4824705.943029238],[645953.2855079406,4824703.657965771],[645953.3390917544,4824703.627106075],[645958.2848772282,4824700.5713360375],[645965.298166685,4824697.787886748],[645969.9355069543,4824696.4475335125],[645970.0495283251,4824696.406953778],[645970.157812375,4824696.352896842],[645973.7747234955,4824694.264813972],[645973.804251786,4824694.247082039],[645976.9006456714,4824692.3143535685],[645976.902787787,4824692.313012724],[645981.2877488545,4824689.560554209],[645984.1040450197,4824688.332641451],[645987.8505421281,4824687.60410199],[645987.8607543086,4824687.602060899],[645996.0562770761,4824685.919608841],[646001.6377084249,4824685.086096699],[646006.6420452482,4824684.769526879],[646013.0347171997,4824685.016263603],[646017.48538213,4824686.598450811],[646017.5865169195,4824686.628496956],[646017.6902544064,4824686.647720648],[646024.2892199269,4824687.513513085],[646024.36600467,4824687.520588878],[646024.4431063427,4824687.52172716],[646028.8330048536,4824687.417217797],[646028.9142167806,4824687.411972016],[646028.9947332242,4824687.400139958],[646035.6966231639,4824686.134780946],[646035.8103241811,4824686.106323239],[646042.2051034527,4824684.100932486],[646042.2969356505,4824684.067115788],[646042.38502276,4824684.024485016],[646042.4685211955,4824683.973448433],[646046.0280997121,4824681.550811795],[646046.0979137933,4824681.498706654],[646046.1629281567,4824681.440723171],[646046.2226494113,4824681.377301382],[646050.3250116733,4824676.621699754],[646053.9625749527,4824672.637313799],[646059.9119763287,4824666.250605774],[646067.9322497048,4824658.248024888],[646073.6257336702,4824654.817483839],[646081.5744177857,4824650.993031542],[646086.0829939119,4824650.132377384],[646089.5716269963,4824650.308352523],[646089.3066577788,4824653.196372442],[646089.3024767346,4824653.289404212],[646089.3069680695,4824653.382421518]],[[646110.576387873,4824654.580804181],[646110.3819754713,4824656.417160546],[646109.5608785689,4824658.15939088],[646108.0064893398,4824658.311702954],[646104.0130206812,4824657.840672741],[646097.9204782799,4824656.386411037],[646092.9347201578,4824654.658744385],[646091.3390077929,4824652.935330382],[646091.5726899503,4824650.388322348],[646102.3770795944,4824650.694697512],[646110.7907970671,4824651.872263627],[646110.576387873,4824654.580804181]]]}},{"type":"Feature","properties":{"class":"path","widthMeters":1.5},"geometry":{"type":"Polygon","coordinates":[[[646317.4359222701,4824682.153399911],[646318.9113683185,4824681.883105705],[646317.936509705,4824676.561677217],[646317.9194379618,4824676.489070304],[646317.8952388705,4824676.418518108],[646307.6198945388,4824650.704805074],[646306.2269901594,4824651.261417497],[646316.4745540158,4824676.9056108],[646317.4359222701,4824682.153399911]]]}},{"type":"Feature","properties":{"class":"residential","widthMeters":5},"geometry":{"type":"MultiPolygon","coordinates":[[[[645645.9199879499,4824188.0],[645662.3280648739,4824300.813102622],[645667.2760039525,4824300.09345071],[645650.9725966426,4824188.0],[645645.9199879499,4824188.0]]],[[[645556.2046954003,4824197.483146593],[645573.5333308126,4824317.706677163],[645578.4821877901,4824316.993364736],[645561.1535523778,4824196.769834166],[645556.2046954003,4824197.483146593]]],[[[645471.5823303887,4824331.937996365],[645466.9768206701,4824306.181944688],[645462.0548884505,4824307.062048788],[645466.6603981692,4824332.818100465],[645471.5823303887,4824331.937996365]]],[[[645654.9319799008,4824313.21548421],[645654.8921921777,4824312.966795241],[645654.82758506,4824312.7233713595],[645654.7388142247,4824312.487682996],[645654.6267805791,4824312.262122077],[645654.4926211169,4824312.048977749],[645654.3376973802,4824311.8504131455],[645648.756550982,4824305.39581466],[645644.9743846123,4824308.666169007],[645650.045498082,4824314.530914166],[645657.1093652531,4824379.528678541],[645498.6057355533,4824397.902051264],[645490.3167853432,4824329.892153146],[645485.353512649,4824330.497069804],[645493.9351324965,4824400.908289167],[645502.8830736906,4824531.739872163],[645507.8714206105,4824531.398705039],[645499.0816882959,4824402.880360106],[645657.6785541762,4824384.496179661],[645663.5778024743,4824433.461212034],[645668.5419049457,4824432.863142931],[645662.3467056861,4824381.441653788],[645654.9319799008,4824313.21548421]]],[[[645586.996427862,4824526.1982293455],[645593.7488270411,4824603.824681324],[645598.7300173924,4824603.391388486],[645591.9776182133,4824525.764936508],[645586.996427862,4824526.1982293455]]],[[[645716.080447674,4824513.548527073],[645721.9863143177,4824661.3699957235],[645726.9823285432,4824661.170391471],[645721.0764618996,4824513.348922821],[645716.080447674,4824513.548527073]]],[[[645763.9027867252,4824285.326813528],[645751.6626977227,4824188.0],[645746.6233121633,4824188.0],[645758.9418644647,4824285.9507128205],[645763.9027867252,4824285.326813528]]],[[[645849.277292342,4824281.98650554],[645863.0162182429,4824406.228841932],[645798.9726004961,4824410.124401294],[645785.5586430823,4824283.434447068],[645780.586436157,4824283.96090532],[645793.9763090726,4824410.42339021],[645791.2186728059,4824410.5859358525],[645790.9695940082,4824410.613195977],[645790.724495003,4824410.665252097],[645790.4858378927,4824410.741581289],[645790.2560200687,4824410.841416802],[645783.5088185212,4824414.183884564],[645783.307406211,4824414.295496096],[645783.1171176626,4824414.425166143],[645782.939567255,4824414.571794604],[645782.7762612988,4824414.734137504],[645782.6285852572,4824414.910817553],[645782.4977919912,4824415.100335822],[645782.3849911313,4824415.301084468],[645779.3953142337,4824421.24745149],[645779.2956078044,4824421.472800928],[645779.2185711586,4824421.706871636],[645779.164952769,4824421.94738943],[645779.1352735808,4824422.192017489],[645778.6828065405,4824428.515713768],[645778.6775078932,4824428.76748687],[645778.6975654329,4824429.018515686],[645789.0724411842,4824508.3017391125],[645794.0301734561,4824507.652978201],[645783.6880979873,4824428.620409548],[645784.0868724037,4824423.047123387],[645786.4769061018,4824418.293426567],[645792.0201733516,4824415.547370747],[645796.8853105084,4824415.260600931],[645796.8899923741,4824415.260320556],[645865.9415526828,4824411.060144775],[645929.6211555112,4824407.177215731],[645929.8684879981,4824407.149725561],[645930.1118620785,4824407.097782077],[645930.3488662437,4824407.02189997],[645930.5771521021,4824406.922831128],[645930.7944576488,4824406.801557191],[645930.998629679,4824406.659279819],[645931.1876451232,4824406.49740879],[645931.3596310936,4824406.3175480245],[645931.512883441,4824406.121479704],[645931.6458836416,4824405.911146599],[645931.7573138425,4824405.688632826],[645931.846069921,4824405.456143199],[645931.9112724242,4824405.215981374],[645931.9522752829,4824404.970527031],[645931.9686722144,4824404.722212293],[645931.9603007471,4824404.473497624],[645926.9191196939,4824344.195406741],[645921.9365143039,4824344.612112305],[645926.7645931512,4824402.342110985],[645868.0130466516,4824405.924546769],[645854.2469991186,4824281.436947031],[645849.277292342,4824281.98650554]]],[[[645742.4941789143,4824511.263132001],[645718.5953636053,4824293.693533282],[645713.625257866,4824294.239471869],[645737.524073175,4824511.809070588],[645742.4941789143,4824511.263132001]]],[[[646609.8480939057,4824382.462630409],[646609.6583271241,4824382.5405338025],[646609.4755860823,4824382.633732953],[646559.2964983993,4824410.877302482],[646477.8785559657,4824448.52463184],[646479.9770546037,4824453.062946887],[646561.4852946174,4824415.37386429],[646561.6622864967,4824415.283314699],[646611.7488521726,4824387.09182168],[646661.1447951762,4824369.144519003],[646659.4373284263,4824364.44509805],[646609.8480939057,4824382.462630409]]],[[[645779.5802402059,4824654.7484607985],[645774.6311955977,4824510.547779556],[645769.6341377468,4824510.719281258],[645774.5831823549,4824654.9199625],[645779.5802402059,4824654.7484607985]]]]}},{"type":"Feature","properties":{"class":"service","widthMeters":3},"geometry":{"type":"MultiPolygon","coordinates":[[[[645878.2068516458,4824657.566344035],[645878.0614579557,4824657.58994983],[645877.9190805294,4824657.627702012],[645877.7810923003,4824657.679236538],[645877.6488238771,4824657.744056465],[645877.5235507131,4824657.82153674],[645877.4064808068,4824657.910930228],[645877.2987430531,4824658.011374916],[645877.2013763583,4824658.121902223],[645877.1153196209,4824658.241446342],[645877.0414026789,4824658.368854523],[645876.980338307,4824658.502898177],[645876.9327153438,4824658.642284733],[645876.8989930134,4824658.785670099],[645876.8794964975,4824658.931671622],[645876.874413799,4824659.078881421],[645876.8837939304,4824659.225879964],[645878.6737554893,4824675.020820458],[645878.6974683647,4824675.166005227],[645878.7352886847,4824675.308169008],[645878.7868526867,4824675.445944445],[645878.8516644184,4824675.578006388],[645878.9291005085,4824675.70308464],[645879.0184161623,4824675.819976177],[645879.1187523255,4824675.927556713],[645879.2291439461,4824676.024791519],[645879.3485292571,4824676.110745372],[645879.4757599884,4824676.184591552],[645879.6096124111,4824676.245619794],[645879.748799108,4824676.293243116],[645879.8919813555,4824676.327003468],[645880.0377820001,4824676.346576137],[645880.1847987045,4824676.351772868],[645880.3316174343,4824676.34254368],[645911.8329730276,4824672.804849158],[645911.9783663048,4824672.781243459],[645912.1207433405,4824672.743491456],[645912.2587312127,4824672.691957184],[645912.3909993238,4824672.627137582],[645912.5162722312,4824672.549657696],[645912.6333419456,4824672.460264654],[645912.7410795803,4824672.359820459],[645912.8384462363,4824672.249293683],[645912.9245030208,4824672.129750118],[645912.9984201002,4824672.002342506],[645913.0594847024,4824671.868299423],[645913.1071079902,4824671.728913424],[645913.1408307388,4824671.585528592],[645913.1603277645,4824671.439527564],[645913.1654110601,4824671.292318209],[645913.1560316082,4824671.145320046],[645911.3661561593,4824655.350492809],[645910.2003020569,4824645.047177336],[645909.6034467836,4824639.789071338],[645906.6225892772,4824640.12743287],[645907.2193548928,4824645.384748181],[645908.2163976952,4824654.196182229],[645878.2068516458,4824657.566344035]],[[645881.4859392607,4824673.19405131],[645880.0337905807,4824660.380031995],[645908.5539508478,4824657.177132668],[645910.0060410086,4824669.9911603285],[645881.4859392607,4824673.19405131]]],[[[646475.5880261082,4824754.882831353],[646475.8162154783,4824757.874140366],[646493.0316612785,4824756.560875265],[646493.1263102578,4824756.550625108],[646542.4705504057,4824749.616285978],[646542.6587751806,4824749.577400227],[646573.1507355613,4824741.209484371],[646573.3000892743,4824741.159938251],[646580.5732348455,4824738.315586909],[646588.3090994705,4824754.055594448],[646594.2394670655,4824774.483027003],[646597.1205124427,4824773.646619485],[646591.1536143267,4824753.093355818],[646591.1117578949,4824752.96958845],[646591.0592900482,4824752.849932914],[646582.6657871243,4824735.7718420075],[646578.2148436948,4824726.102553633],[646575.4897010108,4824727.356984721],[646579.2835138384,4824735.598713885],[646572.2808206262,4824738.337297849],[646541.9577024898,4824746.658878288],[646492.7559846982,4824753.5731887715],[646475.5880261082,4824754.882831353]]]]}},{"type":"Feature","properties":{"class":"tertiary","widthMeters":8},"geometry":{"type":"MultiPolygon","coordinates":[[[[646615.0288946225,4824244.479423905],[646615.1658241019,4824244.49813017],[646690.0,4824253.407411475],[646690.0,4824245.350915879],[646616.1802007341,4824236.562399807],[646600.543156842,4824234.150319562],[646574.4252849759,4824188.0],[646565.2330193835,4824188.0],[646594.5358050055,4824239.778067043],[646598.016992497,4824237.807956983],[646594.5914695325,4824239.873336469],[646608.121819317,4824262.314018304],[646608.3669766622,4824262.674597295],[646608.6499245688,4824263.006349935],[646631.3381187691,4824286.843935885],[646642.4937121144,4824304.815619025],[646656.3591986549,4824367.53988026],[646677.9688876155,4824504.053188875],[646678.0476668708,4824504.431482377],[646678.1625799196,4824504.800409384],[646684.0716332968,4824520.974548976],[646684.2386761546,4824521.365838995],[646684.4463342071,4824521.73717352],[646690.0,4824530.53465336],[646690.0,4824513.8885156335],[646685.809873028,4824502.419386108],[646664.2418683391,4824366.169406496],[646664.1967733536,4824365.931433017],[646650.1578337643,4824302.42251022],[646650.0360166794,4824301.988911304],[646649.8662275169,4824301.571755382],[646649.650618858,4824301.176331144],[646637.9179360473,4824282.2749557225],[646637.6840343397,4824281.938015085],[646637.416857114,4824281.626799191],[646614.7467161132,4824257.808181023],[646605.857282872,4824243.0646639485],[646615.0288946225,4824244.479423905]]],[[[646550.8071904508,4824732.979694314],[646506.2647609242,4824740.0676781805],[646459.6606386993,4824742.115196184],[646419.5327629304,4824737.577319233],[646406.1185378267,4824731.8053247295],[646394.6170216678,4824725.398277442],[646384.2025157628,4824715.712132588],[646331.6233914698,4824654.168255137],[646331.3074104112,4824653.838534087],[646330.9559055892,4824653.546979015],[646323.3929901893,4824647.970828356],[646323.0720538931,4824647.757279938],[646322.7320516531,4824647.575616762],[646322.3761413043,4824647.427526058],[646314.406854805,4824644.553729824],[646314.0697652746,4824644.448736098],[646313.7247305412,4824644.373875782],[646313.3744387067,4824644.3297321],[646297.1535085598,4824643.00949782],[646296.8087416138,4824642.996365758],[646296.4641255229,4824643.012992487],[646296.1222241599,4824643.059254309],[646273.7123717288,4824647.082346384],[646251.4367784905,4824649.814486175],[646251.2514068756,4824649.841642715],[646235.7293146013,4824652.488286375],[646209.6855207027,4824653.551358786],[646171.0912140651,4824648.854890665],[646126.1751113776,4824643.188860266],[646126.0750220907,4824643.177512686],[646112.9730795982,4824641.858951763],[646112.8720333792,4824641.850075252],[646091.7113287675,4824640.261287947],[646084.6269967835,4824639.38355634],[646084.3911264935,4824639.361401925],[646066.8165436786,4824638.234497146],[645970.7451057769,4824632.077922106],[645970.2712443585,4824632.075681784],[645951.9316512597,4824633.076921081],[645916.1663999096,4824635.02166806],[645915.9306855495,4824635.041489705],[645907.6609619348,4824635.983878443],[645776.6304906203,4824650.859743142],[645776.5958822895,4824650.863824994],[645723.9984924395,4824657.299806942],[645723.5716207527,4824657.3757132115],[645720.535201153,4824658.087320911],[645595.8575803316,4824687.233271401],[645461.0,4824717.36638694],[645461.0,4824725.563663428],[645597.6212677603,4824695.036462537],[645597.6595347574,4824695.0277146455],[645722.3573519074,4824665.877042849],[645721.4468186616,4824661.982055145],[645722.3595193394,4824665.876535531],[645725.1856462043,4824665.214211511],[645777.5502449329,4824658.806714617],[645908.5642386905,4824643.932720612],[645916.7189111627,4824643.003443056],[645952.3664501414,4824641.065096725],[645970.4703530427,4824640.076724892],[646066.3046951344,4824646.218106046],[646083.7609442266,4824647.337423116],[646090.8236105625,4824648.212470402],[646091.0159554193,4824648.231595467],[646112.2224842029,4824649.82382334],[646125.2238437475,4824651.132261737],[646170.0986870074,4824656.793087386],[646170.1161193684,4824656.79524755],[646209.0412549197,4824661.531973615],[646209.3638926377,4824661.558041348],[646209.6875817057,4824661.557936533],[646236.3119054853,4824660.471167678],[646236.8210961517,4824660.417587672],[646252.5036979336,4824657.743575829],[646274.7966668833,4824655.009304877],[646275.0165033597,4824654.976116562],[646297.0234083621,4824651.025362965],[646312.1943297529,4824652.260136205],[646319.1143433875,4824654.7555552265],[646325.8390121214,4824659.713665162],[646378.2690921166,4824721.083086227],[646378.5861838689,4824721.413840685],[646389.523281409,4824731.586028595],[646389.8950124129,4824731.892173365],[646390.3008400368,4824732.1514270995],[646402.4035610678,4824738.893382236],[646402.769144335,4824739.073280066],[646416.9142959071,4824745.159784243],[646417.2810495946,4824745.296737999],[646417.6594346631,4824745.397183697],[646418.0458265484,4824745.460159163],[646459.0733653284,4824750.099774867],[646459.3854671082,4824750.122749078],[646459.6984097543,4824750.121253897],[646506.8437225154,4824748.049959083],[646507.2967610268,4824748.004111934],[646552.4285757352,4824740.822339905],[646552.7885565793,4824740.747954144],[646553.1401888395,4824740.640836437],[646570.420814653,4824734.49568085],[646570.9100795598,4824734.283990126],[646578.6810723766,4824730.287224878],[646609.8158932595,4824714.289147754],[646609.8949928539,4824714.24737935],[646690.0,4824670.795769975],[646690.0,4824661.69461859],[646606.1198774506,4824707.193975612],[646575.0241561151,4824723.171962124],[646567.4886745926,4824727.047599228],[646550.8071904508,4824732.979694314]]]]}},{"type":"Feature","properties":{"class":"track","widthMeters":2.5},"geometry":{"type":"MultiPolygon","coordinates":[[[[646073.8302603944,4824202.889551058],[646073.9665084844,4824202.859978153],[646074.0986157614,4824202.815416218],[646090.7205654324,4824196.154645623],[646090.820656745,4824196.109335118],[646090.916382676,4824196.055410553],[646091.007003681,4824195.993288526],[646091.091819655,4824195.923448973],[646099.895496848,4824188.0],[646096.1584154085,4824188.0],[646089.5844787982,4824193.916647118],[646073.2987200195,4824200.442698834],[646049.7195661603,4824204.198053349],[646023.2908117077,4824204.154515439],[646023.2866932908,4824206.654512047],[646049.8154015464,4824206.698214618],[646049.9150438702,4824206.694401506],[646050.0140652136,4824206.682658166],[646073.8302603944,4824202.889551058]]],[[[646078.1959064002,4824487.167636533],[646075.6985516513,4824487.282611567],[646082.8864896452,4824643.410691635],[646085.3838443941,4824643.295716601],[646078.1959064002,4824487.167636533]]],[[[646126.6174122737,4824647.978018185],[646160.9757804758,4824608.498520734],[646176.4141562367,4824594.192000435],[646176.5110227038,4824594.0916241],[646192.9661703377,4824575.01598966],[646191.0731674714,4824573.383035238],[646174.6636483293,4824592.4057748355],[646159.2272836377,4824606.710431506],[646159.1339972947,4824606.806675885],[646124.7315696556,4824646.336799851],[646126.6174122737,4824647.978018185]]],[[[645969.9813785914,4824671.982174551],[645970.0558326562,4824672.073204338],[645970.1385118446,4824672.156834365],[645970.2286843554,4824672.232324417],[645970.3255520635,4824672.299006324],[645970.4282575842,4824672.356289879],[645970.5358918615,4824672.40366806],[645970.6475022146,4824672.440721518],[645970.7621007701,4824672.467122289],[645981.555298111,4824674.424110145],[645981.665878626,4824674.439097959],[645981.777355171,4824674.444164002],[645981.8888393092,4824674.439267901],[646013.1542101722,4824671.663752007],[646037.0430373437,4824669.594589511],[646037.1596506858,4824669.578930609],[646037.2742751187,4824669.55237666],[646037.3858950607,4824669.515162935],[646037.4935215504,4824669.467619149],[646037.5962010085,4824669.410166545],[646037.6930236872,4824669.343314158],[646049.6807904528,4824660.2040806515],[646057.5271976698,4824654.230418183],[646057.6196053256,4824654.152739598],[646057.7040889575,4824654.066509365],[646067.49466435,4824643.056958283],[646065.6265040598,4824641.395640395],[646055.9164317249,4824652.314665385],[646048.4774541378,4824657.978141673],[645971.8834046884,4824661.342248195],[645963.9660758795,4824657.184551021],[645953.2594118428,4824636.496467271],[645951.0391275401,4824637.645526719],[645961.9265623511,4824658.68290703],[645961.9674025658,4824658.755751517],[645969.9158086496,4824671.88455072],[645969.9813785914,4824671.982174551]],[[646012.9371445498,4824669.173192973],[646012.9344797059,4824669.173426665],[645981.8355684838,4824671.934165463],[645971.762577516,4824670.107763112],[645966.432253549,4824661.303387452],[645971.0198986724,4824663.712538268],[645971.1396567557,4824663.767579435],[645971.2645446352,4824663.809704799],[645971.3931738348,4824663.838446017],[645971.5241142837,4824663.853483552],[645971.6559102151,4824663.854650221],[646044.9939709796,4824660.633550797],[646036.4658447176,4824667.135223355],[646012.9371445498,4824669.173192973]]],[[[645707.2166913971,4824680.999711534],[645709.2378220578,4824681.5174067905],[645710.5182057525,4824684.51675772],[645710.5709542949,4824684.6254517725],[645710.6339498672,4824684.728545727],[645710.7066039677,4824684.825076486],[645710.7882378649,4824684.914142262],[645710.8780889387,4824684.994911008],[645710.975317804,4824685.066628184],[645711.0790161536,4824685.128623813],[645711.1882152417,4824685.180318735],[645711.3018949354,4824685.221230015],[645711.4189932441,4824685.250975465],[645711.5384162404,4824685.269277204],[645711.6590482802,4824685.275964256],[645711.7797624242,4824685.270974154],[645711.8994309662,4824685.254353511],[645712.0169359681,4824685.226257601],[645712.1311797033,4824685.186948891],[645712.2410949119,4824685.1367946025],[645712.345654771,4824685.076263276],[645712.4438824869,4824685.005920391],[645712.5348604206,4824684.926423087],[645712.6177386605,4824684.838514025],[645712.6917429616,4824684.743014449],[645712.756181979,4824684.64081651],[645712.8104537261,4824684.532874937],[645722.5894353449,4824662.488934929],[645720.3042019784,4824661.475175362],[645711.6898603303,4824680.893764935],[645711.2949818237,4824679.968745958],[645711.2391312096,4824679.854410324],[645711.1719459278,4824679.746345222],[645711.0941222083,4824679.645670513],[645711.0064665253,4824679.553429472],[645710.9098872399,4824679.4705779785],[645710.8053851876,4824679.3979746085],[645710.6940433056,4824679.3363717375],[645710.5770154113,4824679.286407747],[645710.4555142457,4824679.248600406],[645707.6591097596,4824678.532325419],[645707.5400661834,4824678.5079307025],[645707.4192164179,4824678.49521027],[645707.2977025593,4824678.494284337],[645701.9841985732,4824678.712293587],[645701.8791954729,4824678.72104643],[645701.7753025749,4824678.738611424],[645683.3884697844,4824682.650781016],[645667.3298950666,4824686.069110552],[645658.698711671,4824687.218877728],[645659.0288227153,4824689.696987229],[645667.70792234,4824688.540837092],[645667.8031187502,4824688.524389774],[645683.9088073905,4824685.096031265],[645702.1922457325,4824681.205860928],[645707.2166913971,4824680.999711534]]]]}},{"type":"Feature","properties":{"class":"unclassified","widthMeters":4},"geometry":{"type":"MultiPolygon","coordinates":[[[[645851.7138271373,4824279.712310042],[645851.7043459987,4824279.712561662],[645783.014739888,4824281.698511571],[645782.8939425717,4824281.705666381],[645761.243728547,4824283.646753361],[645761.0608073582,4824283.67170838],[645715.8038824585,4824291.989322986],[645664.551176427,4824298.469071467],[645664.329297979,4824298.509949554],[645664.1134352279,4824298.575556995],[645646.3717946936,4824305.0817886805],[645575.7195389873,4824315.370897646],[645487.5750529949,4824328.211391145],[645468.889585908,4824330.391524117],[645461.0,4824331.3142031655],[645461.0,4824335.341464334],[645469.3534113545,4824334.364541362],[645488.066927367,4824332.181135773],[645488.1234569456,4824332.173722014],[645576.296015792,4824319.329138985],[645647.1536881112,4824309.010115137],[645647.3565021725,4824308.969776309],[645647.5540669825,4824308.908711504],[645665.2777979564,4824302.409047631],[645716.3611687218,4824295.950707774],[645716.4718289723,4824295.93355737],[645761.6929597366,4824287.622521244],[645783.190846287,4824285.695091444],[645851.8152051549,4824283.71102796],[645920.7829323983,4824282.044329712],[645982.7275508752,4824282.124813457],[645982.802030613,4824282.1235230025],[646015.9481375947,4824280.931462388],[646016.7247863645,4824289.641847768],[646016.2969780449,4824309.311234161],[646016.3061083052,4824309.550479742],[646016.3437618527,4824309.786920051],[646019.6032349326,4824324.513827255],[646019.6703121265,4824324.748161818],[646019.7653971368,4824324.972596393],[646023.9462554898,4824333.374904653],[646024.0396721682,4824333.542066347],[646024.1486474774,4824333.699527737],[646024.272182394,4824333.845845309],[646024.4091444209,4824333.979677707],[646024.5582779687,4824334.099798032],[646024.7182158662,4824334.20510509],[646024.8874918949,4824334.294633485],[646025.0645542289,4824334.367562475],[646025.2477796621,4824334.423223485],[646035.518656074,4824337.013376663],[646035.692332232,4824337.049069641],[646035.8684870775,4824337.069240584],[646036.0457361483,4824337.0737309605],[646045.3860448854,4824336.896124873],[646054.5518352522,4824338.557482177],[646062.5884860822,4824345.410933451],[646068.9097875416,4824353.148487131],[646074.3916666106,4824364.300755698],[646077.1882558693,4824379.140081835],[646077.1995583121,4824379.195705995],[646081.5345021909,4824399.079550946],[646081.5806449223,4824399.253280014],[646081.6421996278,4824399.422164468],[646081.7186690848,4824399.584840105],[646089.7267492184,4824414.804026599],[646089.8153521282,4824414.955828125],[646089.9169408676,4824415.099264197],[646090.030730811,4824415.233226981],[646100.9028675378,4824426.947975263],[646101.0282768483,4824427.071698415],[646101.164087062,4824427.183905809],[646101.3092444644,4824427.283726859],[646101.4626228188,4824427.370387079],[646112.6500559809,4824433.056566564],[646127.2165241686,4824445.4303208515],[646156.4915719369,4824475.727711688],[646149.7950188434,4824476.789908492],[646076.7597774409,4824485.233474042],[645791.4062625738,4824505.982625085],[645791.2802619261,4824505.9958101725],[645771.9685814894,4824508.637351409],[645739.9529544758,4824509.536890262],[645739.8313386317,4824509.544019058],[645718.4006673738,4824511.456642711],[645718.3851931933,4824511.458084358],[645589.3240671393,4824523.988000105],[645505.2486062399,4824529.573426115],[645461.0,4824532.33783878],[645461.0,4824536.345637322],[645505.50195316,4824533.565396918],[645505.5098218927,4824533.564889749],[645589.6195977798,4824527.977184074],[645589.6802846311,4824527.972223516],[645718.7639820164,4824515.440116428],[645740.1262141498,4824513.533600763],[645772.1888382412,4824512.63274144],[645772.1326666722,4824510.633530407],[645772.4037120662,4824512.615078892],[645791.759561295,4824509.967496043],[646077.0922737721,4824489.219857622],[646077.1769181003,4824489.211891004],[646150.296333334,4824480.758594162],[646150.3799640905,4824480.747132421],[646159.7944954956,4824479.253814137],[646194.902622115,4824521.137951229],[646213.7381818051,4824544.765475509],[646224.3238166904,4824563.383151407],[646235.9457423154,4824589.081717042],[646240.2264014799,4824609.154809914],[646240.2276033185,4824609.160406365],[646249.9689206212,4824654.207458753],[646253.8785519305,4824653.362010336],[646244.1378395421,4824608.31775527],[646239.8128450222,4824588.036762711],[646239.7569209296,4824587.829674905],[646239.6791396525,4824587.6297675865],[646227.9303886503,4824561.650763891],[646227.846692344,4824561.486344897],[646217.138136746,4824542.652479982],[646217.0558070407,4824542.519988265],[646216.9634020492,4824542.394315861],[646198.0150541432,4824518.625308856],[646197.9839254974,4824518.587230882],[646162.1324730756,4824475.8163031],[646162.0379921893,4824475.711347945],[646130.0246561351,4824442.580042333],[646129.8812108921,4824442.445503028],[646115.0605902451,4824429.855854261],[646114.8738474655,4824429.715154971],[646114.6719601875,4824429.597211413],[646103.5925027786,4824423.965912212],[646093.1430888249,4824412.706648533],[646085.3848985077,4824397.962372337],[646081.1138043426,4824378.37139803],[646078.2720508474,4824363.2924203845],[646078.2306983367,4824363.116893399],[646078.1737034183,4824362.945804731],[646078.1015294577,4824362.780545322],[646072.3984721011,4824351.178314318],[646072.2863869142,4824350.979753108],[646072.1524297374,4824350.795239915],[646065.5721690591,4824342.740708652],[646065.4523870493,4824342.60684094],[646065.3210767339,4824342.484260782],[646056.7369587045,4824335.1639434155],[646056.5697250393,4824335.035905942],[646056.3899537916,4824334.926165375],[646056.1996386559,4824334.835938757],[646056.0008902599,4824334.766226718],[646055.7959127576,4824334.717802375],[646045.90366111,4824332.924769382],[646045.7070859035,4824332.89912385],[646045.508937486,4824332.8930649925],[646036.2372679845,4824333.069365904],[646027.1176965757,4824330.769553704],[646023.4557530242,4824323.410113142],[646020.3012665678,4824309.157555081],[646020.7262496435,4824289.618065214],[646020.7188194917,4824289.396953174],[646019.7897470096,4824278.977082983],[646023.732051765,4824259.560031989],[646023.7370097161,4824259.534780527],[646026.8768917862,4824242.980334804],[646026.9066373445,4824242.752963079],[646026.9101610505,4824242.523680975],[646026.1274529217,4824223.894967184],[646026.1271716664,4824223.888521137],[646025.2867212674,4824205.31439779],[646024.7856831035,4824194.170109647],[646024.7833718078,4824194.128409664],[646024.379469871,4824188.0],[646020.370791955,4824188.0],[646020.7906575835,4824194.370626979],[646021.2907707688,4824205.494341382],[646022.1311144088,4824224.066107178],[646022.9040131419,4824242.461354087],[646019.8094720498,4824258.776747915],[646016.125281953,4824276.922505643],[645982.6954961164,4824278.124768433],[645920.7626672327,4824278.044300007],[645920.7117500708,4824278.044882075],[645851.7138271373,4824279.712310042]]],[[[646348.1839447938,4824215.907425587],[646348.1532417197,4824216.107360927],[646348.1428911736,4824216.309374999],[646348.1529990332,4824216.511401359],[646350.572119565,4824240.48145772],[646347.2523703334,4824260.911990663],[646332.751877779,4824281.832215971],[646307.4244405731,4824311.289640405],[646307.2828946684,4824311.475146016],[646294.4897863852,4824330.441435359],[646294.3918324235,4824330.602550663],[646294.3094864737,4824330.772174554],[646294.2434804494,4824330.948799367],[646294.194401031,4824331.130855212],[646294.1626844498,4824331.316723924],[646294.1486126118,4824331.504753452],[646294.1523105913,4824331.693272535],[646294.1737455198,4824331.8806055635],[646297.2304587875,4824350.692282249],[646297.2611027384,4824350.843679921],[646297.3033396045,4824350.992261056],[646310.7006616602,4824392.025323107],[646315.634877061,4824436.221553966],[646315.6743932815,4824479.524599047],[646315.6829038999,4824479.707092584],[646315.708031659,4824479.8880481515],[646315.7495668905,4824480.065955841],[646315.8071630212,4824480.239331177],[646326.1143759717,4824507.098220479],[646326.1804178689,4824507.250986825],[646326.2589325792,4824507.397733302],[646326.3493764065,4824507.537443726],[646349.3196436788,4824539.976766679],[646364.4384182384,4824569.777825192],[646364.5445537526,4824569.962053208],[646364.6696465798,4824570.13397323],[646385.8772942905,4824596.241729653],[646385.977194587,4824596.355612679],[646418.4004532418,4824630.608341564],[646418.5380032038,4824630.740427453],[646418.6875079867,4824630.858812394],[646466.9404867075,4824665.457091163],[646467.1361884779,4824665.580914662],[646523.9171350935,4824697.059124226],[646548.5542457568,4824714.477356531],[646563.1520138927,4824725.838220123],[646567.450439558,4824731.885589126],[646570.710751092,4824729.568183529],[646566.2422266403,4824723.281505951],[646566.122118358,4824723.128813845],[646565.9877624458,4824722.988495038],[646565.8404265814,4824722.861873469],[646550.9746958233,4824711.2924652025],[646550.9009153391,4824711.237718717],[646526.1370277969,4824693.729856214],[646525.9521664715,4824693.613751037],[646469.1770576338,4824662.138777819],[646421.1738488139,4824627.719588691],[646388.9342436392,4824593.660875865],[646367.9090133477,4824567.777685109],[646352.8203727191,4824538.036024468],[646352.6690026602,4824537.785105539],[646329.7588984553,4824505.430746733],[646319.6740543052,4824479.151313685],[646319.6347746662,4824436.107521548],[646319.6224265813,4824435.887438618],[646314.6532048989,4824391.377653206],[646314.6201928422,4824391.176021063],[646314.5667815289,4824390.978809124],[646301.1538456928,4824349.897925484],[646298.2490619704,4824332.021256185],[646310.5336770107,4824313.808828199],[646335.8528199028,4824284.361050582],[646335.9800476026,4824284.196484597],[646350.7976516874,4824262.818754508],[646350.8924170824,4824262.668137409],[646350.9734195288,4824262.509693115],[646351.0400177707,4824262.34467595],[646351.0916845832,4824262.174392271],[646351.1280109463,4824262.0001901295],[646354.5625453347,4824240.863241803],[646354.5829837222,4824240.690056391],[646354.5882581093,4824240.515748917],[646354.5783283963,4824240.341644594],[646352.1739866324,4824216.51802488],[646358.9722784335,4824194.859676105],[646359.0319033398,4824194.617991852],[646360.233461839,4824188.0],[646356.1680687538,4824188.0],[646355.1185220814,4824193.780735046],[646348.2346863279,4824215.711614158],[646348.1839447938,4824215.907425587]]]]}}]}
