{"type":"FeatureCollection","name":"barreiros-san-bartolo-roads","crs":{"type":"name","properties":{"name":"EPSG:25829"}},"source":"\u00a9 OpenStreetMap contributors, ODbL 1.0","features":[{"type":"Feature","properties":{"class":"footway","widthMeters":2},"geometry":{"type":"MultiPolygon","coordinates":[[[[641999.8107430863,4825111.727097165],[641999.7489446235,4825114.648028353],[641999.7518136058,4825114.747767449],[641999.7646079148,4825114.846724127],[641999.7872001692,4825114.943913162],[642000.5801382957,4825117.719073091],[642001.4500040512,4825122.211963801],[642002.3103660963,4825127.61380959],[642002.3142630497,4825127.636580359],[642002.9803290648,4825131.275251824],[642000.6469683761,4825131.685935013],[642000.5174259898,4825131.717769205],[641982.947622233,4825137.301652167],[641982.9441998267,4825137.30274662],[641971.5094893834,4825140.982115747],[641951.0,4825147.444913931],[641951.0,4825149.541860226],[641972.1134612849,4825142.888742895],[641972.1192224614,4825142.886908311],[641983.5551004785,4825139.207163492],[642000.0739577459,4825133.957283246],[642000.9532929583,4825138.048883916],[642000.979661419,4825138.147010268],[642001.0158512593,4825138.241954315],[642001.0614888527,4825138.33273585],[642001.116103033,4825138.418417633],[642001.1791299591,4825138.498115081],[642001.2499189363,4825138.571005393],[642001.3277391338,4825138.636336041],[642011.8125933902,4825146.566435502],[642011.1650695531,4825148.186725257],[642002.8863186795,4825151.401192642],[642003.6102238466,4825153.265585656],[642012.2942712673,4825149.893750022],[642012.3877815468,4825149.851808299],[642012.4765079723,4825149.80051598],[642012.559518625,4825149.740411803],[642012.6359416208,4825149.67212706],[642012.7049742675,4825149.5963789625],[642012.7658914959,4825149.513963115],[642012.8180534751,4825149.425745156],[642012.8609123335,4825149.332651661],[642013.9529002622,4825146.600185685],[642013.9853823474,4825146.505372594],[642014.0082108036,4825146.407784329],[642014.0211563279,4825146.308401124],[642014.0240888876,4825146.208221246],[642014.0169790264,4825146.108250961],[642013.9998981598,4825146.009494431],[642013.9730178586,4825145.91294363],[642013.9366081248,4825145.819568369],[642013.89103468,4825145.730306568],[642013.8367552914,4825145.646054827],[642013.7743151744,4825145.56765942],[642013.7043415154,4825145.495907799],[642013.6275371724,4825145.431520682],[642002.830569526,4825137.2653578315],[642002.0161251198,4825133.475698063],[642004.3186188902,4825133.070447607],[642004.4147284825,4825133.048599992],[642004.508220535,4825133.017397298],[642004.5981868311,4825132.977142638],[642004.6837534048,4825132.928227063],[642004.7640890304,4825132.871125756],[642004.838413298,4825132.80639342],[642004.9060041938,4825132.7346588895],[642004.9662051147,4825132.656619021],[642005.0184312467,4825132.573031922],[642005.0621752457,4825132.484709589],[642005.097012166,4825132.392510016],[642005.1226035892,4825132.297328868],[642005.1387009103,4825132.200090767],[642005.1451477541,4825132.101740321],[642005.1418814936,4825132.003232943],[642005.1289338584,4825131.90552557],[642004.2836542664,4825127.287823027],[642003.4224902225,4825121.880941831],[642003.4167063384,4825121.848151549],[642002.5353954792,4825117.296146429],[642002.5151475183,4825117.211493616],[642001.7516882363,4825114.539505051],[642001.8077001813,4825111.89207614],[642003.3640824913,4825106.164694565],[642004.5259704416,4825103.726836768],[642002.7205379215,4825102.866363983],[642001.5199500477,4825105.385421443],[642001.4850356993,4825105.468024635],[642001.4576620569,4825105.5534235975],[641999.8455150989,4825111.486015303],[641999.8207614331,4825111.605493573],[641999.8107430863,4825111.727097165]]],[[[642109.3873157708,4825159.019401152],[642109.4878237722,4825159.026709298],[642109.5885569617,4825159.023864674],[642109.6884923668,4825159.010896168],[642109.7866151169,4825158.987935478],[642109.8819287489,4825158.955215775],[642109.9734653278,4825158.9130693395],[642110.0602952747,4825158.861924177],[642110.1415368087,4825158.802299681],[642110.2163649001,4825158.734801355],[642110.2840196496,4825158.660114661],[642110.3438140053,4825158.578998064],[642110.3951407394,4825158.492275323],[642110.4374786151,4825158.400827132],[642110.4703976802,4825158.305582171],[642111.2349809287,4825155.670140091],[642163.9852221898,4825167.90479146],[642163.6302753916,4825168.870178589],[642163.6002669203,4825168.9665601235],[642163.5801281818,4825169.065475945],[642163.5700643882,4825169.165918112],[642163.5701780885,4825169.266863125],[642163.5804681241,4825169.367282365],[642163.6008296406,4825169.466152569],[642163.6310551559,4825169.562466259],[642163.6708366747,4825169.655242007],[642163.7197688271,4825169.743534437],[642163.7773529988,4825169.826443857],[642163.8430024126,4825169.903125426],[642163.9160481066,4825169.972797768],[642163.9957457522,4825170.034750927],[642164.0812832374,4825170.088353607],[642164.1717889432,4825170.1330596],[642164.2663406248,4825170.168413358],[642164.363974809,4825170.194054628],[642223.3087592901,4825182.5318437],[642223.7185017803,4825180.574265837],[642165.9069582671,4825168.473676512],[642166.2532999355,4825167.531693685],[642166.2829920099,4825167.436541114],[642166.303063783,4825167.338905286],[642166.313315829,4825167.239756274],[642166.3136462875,4825167.140079186],[642166.3040518753,4825167.040864377],[642166.2846279186,4825166.94309761],[642166.2555674069,4825166.847750257],[642166.2171590746,4825166.755769656],[642166.1697845329,4825166.668069691],[642166.1139144775,4825166.585521718],[642166.0501040128,4825166.508945901],[642165.9789871362,4825166.439103072],[642165.9012704385,4825166.376687161],[642165.8177260841,4825166.322318311],[642165.729184139,4825166.27653671],[642165.6365243234,4825166.239797227],[642165.5406672709,4825166.212464893],[642111.7872549595,4825153.745142587],[642118.310104293,4825130.777046728],[642116.3861856288,4825130.230661358],[642109.5772465677,4825154.206129295],[642108.8123703392,4825156.842581247],[642056.0199368885,4825144.825878232],[642055.5760476079,4825146.775996768],[642109.2880536432,4825159.002014451],[642109.3873157708,4825159.019401152]]],[[[643206.8936364931,4825086.314815701],[643214.1266825177,4825088.687748398],[643216.172647734,4825089.666638111],[643217.0424128656,4825092.152842844],[643216.5030382285,4825094.912636536],[643215.3159796102,4825098.04194902],[643213.2174670637,4825101.146554516],[643207.8643831349,4825105.841096582],[643199.8328209575,4825110.692512711],[643193.5971191018,4825114.218853637],[643193.587369932,4825114.22443939],[643189.6359940547,4825116.517948452],[643189.6001855952,4825116.539748919],[643180.3095359624,4825122.466404153],[643170.6719178964,4825126.7399611715],[643170.66333414,4825126.743815848],[643158.6169446869,4825132.22169286],[643139.4150303816,4825139.937580377],[643120.212243048,4825145.312297686],[643120.1519693943,4825145.331240408],[643113.1676840319,4825147.771233144],[643113.1424438745,4825147.780433151],[643105.8847925612,4825150.53683063],[643105.7811152097,4825150.583100567],[643096.8518893569,4825155.192779673],[643096.8287128272,4825155.205132587],[643092.582900317,4825157.540221701],[643082.4640038,4825162.703836669],[643069.1654825686,4825169.329303367],[643069.157334296,4825169.333409431],[643055.6457131596,4825176.21963847],[643033.6809803469,4825186.992561957],[643033.6771032978,4825186.994473918],[643011.07424839,4825198.201845468],[643011.0667321547,4825198.205611754],[643002.5805943134,4825202.502625985],[643002.5522267069,4825202.517566217],[642997.2958271727,4825205.394496158],[642997.2703329351,4825205.408939018],[642993.3186075463,4825207.724773519],[642993.3063749317,4825207.7320596995],[642983.6751396382,4825213.562055141],[642981.7745566651,4825212.028199723],[642981.7650309025,4825212.020607347],[642978.5150277212,4825209.462451282],[642978.458380238,4825209.42099798],[642975.11803311,4825207.15222584],[642968.8480940306,4825202.422039231],[642967.6435792212,4825204.01864315],[642973.9333580862,4825208.76379735],[642973.9737566701,4825208.792728529],[642977.3056109567,4825211.055732311],[642980.5232322802,4825213.588399832],[642981.8202614363,4825214.63516034],[642977.8417792701,4825216.887422521],[642977.7861641119,4825216.921345186],[642968.1128960968,4825223.262894621],[642960.8740418976,4825226.972256539],[642960.8243978717,4825226.999496844],[642953.1665507758,4825231.488122603],[642945.7505239104,4825235.283314753],[642945.6604389731,4825235.335504172],[642945.576268361,4825235.396776836],[642945.4989244018,4825235.46646861],[642940.6365629927,4825240.32963483],[642940.5707209203,4825240.402286048],[642934.560556614,4825247.725619767],[642929.7237843233,4825253.4892157465],[642925.756750939,4825257.118099554],[642923.0131799933,4825258.711286081],[642917.4026442901,4825260.195171553],[642911.5365523649,4825261.080813493],[642906.1697105985,4825260.338837209],[642906.085131101,4825260.330787503],[642902.5180199796,4825260.143721767],[642902.4279285722,4825260.143061237],[642902.3381433468,4825260.150511828],[642897.9632933569,4825260.712925512],[642897.8727988101,4825260.72881474],[642897.784144572,4825260.752942661],[642897.6980790375,4825260.785105595],[642897.6153287491,4825260.825032031],[642892.0883351208,4825263.812225697],[642889.1671784682,4825265.134853781],[642889.0672532994,4825265.187074634],[642888.9738416785,4825265.250211992],[642888.8881310597,4825265.323463249],[642887.2303867764,4825266.910410549],[642887.1648489181,4825266.979418734],[642887.1061679327,4825267.0543445805],[642887.0548753139,4825267.134509459],[642887.0114356363,4825267.219187289],[642886.9762423479,4825267.307611114],[642886.9496142061,4825267.398980051],[642886.9317923912,4825267.492466539],[642886.4278771356,4825271.048446728],[642886.4196644564,4825271.130824445],[642886.4182938039,4825271.2135991845],[642886.5378813558,4825276.025457202],[642886.1125007792,4825278.724838413],[642884.8993270996,4825280.417908795],[642881.9978725079,4825282.028658441],[642879.0231596599,4825283.010191211],[642876.0988731239,4825282.001028979],[642872.8481329303,4825280.174263347],[642872.758733023,4825280.129745333],[642872.6653384544,4825280.094366647],[642872.5688807603,4825280.068480161],[642872.4703220289,4825280.052344072],[642872.3706453042,4825280.046119324],[642868.614729655,4825279.999497985],[642868.5098483757,4825280.003705434],[642868.4059859051,4825280.018883463],[642868.3042865775,4825280.044864844],[642868.2058708942,4825280.0813633185],[642864.7973609671,4825281.553268001],[642864.7131504444,4825281.594417203],[642864.6331623384,4825281.643269755],[642864.5580993181,4825281.699396503],[642864.4886207869,4825281.762304394],[642861.8307934535,4825284.405759187],[642861.7629756792,4825284.480380375],[642861.7030174879,4825284.561451871],[642861.651528509,4825284.648149375],[642859.622539368,4825288.49389348],[642859.5826878136,4825288.578866552],[642859.5509780516,4825288.667201484],[642858.0403676878,4825293.590659455],[642858.018470054,4825293.674960871],[642856.0946286403,4825302.675683156],[642855.0150610377,4825306.706893069],[642831.2544181985,4825304.142944057],[642828.687951359,4825301.080540279],[642827.27599547,4825298.440731492],[642827.2670718713,4825298.4244145],[642822.1244418476,4825289.225249453],[642819.3515272221,4825271.422222742],[642818.4794906011,4825257.150134964],[642816.4832134935,4825257.272109183],[642817.358102997,4825271.590888336],[642817.3681550669,4825271.683800871],[642820.0851556901,4825289.127841242],[642814.8498015165,4825293.189598671],[642814.8273506726,4825293.207539429],[642804.8606639137,4825301.409466103],[642802.2164814117,4825302.504193606],[642799.417036475,4825302.833782212],[642796.4205391357,4825302.581015506],[642786.4104489944,4825296.089253481],[642782.0001059351,4825292.655125149],[642779.4762088822,4825290.359852595],[642779.4022329218,4825290.298795659],[642779.3227475041,4825290.245107108],[642779.2384839262,4825290.199280896],[642779.1502174458,4825290.161738645],[642779.0587601493,4825290.132825757],[642778.9649534796,4825290.112808242],[642776.7025342516,4825289.742451716],[642776.6043146318,4825289.731323719],[642776.5054762242,4825289.729947034],[642776.4069847718,4825289.738335113],[642772.2179091428,4825290.30478149],[642772.123656992,4825290.322160808],[642772.0315014569,4825290.348483156],[642771.9422890329,4825290.383506749],[642768.2371123874,4825292.047202316],[642765.813542578,4825292.179579346],[642762.107333502,4825289.835834065],[642760.4109389955,4825287.416807319],[642760.3482545392,4825287.336463616],[642760.2777188341,4825287.262916584],[642760.2000643549,4825287.196929967],[642760.1160975008,4825287.139189002],[642749.0946150492,4825280.360241179],[642749.0897796663,4825280.357285948],[642744.6291677876,4825277.648432059],[642740.9694555112,4825275.257085815],[642740.8773688963,4825275.203682424],[642740.7801272388,4825275.160370452],[642740.6788324683,4825275.127640706],[642740.5746324438,4825275.105864073],[642734.4624075182,4825274.164749992],[642734.3314905609,4825274.153328991],[642727.6205707189,4825274.010608218],[642727.5395310438,4825274.012170429],[642727.4588840994,4825274.02029076],[642723.439394269,4825274.590374267],[642723.3504048472,4825274.607136701],[642723.2632966414,4825274.631880526],[642723.1787839474,4825274.664402841],[642723.0975597774,4825274.70443696],[642723.0202901774,4825274.751654597],[642718.8397973655,4825277.573896338],[642718.7567287621,4825277.636503205],[642718.6806130682,4825277.70740041],[642711.097071756,4825285.546223856],[642711.0671395919,4825285.578559795],[642708.4809046676,4825288.499006974],[642704.3361190015,4825292.6120780315],[642700.2219390935,4825295.261042791],[642688.9919740926,4825301.043757533],[642688.9237493708,4825301.082344006],[642684.2561552624,4825303.969342834],[642680.4615792411,4825305.671739429],[642672.1481143817,4825307.05998671],[642672.1415699936,4825307.061101885],[642664.9648509054,4825308.308554442],[642664.9308360496,4825308.315075642],[642656.99387559,4825309.979713667],[642656.884924154,4825310.009068897],[642656.7799733852,4825310.0505114],[642651.4192542214,4825312.525480536],[642651.3432726316,4825312.564581555],[642644.2318456417,4825316.617522014],[642638.2342262698,4825319.820537562],[642631.7886014152,4825323.021156943],[642631.6794173539,4825323.08425028],[642628.5202503653,4825325.186135326],[642619.7862773752,4825329.719015389],[642619.7516114499,4825329.73788433],[642615.0735759073,4825332.40516838],[642614.9645276817,4825332.477173045],[642612.3285856396,4825334.476735645],[642612.2470425686,4825334.545754813],[642612.173327698,4825334.623079037],[642609.1741901438,4825338.126051232],[642609.108127749,4825338.212283703],[642609.0518086585,4825338.305173093],[642609.0058974538,4825338.403623285],[642608.1177880627,4825340.614206032],[642606.402531475,4825342.870762541],[642603.5056695505,4825345.212180573],[642583.1294023591,4825360.882947392],[642583.1224918197,4825360.888310341],[642568.134602633,4825372.625108104],[642561.3960770757,4825377.515403444],[642561.3861363082,4825377.522711723],[642549.884485332,4825386.088329902],[642535.940016144,4825382.20261207],[642535.9208889337,4825382.197485683],[642525.5714314746,4825379.533218063],[642525.56557021,4825379.531728078],[642517.4414064621,4825377.492626962],[642511.1813903686,4825375.231994877],[642501.0588413862,4825370.709104598],[642501.0230286828,4825370.693931459],[642492.5261422956,4825367.28731347],[642486.7781140773,4825364.707196271],[642483.442019324,4825362.960247071],[642480.0872454869,4825360.520086679],[642477.6646775391,4825357.463332431],[642470.8226651958,4825347.700955778],[642460.2214232539,4825332.279455231],[642460.1606120782,4825332.199850951],[642460.0921417433,4825332.126730136],[642460.0166993382,4825332.06082654],[642459.9350419156,4825332.002801497],[642459.8479888946,4825331.9532372765],[642459.7564138382,4825331.912631249],[642459.6612356878,4825331.88139089],[642459.5634095407,4825331.85982969],[642459.4639170667,4825331.848164014],[642459.363756657,4825331.8465109235],[642459.2639334053,4825331.854887009],[642445.3347320779,4825333.730114566],[642442.5708455519,4825315.936407747],[642442.5561561214,4825315.86104341],[642440.4757265763,4825307.01162781],[642439.6317340931,4825301.42250645],[642439.6259106213,4825301.388034779],[642437.5798011236,4825290.4445131],[642437.5579365403,4825290.352104077],[642437.527405233,4825290.262185631],[642437.4884825174,4825290.175568602],[642435.8525917563,4825286.9536934765],[642432.2408776386,4825277.506235969],[642428.8579636929,4825267.781398805],[642428.4096150433,4825263.3111740565],[642428.3956202043,4825263.217028463],[642428.3727381241,4825263.124639835],[642428.3411760975,4825263.034845144],[642428.3012200525,4825262.94845786],[642428.2532319608,4825262.86626059],[642424.8577273242,4825257.638602897],[642424.8072634789,4825257.567843213],[642424.7508462337,4825257.501732496],[642424.6889017384,4825257.440770114],[642424.6218978927,4825257.385416549],[642420.0988656366,4825253.968349947],[642412.5232886135,4825248.197610993],[642412.4996046739,4825248.180114598],[642401.6283862833,4825240.393824484],[642401.6165070954,4825240.385446216],[642392.3358762076,4825233.940408754],[642378.5920667031,4825223.834307015],[642378.5608834828,4825223.812281919],[642368.1764079983,4825216.770813044],[642358.6055068227,4825210.224406612],[642358.5809666986,4825210.208146368],[642342.9818222485,4825200.199435798],[642342.9412871219,4825200.174765366],[642326.3550325837,4825190.6118308315],[642326.3104770316,4825190.587625883],[642307.1356070641,4825180.792068138],[642307.0657100978,4825180.759692597],[642295.365132241,4825175.878245],[642295.2826010671,4825175.84799905],[642276.9826836764,4825170.040145895],[642274.4895000625,4825162.102321517],[642272.5814053172,4825162.701633157],[642275.2304309012,4825171.13562885],[642275.263513392,4825171.22561862],[642275.3050619536,4825171.3120265305],[642275.3546946467,4825171.394058268],[642275.4119552168,4825171.4709597435],[642275.4763172902,4825171.542024035],[642275.5471892112,4825171.606597874],[642275.6239194821,4825171.664087661],[642275.7058027512,4825171.713964911],[642275.7920862978,4825171.755771126],[642275.8819769508,4825171.789121995],[642294.635667546,4825177.740989359],[642306.2600726758,4825182.590657912],[642325.3780334021,4825192.357143348],[642341.9217567687,4825201.895556203],[642357.4885366835,4825211.883501066],[642367.0489549716,4825218.422737301],[642367.0522943313,4825218.425011504],[642377.4226398119,4825225.456899155],[642391.1619612004,4825235.559700692],[642391.183960269,4825235.575423279],[642400.4697269342,4825242.024027338],[642411.3230654019,4825249.79751132],[642418.8885132249,4825255.5605342975],[642418.891686004,4825255.562941211],[642423.2761561953,4825258.8753267545],[642426.4438137425,4825263.7521951785],[642426.8797184117,4825268.098348206],[642426.8982574964,4825268.214210781],[642426.9302404419,4825268.327104205],[642430.3568970617,4825278.177688104],[642430.3673130102,4825278.206226231],[642434.003157907,4825287.7168046],[642434.0455800203,4825287.81244416],[642435.6402352831,4825290.953106267],[642437.6567646861,4825301.738420182],[642438.5041991735,4825307.350335323],[642438.5195281305,4825307.42987501],[642440.6004417724,4825316.281349787],[642443.5088390098,4825335.00540639],[642443.528326212,4825335.100295577],[642443.5569030676,4825335.192854058],[642443.5943014197,4825335.282213289],[642443.640170333,4825335.36753475],[642443.6940793869,4825335.4480178105],[642443.7555227147,4825335.522907238],[642443.82392375,4825335.591500294],[642443.8986406373,4825335.653153321],[642443.9789722551,4825335.707287785],[642444.064164795,4825335.753395703],[642444.153418835,4825335.791044412],[642444.245896841,4825335.819880628],[642444.3407310265,4825335.839633761],[642444.4370314949,4825335.850118452],[642444.5338945908,4825335.851236315],[642444.630411379,4825335.842976863],[642458.9215327464,4825333.919025591],[642469.1770951985,4825348.837670296],[642469.1822602807,4825348.845111462],[642476.0437703978,4825358.63530809],[642476.0789565524,4825358.682494379],[642478.6047355105,4825361.86947849],[642478.6641387582,4825361.937830849],[642478.7294819483,4825362.000529],[642478.8002292153,4825362.057058769],[642482.3249049694,4825364.620800646],[642482.4492311273,4825364.697991084],[642485.87711583,4825366.493006178],[642485.9315054272,4825366.519423812],[642491.7256548464,4825369.120243432],[642491.7630309482,4825369.136116724],[642500.2607126442,4825372.543053574],[642510.3991404019,4825377.073038702],[642510.4674303031,4825377.100582151],[642516.8094656442,4825379.390833225],[642516.905678316,4825379.420198379],[642525.0757549427,4825381.470823266],[642535.4126950395,4825384.131868532],[642549.4562416552,4825388.045194939],[642561.9404719846,4825407.231738729],[642562.0028078525,4825407.3172710305],[642562.0738344159,4825407.3957360685],[642562.152756068,4825407.466254916],[642562.2386887653,4825407.528037652],[642562.3306699296,4825407.580392216],[642562.427669231,4825407.622732156],[642580.9992737429,4825414.5840025125],[642581.0931077893,4825414.613992921],[642581.1894373153,4825414.6346054245],[642581.2873275148,4825414.645639993],[642581.3858284366,4825414.646989546],[642581.4839842027,4825414.638640985],[642581.5808422847,4825414.620675328],[642581.6754627475,4825414.593266919],[642581.7669273699,4825414.5566817345],[642581.8543485563,4825414.511274807],[642581.9368779493,4825414.457486778],[642582.0137146629,4825414.395839618],[642582.084113054,4825414.326931567],[642582.1473899591,4825414.251431328],[642582.2029313229,4825414.170071572],[642582.250198158,4825414.083641837],[642582.2887317749,4825413.992980857],[642586.6015610086,4825402.273381512],[642586.630256008,4825402.182169168],[642586.6501081189,4825402.088633142],[642586.6609358317,4825401.993628642],[642586.6626401477,4825401.898024301],[642586.655205484,4825401.8026942415],[642586.6386998167,4825401.708510073],[642586.6132740583,4825401.616332931],[642586.5791606791,4825401.527005602],[642586.5366715811,4825401.441344811],[642586.486195246,4825401.360133764],[642586.4281931836,4825401.284114981],[642586.3631957124,4825401.21398351],[642586.2917971105,4825401.150380569],[642586.2146501817,4825401.093887684],[642586.1324602881,4825401.0450213775],[642586.0459788995,4825401.004228437],[642552.0978898483,4825386.933631974],[642562.5757708868,4825379.130445416],[642569.3241000125,4825374.233035412],[642569.3532905756,4825374.211025486],[642583.8561302996,4825362.854062894],[642605.879877192,4825373.9378731875],[642606.7789696145,4825372.151359036],[642585.610419586,4825361.49794053],[642604.7345078047,4825346.790186441],[642604.7534816656,4825346.775225965],[642607.7539484475,4825344.350068257],[642607.8429114034,4825344.268832175],[642607.9214597967,4825344.177487452],[642608.8937901858,4825342.898309465],[642611.7473970108,4825347.699762691],[642611.8018879036,4825347.781934548],[642611.8642060208,4825347.858340857],[642611.9337455387,4825347.928238832],[642612.0098304308,4825347.990948966],[642612.0917210402,4825348.045861621],[642612.1786212693,4825348.092442967],[642612.2696863203,4825348.130240164],[642612.3640309067,4825348.158885768],[642612.4607378604,4825348.178101301],[642612.5588670474,4825348.187699961],[642612.6574645077,4825348.187588433],[642612.7555717288,4825348.177767803],[642612.8522349641,4825348.158333541],[642624.0781280784,4825345.319081885],[642624.1748136618,4825345.289351071],[642624.2680010747,4825345.250004794],[642624.3567368212,4825345.201445649],[642624.4401129553,4825345.144170492],[642624.5172763702,4825345.078765364],[642624.5874375281,4825345.005899493],[642624.6498785386,4825344.9263184415],[642624.7039605035,4825344.840836489],[642624.7491300551,4825344.750328285],[642624.7849250174,4825344.655719913],[642624.8109791356,4825344.557979408],[642625.7820231038,4825340.000086366],[642634.4670834878,4825336.11628196],[642640.7594731164,4825342.76754947],[642642.2123390564,4825341.393074822],[642635.4326238406,4825334.226687773],[642635.3642385126,4825334.160948802],[642635.2899319628,4825334.101985237],[642635.2103728142,4825334.05032764],[642635.126276953,4825334.006440837],[642635.0384010879,4825333.970719727],[642634.9475359402,4825333.943485734],[642634.8544991297,4825333.924983916],[642634.7601278169,4825333.915380754],[642634.6652711706,4825333.914762659],[642634.5707827264,4825333.923135193],[642634.4775127072,4825333.940423018],[642634.386300372,4825333.966470577],[642634.2979664643,4825334.001043487],[642624.5016434784,4825338.381784747],[642624.4177280705,4825338.424150187],[642624.3381615183,4825338.474208052],[642624.2636469215,4825338.531516001],[642624.1948427378,4825338.595567624],[642624.1323569638,4825338.665796921],[642624.0767417633,4825338.741583303],[642624.0284885867,4825338.822257072],[642623.9880238295,4825338.907105345],[642623.9557050635,4825338.995378351],[642623.9318178777,4825339.086296053],[642622.9845266098,4825343.532698502],[642613.0853770674,4825346.0363903195],[642610.1076689085,4825341.026125303],[642610.8004082481,4825339.301835877],[642613.6227931285,4825336.0053095985],[642616.1210887737,4825334.110162264],[642620.725096114,4825331.485087009],[642629.489681205,4825326.936319447],[642629.5829603024,4825326.881301453],[642632.734676095,4825324.784373904],[642639.1369833817,4825321.605264158],[642639.1633174055,4825321.591697941],[642645.1861303258,4825318.375227834],[642645.2102017036,4825318.361944104],[642652.2964183452,4825314.323371512],[642657.5153730123,4825311.913853063],[642665.3244179366,4825310.276043075],[642672.4808027045,4825309.032125017],[642680.9180702422,4825307.623204198],[642681.0016209249,4825307.605555672],[642681.0833612651,4825307.580843249],[642681.1626951968,4825307.549247137],[642685.1352179237,4825305.767016626],[642685.2519157719,4825305.705097203],[642689.9424536552,4825302.803907198],[642701.1804900848,4825297.0170361865],[642701.2640401983,4825296.9687775755],[642705.5072304289,4825294.236747951],[642705.5921789474,4825294.175533077],[642705.6702609761,4825294.105771279],[642709.9125612271,4825289.895931787],[642709.9568203446,4825289.849085621],[642712.5498198733,4825286.920999667],[642720.0454184769,4825279.173079315],[642723.9483760545,4825276.538201015],[642727.6592831301,4825276.011883745],[642734.2231317767,4825276.151476762],[642740.0565092942,4825277.049656033],[642743.5489863723,4825279.331726674],[642743.5769228644,4825279.349329843],[642748.0492264058,4825282.065283881],[642758.8921730856,4825288.734420279],[642760.4340290453,4825290.933077957],[642762.0884017445,4825307.785373465],[642762.1032770486,4825307.884986484],[642762.1280969563,4825307.982597962],[642762.1626096938,4825308.077217723],[642762.2064651627,4825308.167885944],[642762.2592184921,4825308.253682882],[642762.3203345505,4825308.333738211],[642762.389193375,4825308.407239848],[642762.4650964598,4825308.473442189],[642762.5472738418,4825308.531673677],[642762.6348919113,4825308.581343611],[642762.7270618681,4825308.621948135],[642762.8228487376,4825308.653075357],[642762.921280855,4825308.674409522],[642763.0213597221,4825308.685734215],[642763.1220701362,4825308.686934558],[642763.2223904879,4825308.677998375],[642763.3213031247,4825308.659016315],[642769.4206309862,4825307.166523531],[642769.5123612368,4825307.139366348],[642769.6010766913,4825307.1035680305],[642769.6859654302,4825307.059456201],[642769.7662505559,4825307.00743457],[642769.8411973027,4825306.947979238],[642769.9101197618,4825306.881634335],[642769.9723871581,4825306.809007049],[642770.0274296234,4825306.730762059],[642770.0747434117,4825306.64761546],[642770.1138955096,4825306.560328206],[642770.1445275991,4825306.469699145],[642770.1663593365,4825306.3765577115],[642770.179190919,4825306.28175633],[642770.1829049126,4825306.186162619],[642770.1774673269,4825306.090651446],[642770.0850437817,4825305.211312338],[642775.9105661545,4825303.631149016],[642775.3869889037,4825301.70089855],[642768.7397339557,4825303.503955476],[642768.6439800254,4825303.535183862],[642768.5518530167,4825303.575885723],[642768.4642874682,4825303.625648178],[642768.3821716474,4825303.683966436],[642768.3063385393,4825303.750248915],[642768.2375573971,4825303.823823242],[642768.1765259384,4825303.9039430795],[642768.1238632683,4825303.989795689],[642768.0801035982,4825304.080510178],[642768.0456908272,4825304.175166337],[642768.0209740397,4825304.272803971],[642768.0062039632,4825304.372432642],[642768.0015304259,4825304.473041713],[642768.0070008363,4825304.573610605],[642768.0971560687,4825305.431368456],[642763.9661592613,4825306.442214743],[642762.5987369615,4825292.512944337],[642765.0146011102,4825294.040696842],[642765.1044019387,4825294.0912055],[642765.1989231653,4825294.132206124],[642765.2971614171,4825294.163263478],[642765.3980738645,4825294.18404788],[642765.5005892902,4825294.194338696],[642765.6036194607,4825294.194026686],[642768.5317462217,4825294.034090412],[642768.6231184148,4825294.024876428],[642768.7132600225,4825294.007318929],[642768.8014108106,4825293.981565993],[642768.8868273352,4825293.947834813],[642772.6294203268,4825292.267338587],[642776.5269032363,4825291.7403213475],[642778.3496538219,4825292.038704408],[642780.6827735312,4825294.160480979],[642780.7412070641,4825294.209677968],[642785.2157557748,4825297.6938002445],[642785.2860105231,4825297.743792792],[642795.5426044796,4825304.395417924],[642795.6275163854,4825304.444738747],[642795.7168562033,4825304.4854937745],[642795.8097624673,4825304.517290023],[642795.9053393219,4825304.5398208955],[642796.00266516,4825304.5528691355],[642799.3495838699,4825304.835195306],[642799.4501582673,4825304.8385977885],[642799.5505653815,4825304.831874866],[642802.5879265548,4825304.474275535],[642802.678455116,4825304.459379562],[642802.7672374678,4825304.4362494005],[642802.8535263018,4825304.405079744],[642805.7634858858,4825303.200316916],[642805.852652252,4825303.158135406],[642805.9372290914,4825303.107374407],[642806.016393478,4825303.048527823],[642816.0871207801,4825294.760982635],[642820.858410829,4825291.059261193],[642825.5168024407,4825299.392217888],[642826.9732113553,4825302.115136556],[642827.0264804792,4825302.2034522975],[642827.0885627976,4825302.285811605],[642829.9802492541,4825305.736279537],[642830.0451488972,4825305.806592946],[642830.1164717831,4825305.870381543],[642830.193564884,4825305.927061284],[642830.27572234,4825305.976113212],[642830.3621919225,4825306.01708821],[642830.4521819213,4825306.049611115],[642830.5448683935,4825306.073384148],[642830.6394027071,4825306.088189645],[642855.6521469174,4825308.787249651],[642855.7531276066,4825308.793001428],[642855.8541727859,4825308.788523227],[642855.9542487445,4825308.773860859],[642856.0523316873,4825308.749164323],[642856.1474182077,4825308.71468627],[642856.2385355533,4825308.670779415],[642856.3247515771,4825308.617892935],[642856.4051842735,4825308.556567867],[642856.4790108011,4825308.487431579],[642856.5454759011,4825308.411191347],[642856.6038996236,4825308.328627123],[642856.653684283,4825308.240583552],[642856.6943205734,4825308.147961339],[642856.7253927779,4825308.051708024],[642858.0331605152,4825303.168376722],[642858.0451102597,4825303.118711634],[642859.9651806536,4825294.135632124],[642861.4353839592,4825289.3438708875],[642863.3492801478,4825285.716273855],[642865.7644573931,4825283.314156989],[642868.803061074,4825282.001989771],[642872.0907325175,4825282.0427989],[642875.1976037279,4825283.788716818],[642875.2777921311,4825283.82915323],[642875.3612849697,4825283.862232367],[642878.6897700769,4825285.010882273],[642878.7789669763,4825285.03709223],[642878.8702124623,4825285.054905427],[642878.9627178959,4825285.064167903],[642879.0556837479,4825285.064799602],[642879.1483065101,4825285.056795065],[642879.2397856393,4825285.040223475],[642879.3293304772,4825285.015228061],[642882.7141252594,4825283.898385137],[642882.8019133552,4825283.864765863],[642882.8861566606,4825283.823051706],[642886.0666225865,4825282.057408231],[642886.1419580096,4825282.011114298],[642886.212909499,4825281.958346502],[642886.2789223164,4825281.8995174095],[642886.3394803371,4825281.83508698],[642886.3941100847,4825281.765558965],[642887.8762767271,4825279.697089722],[642887.9268999101,4825279.61900789],[642887.9700457688,4825279.536558427],[642888.0053406827,4825279.450455301],[642888.0324790162,4825279.361444123],[642888.0512257656,4825279.2702956805],[642888.5276392745,4825276.247069551],[642888.5376699778,4825276.15708449],[642888.5395204555,4825276.066561002],[642888.4197385588,4825271.246883109],[642888.863444048,4825268.115785347],[642890.1477460464,4825266.8863318],[642892.945319712,4825265.619659062],[642893.0083249232,4825265.58841733],[642898.4027107443,4825262.672894672],[642902.5035254213,4825262.145709901],[642905.937930546,4825262.325816295],[642911.4058996782,4825263.081773633],[642911.501221933,4825263.090328798],[642911.5969254721,4825263.089732379],[642911.6921336967,4825263.079989838],[642917.7550159316,4825262.164637189],[642917.8614215,4825262.142601689],[642923.654662934,4825260.610393848],[642923.7397495414,4825260.5837793],[642923.8221276321,4825260.549692423],[642923.9011424596,4825260.508404144],[642926.8543272896,4825258.793495226],[642926.9441333187,4825258.734681907],[642927.0271173418,4825258.66658065],[642931.1223617845,4825254.920414483],[642931.2134109923,4825254.82538981],[642936.0960969693,4825249.00708215],[642936.1030952999,4825248.998649392],[642942.085597584,4825241.709021611],[642946.8018804687,4825236.991958094],[642954.1031328904,4825233.25550239],[642954.1532482853,4825233.228020702],[642961.8113240157,4825228.739260929],[642968.034507715,4825225.550352852],[642969.5045536389,4825229.982509076],[642969.5405450466,4825230.075292244],[642969.5855805035,4825230.164038541],[642969.639213974,4825230.247869016],[642969.7009142671,4825230.325953403],[642969.7700702971,4825230.397518347],[642969.8459971357,4825230.461855061],[642969.9279427964,4825230.51832635],[642970.0150956812,4825230.566372914],[642970.1065926193,4825230.605518897],[642970.2015274162,4825230.635376593],[642970.2989598284,4825230.655650288],[642970.397924876,4825230.66613919],[642970.497442399,4825230.666739415],[642970.5965267665,4825230.65744502],[642970.6941966373,4825230.638348056],[642970.789484679,4825230.609637661],[642996.2167624881,4825221.545483832],[643006.4936969652,4825218.227881473],[643012.4740455548,4825217.27096067],[643013.296772647,4825217.463429193],[643013.3060256704,4825218.210187704],[643010.9495740344,4825226.32765929],[643010.9266724546,4825226.424210086],[643010.9134525349,4825226.522555255],[643010.9100444461,4825226.621726438],[643010.916481746,4825226.720747142],[643010.9327010495,4825226.8186423555],[643010.9585426524,4825226.9144481495],[643010.9937521047,4825227.007221169],[643011.037982715,4825227.09604792],[643011.0907989647,4825227.180053767],[643011.1516807969,4825227.258411543],[643011.220028736,4825227.330349696],[643011.2951697917,4825227.395159883],[643011.3763640843,4825227.452203949],[643011.4628121314,4825227.500920206],[643011.5536627187,4825227.540828969],[643011.6480212826,4825227.571537275],[643018.75722157,4825229.500827367],[643019.2810343301,4825227.570640798],[643013.1539968245,4825225.907889394],[643015.268142915,4825218.625108557],[643015.2908683182,4825218.529505783],[643015.3041007816,4825218.432134143],[643015.3077125282,4825218.333933891],[643015.2869175705,4825216.655691976],[643015.2812442522,4825216.560997441],[643015.266623439,4825216.467266587],[643015.243186707,4825216.375342918],[643015.2111449691,4825216.286053678],[643015.1707865766,4825216.200202403],[643015.1224747242,4825216.118561688],[643015.0666441822,4825216.041866239],[643015.003797383,4825215.970806256],[643014.9344999002,4825215.906021225],[643014.8593753584,4825215.848094163],[643014.7790998217,4825215.797546369],[643014.694395709,4825215.754832734],[643014.6060252928,4825215.72033765],[643014.51478384,4825215.694371544],[643012.7380796534,4825215.278729913],[643012.6425898395,4825215.26123055],[643012.545853163,4825215.253072876],[643012.4487813216,4825215.254333771],[643012.3522891721,4825215.265001354],[643006.1017136207,4825216.265161409],[643006.0264218545,4825216.280193816],[643005.9525053077,4825216.300958388],[642995.5879867551,4825219.646834658],[642995.5594187705,4825219.656535224],[642971.0809901599,4825228.382449342],[642969.8076409634,4825224.543329437],[642978.8554325147,4825218.611826526],[642984.0855835153,4825215.650980956],[642984.1107763806,4825215.636229306],[642994.3359631572,4825209.446702161],[642998.2689050288,4825207.141875387],[643003.4983876037,4825204.279677624],[643011.9664716336,4825199.991805064],[643034.5636242018,4825188.787260955],[643056.5333069895,4825178.01190968],[643056.5470356535,4825178.005045052],[643070.0614300075,4825171.117402637],[643083.3601792551,4825164.491822339],[643083.3687813779,4825164.487484823],[643093.5057646164,4825159.314640305],[643093.5331322056,4825159.300136261],[643097.781009026,4825156.963911828],[643106.6480422483,4825152.386339432],[643113.8399811802,4825149.654898985],[643120.7817471804,4825147.229760587],[643140.0067169677,4825141.848834574],[643140.1100362897,4825141.813733998],[643159.3833929945,4825134.069138847],[643159.4244832547,4825134.051551091],[643171.486938411,4825128.566368491],[643181.1891581443,4825124.264165504],[643181.2567192694,4825124.231113152],[643181.3216050982,4825124.193076421],[643190.6581234155,4825118.237160813],[643194.5865076818,4825115.956996841],[643200.8298180434,4825112.426353242],[643200.854607564,4825112.4118609335],[643208.9742225836,4825107.507257023],[643209.0476762179,4825107.458338254],[643209.1165308135,4825107.403133843],[643214.6330989903,4825102.565219528],[643214.6948839196,4825102.506178542],[643214.7514022676,4825102.442077904],[643214.8022412689,4825102.373385754],[643217.0381620672,4825099.065494167],[643217.0973691712,4825098.965918586],[643217.1446627011,4825098.860163683],[643218.4031591549,4825095.542527467],[643218.4298341074,4825095.4620807],[643218.4496011954,4825095.37966409],[643219.0572830348,4825092.27036604],[643219.0720603885,4825092.165544742],[643219.075674347,4825092.059748646],[643219.0680844125,4825091.954163289],[643219.049375637,4825091.849971848],[643219.0197576687,4825091.748341879],[643217.9231767715,4825088.613789206],[643217.8861276055,4825088.522564319],[643217.8402868019,4825088.435425111],[643217.7860987697,4825088.353216364],[643217.7240888416,4825088.276735062],[643217.6548581801,4825088.20672266],[643217.5790779502,4825088.143857904],[643217.4974828126,4825088.088750242],[643217.4108638011,4825088.041933924],[643214.931490246,4825086.855680488],[643214.811618476,4825086.807575257],[643207.4942152349,4825084.406967636],[643207.4481514433,4825084.393073723],[643195.1665946522,4825081.008773809],[643195.163557269,4825081.007941972],[643187.4117182039,4825078.898092257],[643187.3349563603,4825078.880414966],[643177.8225858473,4825077.081107775],[643170.1575658745,4825074.148709149],[643172.1527047295,4825069.68726198],[643172.1702910172,4825069.645412372],[643174.9089340058,4825062.690411734],[643176.904636718,4825057.89115698],[643179.2759911657,4825052.355605747],[643184.018497263,4825049.483130846],[643191.7021139887,4825045.609665263],[643191.7309874917,4825045.594514202],[643198.1892364935,4825042.070154805],[643206.7267925052,4825037.612692967],[643215.593510406,4825033.005174949],[643224.3650731778,4825028.580655797],[643232.4864007949,4825025.272794383],[643241.0517671285,4825022.471006086],[643244.0631150859,4825021.986413391],[643247.8788894432,4825022.004237424],[643251.0056372595,4825022.65751355],[643254.9467747036,4825023.755227731],[643256.6849109462,4825024.8044206565],[643261.9783598575,4825029.791721357],[643264.801267441,4825032.805269618],[643267.8757786696,4825036.572499053],[643268.0,4825036.739310737],[643268.0,4825033.561555418],[643266.3291607775,4825031.514259365],[643266.284235527,4825031.462894419],[643263.4166442849,4825028.401644859],[643263.3725759689,4825028.357449347],[643258.0691634328,4825023.36076127],[643250.5444615684,4825011.569940908],[643248.8585293714,4825012.645874282],[643254.5534700819,4825021.569553134],[643251.5106211683,4825020.722036788],[643251.4468224883,4825020.70650493],[643248.1890648227,4825020.025856718],[643248.0896746923,4825020.010261078],[643247.9892205236,4825020.004730976],[643243.9901604196,4825019.98605079],[643243.908125114,4825019.989036983],[643243.8266111434,4825019.998741687],[643240.6565559758,4825020.508873893],[643240.5798251163,4825020.524324167],[643240.504537677,4825020.545728307],[643231.8310183856,4825023.382894156],[643231.7646989245,4825023.407212602],[643223.5733974425,4825026.743574757],[643223.5002481232,4825026.776855686],[643214.6873946167,4825031.222202556],[643214.6766572949,4825031.2277001245],[643205.8037292028,4825035.838445218],[643205.8020140379,4825035.839338597],[643197.2554561502,4825040.301500318],[643197.2392459895,4825040.310154104],[643190.7872448881,4825043.831103932],[643183.0835011035,4825047.71471597],[643183.0155874473,4825047.752327306],[643177.9651728609,4825050.811298415],[643177.8795130885,4825050.869447306],[643177.8003246086,4825050.936141195],[643177.7284562335,4825051.010665196],[643177.6646783126,4825051.092220495],[643177.6096744745,4825051.179932912],[643177.5640342992,4825051.272862264],[643175.0641261329,4825057.108501785],[643175.0599837467,4825057.118315609],[643173.0585954661,4825061.931242987],[643173.0514810851,4825061.948819834],[643170.3176823192,4825068.891518186],[643167.9004275185,4825074.296883612],[643168.8133046223,4825074.7051180955],[643168.4559911479,4825075.6391026145],[643177.1915127694,4825078.981041929],[643177.2761555624,4825079.009164836],[643177.3629675324,4825079.02963389],[643186.9245096268,4825080.838242104],[643194.6367969962,4825082.937326874],[643206.8936364931,4825086.314815701]],[[642584.3929058051,4825402.4840565035],[642580.7592286647,4825412.358140992],[642563.4375206113,4825405.865374429],[642552.6865390075,4825389.34259538],[642584.3929058051,4825402.4840565035]]],[[[642813.1076887532,4825245.4640270565],[642813.0158882382,4825245.41703385],[642777.3782489767,4825229.4364087125],[642777.2890048261,4825229.401424818],[642777.1968211149,4825229.3751464095],[642777.1025448628,4825229.357814946],[642777.007042317,4825229.349589676],[642776.9111909923,4825229.350546174],[642776.8158716083,4825229.360675653],[642776.7219599966,4825229.379885039],[642776.6303190539,4825229.407997829],[642776.5417908131,4825229.444755712],[642776.4571887063,4825229.48982094],[642776.3772900907,4825229.542779438],[642776.3028291061,4825229.603144603],[642776.2344899292,4825229.670361775],[642776.172900487,4825229.743813337],[642776.1186266874,4825229.822824387],[642776.0721672195,4825229.906668941],[642769.9082286357,4825242.409014802],[642769.8690560288,4825242.499451751],[642769.8389759684,4825242.593305493],[642769.8182806321,4825242.689664395],[642769.8071710408,4825242.787592489],[642769.8057551055,4825242.88613857],[642769.8140465796,4825242.984345424],[642769.8319649255,4825243.081259137],[642769.8593360961,4825243.175938353],[642769.895894226,4825243.26746342],[642769.9412842141,4825243.354945325],[642769.9950651721,4825243.437534329],[642770.0567147075,4825243.514428214],[642770.1256339977,4825243.584880086],[642770.2011536068,4825243.648205622],[642770.2825399872,4825243.703789719],[642770.3690026058,4825243.751092472],[642785.1633638229,4825250.921455677],[642786.0356487838,4825249.121700429],[642772.1472532636,4825242.390430404],[642777.4396575132,4825231.655821765],[642811.9057485126,4825247.111101397],[642817.6536812104,4825256.916626575],[642819.3790874212,4825255.905205096],[642813.469426037,4825245.823783385],[642813.4127539943,4825245.737620889],[642813.3475092504,4825245.657753378],[642813.2743857284,4825245.585030297],[642813.1941611479,4825245.520225108],[642813.1076887532,4825245.4640270565]]]]}},{"type":"Feature","properties":{"class":"path","widthMeters":1.5},"geometry":{"type":"MultiPolygon","coordinates":[[[[643249.5870495911,4825060.828517716],[643263.1643533217,4825054.207363674],[643263.2289723373,4825054.171817027],[643263.2897877003,4825054.130095653],[643263.3462113467,4825054.082602985],[643263.3976976793,4825054.029798261],[643263.4437488433,4825053.9721920835],[643263.4839195395,4825053.910341485],[643263.5178213312,4825053.84484454],[643263.5451263995,4825053.77633458],[643266.7763145935,4825044.345171836],[643266.7958626567,4825044.27806674],[643266.8090789368,4825044.209433289],[643266.8158486529,4825044.1398675535],[643266.8161130109,4825044.0699737],[643266.3037333677,4825032.114426504],[643264.8051090189,4825032.178653142],[643265.3114306908,4825043.992847413],[643262.2270150243,4825052.995611836],[643248.9290514473,4825059.480541911],[643248.9280185797,4825059.481046583],[643237.096972877,4825065.273078036],[643237.0293373297,4825065.310632237],[643236.965930134,4825065.354953934],[643236.9074259297,4825065.405571554],[643236.8544471896,4825065.461946534],[643236.8075575966,4825065.523479057],[643236.7672560465,4825065.589514429],[643236.7339713395,4825065.659350048],[643236.7080576182,4825065.732242876],[643236.6897905994,4825065.807417348],[643235.8658008708,4825070.167612256],[643229.7560341955,4825068.510554527],[643229.666666932,4825068.492069535],[643229.5757161784,4825068.484575329],[643219.6099596992,4825068.271915145],[643219.5427213982,4825068.273496688],[643219.4758951378,4825068.28109546],[643219.4100183189,4825068.294650354],[643219.3456207073,4825068.314052365],[643208.0569460137,4825072.275394515],[643197.8360980245,4825073.320463477],[643190.5767004612,4825071.715808812],[643186.7309296161,4825069.204714868],[643179.1737803895,4825051.373968636],[643177.7927014577,4825051.959306986],[643185.4390186116,4825070.000440844],[643185.4711754876,4825070.066982423],[643185.509725225,4825070.130036083],[643185.554293508,4825070.188989577],[643185.6044475804,4825070.24327047],[643185.6597004491,4825070.292351698],[643185.7195156113,4825070.335756682],[643189.8711812693,4825073.046584474],[643189.9294320395,4825073.080975942],[643189.9905446275,4825073.1099789925],[643190.0540218838,4825073.133357685],[643190.1193474223,4825073.150921835],[643197.630317422,4825074.811185368],[643197.7090650551,4825074.82424184],[643197.78875432,4825074.8288551085],[643197.8684825444,4825074.824972918],[643208.2978216553,4825073.758585999],[643208.384979092,4825073.744449657],[643208.4698711623,4825073.720168156],[643219.7139488879,4825069.774475659],[643229.4519664259,4825069.982276102],[643236.164219097,4825071.802736809],[643246.3635903123,4825077.597570482],[643247.104578942,4825076.293371168],[643237.2886432114,4825070.716388656],[643238.093940039,4825066.455108441],[643249.5870495911,4825060.828517716]]],[[[642622.3334174154,4825310.089998283],[642622.7737388273,4825313.321610364],[642622.7894295418,4825313.402912017],[642622.8139868556,4825313.481988535],[642626.7118914897,4825323.953818961],[642626.7489999847,4825324.037498522],[642626.7960262593,4825324.11603411],[642628.4102807397,4825326.4725859985],[642629.6477821197,4825325.624888921],[642628.0855500159,4825323.344281334],[642624.2487755722,4825313.036678885],[642623.8196843911,4825309.887487846],[642622.3334174154,4825310.089998283]]]]}},{"type":"Feature","properties":{"class":"residential","widthMeters":5},"geometry":{"type":"MultiPolygon","coordinates":[[[[642095.2197278626,4824754.624735649],[642094.9780296478,4824754.690606611],[642094.7441372299,4824754.7803359125],[642037.945197189,4824779.903250461],[642005.9566442898,4824792.663893868],[642001.9930238068,4824772.275786721],[642001.9839163696,4824772.231117858],[641998.2352600179,4824754.664986151],[641995.1873434143,4824740.258141744],[641995.160021962,4824740.142616495],[641990.9458236332,4824724.04048068],[641988.2276028821,4824710.770905599],[641988.2256457678,4824710.761444554],[641986.1478941063,4824700.8141482435],[641984.1918924451,4824688.205891567],[641983.0433508386,4824676.496095094],[641982.2894644745,4824668.0],[641977.2698190821,4824668.0],[641978.0639434799,4824676.949566834],[641978.066098694,4824676.972640318],[641979.2226231646,4824688.763824974],[641979.2402355223,4824688.903043334],[641981.2169657887,4824701.644915221],[641981.2402284147,4824701.772816748],[641983.3302869675,4824711.779032658],[641986.0610684761,4824725.109925759],[641986.0916691595,4824725.241201325],[641990.3079054651,4824741.351124097],[641993.3439891754,4824755.702036969],[641993.3449050265,4824755.706347237],[641997.0892638445,4824773.252340783],[642001.6122116053,4824796.517520677],[642002.8711292006,4824805.467873617],[642004.2519907325,4824816.807504309],[642004.2684896811,4824816.921167723],[642005.9082753347,4824826.641536542],[642007.8829339583,4824840.03558148],[642007.8860121128,4824840.055882377],[642010.6533443057,4824857.814523599],[642010.6787177612,4824857.951974447],[642013.4356530297,4824870.854816671],[642013.4705697108,4824870.99756156],[642017.9957768149,4824887.393393518],[642018.042749398,4824887.5447138185],[642023.6234705979,4824903.6962161865],[642023.6671860664,4824903.813186403],[642028.0941196532,4824914.812555414],[642034.0521502692,4824929.822116615],[642034.0683248214,4824929.861865492],[642038.9434450131,4824941.553984233],[642038.9556648079,4824941.582782656],[642045.7720739587,4824957.371567841],[642045.7802764898,4824957.390355236],[642054.361599807,4824976.827634368],[642058.9356626157,4824974.808241038],[642050.3584790764,4824955.380338783],[642043.5523326687,4824939.615325094],[642038.6914901461,4824927.957448833],[642032.739180181,4824912.962299181],[642032.7347617634,4824912.951245059],[642028.3289246191,4824902.00429327],[642022.7944851292,4824885.986737595],[642018.3099224743,4824869.738169517],[642015.5829556299,4824856.975583704],[642012.8279689826,4824839.296166839],[642010.8510248369,4824825.886619279],[642010.8429274646,4824825.835384527],[642009.2083826481,4824816.1460824935],[642007.831659897,4824804.840439457],[642007.8256230999,4824804.794428285],[642006.827691337,4824797.699570352],[642039.8406141907,4824784.530292653],[642039.9255895814,4824784.494565198],[642096.5367181126,4824759.454722137],[642169.2282657862,4824743.508447277],[642168.1568963433,4824738.624579188],[642095.2197278626,4824754.624735649]]],[[[642253.7501176293,4824843.261496084],[642246.6170700341,4824863.434736109],[642246.5564459839,4824863.6316593755],[642229.9576423336,4824926.680341255],[642234.7928820169,4824927.953313056],[642251.3654345737,4824865.004342992],[642258.4906873138,4824844.8531478895],[642258.5390001382,4824844.701274094],[642265.3770031194,4824820.568253021],[642260.5663858879,4824819.205182278],[642253.7501176293,4824843.261496084]]],[[[641969.9565533177,4825008.415715335],[641965.9029750031,4825005.488514822],[641951.0,4825026.126109005],[641951.0,4825034.666692364],[641969.9565533177,4825008.415715335]]],[[[641951.0,4825121.1550375875],[641965.4395193511,4825116.858902658],[641965.5448224222,4825116.825018843],[641989.8266989961,4825108.414502502],[642004.0818907694,4825105.754170818],[642003.1646175937,4825100.839029932],[641988.7260741611,4825103.533579061],[641988.5445017887,4825103.574512897],[641988.3664781309,4825103.628842288],[641963.9606338019,4825112.082297353],[641951.0,4825115.938425125],[641951.0,4825121.1550375875]]],[[[642571.0832835312,4825267.106077069],[642556.616992733,4825267.785418808],[642464.2062619182,4825264.203009189],[642435.1172792574,4825262.803840857],[642428.0351287836,4825260.989203559],[642426.7940854615,4825265.832736513],[642434.1226090913,4825267.710501235],[642434.3709034846,4825267.760868829],[642434.6230206222,4825267.785847803],[642461.4912636615,4825269.078199455],[642460.8475975645,4825283.775478447],[642460.8472796602,4825283.986725594],[642462.6272866962,4825327.636015345],[642462.6470435432,4825327.863829702],[642462.6875336133,4825328.0888858475],[642462.7484181522,4825328.309300881],[642462.8291877784,4825328.523230733],[642462.9291667445,4825328.728885591],[642463.047518591,4825328.924544873],[642463.1832531445,4825329.108571624],[642470.0486231984,4825337.57660931],[642470.224839701,4825337.771979009],[642470.420612582,4825337.947747476],[642476.600420126,4825342.934540207],[642476.7821273591,4825343.068099134],[642476.9751307048,4825343.184740525],[642477.177859718,4825343.283515282],[642477.3886648169,4825343.363619688],[642477.6058307053,4825343.424401943],[642477.8275903304,4825343.465367467],[642479.0546675842,4825343.635227633],[642485.8072458584,4825344.600157397],[642486.5145507067,4825339.650438229],[642479.7565466703,4825338.684733134],[642479.7456920642,4825338.683206307],[642479.2004281709,4825338.607727265],[642473.766154149,4825334.222542453],[642467.5893493771,4825326.603810298],[642465.8474349455,4825283.88862648],[642466.4865544504,4825269.295163014],[642556.5303832775,4825272.785816921],[642556.744497528,4825272.784941286],[642573.6876611171,4825271.989284792],[642573.5703895375,4825269.492036832],[642574.1327278543,4825271.927971071],[642576.6009587013,4825271.3581770435],[642576.937057537,4825271.25522602],[642601.3487775235,4825261.8542170245],[642625.3828556751,4825255.246927348],[642652.8756825844,4825247.866790104],[642687.7068450323,4825244.260100042],[642731.5228125807,4825241.419817342],[642745.8435590041,4825243.691945248],[642756.9358770199,4825248.209728033],[642776.0510468589,4825259.793571483],[642785.2444321307,4825265.398638187],[642785.4929825267,4825265.531565849],[642790.3331953502,4825267.7790121455],[642790.5371496864,4825267.862986325],[642790.7477117509,4825267.928657103],[642793.9051685922,4825268.762510749],[642794.124526012,4825268.810020527],[642794.3472604277,4825268.8376653595],[642794.5715766049,4825268.845222428],[642797.9899726602,4825268.80684197],[642798.1794617445,4825268.797515385],[642801.5548386968,4825268.502662913],[642801.874632181,4825268.453715229],[642805.2352349728,4825267.714100649],[642805.4442820757,4825267.658510596],[642805.6477412396,4825267.585057796],[642805.8440892572,4825267.494292157],[642809.0708686698,4825265.829599098],[642809.3152643591,4825265.685393779],[642818.8719518749,4825259.288676433],[642819.0104596018,4825259.18895677],[642820.0454918703,4825258.388750533],[642820.0486209037,4825258.386327448],[642827.5078411067,4825252.600550935],[642827.6078320108,4825252.518769016],[642830.0340594648,4825250.42746512],[642842.518767365,4825239.705990814],[642890.9850919725,4825205.392628977],[642914.2113940411,4825190.324940572],[642921.0832891123,4825191.0567758605],[642926.0207882986,4825192.980711431],[642926.2129241467,4825193.046719504],[642933.3610937411,4825195.181953634],[642943.9096206541,4825198.930941944],[642944.0794891223,4825198.984578536],[642964.1552669125,4825204.545289466],[642967.4897712053,4825205.603273225],[642967.7223345623,4825205.6649159165],[642977.9205823578,4825207.848855605],[642978.1182829692,4825207.882960652],[642978.3180816735,4825207.901103522],[642985.5575846729,4825208.266446761],[642985.8030343463,4825208.266768975],[642990.785066338,4825208.028461453],[642990.9166160274,4825208.018684824],[642994.0986900057,4825207.697586489],[642994.3226896259,4825207.664679215],[642994.5427936143,4825207.611641939],[642994.7571968113,4825207.538909637],[642994.9641408116,4825207.447078819],[643101.0536027531,4825154.496390539],[643101.1044520746,4825154.4702806035],[643121.1150913995,4825143.904478267],[643136.7321468844,4825136.266241462],[643137.0163221202,4825136.103366892],[643143.9415966204,4825131.506553553],[643144.1848768545,4825131.322753749],[643144.4039727709,4825131.110705122],[643148.6395055741,4825126.478754024],[643148.7914529836,4825126.295825042],[643154.9362630016,4825118.137884595],[643155.0910746772,4825117.906606392],[643155.2192201955,4825117.6595537895],[643155.319111449,4825117.399788511],[643164.4306890516,4825089.093753644],[643164.4899524454,4825088.87656398],[643165.3111156182,4825085.22736395],[643165.3291623207,4825085.139899508],[643167.0519064887,4825075.9654123],[643164.5948487321,4825075.504036985],[643165.353081852,4825073.121793812],[643147.8590983301,4825067.553715014],[643143.6690009368,4825064.667551347],[643141.2364137742,4825062.623912767],[643138.020208496,4825066.452231407],[643140.5443144774,4825068.572755779],[643140.7342699469,4825068.717445313],[643145.3287339924,4825071.882139102],[643145.5377316868,4825072.01143045],[643145.7584138841,4825072.1195769105],[643145.9886480421,4825072.205533421],[643161.729748461,4825077.215695194],[643160.4232889166,4825084.173255464],[643159.6366674798,4825087.668954086],[643150.6888025426,4825115.466399044],[643144.869273196,4825123.192492072],[643140.9209823139,4825127.510317274],[643134.3879121243,4825131.846795806],[643118.8835716575,4825139.429904165],[643118.8146753325,4825139.46493103],[643098.7951340002,4825150.035433709],[642993.1410256111,4825202.76883113],[642990.4802686331,4825203.0373241445],[642985.6868732434,4825203.266608538],[642978.7709383109,4825202.917594238],[642968.8871051744,4825200.800985984],[642965.623278345,4825199.76542703],[642965.5345516049,4825199.739073052],[642945.5000567765,4825194.189796927],[642934.9751814547,4825190.449214486],[642934.8535099272,4825190.409449793],[642927.7414054304,4825188.284988691],[642922.5876189208,4825186.276775056],[642922.37821355,4825186.205676055],[642922.1633443107,4825186.153360786],[642921.9446925353,4825186.120238611],[642921.4369203983,4825186.06616247],[642941.960225038,4825174.09892019],[643116.7039877565,4825082.081077779],[643116.9599060108,4825081.926080201],[643117.1954748761,4825081.741619604],[643130.0996598781,4825070.3277456],[643130.2713147129,4825070.160586926],[643130.4261792294,4825069.977763552],[643130.5628309684,4825069.780954745],[643130.6800147586,4825069.571968229],[643130.7766542452,4825069.352723584],[643130.8518617764,4825069.125234613],[643131.8844047418,4825065.413871425],[643127.0673540424,4825064.073713764],[643126.233041613,4825067.072558888],[643114.1081487536,4825077.797141602],[642939.5827496671,4825169.699996503],[642939.488276322,4825169.7523826845],[642917.2690765955,4825182.708509929],[642919.2450561438,4825173.775449421],[642919.2825862605,4825173.562475683],[642919.3015705312,4825173.3470553495],[642919.3018669041,4825173.130800327],[642918.9321183873,4825164.310166879],[642922.6295060493,4825141.540669357],[642922.6324502787,4825141.52209678],[642926.6613356322,4825115.474248913],[642926.6871182052,4825115.226149492],[642926.6880493487,4825114.976715741],[642926.6641197931,4825114.728430742],[642926.6155677547,4825114.48376615],[642926.5428765635,4825114.24515757],[642926.4467698525,4825114.0149803255],[642926.3282043536,4825113.795525806],[642922.3473654117,4825107.232902669],[642918.0723847358,4825109.8260745155],[642921.5808808244,4825115.610015525],[642917.6926442364,4825140.74853058],[642913.955977167,4825163.759921148],[642913.9280848226,4825164.011863591],[642913.925848124,4825164.265335433],[642914.2925872324,4825173.014177146],[642911.3747571157,4825186.205180567],[642888.2213250471,4825201.225595736],[642888.1373604847,4825201.282519608],[642839.5341743681,4825235.692777146],[642839.349987324,4825235.836557735],[642826.7748114165,4825246.63572312],[642826.7713390694,4825246.638710593],[642824.3923156954,4825248.689326597],[642816.9857113742,4825254.434291374],[642816.0197954396,4825255.181062252],[642806.6521638554,4825261.451236027],[642803.8417587846,4825262.901121877],[642800.9582423404,4825263.535737433],[642797.8389164829,4825263.808222833],[642794.8542510853,4825263.841733527],[642792.2382720417,4825263.1508789025],[642787.7267246987,4825261.056041188],[642778.6509924623,4825255.522705745],[642778.6452485918,4825255.519214379],[642759.3578955139,4825243.8310274305],[642759.1850716458,4825243.735418322],[642759.005239606,4825243.653750527],[642747.4628051368,4825238.9526401125],[642747.1915913152,4825238.85991899],[642746.9115469886,4825238.798850842],[642732.0310078033,4825236.437906284],[642731.754986687,4825236.409702019],[642731.4775401079,4825236.412257997],[642687.3354440507,4825239.273681327],[642687.2396694185,4825239.2817411525],[642652.1624915975,4825242.913905564],[642651.9657267499,4825242.94222608],[642651.7718341517,4825242.986090842],[642624.079275955,4825250.419843682],[642624.0647290468,4825250.42379569],[642599.903585481,4825257.066017349],[642599.6678454127,4825257.143600991],[642576.0881362866,4825266.224200707],[642576.6652908494,4825159.728281137],[642571.6653642751,4825159.701184038],[642571.0832835312,4825267.106077069]]],[[[643214.4104411463,4824959.662014927],[643214.293774302,4824959.524871767],[643205.648197792,4824950.073772104],[643205.2951556739,4824949.687704917],[643219.7837227772,4824945.043242258],[643230.1632462898,4824944.34030898],[643250.7305559121,4824943.704039231],[643268.0,4824943.224657029],[643268.0,4824938.222730997],[643250.5878483414,4824938.706074616],[643250.5799161242,4824938.706307407],[643229.9627900138,4824939.344118277],[643229.8711721988,4824939.348636215],[643219.1418423489,4824940.075259455],[643218.8412784357,4824940.114024928],[643218.5476134254,4824940.188873372],[643201.5586163412,4824945.634875175],[643184.6779005578,4824927.688301492],[643147.4587423264,4824886.239589249],[643142.751249203,4824880.276013557],[643138.0786134442,4824872.345020288],[643128.0306294874,4824853.922018196],[643114.2433032002,4824817.981779679],[643114.1407519479,4824817.750257348],[643114.0153065812,4824817.530296422],[643101.4731760346,4824797.91821779],[643097.2608831467,4824800.612023394],[643109.6660622489,4824820.009951607],[643123.4219781256,4824855.868310751],[643123.5613358689,4824856.169936486],[643133.7088580609,4824874.775442163],[643133.7496801935,4824874.8474290315],[643138.529633155,4824882.960574742],[643138.7212945413,4824883.240533119],[643140.5229274719,4824885.522888944],[643138.2127218352,4824885.60269979],[643133.339731063,4824885.335943952],[643131.4867380398,4824885.229874697],[643131.2178107366,4824885.228968948],[643122.8623150216,4824885.650809259],[643122.7438895392,4824885.659612165],[643117.2944364055,4824886.195094704],[643112.8628762021,4824885.852719719],[643106.6198648239,4824884.774874969],[643093.2365404771,4824878.609677196],[643085.5966866479,4824875.0806267215],[643085.3947888045,4824874.997854451],[643085.1864423249,4824874.933002831],[643078.9595804762,4824873.289138212],[643078.6715833443,4824873.230965016],[643078.3787501369,4824873.20698208],[643071.4738304813,4824873.048689034],[643071.2820429901,4824873.051652546],[643071.0910471922,4824873.069311237],[643061.4814204614,4824874.331173737],[643061.2655128012,4824874.3692203285],[643061.0537685639,4824874.426036161],[643060.847816102,4824874.501184311],[643056.2174516065,4824876.424743312],[643055.9858429888,4824876.535219488],[643055.7667791132,4824876.668855394],[643055.5625679503,4824876.824243097],[643051.7035827906,4824880.086483384],[643051.6746029416,4824880.111363915],[643047.7063705311,4824883.571280455],[643047.5076230655,4824883.765009085],[643047.3315746023,4824883.979574403],[643043.1317743666,4824889.720726462],[643039.8641678429,4824892.409053138],[643036.5098046274,4824894.716563263],[643026.7875842188,4824896.773490806],[643026.5223024442,4824896.845049647],[643026.2664756918,4824896.945288165],[643017.0383730334,4824901.159820915],[643016.7781084894,4824901.297762596],[642988.7415062786,4824918.34509237],[642988.5281320134,4824918.490433436],[642982.8367248969,4824922.813687862],[642982.8140086125,4824922.831149584],[642973.9572272327,4824929.720346324],[642973.9483721394,4824929.727266209],[642964.482147595,4824937.159054973],[642964.318028237,4824937.2997874655],[642964.1666815144,4824937.454173241],[642964.0292392778,4824937.621057721],[642957.6683865627,4824946.063454494],[642957.5228239364,4824946.279157635],[642957.4004718582,4824946.508823244],[642957.3026559654,4824946.749962985],[642957.2304360552,4824946.9999642],[642957.1845946023,4824947.256118225],[642957.165628281,4824947.515649729],[642957.173742584,4824947.775746791],[642957.5406440186,4824952.172501644],[642957.5723113986,4824952.41182532],[642957.6269142068,4824952.64697884],[642957.703943295,4824952.875769496],[642957.8026803988,4824953.096063911],[642959.6327090613,4824956.701750261],[642959.7483001916,4824956.905286863],[642959.8824204556,4824957.097120679],[642968.4212359069,4824968.1680134125],[642968.5041091027,4824968.269818463],[642996.8239365924,4825001.251273163],[642996.9654260989,4825001.402852851],[643013.8448862408,4825018.045410967],[643026.8816050333,4825033.688212845],[643028.5986253852,4825042.153381737],[643033.4988403821,4825041.159453679],[643031.6563369223,4825032.075634168],[643031.5952710612,4825031.836065744],[643031.5108414931,4825031.603700262],[643031.4038738996,4825031.380810146],[643031.2754143736,4825031.16957516],[643031.1267191891,4825030.972061081],[643017.6076275564,4825014.750458442],[643017.4423680033,4825014.57078015],[643000.549777051,4824997.915275513],[642972.3403220082,4824965.062361281],[642963.9850319019,4824954.229416003],[642962.4826515617,4824951.2692917185],[642962.2357419544,4824948.310456152],[642967.8263222246,4824940.890398033],[642977.0315291565,4824933.663530222],[642985.8725670795,4824926.786579439],[642991.4496362183,4824922.550177379],[643019.2497319942,4824905.6466525905],[643028.0925615893,4824901.60807648],[643038.0330019619,4824899.504980199],[643038.2710646412,4824899.442222528],[643038.501800184,4824899.356353594],[643038.7229709222,4824899.248206152],[643038.9324319465,4824899.118829014],[643042.7864596372,4824896.467593191],[643042.9578972845,4824896.338477376],[643046.5518044266,4824893.381696512],[643046.7074559432,4824893.242334198],[643046.8509276514,4824893.090462153],[643046.9812175621,4824892.927141033],[643051.2024469083,4824887.156695251],[643054.9461170887,4824883.8925753515],[643058.4940890633,4824880.893253863],[643062.460446179,4824879.245538669],[643071.5514217156,4824878.051781467],[643077.9688888032,4824878.198899821],[643083.6986052473,4824879.711520202],[643091.1409801139,4824883.149349922],[643091.1433456623,4824883.150441136],[643104.8255471449,4824889.4533204455],[643105.0265835845,4824889.535542217],[643105.2339979972,4824889.600004075],[643105.4462247834,4824889.646219451],[643112.1279166414,4824890.799801601],[643112.3606727646,4824890.828820243],[643117.1280189585,4824891.1971374955],[643117.3466453681,4824891.204429554],[643117.5650723024,4824891.192582379],[643123.1737440752,4824890.641454454],[643131.3354344361,4824890.22939871],[643133.0570986614,4824890.327950426],[643133.0633204139,4824890.328298793],[643138.0508552638,4824890.60132497],[643138.2738211338,4824890.603571849],[643144.4653556835,4824890.389672443],[643180.9769611631,4824931.050426232],[643181.0160697494,4824931.0929792],[643198.9858414757,4824950.197372432],[643199.7437865983,4824951.026218982],[643194.5802608212,4824953.661613069],[643155.7224570581,4824973.477241908],[643157.99391908,4824977.931505066],[643196.8521064166,4824958.115680623],[643203.2439787171,4824954.853355129],[643210.5437146287,4824962.833219968],[643228.1292950549,4824985.081342739],[643241.9200337784,4825003.9226665525],[643245.4238269789,4825009.807703884],[643247.5530339224,4825013.386231881],[643251.8499570173,4825010.82958331],[643249.7205716902,4825007.250755507],[643246.1555559675,4825001.262887478],[643246.0248023362,4825001.065229234],[643232.1366512062,4824982.090817649],[643232.0805946537,4824982.017134013],[643214.4104411463,4824959.662014927]]]]}},{"type":"Feature","properties":{"class":"service","widthMeters":3},"geometry":{"type":"MultiPolygon","coordinates":[[[[641963.1415813452,4824889.651813528],[641963.2289875877,4824889.533268864],[641963.3043466647,4824889.406723622],[641963.3669320244,4824889.273397851],[641963.4161402691,4824889.134576969],[641963.4514969729,4824888.991599376],[641963.4726612546,4824888.845843547],[641963.4794290652,4824888.6987147415],[641963.4717351553,4824888.551631458],[641963.449653703,4824888.406011755],[641963.4133976,4824888.2632595785],[641963.3633163985,4824888.1247512335],[641963.299892941,4824887.991822103],[641963.2237387059,4824887.865753784],[641954.5048498765,4824874.914626932],[641954.4177787021,4824874.797942477],[641954.3198055621,4824874.690248859],[641954.2118534354,4824874.592560632],[641954.09493931,4824874.50579809],[641953.970164603,4824874.4307786],[641953.8387047836,4824874.368208901],[641953.7017982998,4824874.318678444],[641953.5607349112,4824874.282653844],[641953.4168435385,4824874.260474479],[641953.2714797439,4824874.252349294],[641953.1260129611,4824874.258354834],[641952.9818135941,4824874.278434524],[641952.8402401066,4824874.312399197],[641952.7026262247,4824874.359928882],[641952.5702683723,4824874.420575813],[641952.4444134576,4824874.493768654],[641951.0,4824875.430436923],[641951.0,4824879.006006337],[641952.8396269922,4824877.813051354],[641959.8967236211,4824888.295735035],[641951.0,4824894.273913296],[641951.0,4824897.888285299],[641962.8160375862,4824889.9484658735],[641962.9341061901,4824889.860417629],[641963.0429706377,4824889.761214702],[641963.1415813452,4824889.651813528]]],[[[642181.1807467944,4824910.784298464],[642184.3607433321,4824898.74046972],[642181.4601470922,4824897.974609777],[642178.2837901083,4824910.004654178],[642164.4947054674,4824958.47687751],[642167.3802208138,4824959.297731447],[642181.1732063477,4824910.811795461],[642181.1807467944,4824910.784298464]]],[[[641969.1832779127,4825006.128280585],[641957.655509474,4824988.588087277],[641951.0,4824978.3274669945],[641951.0,4824983.84025259],[641955.1410759964,4824990.224438283],[641955.146005743,4824990.231988536],[641966.6762504082,4825007.775949572],[641969.1832779127,4825006.128280585]]],[[[641951.0,4825098.024740696],[641956.73078253,4825095.264457616],[641955.4289461465,4825092.561640191],[641951.0,4825094.694882038],[641951.0,4825098.024740696]]],[[[643162.5892581197,4825125.427558306],[643162.7237873197,4825125.472532355],[643162.861963222,4825125.504597769],[643163.0025501796,4825125.5234678015],[643168.3010788397,4825125.980938197],[643168.4514228128,4825125.986346513],[643168.6015523771,4825125.976667978],[643168.7499573921,4825125.951999949],[643168.8951450643,4825125.9125905605],[643169.035654963,4825125.858836225],[643169.1700737111,4825125.791277656],[643173.2675147544,4825123.467538357],[643173.4024570525,4825123.381173678],[643173.527418285,4825123.280909168],[643173.6409728787,4825123.167888657],[643173.7418253883,4825123.043401497],[643173.8288252761,4825122.908867855],[643175.0519344383,4825120.775663361],[643196.5269037703,4825109.133534807],[643196.6569277054,4825109.054251902],[643196.7782426167,4825108.9621937955],[643196.8895980436,4825108.858309381],[643196.989846184,4825108.743669453],[643197.0779537244,4825108.619455669],[643197.1530124912,4825108.486948371],[643197.214248812,4825108.347513383],[643198.5582320022,4825104.809472469],[643198.5988770074,4825104.68679723],[643200.0700648539,4825099.5092012435],[643201.9913482947,4825094.793991226],[643202.0404717084,4825094.653985496],[643202.0755229847,4825094.509811566],[643202.0961591706,4825094.362880078],[643202.1021783552,4825094.214628658],[643202.093521645,4825094.066507844],[643202.0702737396,4825093.919966898],[643201.1242071242,4825089.410832273],[643201.0893612818,4825089.276162081],[643201.0421898174,4825089.145299],[643200.9830984116,4825089.019368467],[643200.9125952583,4825088.899453503],[643200.8312866939,4825088.7865853915],[643200.7398719825,4825088.681734813],[643200.6391373025,4825088.585803497],[643200.5299489853,4825088.499616464],[643196.5509734116,4825085.648020079],[643196.4226195632,4825085.565576838],[643196.2865558444,4825085.496596675],[643196.1441895532,4825085.441793048],[643195.9969931747,4825085.401732787],[643189.6678521063,4825084.020616638],[643183.2606573269,4825081.628141568],[643165.1699235643,4825074.118652945],[643164.0197738999,4825076.889421025],[643182.1355065308,4825084.409286712],[643182.1858624001,4825084.429132194],[643188.7187232452,4825086.868531533],[643188.9236445951,4825086.928815397],[643195.0549978621,4825088.266771199],[643198.3079840585,4825090.598075704],[643199.0399789144,4825094.086903336],[643197.2606597078,4825098.453705012],[643197.2068877218,4825098.609731245],[643195.7307897089,4825103.804607728],[643194.6075342055,4825106.7615821585],[643173.2476540476,4825118.341317936],[643173.1292357552,4825118.4127682075],[643173.0179017277,4825118.494821652],[643172.9145984545,4825118.586780703],[643172.8202041527,4825118.687863586],[643172.7355213013,4825118.797210959],[643172.6612698183,4825118.913893222],[643171.430475473,4825121.060501317],[643168.095199486,4825122.952001842],[643163.6964974703,4825122.572221703],[643158.4790266617,4825118.575098612],[643158.407587461,4825118.523624406],[643153.7801495702,4825115.3915516725],[643152.098578007,4825117.875966509],[643156.68954057,4825120.983350985],[643162.219353878,4825125.219760784],[643162.3359086016,4825125.300604876],[643162.459578658,4825125.370077806],[643162.5892581197,4825125.427558306]]],[[[642820.2312462584,4825238.934412734],[642791.2263909554,4825227.150463925],[642790.0972000732,4825229.929839385],[642818.8432083344,4825241.608625101],[642827.3764979263,4825249.62556031],[642829.4306351965,4825247.439120263],[642820.6937194524,4825239.23088044],[642820.5888513727,4825239.141076315],[642820.4761703712,4825239.061294821],[642820.3566310859,4825238.992211869],[642820.2312462584,4825238.934412734]]],[[[642577.4800495448,4825304.908794077],[642577.5481807429,4825305.032635127],[642580.5858004619,4825309.986105318],[642580.6676765176,4825310.106156892],[642580.7607848132,4825310.217722631],[642580.8642515349,4825310.3197555],[642580.9771056559,4825310.411297929],[642581.0982880495,4825310.491490799],[642581.2266614283,4825310.559581506],[642587.3942490274,4825313.457308475],[642587.532798231,4825313.514143916],[642587.6763240976,4825313.556881193],[642587.8233960791,4825313.5850943355],[642587.9725482834,4825313.598502139],[642588.1222940837,4825313.596970964],[642623.1667416191,4825311.486029155],[642630.0603365892,4825311.065767953],[642630.1879995224,4825311.052483472],[642630.3140593994,4825311.028333744],[642630.4375932206,4825310.99349559],[642673.7953614467,4825296.737145091],[642672.858294904,4825293.887249253],[642629.6844897544,4825308.0831113495],[642622.9858174261,4825308.491489669],[642588.3237432018,4825310.579398791],[642582.9085983981,4825308.035193154],[642580.2939042639,4825303.7713910155],[642577.5339697275,4825268.804215932],[642574.5432710416,4825269.040269677],[642577.3315467068,4825304.366514587],[642577.3492948852,4825304.506741075],[642577.3801631543,4825304.64467445],[642577.4238774251,4825304.779089957],[642577.4800495448,4825304.908794077]]]]}},{"type":"Feature","properties":{"class":"tertiary","widthMeters":8},"geometry":{"type":"Polygon","coordinates":[[[642164.6944586607,4824741.18905809],[642167.8926226688,4824845.531675974],[642167.5290216523,4824862.698177609],[642167.5596380482,4824863.283994467],[642169.9329167554,4824882.078826619],[642169.9936244764,4824882.431683608],[642170.0856416841,4824882.777698515],[642173.1741710322,4824892.598736475],[642173.3131379199,4824892.9739282075],[642173.488891285,4824893.333360241],[642173.6996727084,4824893.673436443],[642173.9433733133,4824893.990754339],[642179.8638857725,4824900.949541983],[642180.2035654391,4824901.302501869],[642180.5838420353,4824901.611294143],[642199.3675668904,4824915.0426318],[642199.621731313,4824915.210134136],[642199.8878973044,4824915.357823848],[642230.5689894123,4824930.885773597],[642230.5925957022,4824930.897623191],[642241.0444815821,4824936.100998741],[642251.2910944377,4824941.477006115],[642251.3482113474,4824941.506390784],[642261.2472555268,4824946.498999763],[642272.3458966999,4824955.232858151],[642277.4003706311,4824960.73055026],[642280.3002917258,4824966.459637297],[642282.2543974937,4824974.780170264],[642283.2434367632,4824985.494139672],[642286.5136795421,4825031.5987418275],[642284.4526296679,4825071.187949571],[642270.239459686,4825157.786503297],[642241.6514274492,4825152.942637434],[642213.5036051448,4825147.3986735195],[642169.5854955344,4825137.413211609],[642169.5226488027,4825137.399453013],[642118.2260322679,4825126.600989907],[642038.6155421031,4825107.538445996],[642004.5521316847,4825099.405946627],[642003.6232541816,4825103.296600375],[642004.3977853309,4825099.372304069],[641956.92149072,4825090.00199506],[641951.0,4825088.621417798],[641951.0,4825096.835970665],[641955.1716346116,4825097.808574383],[641955.305333189,4825097.83734521],[642002.7712176291,4825107.205599583],[642036.7539140075,4825115.318827902],[642116.4166849579,4825134.393890323],[642116.5241632868,4825134.418065866],[642167.843206746,4825145.22125007],[642211.7866943253,4825155.212482054],[642211.9005376375,4825155.236629958],[642240.1577104325,4825160.802131425],[642240.2624722493,4825160.82132005],[642272.8672294131,4825166.345767095],[642273.5354526899,4825162.401977337],[642273.2712116805,4825166.39323988],[642290.5531756263,4825167.53739002],[642290.8818796207,4825167.545608008],[642418.2727463,4825165.492342475],[642574.210929076,4825163.714472641],[642574.1653275623,4825159.714732587],[642574.2599081541,4825163.713614245],[642686.3447996064,4825161.06260922],[642845.8718553955,4825158.078517307],[642846.2761453195,4825158.050421155],[642846.6755172866,4825157.981560657],[642847.0658717506,4825157.872642665],[642876.9547816471,4825147.875386683],[642877.2823868351,4825147.749576686],[642877.5977041554,4825147.595536749],[642877.8983065848,4825147.414452531],[642878.1818803616,4825147.207717852],[642922.6410931934,4825111.706914465],[642990.1416489132,4825062.239536158],[643005.9568402604,4825053.885709417],[643019.0734879953,4825048.070506989],[643031.5192905129,4825045.640082398],[643042.1133193817,4825045.191684293],[643065.1832419069,4825051.568343481],[643108.0057771337,4825063.864925454],[643118.1390680863,4825066.780747367],[643118.549415881,4825066.87574751],[643128.7801212865,4825068.682817938],[643129.2348863083,4825068.736526286],[643134.3588705341,4825069.0457992945],[643134.6834083077,4825069.052193043],[643135.0073959101,4825069.032251126],[643140.0358434273,4825068.51725761],[643139.6283111351,4825064.538072087],[643141.1362989612,4825068.242930075],[643147.387660872,4825065.698439116],[643147.6173605861,4825065.596419177],[643160.1485473813,4825059.552493012],[643160.3427873937,4825059.45217633],[643209.1859899147,4825032.511147623],[643236.5636806986,4825020.274209864],[643243.2266874615,4825018.250412347],[643250.5906162779,4825016.018127896],[643264.0519272307,4825013.944646143],[643268.0,4825013.350684868],[643268.0,4825005.260658613],[643262.8548356665,4825006.034714348],[643262.84096341,4825006.036826226],[643249.0925463993,4825008.154531692],[643248.5410893536,4825008.279924099],[643240.9048254881,4825010.594763571],[643233.9982898004,4825012.692529053],[643233.5285500512,4825012.868057265],[643205.7685329508,4825025.275882457],[643205.4688495847,4825025.425179666],[643156.5746811086,4825052.394320274],[643144.2552319836,4825058.336123084],[643138.6509074317,4825060.617250518],[643134.5160429344,4825061.040726828],[643129.9457946598,4825060.764876168],[643120.1486103545,4825059.03437946],[643110.216933971,4825056.176571491],[643067.3720921291,4825043.873583499],[643067.333761571,4825043.862783045],[643043.6383258842,4825037.313228423],[643043.2323609535,4825037.223436413],[643042.819268384,4825037.176270123],[643042.4035113861,4825037.172239154],[643030.8795821259,4825037.6599958055],[643030.5795078517,4825037.684034561],[643030.282091222,4825037.730572504],[643017.097763029,4825040.30521688],[643016.6629274272,4825040.41577017],[643016.2432082138,4825040.574325562],[643002.5888653827,4825046.627912515],[643002.3418170341,4825046.747749084],[642986.1456769037,4825055.302798817],[642985.6494938197,4825055.61332609],[642917.8454471643,4825105.303115914],[642917.7139496228,4825105.403731701],[642873.7443741679,4825140.513558299],[642845.1094542007,4825150.0913791675],[642686.1852931695,4825153.064193411],[642686.1655229589,4825153.064612118],[642574.0952338497,4825155.715271772],[642418.1721121813,4825157.492969892],[642418.15325071,4825157.493229414],[642290.9174746732,4825159.543995222],[642278.196271189,4825158.701789626],[642292.3828905777,4825072.265004385],[642292.4302917218,4825071.825125627],[642294.5156478593,4825031.769036553],[642294.5110329547,4825031.278061869],[642291.2203819084,4824984.88573947],[642291.2134712542,4824984.801063293],[642290.1950014455,4824973.768281571],[642290.1059876097,4824973.221439211],[642287.9790929875,4824964.16517567],[642287.8430480072,4824963.709527612],[642287.6538922117,4824963.273243902],[642284.2882478349,4824956.624073479],[642284.1080135293,4824956.305146488],[642283.899357456,4824956.00404605],[642283.6640297023,4824955.723297624],[642278.0172255945,4824949.581334918],[642277.7904981333,4824949.353783363],[642277.5462427265,4824949.145158463],[642265.8797999145,4824939.964479692],[642265.5543038999,4824939.73366353],[642265.2074305717,4824939.536425981],[642254.9794473936,4824934.377915751],[642244.7236156884,4824928.997071598],[642244.6478854466,4824928.958359928],[642234.1697513363,4824923.741916938],[642203.7726270335,4824908.3576855995],[642185.6377768163,4824895.390326967],[642180.5622783403,4824889.424742683],[642177.8249000425,4824880.720309879],[642175.5334556309,4824862.573552411],[642175.8930238857,4824845.597447413],[642175.8920432444,4824845.390198173],[642172.7056306847,4824741.430980543],[642188.4939798422,4824668.0],[642180.3111528262,4824668.0],[642164.781952142,4824740.225691357],[642164.7089764467,4824740.704720134],[642164.6944586607,4824741.18905809]]]}},{"type":"Feature","properties":{"class":"track","widthMeters":2.5},"geometry":{"type":"MultiPolygon","coordinates":[[[[643268.0,4824804.612893596],[643268.0,4824800.6871271925],[643266.3769852438,4824798.722097511],[643264.4494505229,4824800.3141433345],[643268.0,4824804.612893596]]],[[[642277.3457807344,4824762.134065458],[642277.4259465835,4824762.219472302],[642277.5137550472,4824762.297000144],[642290.9483321469,4824773.081847291],[642291.0192792467,4824773.13478214],[642314.4054539901,4824789.327004448],[642348.2131762122,4824824.758762106],[642381.5722982363,4824879.376028911],[642381.6460531227,4824879.483711396],[642429.8360075974,4824942.511209626],[642439.4226924483,4824959.925882615],[642447.7802605705,4824978.28526328],[642456.189877691,4824999.810099645],[642456.2590340204,4824999.9578548195],[642465.0811016675,4825015.989682858],[642465.0958066599,4825016.0156658385],[642473.506891243,4825030.472103594],[642473.560005855,4825030.555603961],[642481.7601861765,4825042.385332017],[642481.8404345122,4825042.48902824],[642491.2942687625,4825053.463846089],[642480.7730592913,4825057.6570214555],[642480.6099919996,4825057.736157736],[642470.6320606885,4825063.50735745],[642458.464807022,4825070.25093091],[642449.381552127,4825073.247439638],[642433.8445439242,4825072.112214689],[642418.5985588635,4825069.115516555],[642385.3890581935,4825061.719665703],[642349.868994379,4825048.51961682],[642334.0791164838,4825041.368444774],[642333.9848025423,4825041.330276034],[642318.2841202226,4825035.708413441],[642318.1938393934,4825035.679895531],[642318.1016590677,4825035.658292596],[642290.7599790408,4825030.334120414],[642290.2821360398,4825032.788028738],[642317.5306832596,4825038.0940654185],[642333.0941029254,4825043.666779079],[642348.877159187,4825050.814861634],[642348.9574231232,4825050.847904528],[642384.5983917948,4825064.092884356],[642384.7621025752,4825064.141286396],[642418.0703944498,4825071.559138332],[642418.1010335707,4825071.56556015],[642433.4367641552,4825074.579898355],[642433.5867574055,4825074.600043688],[642449.4466325922,4825075.758859192],[642449.5689197812,4825075.761793151],[642449.6909082159,4825075.752760625],[642449.8114297146,4825075.731848115],[642449.9293301427,4825075.699255881],[642459.3596028636,4825072.588268152],[642459.468974367,4825072.546410717],[642459.5739487383,4825072.494501643],[642471.853967483,4825065.688429314],[642471.8738623556,4825065.677163734],[642481.7830322755,4825059.945735362],[642493.6675930185,4825055.209203172],[642519.6426246976,4825053.367433832],[642519.6987005722,4825053.362185747],[642559.0044327775,4825048.788236704],[642599.0060505592,4825045.306565119],[642599.100250437,4825045.294747182],[642624.2591681682,4825041.162602425],[642624.3742680992,4825041.138084338],[642624.4865522217,4825041.102850738],[642624.5950253118,4825041.057213917],[642638.1354333969,4825034.5942587005],[642653.3417326029,4825030.382306403],[642694.9484939509,4825018.869925882],[642731.939939179,4825018.661063647],[642760.2602906652,4825018.741236214],[642760.2971711211,4825018.740796472],[642775.2644003583,4825018.341426601],[642793.337123955,4825020.577842376],[642813.7467108188,4825028.689440453],[642813.8838069255,4825028.734946512],[642836.6352539574,4825034.852478848],[642836.7427269233,4825034.876356329],[642836.8518840101,4825034.890684724],[642836.961878468,4825034.895352885],[642851.9905836555,4825034.870749149],[642852.1262249283,4825034.863144524],[642852.2602398224,4825034.840864638],[642866.7430169673,4825031.615749429],[642866.8560788597,4825031.584944791],[642894.8591919794,4825022.525397719],[642894.9277219013,4825022.501002364],[642921.1616835573,4825012.292773221],[642921.3217621276,4825012.217021294],[642941.9870127757,4825000.579168653],[642942.1008510644,4825000.506699349],[642942.2062136974,4825000.422380481],[642955.1372998346,4824988.875418019],[642955.2245416796,4824988.7894715285],[642955.302954507,4824988.695400453],[642955.3717856574,4824988.594107751],[642964.1244929056,4824974.248868423],[642971.2564490484,4824967.552453299],[642969.5452085941,4824965.729912187],[642962.2899250736,4824972.542123215],[642962.2117511077,4824972.622413384],[642962.1410819668,4824972.709382071],[642962.0784856124,4824972.802330317],[642953.3340800513,4824987.133963605],[642940.6421659322,4824998.467354656],[642920.1723656711,4825009.995137362],[642894.055043048,4825020.157979613],[642866.1423581504,4825029.188271412],[642851.8500315762,4825032.3709758995],[642837.1239475551,4825032.39508421],[642814.6028280964,4825026.339483599],[642794.1114528568,4825018.195379502],[642794.0110961411,4825018.160356741],[642793.9081268247,4825018.133986606],[642793.8032894543,4825018.116459772],[642775.4783340053,4825015.848831474],[642775.3850766056,4825015.840822468],[642775.2914813593,4825015.839814183],[642760.2489244717,4825016.241194019],[642731.9417183007,4825016.161058665],[642731.9311219925,4825016.161073581],[642694.7682284882,4825016.370903853],[642694.6582770348,4825016.376372432],[642694.5492331398,4825016.391493823],[642694.4419425814,4825016.41615074],[642652.674878973,4825027.9728860855],[642637.3623445242,4825032.214264152],[642637.258280477,4825032.248057397],[642637.1575701953,4825032.290821266],[642623.6785696398,4825038.724466133],[642598.7419499472,4825042.82010027],[642558.7695812542,4825046.299226065],[642558.7334836824,4825046.302896529],[642519.4377081197,4825050.875686933],[642493.9228618456,4825052.684826654],[642483.777422421,4825040.907134478],[642475.6428544456,4825029.1720599765],[642467.2641808596,4825014.771328184],[642458.4887199193,4824998.82419579],[642450.0963990428,4824977.343630029],[642450.069773024,4824977.2806223845],[642441.6783309442,4824958.846829537],[642441.635703439,4824958.761905415],[642431.980930651,4824941.22354742],[642431.9328379045,4824941.143427437],[642431.8788942251,4824941.067124072],[642383.671754618,4824878.01714946],[642350.2768305428,4824823.341265699],[642350.2012837366,4824823.231245281],[642350.1144375415,4824823.1299064895],[642316.126189057,4824787.508950555],[642316.0339790045,4824787.421653428],[642315.9333882859,4824787.344161561],[642292.4788220424,4824771.104586046],[642279.2167583619,4824760.458227132],[642238.9449175504,4824703.221637295],[642216.1150677569,4824668.0],[642213.1358341887,4824668.0],[642236.8599982038,4824704.601375287],[642236.886619261,4824704.640782728],[642277.2739614662,4824762.041529599],[642277.3457807344,4824762.134065458]]],[[[642488.9809685918,4825362.076695428],[642489.0708367203,4825362.160291997],[642489.168470118,4825362.234672012],[642489.2729274633,4825362.299118345],[642489.3832016425,4825362.353009645],[642489.4982294599,4825362.395826326],[642496.8171976219,4825364.717910724],[642496.9069605949,4825364.7427495755],[642496.9983238374,4825364.7608359745],[642521.1864421712,4825368.618935329],[642521.580224196,4825366.150142969],[642497.4842714665,4825362.306744388],[642490.6808390954,4825360.148223705],[642486.5700302405,4825353.818179092],[642480.5395437496,4825340.639469746],[642478.2662447427,4825341.67971569],[642484.3349799967,4825354.942011881],[642484.423293546,4825355.102691175],[642488.8279107335,4825361.885157663],[642488.8997321855,4825361.984688291],[642488.9809685918,4825362.076695428]]],[[[642450.046488415,4825373.204689394],[642444.8490169387,4825378.272194936],[642444.7645289792,4825378.363183078],[642444.6894847498,4825378.462104365],[642444.6246247055,4825378.567982748],[642444.5705888154,4825378.679773534],[642444.5279102466,4825378.796373693],[642442.4293538267,4825385.551893191],[642442.4006042972,4825385.661861721],[642442.3819628976,4825385.773987147],[642442.3735837656,4825385.887342355],[642442.3755361843,4825386.000990061],[642442.6927421099,4825391.056750866],[642441.751471016,4825396.8527310565],[642438.7832860398,4825402.772486325],[642438.7345333624,4825402.8826754205],[642438.6966164157,4825402.997046595],[642438.6698875171,4825403.114537132],[642438.6545950264,4825403.234055332],[642438.2021001455,4825408.946725319],[642438.1984366052,4825409.069890246],[642438.407749849,4825419.763318436],[642438.4168756733,4825419.891581971],[642438.4391302442,4825420.018229312],[642438.4742780576,4825420.141920242],[642438.5219471694,4825420.261345829],[642445.0362292804,4825434.419275216],[642453.3340224773,4825454.782940464],[642455.0662957166,4825461.442773141],[642454.2281681816,4825470.895634615],[642452.860421676,4825480.223599059],[642449.1814845045,4825491.375245436],[642451.5556261981,4825492.158476704],[642455.2685360755,4825480.90385178],[642455.2979400192,4825480.799793243],[642455.3182406276,4825480.6935828095],[642456.7069031412,4825471.222972211],[642456.7152432184,4825471.1520223385],[642457.5756419501,4825461.447974106],[642457.5801082812,4825461.305246104],[642457.5682670851,4825461.162940036],[642457.5402728941,4825461.022913052],[642455.7326430924,4825454.073367363],[642455.6804826213,4825453.916338113],[642447.3409524591,4825433.450245922],[642447.318929795,4825433.39944922],[642440.9021635114,4825419.453457568],[642440.6991650005,4825409.082637456],[642441.1275136021,4825403.674810088],[642444.0720416505,4825397.802236252],[642444.1229531689,4825397.686413178],[642444.1618959057,4825397.566036975],[642444.1884709139,4825397.44234083],[642445.1829140735,4825391.318947803],[642445.1975681371,4825391.180007221],[642445.1966256902,4825391.0402991725],[642444.8850291282,4825386.073942753],[642446.821300614,4825379.840839057],[642451.7267918009,4825375.05801266],[642459.0053372149,4825369.774818422],[642464.911141126,4825365.917545892],[642465.0062850013,4825365.848823128],[642465.094563926,4825365.771479694],[642465.1751996233,4825365.686197459],[642465.2474811998,4825365.59372828],[642465.310771413,4825365.494887375],[642465.3645122893,4825365.390546139],[642465.4082300431,4825365.281624455],[642471.1817903996,4825348.681811738],[642468.8205357168,4825347.8605466625],[642463.1870541227,4825364.057612881],[642457.6124594052,4825367.698561919],[642457.5617192168,4825367.733515716],[642450.1848323994,4825373.0880919],[642450.046488415,4825373.204689394]]]]}},{"type":"Feature","properties":{"class":"unclassified","widthMeters":4},"geometry":{"type":"MultiPolygon","coordinates":[[[[643030.8739739669,4824708.796568648],[643041.1630204848,4824744.671795687],[643041.2343317264,4824744.877468131],[643041.327573225,4824745.074172148],[643041.4416403845,4824745.259577461],[643041.5751818958,4824745.431487647],[643050.9600176689,4824756.242722188],[643051.0964139387,4824756.385030916],[643097.9930921475,4824800.718494564],[643100.7409670338,4824797.81174662],[643053.9159976839,4824753.546072465],[643044.8859907102,4824743.143597062],[643034.7292221433,4824707.729588807],[643024.9182712868,4824668.0],[643020.7981141398,4824668.0],[643030.8547955783,4824708.724678388],[643030.8739739669,4824708.796568648]]],[[[642102.5815105323,4824956.782112376],[642116.5027047852,4824943.432324977],[642116.6311572402,4824943.297095665],[642116.7464538584,4824943.150488401],[642128.7120896543,4824926.381520525],[642128.7134253231,4824926.379646402],[642173.1574872573,4824863.94269993],[642169.898762138,4824861.623064054],[642125.4553676436,4824924.059072878],[642113.5990900478,4824940.674783194],[642100.0559568804,4824953.662027336],[642055.8908568838,4824973.965082541],[642022.7007587241,4824985.913072245],[642005.1614465072,4824991.7900513755],[642005.1545310464,4824991.792382614],[641973.945198423,4825002.376660957],[641973.8403651344,4825002.415513637],[641967.1825886645,4825005.096925391],[641968.6769396564,4825008.807304766],[641975.2828426622,4825006.146784989],[642006.4357597574,4824995.581639309],[642023.9926881765,4824989.698757436],[642024.0346779991,4824989.684166706],[642057.3260477806,4824977.699720578],[642056.6486312114,4824975.817937703],[642057.48400464,4824977.635119927],[642102.0326061434,4824957.155765964],[642102.2290727814,4824957.051857237],[642102.4127971845,4824956.926791226],[642102.5815105323,4824956.782112376]]]]}}]}
