{"type":"FeatureCollection","name":"barreiros-benquerencia-roads","crs":{"type":"name","properties":{"name":"EPSG:25829"}},"source":"\u00a9 OpenStreetMap contributors, ODbL 1.0","features":[{"type":"Feature","properties":{"class":"footway","widthMeters":2},"geometry":{"type":"Polygon","coordinates":[[[645094.4206479483,4824651.716084887],[645094.3272693149,4824651.701400169],[645094.2329213204,4824651.695597923],[645094.1384469839,4824651.698729995],[645094.0446904534,4824651.710768396],[645093.9524894634,4824651.731605564],[645093.8626678488,4824651.761055313],[645093.7760281849,4824651.798854503],[645093.6933446153,4824651.84466539],[645093.6153559348,4824651.898078646],[645093.5427589887,4824651.95861701],[645092.6072987336,4824652.816818363],[645091.22845907,4824649.484078391],[645091.1935114702,4824649.408646958],[645091.1524191505,4824649.336379004],[645089.5825662207,4824646.82460733],[645089.5316967764,4824646.750796859],[645089.4744218494,4824646.681838402],[645089.4112016831,4824646.618286088],[645089.3425442951,4824646.560650603],[645086.1471448916,4824644.113748151],[645086.0732018376,4824644.062239748],[645085.9949220588,4824644.0175970895],[645081.5993910668,4824641.766985935],[645081.5124111444,4824641.727572628],[645081.4220684003,4824641.696635527],[645081.3291866623,4824641.674456743],[645076.8378459088,4824640.826362066],[645074.0406984355,4824639.263033829],[645071.2981470493,4824637.394502836],[645071.2056146519,4824637.338534945],[645071.1075797069,4824637.292886297],[645071.0051886988,4824637.258090739],[645066.7564552535,4824636.066244329],[645066.6830249309,4824636.048607405],[645066.6084730299,4824636.036562181],[645062.5548482969,4824635.53784109],[645062.4754494157,4824635.531270184],[645062.3957794304,4824635.531040844],[645058.603077094,4824635.671309888],[645058.5197550227,4824635.677886765],[645058.4372732115,4824635.691398747],[645058.3562078635,4824635.711751443],[645054.6478616708,4824636.809425102],[645054.5450636833,4824636.846063698],[645054.4468703379,4824636.89368596],[645054.3544510986,4824636.9517247155],[645047.5519604905,4824641.760414967],[645047.4611331862,4824641.832888366],[645047.3793261007,4824641.915408626],[645042.8484294799,4824647.050972417],[645042.8418731836,4824647.058478749],[645040.5877023283,4824649.665395227],[645040.5204206394,4824649.752460766],[645040.4631118103,4824649.846391229],[645040.4164696924,4824649.946049377],[645038.3501239842,4824655.079310412],[645038.3197854484,4824655.165964782],[645038.297522287,4824655.255036429],[645038.2835221653,4824655.345774531],[645037.3330757908,4824664.181016892],[645037.3279173694,4824664.25398003],[645036.7534178885,4824681.144125559],[645034.6467002498,4824698.829744074],[645032.5112774568,4824715.349859539],[645029.0370215733,4824728.725047984],[645029.0346034324,4824728.7345484765],[645026.8969570076,4824737.308622552],[645023.5667875162,4824749.2677339995],[645022.1014502974,4824753.111297794],[645017.4657702564,4824758.144758046],[645017.4166421697,4824758.202329413],[645017.3720088832,4824758.26345143],[645014.6098293384,4824762.363266599],[645010.3165636504,4824767.301157206],[645010.2627521856,4824767.368735053],[645008.255880623,4824770.125451014],[645008.2011817854,4824770.209069237],[645008.1551006876,4824770.297728713],[645008.118097402,4824770.3905442655],[645008.0905413681,4824770.48658923],[645007.1378357774,4824774.566111177],[645007.1345822408,4824774.580522867],[645005.5650258464,4824781.780131441],[645005.5588904418,4824781.810532645],[645004.5805159743,4824787.07841915],[645004.5733057072,4824787.122769949],[645003.4237948556,4824795.357597877],[645002.6310796844,4824798.560690086],[645002.4042257436,4824799.107775211],[645002.4026243347,4824799.111660249],[645001.6930388288,4824800.843441408],[645000.1426346783,4824802.552412111],[644994.4881255672,4824805.687294389],[644989.637275264,4824808.272122615],[644984.3202055626,4824809.560559888],[644980.3628357926,4824809.891301268],[644970.864284885,4824809.0499026375],[644958.9441412154,4824807.097619946],[644958.8643694931,4824807.087827661],[644952.1061688104,4824806.5327723725],[644948.3214849684,4824805.966363406],[644948.2107895399,4824805.956045719],[644948.0996329075,4824805.958079357],[644947.9893889601,4824805.972439183],[644943.3082351477,4824806.8491578465],[644943.1903708479,4824806.8787443405],[644938.7238449107,4824808.293447118],[644938.61545583,4824808.334837919],[644936.0942073893,4824809.469316155],[644935.998619046,4824809.518673192],[644935.9088859316,4824809.578013032],[644935.82604655,4824809.646648922],[644935.7510596217,4824809.72378652],[644934.08574961,4824811.632321312],[644934.0225227791,4824811.712741293],[644933.967842866,4824811.799200026],[644933.9222820966,4824811.890792721],[644932.9020434461,4824814.235488849],[644932.8674366334,4824814.32702184],[644932.8419418992,4824814.421499025],[644932.8258033784,4824814.518015698],[644932.0434112917,4824821.190176493],[644932.0406465613,4824821.216838501],[644931.5333057262,4824826.843550062],[644930.9316390215,4824830.870556338],[644930.1067250115,4824834.025406115],[644928.0358940427,4824836.095096842],[644926.035459939,4824837.460148387],[644923.8515283403,4824837.5974111045],[644921.6739517752,4824837.550396262],[644919.5710721781,4824836.833505368],[644914.3706312738,4824833.468393291],[644907.5402731833,4824827.985262314],[644907.5201477442,4824827.969524932],[644904.2767983908,4824825.499449355],[644904.1888227431,4824825.439566777],[644904.0949814917,4824825.3893725835],[644903.9963374484,4824825.349435253],[644901.3094715036,4824824.424745099],[644901.2218821177,4824824.399008064],[644901.1323105841,4824824.381366187],[644901.0415034182,4824824.371966499],[644900.9502174342,4824824.370887341],[644900.859213436,4824824.378137708],[644900.7692498781,4824824.39365717],[644897.1808167441,4824825.182882065],[644897.1286195558,4824825.195842926],[644890.6175353206,4824826.999785915],[644890.5284474506,4824827.029029882],[644890.4424902472,4824827.066489424],[644887.4615523478,4824828.535515418],[644887.388252584,4824828.575525261],[644887.3185466453,4824828.621511401],[644887.2529206359,4824828.673153145],[644884.8243807161,4824830.754118453],[644884.7381317439,4824830.837499374],[644884.662488052,4824830.930608423],[644882.7630761646,4824833.578564644],[644882.7019243486,4824833.675001767],[644882.6521655528,4824833.777781755],[644882.6144486155,4824833.885564388],[644881.3213488549,4824838.39109739],[644881.3192364529,4824838.398566819],[644880.1992516011,4824842.418334077],[644879.1599027305,4824844.807478396],[644877.6613876312,4824845.923173348],[644875.4287922573,4824846.935036847],[644872.2044245485,4824847.255842141],[644865.1082468728,4824845.216508578],[644850.8496699685,4824839.967896329],[644843.7746764455,4824837.218235195],[644843.6564007459,4824837.180534629],[644839.5318660336,4824836.142903878],[644837.2526028573,4824835.157558229],[644837.163045268,4824835.123830332],[644837.0706737695,4824835.098817556],[644836.9763343118,4824835.082748969],[644836.8808908683,4824835.075771729],[644836.7852175226,4824835.077949737],[644836.6901904643,4824835.089263045],[644834.4033266115,4824835.473262066],[644834.3208425742,4824835.490716273],[644834.2401219616,4824835.5150565365],[644829.3789936451,4824837.207504283],[644825.6346636311,4824838.446375186],[644825.5343752179,4824838.485667283],[644825.4388946041,4824838.535517931],[644822.1650028997,4824840.476040475],[644822.0760096628,4824840.535443369],[644821.9938727141,4824840.604014659],[644821.9195323985,4824840.680969305],[644821.853839801,4824840.765426293],[644820.7197598108,4824842.3965532435],[644820.6664639096,4824842.482106559],[644820.6220512156,4824842.5725904545],[644820.5869729542,4824842.667085631],[644820.5615855141,4824842.764632034],[644820.5461468272,4824842.864238609],[644820.5408137479,4824842.964893371],[644820.5270080491,4824848.454125979],[644820.3335491206,4824852.663038843],[644819.6788472538,4824855.918191087],[644819.6725970252,4824855.952319584],[644819.015444766,4824859.928738685],[644818.0201958732,4824860.998772562],[644815.725451049,4824862.286746038],[644814.3162280696,4824862.681374104],[644812.2937545519,4824862.375015275],[644810.9472543207,4824861.378216139],[644809.8815193786,4824860.022401005],[644806.5863907425,4824855.381876093],[644806.5592695429,4824855.345461739],[644801.5189548328,4824848.889365458],[644798.7974235809,4824845.017459546],[644798.7615804512,4824844.969576373],[644794.5659747695,4824839.700752458],[644793.1605383533,4824837.298168072],[644793.1121695898,4824837.223342916],[644793.0573327043,4824837.153120005],[644790.4722705912,4824834.130620906],[644790.4009989967,4824834.055533696],[644790.3223462449,4824833.988217473],[644790.2371553147,4824833.929393713],[644790.1463392592,4824833.879692875],[644790.0508714203,4824833.839647638],[644787.6856101818,4824832.98860892],[644787.5822717894,4824832.957612065],[644787.4761955154,4824832.937928253],[644787.368616048,4824832.929786597],[644783.7988890351,4824832.852787622],[644783.690856461,4824832.856300408],[644778.1537279064,4824833.33688257],[644778.1413280714,4824833.33803662],[644776.0279030014,4824833.548014299],[644775.92082187,4824833.564552094],[644775.8161585475,4824833.592578088],[644775.7151417674,4824833.631763257],[644774.5646452226,4824834.151406097],[644774.471927635,4824834.199256245],[644774.3847004555,4824834.256506632],[644774.3039132553,4824834.322534019],[644774.2304454993,4824834.396619622],[644774.165096971,4824834.477956929],[644774.108579067,4824834.565660488],[644774.0615070515,4824834.65877554],[644772.2435898731,4824838.775220044],[644772.2395538287,4824838.784485575],[644770.9347684819,4824841.821703402],[644768.7215645819,4824846.613322737],[644767.8862083944,4824848.381530653],[644766.2745401665,4824849.210980274],[644764.0183398788,4824849.808004914],[644758.9689317701,4824850.232274099],[644755.2963579736,4824850.395964018],[644752.1061487731,4824850.513003857],[644750.2564151473,4824850.401223253],[644746.4060340679,4824849.351776143],[644741.1708262439,4824847.516548982],[644741.1143083029,4824847.498599483],[644737.026708071,4824846.332655025],[644736.9467921235,4824846.313373792],[644736.8655624731,4824846.300721974],[644731.5699780908,4824845.697636052],[644731.5144054767,4824845.69287274],[644726.5917009223,4824845.408949168],[644726.5232780072,4824845.407348806],[644719.3222762899,4824845.485428602],[644719.2979518494,4824845.485988363],[644713.8155239136,4824845.678906648],[644713.7855558954,4824845.680411629],[644699.9738093433,4824846.5819504345],[644686.0062145533,4824847.257446513],[644677.8894102941,4824847.504257967],[644677.8786340641,4824847.50464381],[644663.0062402182,4824848.1174546],[644662.9874949813,4824848.11840328],[644654.6785516437,4824848.617128636],[644654.6339420133,4824848.620809816],[644652.001969876,4824848.897430673],[644651.9253698494,4824848.908492816],[644651.8498547472,4824848.925445822],[644649.5662984911,4824849.531805599],[644649.476242329,4824849.560335139],[644649.3892800967,4824849.597235235],[644649.306187849,4824849.642176591],[644649.2277071053,4824849.694758145],[644649.1545382311,4824849.754510658],[644647.0534422913,4824851.64261009],[644646.9804786728,4824851.715308529],[644646.9153799964,4824851.7951265415],[644646.8588368783,4824851.881217358],[644644.6106283086,4824855.721747423],[644644.5890935324,4824855.760478087],[644643.1247605752,4824858.537242724],[644641.2577052335,4824862.023552474],[644639.8167226346,4824864.128573641],[644638.4631462174,4824866.033282447],[644636.9964973498,4824867.576571036],[644634.5880754153,4824869.073612398],[644631.9058764844,4824870.695179522],[644623.9428225551,4824874.027029313],[644623.860636211,4824874.065897009],[644620.1009247195,4824876.0578944655],[644613.2489806657,4824878.765486442],[644604.0652621415,4824881.169630146],[644593.1888786089,4824883.698642512],[644593.1832280703,4824883.699973694],[644576.0213467445,4824887.795669094],[644560.6617015649,4824889.889756925],[644548.2865272284,4824891.455913255],[644548.275295951,4824891.45739933],[644543.0367445061,4824892.180759506],[644537.5097982659,4824890.8043197505],[644537.4968115423,4824890.801177506],[644532.811502099,4824889.700609589],[644526.5107588291,4824888.198592225],[644526.4643601846,4824888.188688374],[644524.0360159866,4824887.73029806],[644520.7941064456,4824885.895182363],[644517.8942647636,4824883.653089189],[644517.8338157312,4824883.609842836],[644517.7703215678,4824883.571205759],[644516.4042190034,4824882.807988361],[644516.1160543333,4824879.986232445],[644516.8079181708,4824875.280150026],[644516.8166897413,4824875.195711638],[644517.0395352427,4824871.550088678],[644517.8392677205,4824864.683380938],[644517.8459177418,4824864.578995794],[644517.8416279802,4824864.474487042],[644517.826445368,4824864.37099806],[644517.80053601,4824864.269661066],[644517.764183367,4824864.171584737],[644517.7177851545,4824864.077842073],[644516.6750204746,4824862.222017635],[644516.6205230529,4824862.135669594],[644516.5575044352,4824862.055329025],[644516.4866216509,4824861.981833555],[644516.4086137204,4824861.915949444],[644516.324293951,4824861.858363599],[644516.2345414566,4824861.809676403],[644516.1402919922,4824861.770395471],[644516.0425281987,4824861.740930341],[644513.6715080224,4824861.1565376315],[644513.572355143,4824861.137351432],[644501.9080511597,4824859.486202537],[644501.8845237806,4824859.483156316],[644488.9268984103,4824857.961510069],[644481.2947316559,4824856.777424576],[644481.2555764891,4824856.7721397495],[644474.2605258562,4824855.968366696],[644469.1345834841,4824855.113373299],[644463.7127644507,4824853.633098425],[644460.6879978778,4824851.360901692],[644457.55182817,4824848.314321156],[644457.4738585638,4824848.246064291],[644457.3892439305,4824848.186242699],[644453.857821246,4824845.954641444],[644453.7840184339,4824845.912286162],[644453.7068819423,4824845.876358644],[644453.6269703032,4824845.847119033],[644447.8248649845,4824843.999997555],[644447.7280517376,4824843.974437664],[644447.6291677064,4824843.958687707],[644447.5292043132,4824843.952905593],[644432.2844888853,4824843.835644723],[644419.6733172531,4824843.132705927],[644414.8397478539,4824842.597785136],[644414.7368315797,4824842.591742193],[644409.3482781632,4824842.553589986],[644409.3340148652,4824842.553590721],[644400.4284557279,4824842.617563173],[644400.2938592535,4824842.627639141],[644388.5616044308,4824844.308009633],[644374.1292603113,4824846.262979944],[644364.5005400663,4824847.4774648305],[644364.4978840386,4824847.477803452],[644343.6606340795,4824850.162736153],[644312.013137643,4824854.092644593],[644280.1007072688,4824857.8395789405],[644280.0883062738,4824857.841113585],[644280.0,4824857.85260225],[644280.0,4824859.869457293],[644280.340136464,4824859.825205466],[644312.2496723952,4824856.078610963],[644312.2562914995,4824856.077811415],[644343.9093793618,4824852.147208647],[644343.9139443123,4824852.146631115],[644364.7521483861,4824849.461575474],[644374.3840888393,4824848.246684417],[644374.3931805303,4824848.245495299],[644388.833843846,4824846.28939809],[644388.841391885,4824846.2883463465],[644400.5104612216,4824844.617025694],[644409.341249719,4824844.553590352],[644414.6710573775,4824844.591326626],[644419.4804346361,4824845.123570125],[644419.5347779784,4824845.128088302],[644432.1971453286,4824845.833880715],[644432.2451066396,4824845.835400962],[644447.3624257738,4824845.951681913],[644452.8979384664,4824847.713932652],[644456.2328822671,4824849.8213736005],[644459.339902355,4824852.839637217],[644459.436077352,4824852.921899863],[644462.6643704778,4824855.346985211],[644462.7424391912,4824855.400057407],[644462.8251644922,4824855.445531649],[644462.911809184,4824855.483002697],[644463.0016011427,4824855.512136633],[644468.6566992204,4824857.056101774],[644468.7555567215,4824857.077783137],[644473.9565716952,4824857.945298442],[644474.0069412382,4824857.952388394],[644481.007637045,4824858.756810111],[644488.6385716639,4824859.940704445],[644488.675250601,4824859.945701611],[644501.6394799211,4824861.468123377],[644513.2419768122,4824863.110523125],[644515.1435095512,4824863.579199807],[644515.8151365168,4824864.774504712],[644515.0497870992,4824871.345990696],[644515.0449362796,4824871.400660981],[644514.8230079132,4824875.031280148],[644514.1192138348,4824879.818512489],[644514.1105876826,4824879.900616737],[644514.10876336,4824879.9831527285],[644514.1137533004,4824880.065557938],[644514.4674285412,4824883.528804152],[644514.4817382391,4824883.623648122],[644514.5050688296,4824883.716684833],[644514.5372056679,4824883.807058334],[644514.5778530904,4824883.893937175],[644514.6266371347,4824883.976522059],[644514.6831089807,4824884.054053193],[644514.746749079,4824884.125817278],[644514.8169719315,4824884.191154076],[644514.8931314776,4824884.249462476],[644514.9745270385,4824884.300206034],[644516.7298457421,4824885.280871622],[644519.6274584557,4824887.521241407],[644519.7465161191,4824887.600377382],[644523.1950360555,4824889.552446984],[644523.2930939447,4824889.60107077],[644523.3958784547,4824889.6386868125],[644523.502158266,4824889.664844487],[644526.0700618285,4824890.14957895],[644532.3493304761,4824891.646477036],[644532.3525463304,4824891.647238041],[644537.0329605902,4824892.746656092],[644542.7406941161,4824894.16811941],[644542.834149091,4824894.186715108],[644542.9289497158,4824894.196331444],[644543.0242352353,4824894.196881104],[644543.1191404922,4824894.188359099],[644548.5432567887,4824893.439375385],[644560.9175804505,4824891.873326713],[644560.9271129135,4824891.872073732],[644576.3404920922,4824889.770659969],[644576.437536626,4824889.7525106035],[644593.6446682786,4824885.6460161805],[644604.5316543563,4824883.114538476],[644604.5584224614,4824883.107923985],[644613.8137323521,4824880.68503886],[644613.9279873556,4824880.647659618],[644620.8875558816,4824877.897539105],[644620.9882259244,4824877.851153387],[644624.7567762255,4824875.854472889],[644632.7460070578,4824872.511670327],[644632.8129270972,4824872.480723755],[644632.877385136,4824872.444930694],[644635.6281008229,4824870.7819406465],[644635.638646956,4824870.775475404],[644638.1610748837,4824869.2075695135],[644638.231196147,4824869.159741682],[644638.2970088817,4824869.106139658],[644638.3580389404,4824869.047149617],[644639.9619281224,4824867.359449222],[644640.0521855571,4824867.249842964],[644641.4520757574,4824865.279962907],[644641.462120417,4824865.2655623015],[644642.9387663485,4824863.108443301],[644642.9951321259,4824863.015672614],[644644.8893559793,4824859.478631724],[644644.8923518443,4824859.472994451],[644646.3478355285,4824856.713010388],[644648.5061334298,4824853.026071334],[644650.3122662483,4824851.403033431],[644652.2881630277,4824850.878367429],[644654.820727417,4824850.612194348],[644663.0979566138,4824850.115372561],[644677.9555862416,4824849.503170125],[644686.0759604408,4824849.256250118],[644686.0938722263,4824849.255544727],[644700.0788385505,4824848.579208532],[644700.0956680753,4824848.578252389],[644712.9047283586,4824847.742162264],[644713.2348820369,4824854.083153469],[644715.2321766084,4824853.979161185],[644714.902217421,4824847.641905406],[644719.3561264836,4824847.485179133],[644726.5107236883,4824847.4076024955],[644731.3713914244,4824847.687948011],[644736.557367231,4824848.278551196],[644740.5371853914,4824849.413751965],[644745.7779514855,4824851.250927604],[644745.8458040686,4824851.272038194],[644749.8300859099,4824852.357980854],[644749.9305486903,4824852.379883574],[644750.032729517,4824852.391354321],[644752.0339712477,4824852.512290657],[644752.1309543892,4824852.513439306],[644755.3736156955,4824852.394475147],[644755.381479856,4824852.394155638],[644759.07761083,4824852.229415755],[644759.1168126438,4824852.226896164],[644764.2731422568,4824851.793643055],[644764.3598341983,4824851.782525889],[644764.4452242835,4824851.763881387],[644766.891276354,4824851.1166191],[644766.9942766188,4824851.0833024755],[644767.0930719611,4824851.039047166],[644769.1030729528,4824850.004594459],[644769.1840463547,4824849.958014127],[644769.2603198857,4824849.904081135],[644769.331227951,4824849.843266125],[644769.396151777,4824849.776099795],[644769.4545248115,4824849.703168265],[644769.5058376667,4824849.625107967],[644769.5496425652,4824849.542600089],[644770.5317640189,4824847.463732469],[644770.5354259769,4824847.455893537],[644772.7560922096,4824842.648118142],[644772.7670573825,4824842.623513123],[644774.0751649776,4824839.578561923],[644775.7365104833,4824835.816654253],[644776.3888881691,4824835.52199592],[644778.3328666125,4824835.328853477],[644783.8098704368,4824834.853489701],[644787.1621850431,4824834.925799093],[644789.1245173865,4824835.631860974],[644791.4793323149,4824838.385151103],[644792.8758593056,4824840.772504885],[644792.9567474809,4824840.890513392],[644797.1783910585,4824846.192035587],[644799.8971541366,4824850.060003235],[644799.9270407563,4824850.100331963],[644804.9688309728,4824856.558318207],[644808.2649182965,4824861.2001932375],[644808.2940806586,4824861.2392131975],[644809.4579811196,4824862.71991332],[644809.5161039379,4824862.787434476],[644809.5800057026,4824862.849514531],[644809.6491792017,4824862.90566073],[644811.3034059234,4824864.130266362],[644811.3843723505,4824864.184309743],[644811.470209822,4824864.230224642],[644811.5601049202,4824864.267575958],[644811.6532057769,4824864.296009739],[644811.7486301452,4824864.31525654],[644814.2291728405,4824864.691002452],[644814.3344651749,4824864.701291838],[644814.4402553054,4824864.700399952],[644814.545359192,4824864.6883367775],[644814.6486004755,4824864.665237329],[644816.3801079104,4824864.18035918],[644816.4927148022,4824864.141455696],[644816.5998958935,4824864.089436403],[644819.1354090659,4824862.66632666],[644819.2227855684,4824862.6111624455],[644819.3040028994,4824862.547275914],[644819.3781938409,4824862.475349229],[644820.6851558898,4824861.070179449],[644820.7480186373,4824860.995609499],[644820.8033181273,4824860.9152704105],[644820.8505283287,4824860.829926404],[644820.8892001591,4824860.740389304],[644820.9189657565,4824860.647510826],[644820.9395419785,4824860.552174465],[644821.6430033596,4824856.295539517],[644822.3093529223,4824852.98247538],[644822.3215276239,4824852.907198006],[644822.3279307857,4824852.831211785],[644822.5258956015,4824848.524268364],[644822.5269471175,4824848.480867775],[644822.5400224897,4824843.28201762],[644823.3718203651,4824842.0856576245],[644826.3656072682,4824840.311160633],[644830.0145916918,4824839.10383633],[644830.0292745007,4824839.098851665],[644834.817889121,4824837.431650247],[644836.7300916944,4824837.11056252],[644838.8125556258,4824838.010830115],[644838.8879283386,4824838.039860732],[644838.9653980875,4824838.0627137525],[644843.1081443676,4824839.104926082],[644850.1335473055,4824841.835314082],[644850.150354321,4824841.841672827],[644864.4515686423,4824847.105979998],[644864.5208052973,4824847.128638526],[644871.8363598244,4824849.231017661],[644871.9285293476,4824849.252838532],[644872.0223499228,4824849.265841268],[644872.1169798507,4824849.269909214],[644872.2115701712,4824849.265005876],[644875.7906393654,4824848.908909908],[644875.8980939614,4824848.892278077],[644876.0031075611,4824848.864077866],[644876.1044385772,4824848.824642689],[644878.585040883,4824847.700376753],[644878.6801511256,4824847.650964456],[644878.7694266818,4824847.591656712],[644880.567859775,4824846.252662714],[644880.6479699682,4824846.186269636],[644880.7207479215,4824846.111912032],[644880.7854057638,4824846.030394873],[644880.8412435297,4824845.942600639],[644880.8876567372,4824845.84947976],[644882.0609166502,4824843.15251502],[644882.1072380433,4824843.0219947],[644883.2448118656,4824838.939098402],[644884.4890946145,4824834.6036579665],[644886.2173226492,4824832.194347903],[644888.4586250109,4824830.273822562],[644891.2421937542,4824828.902061398],[644897.6366936091,4824827.130418955],[644900.9243745414,4824826.407340235],[644903.1931855113,4824827.188155955],[644906.2982233028,4824829.552895975],[644913.1584634379,4824835.060015031],[644913.2412044375,4824835.119758074],[644918.5882332027,4824838.579724528],[644918.6587573851,4824838.621364774],[644918.73245251,4824838.657094299],[644918.8088242623,4824838.686673445],[644921.1750286956,4824839.4933341835],[644921.2733963346,4824839.521342697],[644921.374110368,4824839.539157093],[644921.4761172596,4824839.54659102],[644923.8505505685,4824839.597856088],[644923.9348634066,4824839.596119775],[644926.4349973612,4824839.43898336],[644926.5414276965,4824839.426541652],[644926.6459157265,4824839.402783201],[644926.7472616975,4824839.367980808],[644926.8443019334,4824839.322534081],[644926.9359221976,4824839.266964848],[644929.2403741068,4824837.694458345],[644929.3147707935,4824837.638441966],[644929.3836338721,4824837.575747643],[644931.7124696757,4824835.248194143],[644931.7833261027,4824835.16944356],[644931.8454541884,4824835.083639198],[644931.8981567136,4824834.991743978],[644931.9408422353,4824834.894789174],[644931.9730317245,4824834.793862843],[644932.8801895907,4824831.3244748125],[644932.9017376035,4824831.219272383],[644933.515665027,4824827.110204077],[644933.5226025599,4824827.05223851],[644934.0313621237,4824821.409792405],[644934.7949671489,4824814.897845774],[644935.694454928,4824812.830657365],[644937.1142802895,4824811.203461178],[644939.3831429784,4824810.182548165],[644943.7362401256,4824808.803772197],[644948.1920249041,4824807.969262195],[644951.8430989501,4824808.51567536],[644951.9092537753,4824808.52333372],[644958.6605766808,4824809.0778241325],[644970.5775555004,4824811.029588484],[644970.650945962,4824811.038836095],[644980.2721058769,4824811.89109565],[644980.3578577117,4824811.894992991],[644980.4436278533,4824811.891521789],[644984.5638399096,4824811.547170692],[644984.6404255544,4824811.53778284],[644984.7160594062,4824811.522518071],[644990.2313202983,4824810.1860549245],[644990.3119841923,4824810.16288469],[644990.390421142,4824810.133032245],[644990.4660786747,4824810.096707854],[644995.4359905074,4824807.448436401],[644995.4506000591,4824807.440494887],[645001.2570188377,4824804.221393286],[645001.3494976915,4824804.163304157],[645001.4350906499,4824804.095476943],[645001.5127768726,4824804.0187206],[645003.292376893,4824802.0571131725],[645003.3479447077,4824801.990236229],[645003.3974930133,4824801.9187850375],[645003.4406472093,4824801.8432997875],[645003.4770810371,4824801.764351173],[645003.9726702214,4824800.5548394155],[645006.0500145246,4824800.747345026],[645006.1520815882,4824800.751563392],[645006.2540464536,4824800.745346778],[645006.3548450687,4824800.728760058],[645006.4534255514,4824800.701976323],[645006.5487591671,4824800.665275072],[645006.6398510637,4824800.619039302],[645006.7257506537,4824800.563751505],[645030.2238880408,4824783.68208477],[645029.056963254,4824782.057804455],[645005.862382695,4824798.721388151],[645004.6787923881,4824798.611705912],[645005.3777168518,4824795.787590031],[645005.3973997274,4824795.685604325],[645006.5509933798,4824787.421528163],[645007.5224324259,4824782.190984224],[645009.0871118379,4824775.0137465345],[645009.9920564695,4824771.138738849],[645011.8542248012,4824768.580792811],[645016.1594615349,4824763.629133731],[645016.2341499605,4824763.53175368],[645018.9883009221,4824759.443855081],[645023.702901886,4824754.324701829],[645023.7638528134,4824754.251863053],[645023.8176186822,4824754.173570434],[645023.8637144971,4824754.09053021],[645023.9017244508,4824754.003491447],[645025.4520959076,4824749.936883759],[645025.4810464788,4824749.8489067415],[645028.82730707,4824737.832009871],[645028.8342582291,4824737.80566342],[645030.9740149621,4824729.223124924],[645034.4628463829,4824715.791823584],[645034.4867147926,4824715.66860838],[645036.6308382809,4824699.081182359],[645036.6320691451,4824699.071271064],[645038.7443815593,4824681.338685143],[645038.7508237982,4824681.254395237],[645039.3255173374,4824664.358544444],[645040.2572203454,4824655.697538304],[645042.2095624927,4824650.8474874],[645044.3514720115,4824648.370399559],[645048.8018054932,4824643.326150396],[645055.3739809477,4824638.680270253],[645058.8029782709,4824637.6652841],[645062.3898907868,4824637.532625971],[645066.2891383308,4824638.012353899],[645070.3073571695,4824639.139536801],[645072.9511574572,4824640.940787564],[645073.0263354115,4824640.987279981],[645076.004323473,4824642.651680185],[645076.1009569201,4824642.699054415],[645076.2021218351,4824642.735769545],[645076.3066464913,4824642.761400326],[645080.8163096643,4824643.612954804],[645085.0029566583,4824645.756612633],[645087.9826526367,4824648.038338476],[645089.4122458844,4824650.325694033],[645090.9853186478,4824654.127907312],[645091.9093575332,4824653.74560882],[645091.2178296254,4824654.467958563],[645091.786071024,4824655.0119537525],[645098.637442215,4824661.634763873],[645105.3432076232,4824670.14984002],[645105.4005330332,4824670.216396931],[645105.4634780587,4824670.277666408],[645109.1742652411,4824673.585008543],[645112.9690285254,4824677.101466903],[645117.0635183173,4824681.249511158],[645122.9453356487,4824688.134692137],[645126.2156488854,4824692.296878847],[645135.0074312562,4824704.42699743],[645139.2124817688,4824710.239923517],[645139.244166647,4824710.28139972],[645148.1048377805,4824721.2732710205],[645148.1457299131,4824721.320862026],[645150.1586348417,4824723.519999648],[645150.2279059456,4824723.58863741],[645150.3035330877,4824723.650201714],[645150.3847970822,4824723.704107107],[645150.4709251386,4824723.749840967],[645150.561098211,4824723.786968385],[645152.8223260931,4824724.591439969],[645152.9109814726,4824724.618423097],[645153.0017540323,4824724.637083427],[645153.0938642301,4824724.647260706],[645155.4661786732,4824724.7985626245],[645155.5400108959,4824724.800538418],[645158.5654312581,4824724.769727896],[645163.985234036,4824726.014114379],[645166.4669333287,4824727.688944232],[645168.272698792,4824729.874376109],[645168.2850208749,4824729.88900184],[645171.8684241864,4824734.0607145615],[645174.565013446,4824737.965317627],[645174.619651613,4824738.037252824],[645174.680558327,4824738.103963946],[645174.7472365894,4824738.164906633],[645174.8191423055,4824738.2195835905],[645174.8956887245,4824738.267548655],[645174.9762512275,4824738.308410432],[645178.6880215282,4824739.984781195],[645187.1389126164,4824744.008424554],[645189.5866217505,4824746.355142263],[645190.3979306578,4824749.289851673],[645191.2653416739,4824754.676780396],[645191.283983768,4824754.766272283],[645192.3644970896,4824758.9786431715],[645192.3911302747,4824759.065769296],[645193.8232515651,4824763.0857406035],[645193.8628348988,4824763.180997536],[645193.9120206786,4824763.271669926],[645193.9702855326,4824763.356792956],[645194.0370094805,4824763.435460854],[645194.111482531,4824763.506836537],[645196.4989970195,4824765.569644156],[645196.5732560175,4824765.627916251],[645196.6526785378,4824765.678927027],[645196.7365569229,4824765.722221974],[645201.2971015022,4824767.809813279],[645201.3916887394,4824767.847413437],[645201.4896082238,4824767.875203579],[645201.5898454591,4824767.892895782],[645204.6856636849,4824768.278092393],[645210.3008347419,4824769.429302046],[645218.222384007,4824771.773421473],[645224.0122185156,4824773.726435536],[645224.133741129,4824773.759072562],[645227.1506139372,4824774.368801974],[645227.2521980032,4824774.383951705],[645227.3548002109,4824774.388601848],[645231.3630930848,4824774.364209886],[645231.4561639761,4824774.3593002865],[645231.5483735678,4824774.3457472],[645236.0112948797,4824773.475615867],[645236.044081008,4824773.468651294],[645241.69600977,4824772.168682155],[645241.7797578681,4824772.1455466645],[645241.861181631,4824772.115228918],[645241.9396663909,4824772.077957786],[645247.2035873428,4824769.291780202],[645247.2836888571,4824769.244487627],[645247.3590493939,4824769.189956631],[645250.7793924629,4824766.463892746],[645250.8698391912,4824766.382320366],[645250.9496981638,4824766.290357284],[645253.0699832459,4824763.525051518],[645253.1339645598,4824763.430968713],[645254.8594419784,4824760.554353871],[645257.574124291,4824756.6755935615],[645257.625934325,4824756.593324451],[645257.6695104253,4824756.506412946],[645257.7044406891,4824756.415680576],[645258.9755506719,4824752.565305405],[645258.9987638133,4824752.483440826],[645259.014933197,4824752.399899157],[645259.023941746,4824752.315285296],[645259.195413291,4824749.618923597],[645259.194696926,4824749.481585301],[645258.93830804,4824746.020389026],[645258.9256483292,4824745.919484373],[645258.3574102286,4824742.718318166],[645258.1209432865,4824739.939772549],[645259.3980300288,4824736.074910779],[645260.5755747614,4824733.011181066],[645262.146699346,4824729.183061402],[645266.2690425043,4824720.612481807],[645268.6737240383,4824718.124527926],[645271.0188365129,4824717.15447573],[645273.4257965647,4824717.206566343],[645277.2326168637,4824717.973324628],[645277.3140384917,4824717.986257706],[645284.9652774595,4824718.88006795],[645295.2119953935,4824721.224250069],[645298.6765432899,4824722.017415467],[645302.3593575588,4824723.466535288],[645289.3142952411,4824722.164292376],[645289.1920252183,4824722.159609738],[645289.0700986091,4824722.169895046],[645282.3259713441,4824723.157290714],[645282.2378698336,4824723.1742572775],[645282.1516436336,4824723.1990520945],[645282.067986843,4824723.23147557],[645281.9875728769,4824723.271266707],[645281.9110490471,4824723.318105195],[645277.9585879949,4824725.9881918775],[645277.8738894026,4824726.05221182],[645277.796455703,4824726.124850837],[645277.7271597602,4824726.205290111],[645277.6667827058,4824726.2926229],[645277.6160051348,4824726.3858647505],[645277.575399432,4824726.483964605],[645270.938647023,4824745.285283875],[645272.8245964373,4824745.951012654],[645279.3515342433,4824727.460788222],[645282.8415106429,4824725.103133235],[645289.238072694,4824724.166623972],[645305.5904102041,4824725.799020591],[645308.5147573543,4824728.151921692],[645310.1959501005,4824730.519311852],[645313.4843483539,4824737.9006644245],[645313.4911528929,4824737.915607104],[645316.3324859113,4824744.021725773],[645316.363940372,4824744.083611005],[645318.657765656,4824748.233380874],[645318.7140238466,4824748.323493917],[645318.7795240108,4824748.407130469],[645318.853526957,4824748.483346663],[645318.9351975358,4824748.551282376],[645322.6646127888,4824751.33209474],[645322.7386250453,4824751.382293325],[645322.8168261027,4824751.425678882],[645322.8985905319,4824751.461904427],[645323.6524516857,4824751.756319815],[645322.9731004998,4824753.898105745],[645322.9474906891,4824753.995672779],[645322.9318404405,4824754.095323461],[645322.9263089983,4824754.196043825],[645322.9309526457,4824754.296809023],[645322.945724133,4824754.3965937495],[645322.9704731575,4824754.494382678],[645326.7789310992,4824766.878932773],[645326.7902639124,4824767.042907156],[645320.7959945572,4824762.0925270105],[645319.5224469122,4824763.634628302],[645326.4446070805,4824769.351309057],[645326.523621527,4824769.4102611095],[645326.608056629,4824769.461146674],[645326.697091793,4824769.503471214],[645326.7898617197,4824769.536823394],[645326.8854648126,4824769.560879075],[645326.982971941,4824769.575404469],[645327.0814354693,4824769.5802584095],[645327.1798984674,4824769.575393723],[645327.2774040101,4824769.560857688],[645327.3730044771,4824769.536791574],[645327.4657707635,4824769.50342927],[645327.554801308,4824769.461095014],[645327.6392308562,4824769.4102002345],[645327.7182388688,4824769.35123956],[645328.4916071524,4824768.712409736],[645328.5618250157,4824768.648566319],[645328.6256745793,4824768.578354045],[645328.6825807801,4824768.502405282],[645328.7320310907,4824768.4214040665],[645328.7735801352,4824768.3360799365],[645328.8068537011,4824768.247201367],[645328.831552109,4824768.155568847],[645328.8474529118,4824768.062007666],[645328.8544128984,4824767.967360485],[645328.8523693838,4824767.872479748],[645328.7662304653,4824766.626136421],[645328.7517900942,4824766.512445096],[645328.7244364015,4824766.40115261],[645324.9739342092,4824754.205066164],[645325.518953724,4824752.486786793],[645326.9836319847,4824753.061041616],[645327.0956945232,4824753.097518891],[645327.21127024,4824753.1205592435],[645332.0529349458,4824753.792065744],[645332.0805978053,4824753.79551013],[645346.3520911027,4824755.370823552],[645357.3672463848,4824756.686167984],[645372.5923549358,4824758.679590497],[645379.9842578745,4824759.980806695],[645380.1204539079,4824759.995258329],[645385.1261459771,4824760.181453565],[645385.2195033715,4824760.180564942],[645385.3123710233,4824760.170973696],[645385.4039394615,4824760.152763426],[645385.4934105396,4824760.126092863],[645392.6523767196,4824757.622641259],[645402.4060253559,4824754.717854283],[645408.0746910435,4824753.432269034],[645412.6769809346,4824753.466933604],[645412.7626995703,4824753.463900694],[645412.8478429946,4824753.453533421],[645416.9092597633,4824752.781152113],[645423.2070621549,4824752.177128932],[645423.3026352074,4824752.163278081],[645423.3964265629,4824752.14027295],[645423.4875615182,4824752.108328085],[645423.5751901435,4824752.067741407],[645427.7351752744,4824749.891136218],[645427.8482761986,4824749.822046959],[645431.6612482393,4824747.13041309],[645437.8350423558,4824743.531217991],[645437.8986757227,4824743.490833614],[645437.9590869021,4824743.445771515],[645440.859239154,4824741.107338698],[645444.1190780131,4824739.132860496],[645449.2787512555,4824736.749766083],[645451.949332576,4824736.431166425],[645456.6400687159,4824736.710189556],[645458.805962131,4824737.849740392],[645458.9030195158,4824737.894358648],[645459.0042825482,4824737.928369278],[645459.1085957235,4824737.95138419],[645462.1278750586,4824738.450157164],[645462.2215607058,4824738.461124725],[645462.3158629477,4824738.463216389],[645462.4099427501,4824738.456413546],[645462.5029630578,4824738.440776723],[645462.5940962426,4824738.416445046],[645462.6825314661,4824738.383634999],[645462.7674818949,4824738.342638506],[645464.3046254822,4824737.509257701],[645464.3871824119,4824737.459196656],[645464.4645268335,4824737.401407425],[645464.5359377615,4824737.336428704],[645466.749522721,4824735.1176677095],[645466.8120743134,4824735.04884693],[645466.8679619918,4824734.9745127605],[645466.9167023834,4824734.895308117],[645468.2566275992,4824732.472217677],[645469.8325502829,4824729.976354383],[645471.6217713995,4824728.552861143],[645474.3405368952,4824727.79282408],[645477.2401888976,4824727.219535932],[645477.3119788099,4824727.202568896],[645477.3823226262,4824727.180355852],[645480.9772660219,4824725.897513874],[645491.6784333239,4824723.198006072],[645497.5303675848,4824721.739307275],[645499.5028181475,4824721.799628476],[645500.7278766509,4824722.9755995935],[645501.5567349588,4824723.890473445],[645501.6201267573,4824723.954407202],[645501.689011977,4824724.01238023],[645501.7628322312,4824724.063922596],[645501.8409891296,4824724.108616496],[645501.9228491287,4824724.146099639],[645502.0077486677,4824724.176068185],[645503.9423790465,4824724.762463375],[645504.038495939,4824724.786469002],[645504.1365164522,4824724.8008462805],[645504.2354785416,4824724.805454101],[645504.3344109212,4824724.80024724],[645506.1241231691,4824724.616813229],[645506.2199657181,4824724.60226667],[645506.3139494434,4824724.578508387],[645506.4051911425,4824724.545761649],[645508.2641983225,4824723.774924575],[645508.3587519141,4824723.729775321],[645508.4480622218,4824723.674980195],[645508.5311487222,4824723.611140786],[645508.6070992221,4824723.538957973],[645509.6077034991,4824722.482839536],[645509.6590213163,4824722.424265837],[645511.1617884825,4824720.567898812],[645511.1662012262,4824720.562408323],[645512.2704300504,4824719.178535156],[645516.347211058,4824717.07652004],[645519.7690098785,4824716.169745279],[645519.7846661207,4824716.165460096],[645528.7344314787,4824713.637614984],[645541.9014453617,4824709.960502335],[645544.1256683578,4824709.921122649],[645545.0404775201,4824710.982266538],[645546.5715364886,4824713.398749711],[645546.6319428339,4824713.483906071],[645546.7008986276,4824713.562300144],[645546.7776522154,4824713.633077392],[645546.8613669423,4824713.695466307],[645548.0322331508,4824714.476431091],[645548.1197475174,4824714.5285662925],[645548.2121117752,4824714.571527757],[645548.3083674747,4824714.604869681],[645548.4075157854,4824714.62824608],[645548.508527861,4824714.641414382],[645550.452549486,4824714.794680807],[645550.5525146635,4824714.797545909],[645550.6522661228,4824714.79041205],[645550.7508062245,4824714.773350576],[645550.8471494452,4824714.746532124],[645550.9403322327,4824714.710224912],[645552.3111470519,4824714.095485618],[645552.3940715345,4824714.0535672875],[645552.4727473176,4824714.004133115],[645552.5464951447,4824713.947609895],[645552.6146783051,4824713.884485629],[645553.6639908011,4824712.818318114],[645553.7222603773,4824712.753717619],[645553.7746946819,4824712.684297081],[645553.8208968622,4824712.610581913],[645554.8897540638,4824710.727906773],[645557.0,4824708.591940454],[645557.0,4824706.283253448],[645556.0546506953,4824706.772583193],[645555.9644355673,4824706.825435054],[645555.8802320148,4824706.887417714],[645555.8029605584,4824706.957853575],[645553.374049662,4824709.4163688505],[645553.3152505299,4824709.481348173],[645553.26236608,4824709.551225817],[645553.2158024464,4824709.625465148],[645552.14646553,4824711.508985253],[645551.3211662117,4824712.347541286],[645550.3550621334,4824712.780788818],[645548.9253510603,4824712.668070573],[645548.1475154101,4824712.149256173],[645546.6905856929,4824709.849771816],[645546.6032639301,4824709.732026597],[645545.334256175,4824708.26002579],[645545.2671352831,4824708.189433899],[645545.1934647326,4824708.125707302],[645545.1139435412,4824708.069450664],[645545.0293262401,4824708.0211977735],[645544.9404157146,4824707.981406472],[645544.848055586,4824707.950454319],[645544.7531222068,4824707.928634999],[645544.6565163456,4824707.916155546],[645544.5591546403,4824707.913134369],[645541.7380558848,4824707.963081692],[645541.6533594901,4824707.968181543],[645541.5694003124,4824707.980443037],[645541.4867828147,4824707.999777898],[645528.1950610344,4824711.7117173495],[645528.1922222764,4824711.712514634],[645519.2488488989,4824714.238554343],[645515.7295975148,4824715.171153978],[645515.6264251054,4824715.204578469],[645515.5274790445,4824715.24897914],[645511.1638461429,4824717.498896981],[645511.0729518303,4824717.551996491],[645510.9881430598,4824717.614356787],[645510.9103596255,4824717.685286833],[645510.8404634717,4824717.764000629],[645509.605080201,4824719.312242915],[645508.1290467582,4824721.135585795],[645507.3015882435,4824722.008952233],[645505.7744657069,4824722.642173384],[645504.3303025641,4824722.790190831],[645502.8529502561,4824722.342398685],[645502.1866307709,4824721.606931275],[645502.1380503906,4824721.556928887],[645500.6103481943,4824720.090440833],[645500.530994554,4824720.0218883185],[645500.4448984187,4824719.962022612],[645500.35300654,4824719.911502021],[645500.2563294019,4824719.870882096],[645500.1559301096,4824719.840609509],[645500.0529126987,4824719.821017152],[645499.9484099946,4824719.812320471],[645497.453264653,4824719.7360142935],[645497.3616867461,4824719.737409862],[645497.2706206222,4824719.747178265],[645497.1808301857,4824719.76523756],[645491.1933324802,4824721.257727958],[645491.1905991861,4824721.258413373],[645480.4416562744,4824723.96997319],[645480.3501678583,4824723.997766842],[645476.779764198,4824725.271851908],[645473.9146423306,4824725.838313128],[645473.8393671621,4824725.856247683],[645470.888359362,4824726.681208609],[645470.7936841421,4824726.71284854],[645470.7026350498,4824726.75376975],[645470.6161193425,4824726.803564478],[645470.5349991041,4824726.861736545],[645468.4548319123,4824728.516704681],[645468.3713767749,4824728.591086115],[645468.2967453398,4824728.674317758],[645468.2318703028,4824728.765359436],[645466.5500182093,4824731.428988147],[645466.5204584174,4824731.478960392],[645465.2344521099,4824733.804545099],[645463.2231217187,4824735.820578592],[645462.1156161564,4824736.421025996],[645459.594104389,4824736.004482251],[645457.3804042309,4824734.839778647],[645457.2839438518,4824734.79539731],[645457.1833214462,4824734.761493928],[645457.0796714618,4824734.738450739],[645456.9741624808,4824734.726527538],[645451.978935441,4824734.4293921115],[645451.8898985352,4824734.428067523],[645451.8010967975,4824734.434668771],[645448.8846731825,4824734.782597351],[645448.7816003113,4824734.800403243],[645448.680951243,4824734.828878349],[645448.5838271859,4824734.867711119],[645443.2296112159,4824737.340658835],[645443.1308420182,4824737.393168686],[645440.731576916,4824738.846398999],[645440.5402270823,4824738.421749861],[645441.6214005658,4824731.731420443],[645441.6334688521,4824731.610327289],[645441.6307388883,4824731.488664877],[645441.1752225155,4824726.0341985375],[645439.1821605904,4824726.200644214],[645439.6274926779,4824731.533161387],[645438.5179244004,4824738.399198523],[645438.507098031,4824738.495818162],[645438.5057055012,4824738.593032492],[645438.5137599739,4824738.689922587],[645438.5311853138,4824738.7855725875],[645438.5578168067,4824738.879078356],[645438.5934027164,4824738.9695560215],[645439.0546755703,4824739.993226207],[645436.7625074997,4824741.841432982],[645430.6164129332,4824745.424479812],[645430.5433548789,4824745.471436418],[645426.7491305374,4824748.149836006],[645422.8213527412,4824750.204944681],[645416.684234885,4824750.793556584],[645416.6163766827,4824750.802417243],[645412.6060372567,4824751.466342524],[645407.973970888,4824751.431453676],[645407.8589055383,4824751.437223854],[645407.7452675168,4824751.456190395],[645401.9312750818,4824752.7747340035],[645401.8670201594,4824752.791568313],[645392.059020536,4824755.712541851],[645392.0143534499,4824755.726994241],[645385.0116242575,4824758.175810619],[645380.2633899064,4824757.999191961],[645372.9173900243,4824756.706056199],[645372.8738449153,4824756.699376158],[645357.6212682256,4824754.702357244],[645357.6100161826,4824754.70094886],[645346.5848058563,4824753.384403733],[645346.5759514293,4824753.383386405],[645332.3138841352,4824751.809113442],[645327.6033714501,4824751.155796849],[645325.2539209626,4824750.234650336],[645325.2526888596,4824750.234168207],[645323.7519105433,4824749.648049359],[645320.303743508,4824747.076947759],[645318.1311304427,4824743.146463472],[645315.3079135888,4824737.07927704],[645311.9823551128,4824729.614512215],[645311.937562408,4824729.5260482095],[645311.8842288026,4824729.442455187],[645310.0650685336,4824726.880784535],[645310.0084796835,4824726.808389605],[645309.9454845635,4824726.741494622],[645309.8766150618,4824726.680664403],[645306.6124897553,4824724.054381123],[645306.6032119638,4824724.047006445],[645304.0130815025,4824722.013107772],[645303.9340619039,4824721.95702667],[645303.8499855151,4824721.908856682],[645303.7616417453,4824721.869050083],[645299.339018521,4824720.128829016],[645299.2683512901,4824720.104036306],[645299.1960268012,4824720.084601689],[645295.6582522531,4824719.274671954],[645285.3583119959,4824716.918313943],[645285.2513295725,4824716.8998838365],[645277.5870760655,4824716.004553246],[645273.7336559336,4824715.228408964],[645273.6461793971,4824715.214787252],[645273.5578409092,4824715.208955695],[645270.8522264281,4824715.150401703],[645270.7488556613,4824715.15351344],[645270.6463590576,4824715.16728459],[645270.5458328387,4824715.191567869],[645270.4483521522,4824715.226103562],[645267.7170202156,4824716.355914849],[645267.62443164,4824716.399899336],[645267.5368321965,4824716.453131063],[645267.455142317,4824716.515050712],[645267.3802203395,4824716.585007675],[645264.7187928183,4824719.338598468],[645264.6488779238,4824719.419115432],[645264.5879342657,4824719.5066194],[645264.5366548392,4824719.600115359],[645260.3315862049,4824728.342685797],[645260.3076452321,4824728.396456775],[645258.7210679798,4824732.262227597],[645258.7127559315,4824732.283147613],[645257.5225963654,4824735.379698534],[645257.5065193463,4824735.42471171],[645256.1576717303,4824739.506744208],[645256.1308734838,4824739.604090007],[645256.114028021,4824739.703641909],[645256.1073070702,4824739.804385046],[645256.1107791472,4824739.905292406],[645256.3684655284,4824742.93317173],[645256.3802557286,4824743.023151166],[645256.9475338401,4824746.218909279],[645257.1950767299,4824749.560686458],[645257.036121053,4824752.060238199],[645255.8513175052,4824755.649178751],[645253.2007100165,4824759.436388428],[645253.1624290198,4824759.495398976],[645251.448159643,4824762.353328426],[645249.4370712084,4824764.976218382],[645246.1854880503,4824767.567778128],[645241.119930182,4824770.248962726],[645235.6121119699,4824771.515785787],[645231.2574191407,4824772.364815921],[645227.4457436666,4824772.388011392],[645224.5917331713,4824771.811197502],[645218.8438031343,4824769.872318562],[645218.8079332828,4824769.860965969],[645210.827328811,4824767.499371115],[645210.7444153305,4824767.478644295],[645205.0489100858,4824766.310964708],[645204.971542505,4824766.298240738],[645201.989557933,4824765.927207858],[645197.6986487831,4824763.963042292],[645195.6187106129,4824762.1659799805],[645194.290448433,4824758.4375416925],[645193.2326335815,4824754.313660574],[645192.3637386987,4824748.917516515],[645192.3403023696,4824748.810032065],[645191.4410372302,4824745.557162728],[645191.4069400129,4824745.455427597],[645191.3621389112,4824745.357931349],[645191.3071497044,4824745.265796426],[645191.242605465,4824745.180083544],[645191.1692492682,4824745.101779486],[645188.4065486692,4824742.453066724],[645188.3257715434,4824742.3834947925],[645188.2380470836,4824742.322917431],[645188.1443722956,4824742.272023111],[645179.5386897355,4824738.174680344],[645179.5204121292,4824738.1662028],[645176.0527575195,4824736.600083581],[645173.4841672276,4824732.8808202585],[645173.4198937771,4824732.797497141],[645169.8083895891,4824728.593070049],[645167.9168154162,4824726.30378798],[645167.8525466605,4824726.233164086],[645167.7818347767,4824726.168992153],[645167.705324531,4824726.1118573155],[645164.949783537,4824724.252219313],[645164.8712725773,4824724.204335689],[645164.7886948287,4824724.16386684],[645164.7027486357,4824724.131155005],[645164.6141608291,4824724.106476821],[645158.8975049438,4824722.793932877],[645158.781271626,4824722.774372843],[645158.6635442225,4824722.768625015],[645155.556596806,4824722.800265799],[645153.36083735,4824722.660224238],[645151.4659206412,4824721.986074296],[645149.6422236355,4824719.993649994],[645140.8176354868,4824709.046540487],[645136.627618365,4824703.254396073],[645127.8236445738,4824691.107456143],[645127.8002693013,4824691.076487663],[645124.5053019781,4824686.882923252],[645124.4793199371,4824686.851215416],[645118.5608154282,4824679.9230888905],[645118.5121673689,4824679.870123398],[645114.3767519336,4824675.680618207],[645114.3447640577,4824675.649623952],[645110.5265553632,4824672.111439649],[645110.5122166426,4824672.098408425],[645106.8599627115,4824668.843235676],[645100.1667904682,4824660.344150509],[645100.0761727856,4824660.243849325],[645093.9378492163,4824654.3102996275],[645094.3746676272,4824653.909557695],[645115.0172095904,4824664.839240577],[645115.1103402701,4824664.882581068],[645115.2074257326,4824664.916138997],[645115.3074415594,4824664.93956027],[645115.4093324112,4824664.952597752],[645115.5120231643,4824664.955113876],[645115.6144302543,4824664.947082092],[645115.7154731101,4824664.928587149],[645115.8140855557,4824664.8998242],[645115.90922706,4824664.861096744],[645119.2886808899,4824663.278556444],[645118.4405068848,4824661.467313539],[645115.5125094897,4824662.83844453],[645094.6867119989,4824651.811732667],[645094.6011758174,4824651.771498703],[645094.5122228628,4824651.739520867],[645094.4206479483,4824651.716084887]]]}},{"type":"Feature","properties":{"class":"path","widthMeters":1.5},"geometry":{"type":"MultiPolygon","coordinates":[[[[644408.976691195,4824852.189891276],[644408.9934729454,4824852.264108703],[644409.0176883468,4824852.336243771],[644409.049088148,4824852.405553987],[644410.4969961834,4824855.213252848],[644412.1748526928,4824859.524151466],[644412.2039187687,4824859.589442454],[644412.2390674795,4824859.651670407],[644412.2799796595,4824859.710270265],[644412.3262838076,4824859.764709917],[644412.377559462,4824859.814495027],[644412.4333410166,4824859.859173523],[644412.4931219504,4824859.8983397065],[644412.5563594258,4824859.931637929],[644412.6224792184,4824859.958765828],[644412.6908809312,4824859.979477071],[644412.7609434463,4824859.99358359],[644412.8320305648,4824860.0009572925],[644417.3565130053,4824860.253206149],[644422.5290387899,4824860.80732155],[644422.566055846,4824860.81036213],[644428.4008854073,4824861.1444337685],[644431.9986760736,4824862.063564589],[644439.1706420508,4824864.683586892],[644439.6853441774,4824863.274657611],[644432.4780792648,4824860.6417400995],[644432.4063691569,4824860.619542896],[644428.7018520873,4824859.673146585],[644428.6310006975,4824859.658644915],[644428.5590819754,4824859.651034704],[644422.6703437098,4824859.313876538],[644417.4972590283,4824858.759701263],[644417.4591202801,4824858.756597304],[644413.3975882437,4824858.530158849],[644411.8805623029,4824854.632480475],[644411.8482194433,4824854.560759585],[644410.4530115937,4824851.855253852],[644410.1806072473,4824847.977287331],[644410.091045492,4824843.5384354135],[644408.5913507257,4824843.56869443],[644408.6812904561,4824848.026279513],[644408.6829813584,4824848.063703598],[644408.9675158312,4824852.114355414],[644408.976691195,4824852.189891276]]],[[[644314.7532784159,4824861.256524475],[644314.7483138167,4824861.191703055],[644314.7377543193,4824861.127555096],[644314.7216792646,4824861.064562585],[644312.8510508335,4824854.868662133],[644311.415070035,4824855.302204688],[644313.2477250627,4824861.372329533],[644312.351663632,4824878.066510533],[644313.8495075294,4824878.146907418],[644314.7526108141,4824861.321532305],[644314.7532784159,4824861.256524475]]],[[[644664.8111515269,4824855.950129397],[644664.858908766,4824855.999818495],[644664.9110255492,4824856.044913962],[644664.9670618013,4824856.085035011],[644680.0769957533,4824865.885783508],[644684.924680734,4824876.380629455],[644686.8541669181,4824884.853413869],[644684.0348053782,4824885.28650459],[644684.2625535352,4824886.769114039],[644687.1889685018,4824886.319578514],[644688.4068843024,4824891.636280452],[644689.8690124175,4824891.301345571],[644688.6767212393,4824886.096505619],[644695.7276211007,4824885.061505174],[644695.5097708731,4824883.577409059],[644688.3416067747,4824884.6296227025],[644686.3697862522,4824875.970939199],[644686.3484495523,4824875.895637063],[644686.3193815427,4824875.82296852],[644681.3478503054,4824865.060005443],[644681.3154082211,4824864.9976297375],[644681.2772677634,4824864.938566018],[644681.2337641086,4824864.883333332],[644681.1852795641,4824864.832417063],[644681.1322402095,4824864.78626466],[644681.0751121514,4824864.745281706],[644665.9930613243,4824854.962619025],[644663.7514445187,4824848.858081705],[644662.3433752152,4824849.375131835],[644664.6711619858,4824855.714333602],[644664.697865553,4824855.777868472],[644664.730288516,4824855.838683862],[644664.7681570951,4824855.896266246],[644664.8111515269,4824855.950129397]]],[[[644377.0191627953,4824876.752320616],[644382.0544224764,4824893.751666317],[644383.4926561319,4824893.325656982],[644378.43805681,4824876.261019467],[644378.4158505277,4824876.196867696],[644378.3879344496,4824876.13498667],[644366.3966015414,4824852.473485513],[644365.3534148483,4824848.288214649],[644363.8979452603,4824848.650993201],[644364.9616052777,4824852.918403156],[644364.9865410995,4824852.998879503],[644365.0203456044,4824853.076051345],[644377.0191627953,4824876.752320616]]],[[[644623.5384575976,4824878.851392842],[644623.5659447998,4824878.916414499],[644624.6639548282,4824881.206790804],[644624.6985098837,4824881.270725176],[644624.739090675,4824881.331014935],[644624.7853161643,4824881.3870939845],[644624.8367523123,4824881.438435765],[644626.7467531998,4824883.16851708],[644626.797708958,4824883.210734167],[644626.8521875597,4824883.2482955],[644626.9097649169,4824883.280908683],[644629.3234235785,4824884.510720194],[644629.3956824143,4824884.5428581545],[644629.4709236032,4824884.567208746],[644629.5483105718,4824884.583501226],[644629.626982889,4824884.591554446],[644631.628694074,4824884.690242657],[644631.7030955721,4824884.690215923],[644631.7771283274,4824884.682817627],[644631.8500637807,4824884.668120577],[644631.9211841716,4824884.646269407],[644631.9897896014,4824884.617479155],[644632.0552049219,4824884.582033146],[644632.1167863782,4824884.540280208],[644634.169874281,4824882.99424485],[644635.7088190654,4824882.137841845],[644637.2164848464,4824882.605839948],[644638.2356235493,4824883.912306346],[644639.4183353387,4824882.989705227],[644638.2546417962,4824881.497929372],[644638.2049998745,4824881.440533516],[644638.1498121454,4824881.388447824],[644638.0896435945,4824881.342205525],[644638.0251101983,4824881.302280026],[644637.9568726189,4824881.269080064],[644637.8856294396,4824881.242945525],[644635.8469473944,4824880.610113406],[644635.7735197394,4824880.591330428],[644635.6985713101,4824880.580054181],[644635.6228675027,4824880.576399822],[644635.5471814276,4824880.58040467],[644635.4722860138,4824880.592027827],[644635.398946116,4824880.6111505935],[644635.3279107035,4824880.637577681],[644635.2599052115,4824880.671039209],[644633.3953081731,4824881.708663511],[644633.3088460991,4824881.76489441],[644631.431365807,4824883.17869209],[644629.8612820308,4824883.1012839405],[644627.6797359595,4824881.989738836],[644625.9528971112,4824880.425565937],[644624.9963068004,4824878.430181811],[644625.078598954,4824874.96735136],[644623.5790223354,4824874.931714794],[644623.4924565874,4824878.574376878],[644623.494102623,4824878.644950618],[644623.5023766832,4824878.715056981],[644623.5172054657,4824878.784074873],[644623.5384575976,4824878.851392842]]]]}},{"type":"Feature","properties":{"class":"residential","widthMeters":5},"geometry":{"type":"MultiPolygon","coordinates":[[[[645312.2642234532,4824219.0],[645307.1703357752,4824219.0],[645310.4571386597,4824235.88146494],[645315.3649814669,4824234.925913276],[645312.2642234532,4824219.0]]],[[[645248.3895203782,4824219.0],[645253.3353977436,4824246.324388849],[645258.2554490955,4824245.433830207],[645253.4707681561,4824219.0],[645248.3895203782,4824219.0]]],[[[645035.883001114,4824246.61435368],[645036.4581765232,4824251.581160828],[645170.1178430589,4824236.102856336],[645169.5426676497,4824231.136049189],[645035.883001114,4824246.61435368]]],[[[645466.6603981692,4824332.818100465],[645471.5823303887,4824331.937996365],[645466.9768206701,4824306.181944688],[645462.0548884505,4824307.062048788],[645466.6603981692,4824332.818100465]]],[[[645144.3315223226,4824274.554008942],[645139.3450091906,4824274.921005923],[645146.7838813033,4824375.9954981],[645151.7703944353,4824375.628501119],[645144.3315223226,4824274.554008942]]],[[[645498.6057355533,4824397.902051264],[645490.3167853432,4824329.892153146],[645485.353512649,4824330.497069804],[645493.9351324965,4824400.908289167],[645502.8830736906,4824531.739872163],[645507.8714206105,4824531.398705039],[645499.0816882959,4824402.880360106],[645557.0,4824396.166603894],[645557.0,4824391.133123716],[645498.6057355533,4824397.902051264]]]]}},{"type":"Feature","properties":{"class":"service","widthMeters":3},"geometry":{"type":"MultiPolygon","coordinates":[[[[645002.2851934412,4824388.065820389],[644999.3307338317,4824388.586558727],[645007.3929777354,4824434.328483691],[645010.3474373448,4824433.807745354],[645002.2851934412,4824388.065820389]]],[[[645310.5212507782,4824678.881917029],[645307.7466296857,4824677.7410937315],[645306.5013459413,4824680.769775346],[645306.4541752012,4824680.901708445],[645306.4195204192,4824681.037467301],[645306.3976839612,4824681.17586741],[645306.136246497,4824683.548050119],[645306.1273567331,4824683.692044594],[645306.1323413198,4824683.836227085],[645306.1511541476,4824683.979263844],[645306.1836211901,4824684.11983172],[645306.2294421138,4824684.256630404],[645306.2881930558,4824684.388394449],[645306.3593305456,4824684.513904984],[645312.8263233807,4824694.743555366],[645314.0549633034,4824697.475645932],[645314.2294521608,4824700.868964789],[645313.8278575293,4824707.307980798],[645311.0665995613,4824714.704596306],[645311.0302970777,4824714.814637308],[645311.002597197,4824714.927152236],[645309.4311615322,4824722.571120236],[645309.4064516694,4824722.7389581],[645309.4008515995,4824722.908512707],[645309.5693184229,4824730.056797625],[645312.5684856331,4824729.986114911],[645312.4040351388,4824723.008248498],[645313.9177588349,4824715.645010057],[645316.7163466312,4824708.148398681],[645316.761061681,4824708.007900426],[645316.7917671589,4824707.863690964],[645316.808166393,4824707.717163627],[645317.2289465526,4824700.9705341365],[645317.2298762944,4824700.800131973],[645317.0662196146,4824697.617468586],[645319.5148548421,4824694.615056405],[645319.5819687848,4824694.526226909],[645319.6423093253,4824694.432664203],[645325.2358659634,4824685.009054714],[645322.6560960745,4824683.477784875],[645317.119483921,4824692.805458519],[645315.9106878919,4824694.287632704],[645315.5189011758,4824693.416428072],[645315.4187573746,4824693.230106318],[645309.1757185038,4824683.354711896],[645309.3564454431,4824681.714865358],[645310.5212507782,4824678.881917029]]],[[[644728.3903256764,4824812.30584511],[644740.5844592535,4824811.334674779],[644743.0788341827,4824830.247400992],[644746.0530777714,4824829.855131855],[644743.3724715868,4824809.530372589],[644735.24661155,4824747.799688473],[644737.8765363599,4824745.369488308],[644759.8612785188,4824741.9736714605],[644763.2117200913,4824742.755514108],[644765.5537807851,4824745.358353105],[644776.718874892,4824828.276854951],[644779.6920427086,4824827.876513679],[644768.4651531471,4824744.499082739],[644768.4378084966,4824744.3519483395],[644768.3959387331,4824744.208270976],[644768.3399606239,4824744.0694808],[644768.270431369,4824743.936959314],[644768.1880430552,4824743.8120256215],[644768.0936157674,4824743.6959233],[644765.126584559,4824740.398526031],[644765.0192133276,4824740.2907348275],[644764.9014753457,4824740.194374605],[644764.7745818768,4824740.1104366975],[644764.6398383739,4824740.03978464],[644764.4986310496,4824739.983145285],[644764.3524126153,4824739.941101329],[644760.2601986858,4824738.986162316],[644760.1191680356,4824738.96028923],[644759.9763113393,4824738.947999998],[644759.8329339301,4824738.949406913],[644759.690345899,4824738.964497117],[644736.9659380516,4824742.47456453],[644736.8208547209,4824742.504373763],[644736.6794185339,4824742.54834612],[644736.54300851,4824742.606052866],[644736.4129546629,4824742.676931353],[644736.2905250327,4824742.760290509],[644736.1769133226,4824742.855317571],[644732.640052489,4824746.123578226],[644732.5395689191,4824746.225751314],[644732.4492940428,4824746.337047022],[644732.3700518204,4824746.456449525],[644732.3025655148,4824746.582869011],[644732.2474510894,4824746.715151616],[644732.2052115869,4824746.8520899685],[644732.1762325373,4824746.992434196],[644732.1607784391,4824747.134903346],[644732.158990346,4824747.278197067],[644732.1708845779,4824747.421007483],[644740.1920607159,4824808.356427016],[644728.4064730022,4824809.295059764],[644726.0347863438,4824808.670564366],[644724.384294653,4824806.4575870745],[644717.7910535393,4824747.872173261],[644717.7635117754,4824747.709033812],[644717.7181708704,4824747.54991992],[644717.6555824323,4824747.39676733],[644717.576507899,4824747.251439265],[644715.2732211202,4824743.523920149],[644715.188917446,4824743.401498053],[644715.0929112579,4824743.288020784],[644714.9861453058,4824743.18460265],[644714.8696679972,4824743.092259185],[644714.744623102,4824743.011897173],[644714.6122385209,4824742.944305742],[644714.4738142281,4824742.890148618],[644714.3307095057,4824742.849957608],[644714.1843295963,4824742.824127373],[644705.9729020897,4824741.791529223],[644705.817021427,4824741.780134027],[644705.6608012343,4824741.785021044],[644705.505937621,4824741.806137218],[644705.3541119674,4824741.843253285],[644700.6614617849,4824743.253239023],[644700.5294075408,4824743.29973902],[644700.4022638178,4824743.358348292],[644700.2811382114,4824743.428556273],[644700.1670858909,4824743.509751354],[644700.061100408,4824743.601226217],[644699.9641050408,4824743.70218399],[644699.8769447515,4824743.811745193],[644699.8003788254,4824743.928955398],[644699.7350742561,4824744.052793543],[644699.6815999355,4824744.18218083],[644698.2977429917,4824748.030216425],[644698.2574097982,4824748.16075695],[644698.2291220329,4824748.294425935],[644698.2131143912,4824748.430114367],[644698.209519684,4824748.566696479],[644698.2183677354,4824748.703039088],[644705.834885768,4824817.4354817085],[644705.8576467644,4824817.577914218],[644705.893982968,4824817.717502053],[644705.9435583885,4824817.852954482],[644706.005914617,4824817.983019019],[644706.0804750635,4824818.106492995],[644706.1665502901,4824818.222234683],[644706.2633443844,4824818.329173854],[644706.3699623202,4824818.426321673],[644706.4854182329,4824818.512779843],[644711.9327632878,4824822.196966627],[644712.0615235532,4824822.274932851],[644712.1974495819,4824822.339601645],[644712.3391725725,4824822.39032178],[644712.485265347,4824822.426582494],[644712.6342567224,4824822.448018636],[644712.7846463269,4824822.454414338],[644716.5829106848,4824822.425188736],[644716.7362985091,4824822.416138355],[644716.8879556961,4824822.391443585],[644717.0362908742,4824822.351363553],[644717.1797475305,4824822.296318827],[644721.1201192453,4824820.547896931],[644721.2410505968,4824820.48757727],[644721.3560622712,4824820.416618352],[644721.4642207391,4824820.335596139],[644721.5646480975,4824820.245168272],[644725.1062558682,4824816.754777249],[644725.2081762562,4824816.643694259],[644725.29843176,4824816.522941867],[644725.3761107109,4824816.39373979],[644725.4404284755,4824816.257393094],[644725.4907353816,4824816.115279015],[644725.5265232805,4824815.968833044],[644726.3166840062,4824811.847049278],[644727.8892890663,4824812.261136282],[644728.0542716852,4824812.294805216],[644728.2219883697,4824812.309771021],[644728.3903256764,4824812.30584511]],[[644713.2274902409,4824819.450918087],[644708.7402875772,4824816.416101569],[644701.238414654,4824748.718231226],[644702.2487604643,4824745.908803086],[644705.9134624786,4824744.807681678],[644713.0982353148,4824745.711176611],[644714.8475106157,4824748.542112464],[644721.4485269566,4824807.196614439],[644721.4745608645,4824807.353014786],[644721.5169579888,4824807.505793439],[644721.5752446344,4824807.653243431],[644721.6487695753,4824807.793717328],[644721.7367113311,4824807.925645645],[644723.5481884053,4824810.354471946],[644722.6680419581,4824814.945656018],[644719.6535159706,4824817.91658762],[644716.2480147132,4824819.427676775],[644713.2274902409,4824819.450918087]]],[[[644359.5822038447,4824738.617580305],[644356.5957711177,4824738.902570774],[644366.0383701932,4824837.852149475],[644369.0248029202,4824837.567159006],[644359.5822038447,4824738.617580305]]],[[[644334.6888547462,4824739.891996543],[644355.1656536553,4824839.001044655],[644358.1036025477,4824838.394038636],[644337.6268036385,4824739.284990524],[644334.6888547462,4824739.891996543]]],[[[644317.9561347059,4824749.124474402],[644345.8904268489,4824839.993656228],[644348.757989579,4824839.112132554],[644320.823697436,4824748.242950727],[644317.9561347059,4824749.124474402]]]]}},{"type":"Feature","properties":{"class":"tertiary","widthMeters":8},"geometry":{"type":"Polygon","coordinates":[[[645306.4327744979,4824671.24416746],[645306.302443212,4824670.884548432],[645306.1383579093,4824670.539022596],[645305.9420190689,4824670.210749616],[645305.7152221121,4824669.902731385],[645300.2851477169,4824663.222252801],[645293.3743767476,4824653.273409608],[645230.2159691302,4824547.366086242],[645230.0258450347,4824547.076555972],[645229.811385827,4824546.804559287],[645229.5741996153,4824546.552135734],[645193.8284215633,4824511.668009851],[645187.6313199606,4824498.594189787],[645177.6899972042,4824465.958163584],[645177.501297132,4824465.460293302],[645173.1188016209,4824455.87638924],[645172.875004932,4824455.4229165],[645168.118840009,4824447.797652916],[645167.9275755688,4824447.518108291],[645167.7133466505,4824447.255747367],[645146.0821214166,4824422.942980314],[645145.8976263643,4824422.749085076],[645103.5936987308,4824381.168627833],[645090.8144483136,4824364.258831565],[645080.291759362,4824346.105485663],[645039.8712686743,4824247.5795449475],[645039.8345164271,4824247.492878916],[645027.3540285355,4824219.0],[645018.6202315233,4824219.0],[645032.487775146,4824250.659518821],[645072.9938073333,4824349.393969046],[645073.233845312,4824349.881737248],[645084.0155127945,4824368.48186314],[645084.2849540667,4824368.887570567],[645097.3887115311,4824386.226761977],[645097.7759833832,4824386.66778916],[645140.1942760743,4824428.360655621],[645161.5107465681,4824452.31964897],[645165.9506499403,4824459.437870068],[645170.1149149849,4824468.544534655],[645180.0642907214,4824501.20699771],[645180.2762068684,4824501.754729005],[645186.9067347078,4824515.742934049],[645187.0727950955,4824516.05652058],[645187.2659930831,4824516.3541564355],[645187.484808292,4824516.633499359],[645187.7275187483,4824516.892351053],[645223.6127091463,4824551.912528747],[645285.0251007362,4824654.892041057],[645284.2436341919,4824655.718772825],[645279.4278726463,4824660.799872024],[645269.1202486516,4824668.698675968],[645261.4629247203,4824670.304848906],[645260.9822544388,4824670.4374264935],[645217.7715681171,4824685.31035098],[645190.8354597697,4824692.532965718],[645168.9130131329,4824692.205780829],[645150.3918026892,4824684.921639773],[645135.1147373738,4824673.459809348],[645121.743989089,4824659.596411368],[645100.1371770788,4824637.184614841],[645099.9058504761,4824636.963141405],[645099.657547581,4824636.760883767],[645088.2472531442,4824628.2029365385],[645087.9579990918,4824628.005174465],[645087.6525476885,4824627.833485255],[645087.3332428485,4824627.689186386],[645075.6210843783,4824623.002612182],[645075.2246414248,4824622.867591891],[645074.8162540402,4824622.774762809],[645074.4003991071,4824622.725142562],[645073.9816353704,4824622.719275101],[645056.9422375355,4824623.3732967675],[645056.4787210574,4824623.4182159975],[645056.023566567,4824623.516702811],[645051.3167589923,4824624.826141574],[645052.3888486288,4824628.679792287],[645050.7288487145,4824625.040506603],[645044.6817237383,4824627.798802548],[645046.3417236527,4824631.438088232],[645043.7292362939,4824628.409076875],[645036.5905614201,4824634.566101616],[645036.3484396739,4824634.793112463],[645036.1259713522,4824635.039414534],[645029.5803266483,4824642.920413033],[645029.3138912483,4824643.280451667],[645029.089378409,4824643.668020532],[645028.909603179,4824644.078260104],[645025.5302076709,4824653.138809609],[645025.397652503,4824653.56566313],[645025.3135471699,4824654.004640458],[645025.2789418049,4824654.4502605535],[645024.3394988002,4824697.93263179],[645021.3907278336,4824715.643442703],[645017.6520030082,4824733.824965548],[645013.9641688138,4824744.962187979],[645007.9641144256,4824753.646293699],[644994.7434759479,4824761.498366326],[644968.845292128,4824776.887157439],[644906.4361108638,4824807.417385382],[644882.9052124392,4824814.8405144345],[644862.7066349048,4824819.135668266],[644777.9722875085,4824824.083486204],[644744.3322198215,4824826.058101282],[644669.2635455243,4824830.439836474],[644669.2540661123,4824830.440401076],[644622.676243218,4824833.2701046895],[644622.6173354491,4824833.274120049],[644557.035496136,4824838.230944501],[644521.483311179,4824839.371165667],[644484.0732244891,4824836.436573573],[644438.9241826611,4824831.802019113],[644438.6979648749,4824831.785263533],[644405.4892978895,4824830.270734152],[644404.9439835914,4824830.283093013],[644367.1694736313,4824833.726078564],[644356.2734804745,4824834.713878458],[644356.2686872403,4824834.714315907],[644346.9582673528,4824835.5696686525],[644346.7632837337,4824835.5924192015],[644313.0741447762,4824840.36383219],[644280.0,4824844.599065518],[644280.0,4824852.664388792],[644314.1167241624,4824848.295650364],[644314.1695864041,4824848.288522655],[644347.7879201018,4824843.527137859],[644356.9981724692,4824842.680987552],[644367.8927341837,4824841.693317428],[644405.3979045978,4824838.2748815],[644438.2201455882,4824839.771787363],[644483.3040840076,4824844.399658951],[644483.3997236419,4824844.408317574],[644521.0779184335,4824847.363941106],[644521.5189540746,4824847.374135871],[644557.378663503,4824846.224051855],[644557.5519116054,4824846.214730824],[644623.1908348144,4824841.253591841],[644669.7344494581,4824838.425966453],[644744.799038014,4824834.044469745],[644778.4392395116,4824832.069846841],[644863.4754387662,4824827.104403133],[644863.776370119,4824827.075386446],[644864.0742503555,4824827.0237239655],[644884.7572344698,4824822.625562842],[644885.1286447279,4824822.527731953],[644909.1283546262,4824814.956710202],[644909.4096609788,4824814.8562740795],[644909.682688213,4824814.735126203],[644972.5066708267,4824784.001979724],[644972.7922519688,4824783.847609876],[644998.8290313111,4824768.376464722],[645012.8007872392,4824760.078284383],[645013.1581911833,4824759.839126553],[645013.4878549641,4824759.562981956],[645013.785968203,4824759.253042376],[645014.0490851942,4824758.91289021],[645020.872008644,4824749.0378149655],[645021.0727512412,4824748.715577391],[645021.2420396815,4824748.375759691],[645021.3783489448,4824748.0214230865],[645025.3200944815,4824736.117390937],[645025.4408761644,4824735.665698001],[645029.242008316,4824717.180686594],[645029.2696725889,4824717.031950369],[645032.2780460026,4824698.963157203],[645032.3314276279,4824698.392618662],[645033.2624487826,4824655.300055008],[645036.1680581629,4824647.509780809],[645042.0675185398,4824640.406792414],[645048.5215525262,4824634.840262542],[645053.7633031524,4824632.449324773],[645057.7168008729,4824631.349457595],[645073.4386269372,4824630.746008167],[645083.8702173713,4824634.920168101],[645094.600647974,4824642.968203965],[645115.9849237541,4824665.14917344],[645129.5788581625,4824679.243981024],[645129.809697853,4824679.464939901],[645130.0574385064,4824679.666767443],[645146.0236236076,4824691.645619557],[645146.3197399017,4824691.847700858],[645146.6327602068,4824692.0224578325],[645146.9601701542,4824692.1684867265],[645166.6619808504,4824699.916941863],[645167.0022661979,4824700.033396446],[645167.3516364325,4824700.1188144],[645167.7072669875,4824700.172505145],[645168.0662826838,4824700.194034603],[645191.2733791947,4824700.540392444],[645191.6422679564,4824700.528869622],[645192.0085244543,4824700.483395766],[645192.3690306623,4824700.404358003],[645219.9778337417,4824693.001367733],[645220.2437001793,4824692.920075664],[645263.3497108418,4824678.083180071],[645271.2127264221,4824676.433861987],[645282.6214110719,4824676.628033737],[645291.361466883,4824677.482795348],[645301.5473830116,4824680.016565888],[645307.8785112874,4824682.1093861265],[645307.8824522392,4824682.110686582],[645315.2260527108,4824684.529741459],[645322.2286909015,4824687.856024949],[645382.0838117925,4824716.330153482],[645382.3604942932,4824716.44921712],[645414.1968826863,4824728.750247237],[645414.6074467396,4824728.883899855],[645415.0300247165,4824728.972521058],[645415.4596929003,4824729.015078265],[645439.9998427175,4824730.113421012],[645440.3524750684,4824730.113644504],[645440.7037567996,4824730.082809943],[645441.0509578016,4824730.02115697],[645557.0,4824704.113040596],[645557.0,4824695.915764108],[645439.8258446555,4824722.097624649],[645416.4704356445,4824721.052307311],[645385.3843967026,4824709.041199251],[645325.6643225689,4824680.631314824],[645318.4319903068,4824677.195924904],[645317.9672382645,4824677.009847651],[645310.3873991553,4824674.512973422],[645306.6224407,4824673.2684272835],[645306.6109318916,4824672.37423528],[645306.5877273212,4824671.99243214],[645306.5281599519,4824671.614591144],[645306.4327744979,4824671.24416746]],[[645293.8008335049,4824667.910155489],[645293.9820678596,4824668.151141795],[645295.7545588718,4824670.331791154],[645293.0081488605,4824669.648615219],[645292.4319004528,4824669.549314914],[645283.2398189896,4824668.650346014],[645282.9185524248,4824668.631932388],[645282.3719364643,4824668.622629179],[645284.5457851036,4824666.95679385],[645284.7892733478,4824666.754420968],[645285.0159931317,4824666.533424478],[645289.5335685569,4824661.766940786],[645293.8008335049,4824667.910155489]]]}},{"type":"Feature","properties":{"class":"unclassified","widthMeters":4},"geometry":{"type":"Polygon","coordinates":[[[645397.7687547905,4824221.789501335],[645397.7526309729,4824221.6349056],[645397.7245501841,4824221.482028891],[645397.1681493113,4824219.0],[645393.0688752411,4824219.0],[645393.787342703,4824222.204985983],[645401.3525115063,4824338.334050719],[645148.9985499323,4824373.831497461],[645148.9528015759,4824373.838473332],[645100.3716134154,4824381.822477738],[645064.7056178193,4824383.443848513],[645000.7380538915,4824386.327309976],[644618.6401577855,4824395.833584495],[644597.4711007664,4824219.0],[644593.4425409207,4824219.0],[644614.6261947784,4824395.955517716],[644371.2930215539,4824404.467614627],[644352.4911069648,4824219.0],[644348.4706054273,4824219.0],[644367.2861863277,4824404.602423142],[644280.0,4824407.437199444],[644280.0,4824411.439308373],[644367.6570452868,4824408.592487758],[644391.9312069569,4824699.46978641],[644354.8581433085,4824705.321106947],[644354.7866567321,4824705.333723511],[644311.318663689,4824713.821497357],[644311.0872038594,4824713.881249125],[644280.0,4824723.92282134],[644280.0,4824728.126319738],[644312.2027643356,4824717.724406943],[644355.5176100251,4824709.266537401],[644392.2781371264,4824703.464545173],[644400.8785929143,4824799.238611953],[644403.3118320499,4824834.404636442],[644407.3022909816,4824834.128525025],[644404.8676383538,4824798.942072252],[644404.8643933968,4824798.901248904],[644396.2455684021,4824702.922623938],[644648.8577234151,4824674.267796723],[644667.5100150221,4824834.664060616],[644671.4832401004,4824834.202018975],[644652.827185176,4824673.773393265],[644909.5233371805,4824638.892698566],[644909.6359179858,4824638.874115875],[644931.1796181495,4824634.683546927],[644931.3517101054,4824634.642092138],[644931.5194625616,4824634.58558325],[644949.1444438414,4824627.765957989],[644949.3417086959,4824627.677081778],[644949.5282186144,4824627.567416587],[644967.3583253773,4824615.741031498],[644967.5269171287,4824615.6159903845],[644967.6814753427,4824615.473968496],[645002.0186775852,4824580.425193619],[645042.7373967697,4824540.042010535],[645058.6477216627,4824533.178737546],[645074.8704364661,4824533.077619123],[645120.8662588949,4824538.880456501],[645120.8812877786,4824538.882294781],[645226.5451789239,4824551.400964765],[645226.7272050483,4824551.414145505],[645226.909674832,4824551.410678535],[645420.2456032891,4824538.896109892],[645438.1877945341,4824726.308023213],[645442.1695885718,4824725.926819538],[645424.2395867229,4824538.642228349],[645505.50195316,4824533.565396918],[645505.5098218927,4824533.564889749],[645557.0,4824530.144217688],[645557.0,4824526.135400589],[645505.2486062399,4824529.573426115],[645423.860614348,4824534.658105942],[645405.6440174724,4824341.815290255],[645469.3534113545,4824334.364541362],[645488.066927367,4824332.181135773],[645488.1234569456,4824332.173722014],[645557.0,4824322.140096047],[645557.0,4824318.097876151],[645487.5750529949,4824328.211391145],[645468.889585908,4824330.391524117],[645405.3278287342,4824337.825006976],[645397.7687547905,4824221.789501335]],[[644615.109431088,4824399.941060135],[644648.3823098348,4824670.296072499],[644395.9005746278,4824698.936105664],[644371.6596624496,4824408.457235699],[644615.109431088,4824399.941060135]],[[645000.8577065632,4824390.325570873],[645000.8980260446,4824390.324160719],[645064.8861256641,4824387.43977357],[645100.6707380319,4824385.813010641],[645100.5799121357,4824383.8150740415],[645100.9042484291,4824385.788600319],[645149.5786403221,4824377.789278481],[645401.6746537198,4824342.328116098],[645419.866815341,4824534.912257608],[645226.8339894651,4824547.407206524],[645121.3594195528,4824534.9109666245],[645075.2402246662,4824529.092564566],[645074.9774227939,4824529.07687456],[645058.2163127338,4824529.181348875],[645058.0162036683,4824529.192639154],[645057.8182294472,4824529.223901212],[645057.6243782814,4824529.274821091],[645057.436596975,4824529.344887413],[645040.8055573525,4824536.519056751],[645040.6375597653,4824536.601040547],[645040.4779504327,4824536.698351353],[645040.3281237234,4824536.810139051],[645040.1893885435,4824536.935427046],[644999.1917574048,4824577.595223755],[644999.171466412,4824577.615639263],[644964.9716947394,4824612.524135585],[644947.4983361542,4824624.113896105],[644930.2416030219,4824630.791035294],[644908.9281983499,4824634.936808356],[644652.3515917183,4824669.801258846],[644619.1250507082,4824399.822758521],[645000.8577065632,4824390.325570873]]]}}]}
