{"type":"FeatureCollection","name":"barreiros-area-da-balea-coastline","crs":{"type":"name","properties":{"name":"EPSG:25829"}},"features":[{"type":"Feature","properties":{"source":"IHM"},"geometry":{"type":"LineString","coordinates":[[646071.0,4824705.805801305],[646064.5519738498,4824706.684664872],[646045.202345607,4824706.930340698],[646018.1522022927,4824709.775315643],[645987.9534643579,4824718.440996687],[645962.3861443064,4824723.3296163855],[645899.4701495395,4824727.550897444]]}},{"type":"Feature","properties":{"source":"IHM"},"geometry":{"type":"LineString","coordinates":[[645210.6592020649,4824845.285031993],[645210.9523644169,4824851.902661259],[645206.9935557148,4824853.750404462],[645193.288867451,4824846.320424016]]}},{"type":"Feature","properties":{"source":"IHM"},"geometry":{"type":"LineString","coordinates":[[644947.0,4824849.717367545],[644950.8262255446,4824844.258002758],[644953.2679527155,4824837.077218225],[644950.641896549,4824825.853565009],[644951.7717555473,4824820.6778347185],[644958.2232180585,4824820.139360279],[644985.1344995436,4824825.165135642],[645006.5151658766,4824824.382508861],[645014.6800936376,4824823.447760208],[645022.2018916484,4824819.743501128],[645048.8462644327,4824794.118542184],[645061.5120990535,4824792.425532408],[645082.0541475435,4824791.569460701],[645089.9393885777,4824787.128666151],[645098.7550053808,4824778.896782351],[645103.9131427623,4824766.7968580965],[645105.3131642414,4824752.493419823],[645103.9410942391,4824745.319131538],[645097.2437772301,4824727.6961338855],[645085.9209162588,4824705.0063739605],[645090.6910811554,4824693.28695287],[645090.4684124207,4824685.270824277],[645077.6132005933,4824671.414855901],[645071.7023409626,4824661.886872224],[645070.9056111365,4824657.625101719],[645076.2659395484,4824658.229848769],[645090.6409135747,4824667.1963136615],[645110.5649938614,4824684.105188648],[645121.5401074591,4824699.331725706],[645131.4419012981,4824709.634950641],[645148.9080257447,4824737.068861337],[645161.2493972832,4824745.902625993],[645171.2668926772,4824748.608219307],[645179.1918957119,4824753.168620945],[645182.1692632004,4824757.099784561],[645191.8158716455,4824788.531479065],[645198.6668184742,4824790.446383191],[645204.889215637,4824803.114649572],[645211.7740534735,4824812.052709872],[645225.0471308768,4824811.050940429],[645255.7495757258,4824803.303929813],[645264.4788595694,4824799.070494273],[645279.1029446609,4824787.5422269665],[645304.7852065727,4824761.997413554],[645309.6840326816,4824761.147877891],[645313.1796208147,4824762.412470919],[645322.1735191972,4824769.474031299],[645325.9756083199,4824772.256419224],[645330.4164357262,4824776.886021985],[645332.8294100299,4824775.9049035385],[645357.7640701095,4824780.044911671],[645373.3229005686,4824779.837394225],[645385.1402009864,4824779.648877001],[645392.1971423,4824779.512829499],[645400.8521780596,4824780.578105027],[645405.8805048645,4824777.853614626],[645421.4764408431,4824774.069134427],[645436.4200107566,4824767.203802539],[645445.9765337163,4824766.566397276],[645448.6273161279,4824761.32368576],[645468.9952496744,4824753.598156923],[645474.8766242233,4824751.781116717],[645515.3791917901,4824741.136463449],[645518.9641220749,4824743.869810021],[645523.9060680161,4824744.38806917],[645526.7221845316,4824743.449092721],[645526.6864046842,4824739.881548411],[645526.1517635137,4824738.825483272],[645560.0715547577,4824731.79404744],[645590.6210726759,4824728.156447618],[645605.6414559287,4824727.448880606],[645608.1609667839,4824728.636899114],[645610.3022944956,4824727.51664802],[645661.0114605213,4824726.516765662],[645659.9812425595,4824735.639124293],[645657.7351984975,4824741.9572407985],[645663.6578013401,4824747.552587495],[645664.9915474652,4824754.603959779],[645667.0538053104,4824754.148697181],[645673.1634747746,4824760.05923303],[645681.407696787,4824761.438187116],[645687.3690685576,4824764.500989369],[645695.7468270604,4824758.238187721],[645709.7333833219,4824758.997350016],[645714.7923585026,4824757.473785525],[645717.114274475,4824751.757350681],[645716.586416915,4824745.923495683],[645711.5845684571,4824737.370220806],[645725.7757369162,4824735.03376337],[645754.7813005189,4824733.663457463],[645780.8789843358,4824733.363491267],[645803.574943888,4824731.200793531],[645804.6641449102,4824733.880088465],[645809.7447796814,4824738.057237929],[645813.9829860857,4824738.238192615],[645832.4457910394,4824736.405874467],[645834.2824233418,4824735.179070486],[645833.9400148751,4824731.971533414],[645851.6878244719,4824733.668287079],[645851.496151947,4824739.886536127],[645863.0902949946,4824762.616936689],[645870.9283274945,4824765.954026227],[645877.2535351885,4824759.335718398],[645891.4626449283,4824758.777833114],[645900.9950706443,4824760.740629551],[645906.9184469649,4824757.369271185],[645914.0744098404,4824749.335675729],[645912.5530352138,4824736.802215028],[645911.3639746266,4824733.142921706],[645907.3700756576,4824729.900453812],[645899.4701495395,4824727.550897444]]}},{"type":"Feature","properties":{"source":"IHM"},"geometry":{"type":"LineString","coordinates":[[645193.288867451,4824846.320424016],[645187.5234914604,4824830.828643633],[645175.5234432707,4824821.913311685],[645176.5406491108,4824816.724063464],[645185.8984415452,4824810.326287023],[645192.50108274,4824809.524632361],[645204.4242479493,4824812.282612436],[645209.0160463328,4824813.670867931],[645217.7830941145,4824823.7496826565],[645216.5143981068,4824830.4779709],[645210.3072322194,4824837.277204797],[645210.6592020649,4824845.285031993]]}}]}
