{"type":"FeatureCollection","name":"barreiros-san-bartolo-coastline","crs":{"type":"name","properties":{"name":"EPSG:25829"}},"features":[{"type":"Feature","properties":{"source":"IHM"},"geometry":{"type":"LineString","coordinates":[[643268.0,4825074.318317688],[643267.5302749083,4825073.955963271],[643264.3927989674,4825074.833450566],[643262.6414206333,4825078.529452905],[643262.927779814,4825087.446800667],[643259.8293357996,4825095.580779711],[643236.6955947647,4825116.865119778],[643225.9577621955,4825127.847235529],[643214.0304353328,4825133.992808425],[643184.678014382,4825154.033498468],[643164.0407207827,4825164.360071254],[643130.682878685,4825182.804416618],[643113.3846747357,4825190.002305776],[643078.0366130327,4825211.237833287],[643065.5635792818,4825218.360926006],[643038.0554543717,4825229.61920289],[643020.2964146303,4825239.496423679],[643014.3033368351,4825240.546507615],[642989.778988912,4825252.83523526],[642964.2930040619,4825259.447939171],[642944.1680490306,4825262.063757061],[642940.1341651134,4825264.06675632],[642936.3406936695,4825271.852725764]]}},{"type":"Feature","properties":{"source":"IHM"},"geometry":{"type":"LineString","coordinates":[[642456.2572422249,4825510.080918677],[642455.1917576104,4825510.036078654],[642451.0437540603,4825507.914676226],[642444.8418694678,4825503.5941052865],[642443.1770912455,4825503.236543958],[642437.3700941657,4825504.291078058],[642431.7173445838,4825503.026647353],[642426.3583018014,4825499.723991787],[642424.0992187223,4825496.153793233],[642423.899382116,4825494.14953399],[642424.7165186331,4825491.811298898],[642426.3324794195,4825489.901132141],[642434.9295081506,4825485.672440977],[642436.0449167815,4825484.507215025],[642436.0803891501,4825482.074612317],[642435.1540606043,4825480.421603353],[642432.3504441463,4825477.384294349],[642427.7985784814,4825474.876554924],[642423.7666760344,4825474.135425086],[642419.1258866084,4825475.436950083],[642410.4946687758,4825479.753825704],[642406.4472279595,4825481.267952203],[642404.4626132052,4825481.51473047],[642402.9721257191,4825480.938653648],[642402.2124356679,4825480.189193603],[642401.9577760187,4825478.483774744],[642403.399890952,4825475.247679765],[642407.5492855047,4825471.213470018],[642408.9137277465,4825469.353517951],[642409.2308406228,4825468.115791608],[642408.4576250276,4825464.577130087],[642405.9777012528,4825459.9911324065],[642403.4933118501,4825457.138389801],[642401.5067888278,4825455.9517827025],[642399.6432361983,4825455.823350413],[642397.3094830697,4825456.151612491],[642390.7062539803,4825459.700426767],[642388.8400018583,4825460.460836862],[642385.1371891756,4825460.582276233],[642380.9452220086,4825458.626654964],[642377.4576190774,4825454.697073621],[642375.2145584964,4825449.2272170335],[642374.8902939142,4825444.709187471],[642375.9546072155,4825436.431695014],[642375.1010379468,4825425.635715449],[642375.2630167541,4825421.428004327],[642376.5626812109,4825415.766638717],[642379.5506290533,4825411.641103858],[642382.2814052964,4825407.832339074],[642382.7755778211,4825405.865028499],[642381.4994913685,4825399.37123265],[642381.7770377939,4825397.332658897],[642382.6389807204,4825395.928711206],[642386.2378122462,4825393.093928184],[642397.1953379953,4825387.281919043],[642400.1688262976,4825384.600542688],[642401.4363123004,4825382.360750352],[642402.6337573541,4825378.852794301],[642404.7805513169,4825366.776018624],[642408.550172825,4825358.178153426],[642415.8102495252,4825344.620980834],[642417.7339661676,4825339.250644654],[642418.7299926057,4825334.193958771],[642419.8206052533,4825313.639144451],[642419.3538439376,4825304.795828895],[642418.4936956118,4825298.499743474],[642417.1605045936,4825292.7936253855],[642413.8742817314,4825286.223835151],[642400.5552614809,4825270.052196692],[642392.5769956775,4825261.8606307125],[642382.052645846,4825251.815044849],[642374.3648119963,4825246.307464245],[642369.6575058297,4825244.263146222],[642362.7603504302,4825244.139063328],[642360.9907544756,4825243.768190995],[642359.6393158009,4825242.728405484],[642358.5752393317,4825241.472491524],[642355.6262359134,4825232.3320879955],[642352.8255364138,4825229.150435928],[642348.6195492141,4825226.705652226]]}},{"type":"Feature","properties":{"source":"IHM"},"geometry":{"type":"LineString","coordinates":[[642348.6195492141,4825226.705652226],[642341.6839500966,4825224.202979427],[642328.8899846611,4825223.642758013],[642311.4891210601,4825220.8737465255],[642292.1606112905,4825216.041674182],[642273.3341646253,4825212.298087571],[642253.3461079008,4825209.229939038],[642244.146325018,4825207.579386237],[642222.7480687618,4825202.048091412],[642207.9355317686,4825198.7564197555],[642172.9407071618,4825194.314996447],[642156.9815227361,4825192.899162261],[642126.8137031244,4825189.049116077],[642089.871827276,4825185.744684138],[642053.9221873723,4825185.183696822],[642041.6487602415,4825184.457265304],[642022.9547455221,4825183.228319132],[642010.4222691098,4825182.907576751],[641995.1006715125,4825183.05007375],[641979.510018215,4825184.453587704],[641951.0,4825188.349896567]]}},{"type":"Feature","properties":{"source":"IHM"},"geometry":{"type":"LineString","coordinates":[[642637.9699000079,4825395.7505810475],[642634.1175322284,4825396.824271777],[642629.7879682116,4825394.121117543],[642622.1514308158,4825396.481073085],[642611.8493779164,4825392.728777168],[642591.5993849328,4825385.28731424],[642589.5309365336,4825387.576723049],[642590.4798966113,4825391.585814138],[642608.436355297,4825410.767546262],[642608.4605215851,4825413.812535184],[642605.6999166629,4825414.076099421],[642592.5917600286,4825414.630915879],[642589.7765943095,4825417.082238235],[642590.049642194,4825419.82140047],[642603.0273058582,4825427.308332782],[642607.7248339719,4825433.985996602],[642606.2206330358,4825435.57627178],[642601.3497308206,4825435.917218571],[642593.6824989738,4825434.020953272],[642578.6387837597,4825423.767895246],[642573.5843064601,4825420.9604866365],[642569.8603583595,4825421.314711966],[642569.7870563368,4825423.624288801],[642573.1732860547,4825428.518496725],[642574.5643394451,4825436.437016659],[642581.2852278303,4825447.891028138],[642581.6450895658,4825451.4875986725],[642578.9543495775,4825451.885992192],[642571.7235198604,4825448.843455851],[642571.3568277429,4825452.413479222],[642574.0379073498,4825459.314950558],[642577.3836120865,4825468.397231905],[642576.842300378,4825473.341336964],[642573.8595729386,4825476.455778345],[642568.2240532454,4825477.802736062],[642543.3319842123,4825466.407200061],[642529.0814244612,4825443.915424933],[642527.6502533113,4825441.307227129],[642512.6997681909,4825421.333985229],[642510.5499598336,4825411.477128946],[642514.9734775655,4825400.626515107],[642513.9256895462,4825395.18199095],[642509.3084249732,4825392.328361311],[642503.407835997,4825392.458624553],[642491.8607644431,4825397.1134917475],[642483.663652374,4825400.383931],[642479.5393380442,4825405.896421223],[642482.3710223448,4825410.656583349],[642493.7023487578,4825418.06390042],[642503.9878779732,4825430.204631859],[642506.5935683602,4825440.660061177],[642508.1492805894,4825457.948816949],[642507.9556152025,4825463.644759099],[642506.7036146787,4825464.773739627],[642503.3996852171,4825463.992464219],[642500.1188151219,4825460.222762724],[642495.0240842674,4825455.125647925],[642490.1966443605,4825456.84538806],[642487.4350486043,4825462.864588795],[642490.0068622432,4825470.7303789705],[642499.822886793,4825493.1834607925],[642499.588499973,4825498.134086905],[642495.3510100944,4825499.466345329],[642493.3186868241,4825506.145479086],[642490.5640215981,4825506.131434461],[642481.0370850619,4825500.884666561],[642471.633206492,4825508.107309396],[642462.9659158833,4825509.556658141],[642456.2572422249,4825510.080918677]]}},{"type":"Feature","properties":{"source":"IHM"},"geometry":{"type":"LineString","coordinates":[[642936.3406936695,4825271.852725764],[642921.7867373766,4825286.4096237905],[642911.9313345489,4825286.721984296],[642905.231138729,4825279.245893072],[642900.2868733429,4825278.851724666],[642897.688397891,4825281.363095037],[642896.0679295529,4825290.306476772],[642888.2584112302,4825299.2625339385],[642894.0230567718,4825309.69650243],[642893.5522952218,4825314.730983665],[642889.5795371714,4825314.624176653],[642876.12201374,4825300.837509357],[642869.188867316,4825298.9898950765],[642868.2026616874,4825303.568954936],[642871.9456890486,4825315.2265496915],[642870.352751269,4825318.703791424],[642849.9991042684,4825321.8261306835],[642839.113110651,4825321.594431243],[642840.0677672934,4825324.570339319],[642848.0846348293,4825330.541038712],[642848.8711539968,4825333.824484282],[642846.6106306955,4825337.92086224],[642843.4607725315,4825339.009388491],[642839.8530105033,4825338.077035917],[642830.4351969741,4825333.77655047],[642821.0215301346,4825314.85377776],[642818.5240571392,4825313.00060992],[642815.0845698076,4825313.271866036],[642811.9640172488,4825315.261041124],[642810.5862777194,4825318.498427691],[642816.567727117,4825329.759170441],[642815.259043336,4825332.409130003],[642803.9190386116,4825326.556650924],[642799.8946608144,4825321.282073325],[642793.3587850804,4825316.331844093],[642779.1982401618,4825310.897181486],[642774.7332472666,4825314.180008324],[642774.5359003616,4825320.798105802],[642770.2809655399,4825329.018792057],[642793.5187336461,4825341.091081376],[642796.3756296905,4825343.518560724],[642794.903553277,4825346.2539372],[642787.6963088568,4825346.278372686],[642763.8578164512,4825335.860009394],[642756.9131819361,4825326.956632969],[642753.4306879301,4825316.715778944],[642749.0058220787,4825307.477116592],[642750.3488913411,4825296.3722287025],[642747.5473071076,4825294.0015033735],[642730.0048418324,4825290.3061480755],[642724.9526069672,4825292.709842634],[642711.3176671151,4825309.286739986],[642700.7120826187,4825312.205706363],[642675.9194148413,4825320.056458702],[642661.2942151822,4825322.034469411],[642654.6867240361,4825331.4718946805],[642647.6662016583,4825339.056083341],[642630.8341808249,4825340.331690379],[642628.3290989251,4825342.256249577],[642624.3008976391,4825350.081834493],[642614.2417923841,4825358.845938856],[642614.5922041219,4825362.886759308],[642618.0413884608,4825367.86010579],[642619.3094677401,4825374.720456365],[642622.1118362142,4825379.335612043],[642637.013651216,4825392.085775022]]}}]}
