{"type":"FeatureCollection","name":"carboneras-los-muertos-coastline","crs":{"type":"name","properties":{"name":"EPSG:25830"}},"features":[{"type":"Feature","properties":{"source":"DERA/IECA","id_dera":10125300000850.0},"geometry":{"type":"LineString","coordinates":[[598316.718443164,4089737.0],[598319.6900000004,4089739.789999999],[598320.7699999996,4089739.539999999],[598322.4299999997,4089738.1999999993],[598323.2199999997,4089737.8100000005],[598323.8099999996,4089738.2200000007],[598330.2999999998,4089746.9499999993],[598331.0800000001,4089749.6400000006],[598330.6699999999,4089761.380000001],[598329.7800000003,4089763.1899999995],[598325.8300000001,4089767.6400000006],[598324.4100000001,4089768.4399999995],[598323.9800000004,4089769.0600000005],[598323.7800000003,4089770.2799999993],[598324.6399999997,4089772.4399999995],[598324.8200000003,4089780.210000001],[598324.2800000003,4089782.539999999],[598323.5499999998,4089784.1799999997],[598316.8899999997,4089788.59],[598301.1699999999,4089792.6799999997],[598286.0700000003,4089795.99],[598281.3600000003,4089799.3599999994],[598276.2000000002,4089807.76],[598272.54,4089810.5600000005],[598266.0800000001,4089810.5600000005],[598254.8799999999,4089812.9299999997],[598243.6799999997,4089816.17],[598232.4800000004,4089819.4000000004],[598227.96,4089820.26],[598219.7800000003,4089824.5700000003],[598213.75,4089829.5199999996],[598205.0300000003,4089835.4399999995],[598196.3099999996,4089841.369999999],[598193.3700000001,4089845.8100000005],[598180.4500000002,4089859.49],[598167.5300000003,4089873.16],[598162.7199999997,4089882.9399999995],[598160.1399999997,4089888.9700000007],[598159.9199999999,4089898.66],[598165.96,4089912.4399999995],[598167.0300000003,4089918.039999999],[598165.3099999996,4089928.59],[598160.79,4089934.83],[598154.1200000001,4089942.59],[598147.4400000004,4089950.34],[598137.3200000003,4089962.83],[598131.9400000004,4089968.4299999997],[598128.2800000003,4089974.6799999997],[598122.4699999997,4089991.4800000004],[598121.1500000004,4090000.1999999993]]}},{"type":"Feature","properties":{"source":"DERA/IECA","id_dera":10125300000840.0},"geometry":{"type":"LineString","coordinates":[[598121.1500000004,4090000.1999999993],[598120.75,4090002.8900000006],[598118.5999999996,4090014.630000001],[598116.4400000004,4090026.3599999994],[598114.29,4090038.0999999996],[598112.1399999997,4090049.84],[598109.9900000002,4090061.5700000003],[598107.8399999999,4090073.3100000005],[598105.6900000004,4090085.0500000007],[598103.5300000003,4090096.7799999993],[598101.25,4090107.9299999997],[598098.96,4090119.0700000003],[598096.6799999997,4090130.2200000007],[598094.3899999997,4090141.3599999994],[598092.0999999996,4090152.51],[598089.8200000003,4090163.6500000004],[598087.5300000003,4090174.789999999],[598085.2400000002,4090185.9399999995],[598082.0199999996,4090205.4800000004],[598078.79,4090225.0299999993],[598076.7400000002,4090237.460000001],[598074.6799999997,4090249.8900000006]]}},{"type":"Feature","properties":{"source":"DERA/IECA","id_dera":10125300001568.0},"geometry":{"type":"LineString","coordinates":[[598074.6799999997,4090249.8900000006],[598071.9000000004,4090266.7699999996],[598069.1100000003,4090283.6500000004],[598065.8799999999,4090303.1999999993],[598062.6500000004,4090322.74],[598061.8300000001,4090327.6999999993]]}},{"type":"Feature","properties":{"source":"DERA/IECA","id_dera":10125300000485.0},"geometry":{"type":"LineString","coordinates":[[598061.8300000001,4090327.6999999993],[598059.4299999997,4090342.2799999993],[598055.9800000004,4090349.1799999997],[598051.46,4090361.24],[598049.96,4090369.630000001],[598050.5999999996,4090376.09],[598051.25,4090392.6799999997],[598049.96,4090401.51],[598046.7300000004,4090417.9299999997],[598043.5099999998,4090434.3499999996],[598040.2800000003,4090450.7699999996],[598037.0499999998,4090467.1899999995],[598033.8200000003,4090483.6099999994],[598030.5899999999,4090500.0299999993],[598027.3700000001,4090516.4499999993],[598024.1399999997,4090532.869999999],[598021.8499999996,4090550.75],[598019.5700000003,4090568.619999999],[598017.2800000003,4090586.49],[598015.0,4090604.369999999],[598012.71,4090622.24],[598010.4299999997,4090640.119999999],[598008.1399999997,4090657.99],[598005.8600000003,4090675.8599999994],[598004.4100000001,4090688.7799999993],[598002.9500000002,4090701.710000001],[598001.5,4090714.630000001],[598000.0499999998,4090727.5500000007],[597999.4100000001,4090736.8100000005],[597999.6200000001,4090744.5600000005],[598000.9199999999,4090749.7300000004],[598006.7300000004,4090762.4299999997],[598006.7300000004,4090769.539999999],[598004.1500000004,4090774.710000001],[598000.9199999999,4090779.66],[597989.29,4090792.58],[597987.5700000003,4090797.1099999994],[597986.2800000003,4090804.4299999997],[597986.1500000004,4090816.119999999]]}},{"type":"Feature","properties":{"source":"DERA/IECA","id_dera":10125300001276.0},"geometry":{"type":"LineString","coordinates":[[597984.6225319139,4090818.0],[597985.1299999999,4090817.7699999996],[597985.9100000001,4090816.8200000003],[597986.1500000004,4090816.119999999]]}}]}
