{"type":"FeatureCollection","name":"carboneras-coast-buildings","crs":{"type":"name","properties":{"name":"EPSG:25830"}},"source":"Direcci\u00f3n General del Catastro, INSPIRE BU","features":[{"type":"Feature","properties":{"id":"urban-mass","floors":2,"height":6.2,"heightSource":"overview-generalisation"},"geometry":{"type":"MultiPolygon","coordinates":[[[[599784.708454146,4099110.3305933033],[599822.1250688555,4099142.48162611],[599831.4415819604,4099140.666497895],[599816.9345325317,4099099.41592576],[599786.5204989469,4099098.644124371],[599784.708454146,4099110.3305933033]]],[[[599733.9192327574,4099012.163046648],[599767.439983082,4099041.205294199],[599788.362453763,4099025.223122104],[599792.3982758463,4099004.298947959],[599784.3483637079,4098993.3378661866],[599750.6480776349,4098988.562318429],[599733.9192327574,4099012.163046648]]],[[[599720.3000563493,4099046.9780674363],[599736.7867846647,4099073.2059368654],[599751.2009112875,4099063.5463103144],[599733.7976870887,4099038.224017059],[599720.3000563493,4099046.9780674363]]],[[[599702.8085551795,4098687.265371525],[599707.4245838311,4098666.7185474727],[599682.1485474705,4098662.9454161706],[599681.5954161689,4098687.5014525275],[599702.8085551795,4098687.265371525]]],[[[597861.8027063648,4095562.776300468],[597916.8114925133,4095554.9839218506],[597985.338357648,4095601.032459356],[598015.6412680324,4095582.6816051793],[598038.635036199,4095585.469462576],[598026.732047307,4095541.6832705294],[598055.3626878327,4095540.5672279145],[598060.2156560495,4095524.221939975],[598080.42718286,4095517.452880346],[598083.9669532424,4095553.611130965],[598110.3881990574,4095557.1248960365],[598118.5237657377,4095591.125433518],[598136.8709618017,4095599.384837638],[598168.5554634427,4095587.608925886],[598219.9748242004,4095639.6477201106],[598267.3404502698,4095640.7625394063],[598286.8622211148,4095632.7038551504],[598287.8265209935,4095591.450132487],[598297.612652615,4095581.82405282],[598308.3243226246,4095585.951923304],[598316.1062257163,4095624.1608827957],[598372.2662272111,4095587.2991395197],[598382.1028408934,4095562.84874349],[598372.3854773785,4095519.7612417433],[598404.9724931008,4095500.270661583],[598420.8290399523,4095509.7521680617],[598407.9765910513,4095533.921599604],[598421.8175188382,4095554.600809588],[598473.271939421,4095546.500141367],[598481.1125003344,4095582.81912971],[598444.5965017827,4095595.4836720387],[598408.3548281365,4095667.887959137],[598380.6496300539,4095647.407094828],[598365.7311948967,4095657.906779369],[598370.2234564086,4095672.5089865956],[598361.6262473548,4095680.1046717754],[598334.184996864,4095683.1570905615],[598321.4590946236,4095665.829978448],[598211.4690233128,4095685.9768540603],[598188.45560799,4095740.611102709],[598362.2774079521,4095734.7154884627],[598393.9248242219,4095767.549403708],[598443.8079085497,4095893.0854624608],[598469.0053012078,4095889.8026696662],[598467.8311795035,4095866.9995490843],[598479.3765233031,4095861.476413688],[598492.0933918903,4095911.024669611],[598509.6107925938,4095914.501465742],[598617.9630088876,4095897.1532260748],[598623.6644855367,4095864.7278583357],[598573.0684446155,4095864.6374251284],[598562.1683110938,4095813.532360352],[598580.7720957544,4095809.611316134],[598605.0131560907,4095852.524156633],[598635.6706203889,4095841.8393378304],[598632.9424160072,4095796.9117242834],[598655.5504086121,4095773.913248394],[598668.5632855269,4095768.774008765],[598690.776626477,4095782.8732104558],[598690.7149177943,4095796.171106331],[598663.3459221419,4095805.489102212],[598660.0007123246,4095820.8208734686],[598680.2833293958,4095854.3483910924],[598645.6084287923,4095866.6347063445],[598600.1843601716,4096031.090353308],[598624.286751596,4096099.3310855],[598654.5744504882,4096099.362627625],[598672.2995763725,4096119.631605235],[598778.3975688937,4096119.063435683],[598792.0932804833,4096132.4269675445],[598778.2305568232,4096160.4807957765],[598677.706512005,4096262.0163091067],[598685.5965170613,4096283.300632502],[598703.5458164125,4096276.1560504404],[598736.4108415379,4096300.4920809083],[598709.6479364061,4096345.043854243],[598743.0389523347,4096410.125393224],[598765.5620003667,4096409.4629354933],[598778.1651077926,4096454.536940975],[598793.3973772107,4096451.386138173],[598800.318403619,4096426.5687190783],[598812.2109511918,4096429.759405492],[598816.9591996007,4096446.2762177344],[598835.303768562,4096448.9597438853],[598836.5579135868,4096513.8784396364],[598849.6798032813,4096519.923045779],[598872.8597352068,4096493.714850867],[598860.7497098857,4096455.49479224],[598868.0392389707,4096442.662618091],[598859.831322187,4096420.4890067754],[598837.4282431295,4096403.29285345],[598852.6087354308,4096387.5782596283],[598844.088633885,4096364.7663781997],[598827.7967692512,4096368.385556531],[598815.2711786329,4096389.4667116017],[598794.8093737739,4096353.0537131266],[598800.605628093,4096338.26198034],[598784.8738883579,4096311.2867093687],[598802.7884652459,4096290.3820806933],[598792.6626676351,4096274.319847753],[598802.5823907767,4096244.4216303597],[598817.8803685099,4096243.071122998],[598868.0141255298,4096350.5355560593],[598897.9565940566,4096339.8150549266],[598909.5779255931,4096314.1665655784],[598896.4277666346,4096264.935740607],[598882.3732684697,4096260.687673708],[598863.0008415673,4096222.658888229],[598854.3677749857,4096161.081762636],[598832.6694904121,4096151.8624015856],[598847.5193155314,4096128.5990450517],[598830.4093593794,4096113.564617982],[598820.7792529549,4096123.1510626264],[598823.4017931276,4096141.8953376403],[598809.367558902,4096144.436834894],[598801.280624307,4096113.499948417],[598777.1781422205,4096083.789629897],[598798.8355023295,4096074.5994740166],[598816.144600351,4096093.2987813316],[598846.9409859685,4096059.322992311],[598831.6041566895,4096028.6322051426],[598824.993860996,4095927.740483411],[598798.0470946943,4095854.481402978],[598808.1888939791,4095804.420432137],[598750.9289303254,4095802.4384887856],[598714.5135532577,4095729.196171024],[598721.7615459232,4095717.5996137657],[598770.0461631933,4095710.255818283],[598784.3579778296,4095774.867266159],[598803.276782012,4095772.7795413407],[598768.2935857659,4095651.007266093],[598781.1890031942,4095637.485536111],[598775.213822179,4095553.890548251],[598751.7001014217,4095367.2841073894],[598733.2888161936,4095349.4002201534],[598741.0463616286,4095337.167248822],[598726.1648283527,4095248.977792257],[598734.1513502413,4095237.2800553762],[598732.1805514443,4095169.1036111494],[598711.288825182,4095097.0208858037],[598620.59805985,4095045.8478165804],[598600.5290464865,4095023.121763207],[598489.8159826156,4094995.5779095986],[598473.9137109542,4095002.5618722215],[598397.2571389622,4094960.6174119897],[598386.191197177,4094976.6316814506],[598415.729179422,4095008.1247410513],[598381.2041700761,4095038.4916534773],[598359.4969088552,4095011.6691469834],[598341.3335187214,4095030.8565433747],[598272.9974264649,4095011.619453182],[598269.2864015652,4094997.861012348],[598328.9251613122,4094910.7252389034],[598258.038609933,4094873.786177481],[598221.2167271847,4094868.8482502387],[598149.500089614,4094800.3349940088],[598125.7261296723,4094814.65880464],[598094.6017657284,4094770.7306760675],[597993.0409514129,4094801.491900258],[597981.4265991057,4094824.785038682],[597940.8449380109,4094825.0670452933],[597931.8863237884,4094806.649438805],[597949.3929949958,4094777.5707947314],[598069.5567308728,4094744.1697905115],[598035.2957259768,4094700.787030028],[598005.5532370309,4094703.17405758],[597982.9044144761,4094679.3440410085],[597981.3465012606,4094662.6553666736],[597944.2613986525,4094655.422514321],[597958.1404694221,4094721.4532971443],[597923.6665195975,4094741.3187892083],[597917.118115783,4094726.946610027],[597934.5682033851,4094724.2789361137],[597937.4226813045,4094712.0646169935],[597925.4310576845,4094696.719189142],[597901.7296496965,4094695.3773285085],[597909.2839496909,4094727.044039373],[597891.8526757433,4094739.706818542],[597896.3636610217,4094762.457132945],[597875.5216338392,4094769.988290491],[597867.1409400413,4094798.730747947],[597903.4748714189,4094829.988291497],[597920.7390659736,4094884.8779790774],[597991.5948495858,4094970.1673534936],[597980.9906221586,4094977.861645704],[597891.8429057093,4094972.912288309],[597888.750965525,4094989.6152275093],[597948.7907168729,4094997.4358183616],[597954.6366075677,4095024.80286673],[597987.9819389198,4095037.0982892155],[598003.012919982,4095029.9564134576],[598032.3242794407,4095051.136083094],[598001.1945948992,4095079.0875191246],[597963.3765605462,4095051.761311959],[597936.2810511314,4095050.406920126],[597924.2206317461,4095080.5623667333],[597900.5402880026,4095090.8613772634],[597900.682321135,4095100.730078965],[597979.4684326019,4095126.177377221],[597980.5568868031,4095149.33368659],[598007.8030444616,4095159.6298718834],[598008.5159096781,4095174.8261660077],[597993.2210408036,4095175.8305812045],[597974.8789045406,4095198.3949473877],[597963.228000322,4095188.7358710454],[597962.667328009,4095161.427033886],[597940.8957126881,4095155.1383586563],[597947.3362524626,4095208.545316518],[597963.8727519255,4095219.140984136],[597969.444906518,4095248.6685825773],[598017.4374700981,4095213.604652957],[598030.66357185,4095232.263428333],[598065.5033251975,4095221.0986091704],[598068.0136246387,4095242.2884031814],[598090.6957019026,4095250.829784949],[598109.7856074049,4095227.0842454447],[598134.1897859187,4095250.2805723865],[598136.7483932277,4095277.601451609],[598124.1419868643,4095289.9019221445],[598149.1110903539,4095340.8427689737],[598145.8214651054,4095364.9328048266],[598172.8850609408,4095370.3254347886],[598174.891473214,4095384.6521726325],[598166.2145021765,4095391.8758681887],[598137.1421761257,4095382.9855046803],[598096.1545193912,4095406.590345849],[598089.5554153471,4095417.2122564255],[598098.0542752445,4095442.0720419735],[598163.3387939472,4095402.547800676],[598180.3197131886,4095410.2503040396],[598239.8484107369,4095404.282937559],[598267.9046218952,4095374.0813238504],[598289.8275052087,4095402.864166221],[598265.1131205902,4095414.47907665],[598200.2724255627,4095520.58725794],[598169.2881793545,4095515.5173112242],[598143.2634973376,4095540.339717468],[598112.2525682506,4095536.1682475233],[598110.332227712,4095520.8892089017],[598147.57764615,4095506.439307469],[598137.5188340342,4095487.3251341092],[598112.9076004063,4095484.5922089266],[598052.0886637612,4095507.699980591],[598004.1922489866,4095504.9520294536],[597998.1928214595,4095520.4049370456],[597972.968506092,4095526.617781576],[597987.9204928795,4095547.29703866],[597982.0494513548,4095567.5277947113],[597958.3525075323,4095564.973100164],[597958.1646935345,4095537.237046583],[597914.4440224866,4095528.990484074],[597865.4848461489,4095540.330832652],[597855.0495871187,4095549.0262000836],[597861.8027063648,4095562.776300468]],[[598810.619195782,4096217.686476867],[598778.4895257484,4096190.0375525192],[598808.1426488531,4096163.6040810253],[598829.2414796443,4096205.290491394],[598810.619195782,4096217.686476867]],[[598762.6762397969,4095979.8978746976],[598799.2370066282,4095990.37174472],[598810.471305008,4096023.4189599957],[598778.439616983,4096023.2503843284],[598762.6762397969,4095979.8978746976]],[[598781.1833399448,4095944.096017176],[598793.0201431853,4095946.1412874223],[598790.9220165177,4095958.385911327],[598777.6773643143,4095955.9928156696],[598781.1833399448,4095944.096017176]],[[598728.6051703809,4095859.382177134],[598726.4301381033,4095845.152874947],[598759.7213255434,4095836.4236701303],[598772.6071441899,4095851.8121850733],[598790.9460786326,4095852.2734562303],[598785.8588300652,4095917.2303120843],[598761.424879359,4095915.4349250705],[598763.5560869724,4095867.193820155],[598728.6051703809,4095859.382177134]],[[598766.1261293602,4096198.5943394373],[598781.4415742706,4096201.034603613],[598772.74248004,4096222.3056386244],[598758.4368077657,4096211.985944402],[598766.1261293602,4096198.5943394373]],[[598753.5202154178,4096268.8626949843],[598771.7012562018,4096275.180767959],[598766.0852218212,4096290.3399121542],[598749.308970015,4096281.653664898],[598753.5202154178,4096268.8626949843]],[[598756.4595437126,4096062.3293335703],[598765.7664223362,4096069.1236910135],[598758.8558325047,4096079.2771975216],[598748.964355639,4096071.242335986],[598756.4595437126,4096062.3293335703]],[[598721.3507448287,4096055.7183121736],[598732.8759066189,4096052.1097235023],[598735.7828782627,4096065.543091523],[598723.1450756495,4096067.301468675],[598721.3507448287,4096055.7183121736]],[[598662.7778205662,4095628.1281095413],[598693.7365305747,4095613.905912999],[598704.3575512851,4095658.115178061],[598667.8863676557,4095659.8782010647],[598662.7778205662,4095628.1281095413]],[[598688.8435549985,4095678.5249921107],[598700.7375417175,4095674.1341222273],[598704.1610637011,4095687.2038664413],[598691.2601766702,4095690.704533362],[598688.8435549985,4095678.5249921107]],[[598702.8633595123,4096063.6506744125],[598669.3130789447,4096063.6349016633],[598669.6653158352,4096049.668101014],[598700.2027593127,4096046.8426170107],[598702.8633595123,4096063.6506744125]],[[598658.4714997001,4096016.8902637134],[598671.8165415329,4095995.6406486398],[598697.5260436962,4095998.911843012],[598704.0970333263,4096018.0975560076],[598683.4836739816,4096031.1385481576],[598658.4714997001,4096016.8902637134]],[[598669.9978986603,4095597.8948421874],[598671.2052971171,4095567.578029226],[598683.708114894,4095570.218438407],[598689.4641048659,4095599.8100179713],[598669.9978986603,4095597.8948421874]],[[598678.6119282309,4095745.634726779],[598664.2851003964,4095739.0486034905],[598683.7431420728,4095701.797930567],[598690.5979583513,4095710.5793393943],[598678.6119282309,4095745.634726779]],[[598595.5868025162,4095415.99836582],[598615.6435261081,4095389.2250543577],[598631.0356480285,4095394.5317193526],[598678.6538155639,4095544.531672467],[598673.1381498792,4095556.3525904072],[598663.0255630958,4095553.0885669175],[598651.7755655434,4095515.9297946426],[598616.1922883694,4095515.96184606],[598628.4634631611,4095498.9566226997],[598611.0937380545,4095484.4308781894],[598595.5868025162,4095415.99836582]],[[598611.6584052537,4095315.832623427],[598554.7765675228,4095245.74957164],[598621.8048000153,4095207.0962837413],[598643.7700581143,4095243.85197352],[598632.9032267758,4095259.4810028384],[598648.2605898628,4095296.6746538165],[598611.6584052537,4095315.832623427]],[[598524.8835195967,4095359.3205211773],[598582.9629430181,4095336.7704324843],[598612.7608714672,4095385.8406301565],[598595.122309043,4095392.405271437],[598574.5159340331,4095369.327855311],[598533.0024637901,4095376.1859785155],[598524.8835195967,4095359.3205211773]],[[598553.5379229101,4095742.7940472513],[598567.0342032638,4095726.982721703],[598577.4864342981,4095741.721571107],[598564.3073671969,4095751.703702367],[598553.5379229101,4095742.7940472513]],[[598473.3429467494,4095744.2363614948],[598484.9877233334,4095727.794533025],[598507.3765349388,4095721.53565598],[598515.568956105,4095728.8483325024],[598494.1768611701,4095767.266919772],[598473.3429467494,4095744.2363614948]],[[598466.3196604195,4095388.713000374],[598427.8481554097,4095385.3139385097],[598425.3045342265,4095374.4285469516],[598498.8802531611,4095357.5618020566],[598508.031871069,4095364.0493303817],[598466.3196604195,4095388.713000374]],[[598400.8141653755,4095375.416010787],[598409.9911121478,4095382.2449965156],[598403.0658150912,4095391.2658191086],[598394.0849337444,4095384.521490784],[598400.8141653755,4095375.416010787]],[[598383.332859711,4095069.9555937075],[598397.1229841531,4095060.8412988517],[598406.6360307415,4095075.761213465],[598390.8262059414,4095086.01673778],[598383.332859711,4095069.9555937075]],[[598359.9538490926,4095384.670330459],[598384.3961085164,4095378.1651285193],[598392.0656989629,4095386.507322011],[598366.015674254,4095397.7016526074],[598359.9538490926,4095384.670330459]],[[598333.1552800031,4095099.639094914],[598335.1044046847,4095053.4390157447],[598355.6176458037,4095038.4920836356],[598369.1787432276,4095086.2080065794],[598388.2222842566,4095100.1980936793],[598378.8412313365,4095108.055888535],[598333.1552800031,4095099.639094914]],[[598255.5679123513,4094972.261450906],[598233.7180982094,4094967.942941324],[598216.4420528004,4094983.250281576],[598203.7413097654,4094973.7328048944],[598218.3182561198,4094945.4629180524],[598215.270696619,4094925.9968925943],[598232.1992023609,4094916.997402761],[598264.6169715401,4094931.4516931064],[598255.5679123513,4094972.261450906]],[[598178.0338068537,4095578.7274655364],[598168.3839756713,4095567.3529418265],[598185.6925656575,4095545.5623038393],[598217.7881405756,4095569.2356263306],[598236.3079497226,4095561.3277471],[598256.788050644,4095592.8996550455],[598241.4798599791,4095613.072510144],[598221.2283382999,4095607.259751261],[598202.6643138397,4095578.69252881],[598178.0338068537,4095578.7274655364]],[[598231.0823940688,4095044.849351421],[598201.818955435,4095008.7075691465],[598209.28301397,4094997.887024695],[598244.5032910915,4095038.7227397566],[598231.0823940688,4095044.849351421]],[[598235.5297423891,4095266.923209259],[598226.8962533781,4095296.594454823],[598211.5119165854,4095288.128203828],[598219.3902979426,4095262.3853407376],[598235.5297423891,4095266.923209259]],[[598150.4040958033,4095206.776417589],[598143.0946611786,4095168.1267496734],[598172.5259736896,4095165.4568964876],[598181.6291679785,4095181.1971503226],[598206.3520238298,4095186.836958578],[598186.2357418117,4095232.5642230287],[598222.4055484749,4095248.5391021515],[598193.9484165392,4095255.3618427548],[598190.5716528309,4095286.8281736933],[598201.0851869782,4095301.233677754],[598180.7431256929,4095328.2314133644],[598159.3407142607,4095319.8764606537],[598170.6471123013,4095303.881862498],[598144.6759196752,4095252.445286869],[598150.4040958033,4095206.776417589]],[[598163.3659621079,4095051.4406153304],[598200.5764599625,4095071.765348593],[598210.7707898368,4095143.1363145257],[598194.9339019668,4095138.84476417],[598168.8748512589,4095105.1232243893],[598169.8440207953,4095078.9265337456],[598151.7275868575,4095068.395214644],[598163.3659621079,4095051.4406153304]],[[598163.4936201344,4094858.031993918],[598170.6035625609,4094845.4495143658],[598184.4919618277,4094859.214684541],[598174.430932996,4094868.4450834347],[598163.4936201344,4094858.031993918]],[[598166.747874538,4095146.414796124],[598110.5863678724,4095146.3828200432],[598109.639295775,4095123.8226118213],[598169.3122731642,4095128.941812888],[598166.747874538,4095146.414796124]],[[598017.2925088838,4095002.42562393],[598022.3238870368,4094977.3117175195],[598041.4918733402,4094979.3681425746],[598078.493626526,4094999.743701716],[598096.0548237215,4095025.2105127284],[598119.0608256352,4095014.5424892935],[598137.1861921791,4095029.326482702],[598135.7367840743,4095049.879289752],[598150.493342689,4095076.096988957],[598100.5325323312,4095083.559349525],[598086.8201500524,4095096.652847902],[598083.8495545905,4095121.7371942354],[598051.1436619064,4095126.8333124784],[598019.3587123017,4095105.0453683753],[598017.8423694678,4095093.539312612],[598077.6862157733,4095087.4343948816],[598070.051061353,4095065.18889135],[598058.5984894746,4095071.7106147744],[598051.1140053966,4095063.5691888477],[598058.9759832193,4095054.0626757112],[598070.1366783094,4095060.596754849],[598078.6218623652,4095042.1846682965],[598055.2351986641,4095009.965426217],[598017.2925088838,4095002.42562393]],[[598078.103544673,4094873.6515562786],[598094.4057070903,4094858.0868016873],[598125.4922008514,4094885.8739980767],[598095.468327079,4094901.462837774],[598078.103544673,4094873.6515562786]],[[598097.2749027426,4095201.6737126214],[598097.6958481858,4095177.197649335],[598108.8949889842,4095172.410395269],[598113.8363361101,4095199.064364456],[598097.2749027426,4095201.6737126214]],[[598061.5494541862,4094923.828748435],[598048.2619561009,4094894.8265316393],[598061.3617755643,4094892.7791850725],[598080.9332138714,4094923.9831209457],[598061.5494541862,4094923.828748435]],[[598056.2263205069,4095151.0076440857],[598075.2358795487,4095145.1886660215],[598072.71638856,4095166.7478287583],[598061.4671496782,4095167.2346025263],[598056.2263205069,4095151.0076440857]],[[598041.2662150777,4094971.3967384794],[598048.9014540224,4094961.651906227],[598058.5482991005,4094970.7434849595],[598049.4921900771,4094979.661122029],[598041.2662150777,4094971.3967384794]],[[597985.1024619126,4095022.460138036],[597977.5780006545,4094998.4901544373],[597996.4485080078,4094994.949907554],[598006.4093270493,4095003.9747844855],[598003.2452048726,4095022.7071936997],[597985.1024619126,4095022.460138036]],[[597967.0020995833,4094693.3612184273],[597974.0571197574,4094684.233560243],[597983.1582286792,4094692.2909099967],[597975.9464655081,4094701.010307409],[597967.0020995833,4094693.3612184273]],[[597955.7950581607,4094862.4938245183],[597945.4987506638,4094847.502221889],[597964.5415306907,4094840.7858913983],[597971.0335468319,4094857.4709698693],[597955.7950581607,4094862.4938245183]]],[[[598900.2891315812,4096481.770129318],[598861.7921574435,4096571.6740217023],[598827.8302529333,4096577.051327484],[598832.9425555456,4096603.7728010505],[598843.9470021486,4096619.4353342294],[598885.964649436,4096618.5446316153],[598920.6719952925,4096633.072293589],[598943.3465816652,4096536.8452701373],[598902.3577779226,4096516.618202041],[598923.7549957404,4096484.3224874763],[598918.5836351975,4096469.3084098897],[598935.4127440129,4096466.6340631316],[598935.5452852387,4096482.941282187],[598952.2966326643,4096492.3321484057],[598968.2401273649,4096483.477956777],[598990.8862470357,4096495.105385765],[599011.716066947,4096466.8125518886],[599012.6027778477,4096445.2616079072],[599064.3136252923,4096461.3608709793],[599069.841413398,4096450.963496587],[599033.8343591725,4096420.627983622],[599004.973606061,4096441.5133865993],[598988.4094065459,4096413.037074583],[598993.733874037,4096387.8267724765],[598968.3321590523,4096382.069181737],[598960.988379115,4096363.9600482536],[598924.8737147709,4096350.3990989905],[598910.4281181493,4096380.440436357],[598930.9345001834,4096410.5047056437],[598913.7948831395,4096444.1648508385],[598888.8181357179,4096454.7034828686],[598900.2891315812,4096481.770129318]],[[598931.4150994641,4096450.1818646397],[598941.3158678212,4096433.5527143874],[598952.2954548799,4096435.81241373],[598944.0962611762,4096456.0565052354],[598931.4150994641,4096450.1818646397]]],[[[598697.4192951911,4096224.69331983],[598670.9989184985,4096138.62920104],[598640.2459840841,4096145.5242497805],[598666.5352880773,4096232.015954325],[598697.4192951911,4096224.69331983]]],[[[598492.2402288123,4096148.0123934685],[598483.8290187364,4096193.3504907247],[598513.1622633584,4096195.0544548854],[598539.6470570182,4096229.8422044036],[598593.9142056939,4096201.1471899543],[598589.777016455,4096182.7279340746],[598603.9939178446,4096175.608928133],[598628.1708673738,4096227.7883961676],[598643.897990751,4096226.1393565866],[598624.2000754079,4096162.508393956],[598610.5306495863,4096158.6149678486],[598597.6341425258,4096134.6858382267],[598610.7439967665,4096120.7056806153],[598599.7142986505,4096088.9430830036],[598573.2225465972,4096078.9190197038],[598570.6335204559,4096050.807800614],[598581.120386469,4096040.989440174],[598590.5671410284,4095972.921538208],[598533.9758367904,4096023.1488587125],[598525.8928638498,4096074.5785702937],[598499.1309219234,4096071.2246722113],[598493.3428216787,4096083.2294401126],[598526.0458481549,4096102.5651323847],[598517.9018392704,4096112.93690959],[598500.7731634575,4096110.7452124464],[598497.2304956386,4096125.179483371],[598534.2619121922,4096128.7594623086],[598544.1142430234,4096148.2451301767],[598520.1831606507,4096169.7864703503],[598492.2402288123,4096148.0123934685]]],[[[598283.903243136,4096151.998380464],[598362.2235973014,4096092.6557199243],[598329.7937233932,4096054.4704045528],[598285.1319037393,4096092.90027832],[598299.7995317956,4096115.8204302723],[598276.8278833862,4096140.7223234596],[598283.903243136,4096151.998380464]]],[[[598211.8464586275,4097456.937367258],[598278.8680130718,4097488.8584706904],[598285.9595519592,4097482.1633165097],[598258.2525250041,4097459.8564673895],[598217.9143805463,4097447.2890413073],[598211.8464586275,4097456.937367258]]],[[[598130.8386160206,4096230.6379127535],[598159.9740133226,4096264.3734337403],[598168.2293335847,4096235.5675890627],[598253.3013957846,4096155.39116251],[598238.0569659632,4096142.5108324406],[598154.9986817734,4096215.9172226437],[598137.7473307723,4096213.2517170976],[598130.8386160206,4096230.6379127535]]],[[[598165.1708236947,4097390.171038926],[598201.5169208043,4097406.9578564554],[598209.8078564539,4097374.033079194],[598166.4730791957,4097365.742143545],[598165.1708236947,4097390.171038926]]],[[[597980.5781958898,4094501.284932615],[598004.8403248562,4094555.192567916],[598031.107632803,4094546.1727322065],[598049.4097007269,4094579.0138056786],[598060.7596929005,4094575.859138836],[598066.0983262216,4094542.139695141],[598039.7011955702,4094518.221311216],[598032.4865990292,4094498.4562198436],[598039.7775186347,4094486.059443739],[598003.6934329373,4094412.8419006257],[597986.1044561658,4094421.963085469],[597984.1384252287,4094441.926963855],[598003.3674741115,4094484.987314158],[597980.5781958898,4094501.284932615]]],[[[598000.9583024125,4094567.417120245],[597986.0357813607,4094575.0274553658],[597990.1070512608,4094610.007902358],[598011.2681095304,4094634.268625352],[598024.8769979927,4094620.9362531397],[598000.9583024125,4094567.417120245]]],[[[597975.839271237,4096184.645258471],[597957.0528849335,4096225.1967156623],[597992.5478476193,4096227.509796859],[597975.6877197495,4096207.3803299526],[597975.839271237,4096184.645258471]]],[[[597935.140456424,4096057.63325172],[597956.3440961823,4096102.4316878286],[597984.4531334755,4096081.563565426],[597976.7044090456,4096067.266640693],[597986.1691471091,4096053.5851337095],[597967.2935134742,4096023.188071502],[597956.1363813734,4096030.585894581],[597968.9512195352,4096055.5522820293],[597945.948779133,4096048.7797904275],[597935.140456424,4096057.63325172]]],[[[597925.7200155703,4095461.8182446742],[597980.1449664258,4095465.911401131],[597983.7096820223,4095455.0445021475],[597977.1441546836,4095443.007357454],[597932.686757477,4095442.9928907277],[597925.7200155703,4095461.8182446742]]],[[[597844.7245380927,4094540.8193051787],[597851.5627124995,4094599.7839451074],[597878.7329027406,4094585.7229811377],[597902.5461728092,4094599.755354502],[597935.8664745312,4094583.2566360324],[597914.2122213143,4094544.3290172443],[597886.3680165146,4094554.493241557],[597875.1835392077,4094537.3900291384],[597844.7245380927,4094540.8193051787]]],[[[597887.0652243888,4094400.122112033],[597905.5456704823,4094442.874934393],[597934.1619416951,4094428.255288721],[597897.8008270353,4094393.2852210025],[597887.0652243888,4094400.122112033]]],[[[597737.7988092699,4094876.2871825914],[597770.9002414183,4094922.9334456697],[597821.6116871807,4094958.284585153],[597810.7276457866,4094973.403995991],[597814.71037295,4094990.9754345035],[597843.3982057726,4094988.4850895135],[597833.352012259,4094963.349383461],[597842.339276008,4094937.325874853],[597821.4072718916,4094922.529506927],[597836.418723538,4094896.8612112636],[597806.8287558298,4094861.5599981127],[597742.828436915,4094859.26372818],[597737.7988092699,4094876.2871825914]]],[[[597790.7068345785,4095235.1330465307],[597794.9278700611,4095256.8480853196],[597822.8077064406,4095239.2854513796],[597822.3911983916,4095206.2286650175],[597862.7653057401,4095189.375570578],[597856.3216049777,4095173.3483950207],[597810.0813061967,4095172.5122631495],[597790.7068345785,4095235.1330465307]]],[[[597785.4570268175,4095065.318205221],[597781.5333723982,4095079.2194552585],[597795.1455946208,4095081.639635241],[597804.498068416,4095070.9569246103],[597818.1231872987,4095077.0870283316],[597857.5695017844,4095061.1977063757],[597844.7058010306,4095042.6503614993],[597807.4289666304,4095069.6602235716],[597785.4570268175,4095065.318205221]]],[[[597787.5652637945,4095756.8969993396],[597767.805966639,4095784.3743449184],[597786.4315931071,4095802.6582563845],[597796.5702996444,4095903.24489655],[597810.1560430871,4095904.4566861563],[597811.3600556041,4095848.548167304],[597854.9739490205,4095801.478587795],[597827.1067417549,4095792.621916587],[597820.6051778928,4095778.822052302],[597803.7291510843,4095779.87989099],[597801.3345581772,4095763.988548352],[597787.5652637945,4095756.8969993396]],[[597811.277843387,4095810.243279054],[597821.9387728181,4095798.698005717],[597826.9876550238,4095817.6841473896],[597816.2646169069,4095821.6717042043],[597811.277843387,4095810.243279054]]],[[[597634.4966254082,4093995.7537448946],[597635.2283074203,4094070.658743808],[597661.3868551432,4094071.094406623],[597689.4273015326,4094099.3289194996],[597714.4406591371,4094157.0880458155],[597737.5858885006,4094230.0506613655],[597731.9363568859,4094243.5369293364],[597789.3666534075,4094365.808561492],[597780.1912682939,4094395.8855367657],[597788.645249135,4094417.201567355],[597831.3720895953,4094406.096473438],[597844.9009842505,4094394.251407754],[597764.5913234452,4094220.431745434],[597698.5057584597,4093986.2508544023],[597634.4966254082,4093995.7537448946]]],[[[597782.6595889762,4092692.87325],[597779.9317474704,4092739.7568838294],[597835.7957338311,4092739.2037525275],[597835.2426025296,4092693.788666171],[597782.6595889762,4092692.87325]]],[[[597804.1781072516,4092920.944387603],[597820.131504493,4092899.816781976],[597801.4457371117,4092888.0119988583],[597787.9299974712,4092909.7312499834],[597804.1781072516,4092920.944387603]]],[[[597770.3805519891,4094706.549472751],[597794.9342526183,4094717.841696142],[597817.8376162263,4094706.5947450427],[597799.9812517031,4094687.268857585],[597774.3217308463,4094690.4853473655],[597770.3805519891,4094706.549472751]]],[[[597759.8023325882,4092497.5673476374],[597756.7049610723,4092638.998176304],[597812.6226763052,4092637.360038926],[597813.0171785328,4092603.801520937],[597801.8989141083,4092592.944521437],[597805.4235689931,4092497.4142953185],[597759.8023325882,4092497.5673476374]]],[[[597744.3267786611,4092353.8593593603],[597757.4981377658,4092425.565192622],[597782.4811155772,4092430.860582828],[597795.7559523414,4092399.5357067753],[597771.2449838414,4092391.193009486],[597764.0139310705,4092354.1325665293],[597744.3267786611,4092353.8593593603]]],[[[597777.4781969392,4093122.617110524],[597694.1171400029,4093122.338355386],[597691.3465417118,4093183.4947517873],[597773.955881248,4093170.4442069046],[597777.4781969392,4093122.617110524]]],[[[597773.1599969424,4092829.885786821],[597745.9528333364,4092830.8266402674],[597751.3007900871,4092866.049710008],[597776.6072412187,4092862.0432365146],[597773.1599969424,4092829.885786821]]],[[[596997.5334388672,4091729.65685948],[596993.9646799382,4091779.1131210844],[597007.0187449601,4091793.306005155],[597036.2362186933,4091785.8842314184],[597035.4792245765,4091771.6724842573],[597068.1881421519,4091730.6019306313],[597257.6315172495,4091744.4265913153],[597258.0371192987,4091764.6322026593],[597225.5628458761,4091807.270547393],[597201.9828805288,4091808.4552514725],[597201.5692333042,4091843.9397687],[597163.1894552851,4091881.8001734614],[597163.976309371,4091898.3108949647],[597176.6538053488,4091902.3458202896],[597218.9285936973,4091900.02379176],[597290.6652434489,4091876.1751005715],[597386.8143545737,4091871.016400367],[597398.824236834,4091826.3410347654],[597418.5300747688,4091835.007536752],[597422.7657423724,4091883.7124051517],[597438.6151556134,4091872.662778283],[597468.3708574851,4091873.565200267],[597471.0538416454,4091914.722084672],[597489.8710138319,4091922.469342925],[597612.6953491303,4091914.371147662],[597622.690583127,4091896.5019685538],[597706.4467930397,4091896.409986285],[597768.1926261425,4091866.2729611495],[597774.7295187984,4091850.083998431],[597768.0472247781,4091836.724949271],[597724.4677124842,4091819.9545465633],[597729.3411427493,4091807.5644273064],[597766.9766740124,4091804.7387823756],[597763.8079148711,4091791.1350149103],[597723.7511368871,4091791.5464276215],[597724.1617950974,4091765.8278805455],[597755.5453476544,4091763.847876537],[597755.6453423813,4091732.7534747473],[597728.3878949266,4091725.308838462],[597705.1798974449,4091697.9207521924],[597705.3857048255,4091651.7706247936],[597747.9638382763,4091642.2975643384],[597746.2003015807,4091609.055507355],[597730.8465240591,4091602.1179925296],[597725.3764179351,4091569.971587026],[597703.1873658998,4091582.6387169035],[597700.2204895575,4091609.155146614],[597592.1784319994,4091617.054459254],[597571.2408298793,4091637.068804266],[597464.7554158862,4091653.5167862023],[597405.2151730775,4091655.7580429595],[597394.9731246695,4091637.6099755145],[597327.6025121011,4091644.203136876],[597317.2803671813,4091631.384325741],[597217.2025239877,4091633.8752266737],[597212.7023519696,4091664.50520921],[597191.5384423705,4091670.3221600363],[597184.3405836115,4091661.4076040774],[597194.1816790142,4091643.8029453326],[597184.7927467166,4091638.194472703],[597168.9124202544,4091658.2086599832],[597174.4991825366,4091676.0932898032],[597118.2814466243,4091712.007091937],[597093.3143585166,4091707.0277678347],[597072.2960779723,4091670.1363781192],[596997.5334388672,4091729.65685948]],[[597701.7126079949,4091614.6677797404],[597709.6933084733,4091606.278618985],[597718.6607493768,4091614.0928767403],[597709.9263204164,4091623.2945001638],[597701.7126079949,4091614.6677797404]],[[597556.1587940078,4091816.3647492933],[597575.2492849315,4091809.7021402097],[597582.2813374096,4091826.265505775],[597564.3010731543,4091833.7893070513],[597556.1587940078,4091816.3647492933]],[[597520.441159814,4091832.36938698],[597534.5412238225,4091819.9557199446],[597546.598055152,4091833.405535576],[597533.341818922,4091846.134809303],[597520.441159814,4091832.36938698]]],[[[597577.6871149318,4094572.8365058927],[597581.8344856299,4094581.869756009],[597660.5002552217,4094596.1116102044],[597763.3585983,4094595.0164315687],[597753.8826543465,4094573.6431661444],[597665.5225576711,4094582.4755818797],[597647.9963380526,4094568.0449711913],[597596.5567505639,4094561.28221341],[597577.6871149318,4094572.8365058927]]],[[[597583.8442737701,4094961.6047476106],[597600.529290765,4094974.3550062426],[597694.8452304231,4094963.5433009644],[597753.5932612037,4094983.899986731],[597762.8045256131,4094971.1538151302],[597723.01382819,4094954.6458211862],[597644.007986684,4094943.515962419],[597585.3326590827,4094950.7971335216],[597583.8442737701,4094961.6047476106]]],[[[597680.5165351327,4093333.9256230923],[597691.6429915092,4093343.755974354],[597690.4390902701,4093367.2010137737],[597711.4137657904,4093372.266109174],[597714.1561257907,4093350.6248996346],[597735.756735268,4093326.499972643],[597728.5110634449,4093309.253615913],[597739.6183128172,4093300.2543920595],[597742.3125028671,4093257.0224450445],[597730.2561770309,4093239.8353160354],[597751.072201838,4093234.0232467554],[597752.7507181509,4093214.822143286],[597688.5477061385,4093213.192492867],[597680.5165351327,4093333.9256230923]]],[[[597684.0748242578,4095141.497600644],[597690.0921594267,4095152.7258563177],[597705.9192514344,4095141.9996113116],[597718.7441889691,4095147.4159571333],[597746.1451261591,4095125.1485746405],[597710.9446867274,4095110.9609395065],[597684.0748242578,4095141.497600644]]],[[[597061.3609471243,4092719.3392090253],[597080.4810747164,4092746.395542328],[597115.0448135142,4092766.0717483875],[597108.745505825,4092868.8247615104],[597146.25216843,4092879.3815196194],[597133.9800269505,4093130.072833013],[597203.7881261037,4093138.291799491],[597210.3487440869,4093171.015126561],[597460.9581214989,4093189.3376928065],[597468.592568304,4093218.7418453465],[597515.4762532935,4093221.807945458],[597527.9827127653,4093194.899533548],[597671.1118752381,4093204.043382163],[597726.8626577635,4092544.2203698],[597085.1093588643,4092505.2829297883],[597068.8628257908,4092527.221786699],[597061.3609471243,4092719.3392090253]]],[[[597642.3532638049,4094447.1407583836],[597659.3697876357,4094451.8171027172],[597725.0991257227,4094414.2443479924],[597719.2560408536,4094391.8021146227],[597643.4055986264,4094410.9454441643],[597642.3532638049,4094447.1407583836]]],[[[597675.1436110586,4094818.103761843],[597678.0501813712,4094859.2033320246],[597692.057292766,4094855.3022811715],[597710.8129407712,4094818.999273869],[597700.7019451237,4094802.254134797],[597675.1436110586,4094818.103761843]]],[[[597525.0312694014,4092336.898909298],[597607.8633430842,4092375.308285304],[597609.2225325974,4092390.251498653],[597498.5770153422,4092356.995393861],[597489.3609225863,4092384.429839551],[597658.6169225011,4092449.4986689906],[597667.6718392593,4092429.336547808],[597627.7545563116,4092416.0951465582],[597621.8254900841,4092393.2084818264],[597704.5597372239,4092417.2192799207],[597708.8450562905,4092397.2951169866],[597635.7649639071,4092368.2813107125],[597650.5351365902,4092326.7441522386],[597676.0763914696,4092327.3444518484],[597686.8111179897,4092287.494343384],[597670.1737985923,4092282.1424321504],[597635.2961356792,4092299.058992396],[597555.769896579,4092271.28109116],[597543.4385528634,4092277.949447465],[597525.0312694014,4092336.898909298]]],[[[597656.7783217961,4094189.398717087],[597646.5772737069,4094220.4302911167],[597675.1951624447,4094245.5997040104],[597681.1999741762,4094235.5853136955],[597662.3860713087,4094223.3743618242],[597670.4278564533,4094206.203079193],[597656.7783217961,4094189.398717087]]],[[[597617.9859383771,4095733.4712419445],[597655.7384210108,4095759.755747395],[597673.5380474158,4095731.6677290136],[597635.1499823127,4095707.8092024],[597617.9859383771,4095733.4712419445]]],[[[597629.7649211833,4093410.581345054],[597625.0733582746,4093457.846254632],[597644.5692615497,4093462.334074186],[597641.0545466639,4093412.5565079255],[597629.7649211833,4093410.581345054]]],[[[597581.7664342629,4094676.2080879575],[597596.5982958067,4094677.882346731],[597612.3512306099,4094699.410540689],[597628.965105989,4094687.6741646165],[597590.2124043249,4094661.271094254],[597581.7664342629,4094676.2080879575]]],[[[597592.4153841636,4096389.800845165],[597618.7372157275,4096401.050974785],[597626.0956610371,4096375.9309155666],[597615.7843474156,4096367.581013418],[597593.7267119769,4096373.5097489655],[597592.4153841636,4096389.800845165]]],[[[597596.7943549148,4094083.3803598452],[597603.7092878999,4094104.5799063165],[597624.518487106,4094098.230953153],[597607.1174267471,4094068.0374215483],[597596.7943549148,4094083.3803598452]]],[[[597583.3796857432,4092196.60442836],[597585.6804376646,4092229.0328557543],[597605.1053489036,4092233.3975673993],[597612.6051348875,4092205.0045538186],[597600.8444986924,4092193.380549783],[597606.1614034963,4092150.9508452737],[597582.9118510908,4092148.9755854304],[597574.2431622181,4092191.475360272],[597583.3796857432,4092196.60442836]]],[[[597562.1710447583,4096329.282402029],[597576.7630330942,4096361.9918301776],[597605.9607049394,4096351.2354693115],[597567.7429591969,4096321.224455368],[597562.1710447583,4096329.282402029]]],[[[597572.8471859385,4095531.0603821725],[597571.7298370663,4095561.783426199],[597586.6435465467,4095566.8723027073],[597594.2794400353,4095541.5497399704],[597572.8471859385,4095531.0603821725]]],[[[597505.4801379753,4096142.5033326326],[597519.8413184402,4096169.2657812373],[597547.7652420242,4096171.620520807],[597513.6370647004,4096137.4301935686],[597505.4801379753,4096142.5033326326]]],[[[597449.3530026778,4092173.2020574836],[597497.3130819404,4092201.1862783115],[597533.3512184008,4092207.357480018],[597535.0129027822,4092193.214704875],[597508.5033497011,4092182.576764031],[597519.4499119092,4092125.808845687],[597500.4704503774,4092122.242034447],[597489.3151110904,4092145.324014837],[597456.6915830949,4092141.6459232313],[597449.3530026778,4092173.2020574836]]],[[[597460.8341828572,4095920.9326186567],[597526.6584318943,4095876.6147110313],[597455.2421022665,4095787.4940281673],[597397.4731137583,4095837.1521244794],[597460.8341828572,4095920.9326186567]]],[[[597473.9333586759,4092115.2202307787],[597476.6728025296,4092082.6159161706],[597411.6883448564,4092081.369938597],[597402.3254126171,4092056.7840102892],[597138.2371609281,4092058.0276951385],[597140.7894520469,4092138.130060818],[597353.9567997261,4092140.0168503597],[597364.2460702525,4092114.7042372366],[597473.9333586759,4092115.2202307787]]],[[[597425.7715099276,4093300.4237190033],[597340.4022079034,4093339.830547857],[597348.6811835374,4093361.5446777353],[597372.2925536255,4093357.1058159703],[597385.0585994335,4093369.9332518186],[597437.9805785147,4093346.3813705537],[597434.2909111159,4093324.8103287476],[597453.5741292059,4093321.8764216118],[597466.6422978095,4093290.488315497],[597438.7085699473,4093277.887601682],[597425.7715099276,4093300.4237190033]]],[[[597407.9970133876,4097698.62481558],[597421.434735992,4097727.599646738],[597451.8908499122,4097692.9207605743],[597439.2725695565,4097681.2880923836],[597407.9970133876,4097698.62481558]]],[[[597439.3265694715,4097678.793458881],[597461.579307131,4097652.552273677],[597450.5987618099,4097637.791895915],[597435.2154301227,4097647.144257651],[597439.3265694715,4097678.793458881]]],[[[597410.4564576367,4095486.964135569],[597433.644358715,4095520.499029095],[597425.2396763284,4095549.5705592562],[597434.384983273,4095553.869393927],[597458.2759108827,4095519.073081653],[597440.2769963561,4095505.747668995],[597433.0423355068,4095481.095645941],[597410.4564576367,4095486.964135569]]],[[[597413.0151501434,4093459.346366899],[597454.6817502056,4093461.4478355087],[597455.7978564539,4093442.013079194],[597428.2194928518,4093439.9910896304],[597413.0151501434,4093459.346366899]]],[[[597398.8057182563,4091932.365233701],[597369.0429917987,4091899.430138716],[597324.7089126727,4091897.187023217],[597291.7740853769,4091926.949564479],[597289.530831741,4091971.283466291],[597319.2935298373,4092004.2185474504],[597363.627592139,4092006.461708924],[597396.5624974519,4091976.6991201593],[597398.8057182563,4091932.365233701]]],[[[597319.4590626776,4097046.1561914324],[597336.6939603455,4097049.7371031987],[597375.3753996307,4097016.725320651],[597320.8345816914,4097007.9859128175],[597319.4590626776,4097046.1561914324]]],[[[597312.4045659062,4088953.29610434],[597317.0239182122,4088977.769099204],[597337.2151329134,4088974.402455484],[597347.2325097942,4088991.380478146],[597369.2949590303,4088983.267451143],[597363.4941079774,4088952.6190748387],[597336.040573304,4088961.2563748914],[597312.4045659062,4088953.29610434]]],[[[597296.9093853559,4095863.441140257],[597303.4848429045,4095880.9626723775],[597326.3826036742,4095876.7616698043],[597318.0734774662,4095854.9839610565],[597350.3055087643,4095827.4533227384],[597344.5856138207,4095815.5838871626],[597310.6844524066,4095837.573836416],[597296.9093853559,4095863.441140257]]],[[[597158.2323128969,4096616.1920030424],[597154.0798946462,4096661.68902048],[597136.7714541364,4096678.084800395],[597166.1219483424,4096690.667175175],[597179.727228313,4096660.279840162],[597208.2424447072,4096674.3170451997],[597224.4273879924,4096662.8156003854],[597260.7740961601,4096671.682087628],[597275.2200252557,4096657.5771264695],[597297.0389555455,4096664.9283035826],[597302.4884567151,4096649.6514095836],[597278.1247971548,4096642.890478576],[597266.0604506673,4096656.001334061],[597228.6336892596,4096646.4112210013],[597214.3732529524,4096657.1103917737],[597175.5839758937,4096613.082845554],[597158.2323128969,4096616.1920030424]]],[[[597249.8435906584,4093201.117636679],[597202.4448607692,4093205.707247053],[597202.6459607963,4093222.1520173615],[597249.4022244101,4093224.1837703134],[597249.8435906584,4093201.117636679]]],[[[597182.360858723,4095814.2882640394],[597195.0760488174,4095858.9711640766],[597221.2530485393,4095838.6614241106],[597236.5368318581,4095840.618721122],[597244.9574325134,4095822.560726071],[597229.4077018788,4095813.723055087],[597214.7345190244,4095827.4852605113],[597182.360858723,4095814.2882640394]]],[[[597200.7589713007,4095992.6336534065],[597168.4434880879,4095998.5790805197],[597163.719328878,4096007.878555898],[597219.2933119698,4096029.279200655],[597227.9022891691,4096004.0546584055],[597200.7589713007,4095992.6336534065]]],[[[597181.8993147804,4097147.8117076512],[597170.0073455451,4097187.4694195995],[597183.1008841692,4097189.707488885],[597202.5501102749,4097174.49331126],[597201.2251017852,4097148.6658504526],[597181.8993147804,4097147.8117076512]]],[[[597168.3043968898,4096905.9001284065],[597192.3272971165,4096936.4711907785],[597201.871162159,4096922.5284872134],[597184.8336492513,4096906.0914584296],[597183.299719664,4096881.4661697987],[597168.3043968898,4096905.9001284065]]],[[[597147.7771138726,4096820.0078262025],[597165.0571870835,4096817.256169668],[597165.4980223326,4096782.1622140533],[597176.4630311321,4096773.7675801707],[597189.5322555524,4096722.118020292],[597174.805221398,4096721.0468357005],[597166.0492396535,4096749.99633429],[597144.7718720406,4096754.133306383],[597147.3565557061,4096791.8375958833],[597115.6676878822,4096786.394287605],[597113.6588555719,4096798.437511438],[597142.9816237453,4096802.285514068],[597147.7771138726,4096820.0078262025]]],[[[597138.028679818,4094040.085449337],[597156.7815876754,4094054.409700432],[597143.3340977967,4094108.5181575324],[597158.0814316443,4094119.411596223],[597173.5899612947,4094108.225094256],[597169.8568448877,4094057.828645862],[597180.5669649846,4094036.8268624675],[597142.573118282,4094030.399473189],[597138.028679818,4094040.085449337]]],[[[597098.1172938128,4096025.38415549],[597097.3496770151,4096059.8465447086],[597116.0733741728,4096059.6588100386],[597141.9398128781,4096015.484154548],[597098.1172938128,4096025.38415549]]],[[[597080.1924656988,4094970.7250469923],[597087.4127872157,4095006.850964155],[597103.4728439903,4095000.090892192],[597120.8857862642,4095016.388342761],[597128.6183885393,4095012.09969706],[597104.6220308287,4094998.0212426735],[597093.5400039908,4094970.863890356],[597080.1924656988,4094970.7250469923]]],[[[597073.8582246794,4095799.734600601],[597058.1331619472,4095819.755912862],[597072.0882653466,4095827.6504102796],[597091.6831417636,4095811.0439804606],[597106.7184773752,4095832.8293171558],[597128.2160317611,4095803.045115717],[597119.1317176677,4095790.0842573657],[597073.8582246794,4095799.734600601]]],[[[597059.5219059808,4091802.2236911803],[597090.5673214109,4091844.547053063],[597101.4999298161,4091838.9522121423],[597071.7539604973,4091792.9649315546],[597059.5219059808,4091802.2236911803]]],[[[596972.2207467783,4095981.039914338],[597026.4251768055,4096014.4223864246],[597034.4080924424,4095993.9663637215],[597067.2787304865,4095998.076065677],[597079.5027382239,4095976.9358093515],[597055.852219964,4095956.514741148],[597039.2109176794,4095960.7253843322],[597036.0869792365,4095989.286216911],[597020.0275440568,4095995.144552748],[596980.4145882681,4095969.397246316],[596972.2207467783,4095981.039914338]]],[[[596851.8762312838,4094096.37253612],[596887.1030502161,4094169.0453766626],[596913.9260381528,4094165.567504628],[596897.493307708,4094188.5682780812],[596907.956680721,4094208.675492316],[596985.5358994884,4094150.3163766535],[597027.4740807156,4094137.0076782727],[597066.2459744967,4094091.189766315],[597057.2265482959,4094077.332287352],[597068.9104039636,4094054.3064877708],[597043.8904172542,4094035.5934898327],[597029.9344706207,4094043.470310196],[597019.5534331157,4094034.8010393623],[597054.9242338424,4093952.23367723],[597020.5069543854,4093928.051205053],[596995.5734731966,4093934.061742871],[596941.3199293461,4094000.2416363615],[596943.9747113633,4094015.026904647],[596923.6602682709,4094039.0683205775],[596902.3543180781,4094032.491411822],[596887.8503107979,4094047.119392719],[596884.7128214672,4094072.231479063],[596905.8363160797,4094122.310155772],[596882.0319990795,4094130.7055325457],[596869.37839418,4094086.82988381],[596851.8762312838,4094096.37253612]],[[596940.6230659517,4094065.323076826],[596970.3672170046,4094049.7016847404],[596987.4327829835,4094067.149467116],[596997.6207295054,4094033.7306457153],[597017.3702256077,4094043.488469526],[597004.8036304191,4094077.7372283335],[596971.4028651163,4094109.6260387413],[596947.6513223147,4094092.3706084983],[596940.6230659517,4094065.323076826]],[[596943.1191835271,4094026.10640957],[596949.3931441635,4094013.8445198745],[596965.8878748014,4094025.502349119],[596954.7271725084,4094037.5520427204],[596943.1191835271,4094026.10640957]]],[[[596969.2653735534,4095873.7824570616],[597008.1478200078,4095906.529202516],[597022.0627242824,4095889.150100425],[597020.9241028863,4095866.753928709],[597000.6376961755,4095854.906454454],[596969.2653735534,4095873.7824570616]]],[[[596863.6475872914,4095750.434151418],[596899.3290460589,4095749.9375046804],[596898.5794266082,4095772.286523339],[596932.5653205629,4095798.429012593],[596973.0681188437,4095767.9740253743],[596968.69839004,4095744.783636743],[596936.5851962365,4095722.0824231682],[596924.4330052254,4095729.1005194793],[596906.7173170471,4095720.759492396],[596895.5793796482,4095730.237692758],[596878.1327962385,4095723.214632847],[596863.6475872914,4095750.434151418]],[[596924.3935354425,4095770.5787756024],[596902.8306952022,4095746.9675940904],[596916.5222678788,4095737.3698617336],[596936.1186985943,4095750.607161175],[596924.3935354425,4095770.5787756024]]],[[[596896.136700659,4094676.92440428],[596936.2811172591,4094671.941449555],[596956.022448273,4094680.360527697],[596968.270890896,4094676.8601674205],[596968.59629507,4094663.0080851363],[596906.0266181786,4094660.8552929694],[596894.1747462484,4094665.359200154],[596896.136700659,4094676.92440428]]],[[[596887.3607226547,4095097.157580467],[596887.037005763,4095122.43810823],[596912.7784545656,4095135.232828276],[596905.6322680266,4095097.584909236],[596887.3607226547,4095097.157580467]]],[[[596903.4685201847,4096057.398789141],[596879.6050762061,4096038.101307564],[596868.6555948694,4096051.552556355],[596893.2273237099,4096069.2806515787],[596903.4685201847,4096057.398789141]]],[[[596816.5137624472,4094623.703997652],[596810.0142836267,4094643.1386257987],[596841.6377687128,4094642.776882955],[596835.9663399379,4094620.3976909113],[596816.5137624472,4094623.703997652]]],[[[596792.0546493621,4096363.2016689987],[596816.3275959494,4096351.1107229823],[596813.3252715124,4096333.200153676],[596792.4499231294,4096336.8179247743],[596792.0546493621,4096363.2016689987]]],[[[596795.134972706,4096157.0986434803],[596816.3053106053,4096141.279460271],[596802.7305357424,4096125.8349253517],[596783.7247323267,4096142.9003846277],[596795.134972706,4096157.0986434803]]],[[[596661.2529012981,4097081.824654083],[596667.856830761,4097095.981596875],[596654.5305105257,4097137.699404933],[596669.8871705354,4097144.040176191],[596686.4308690998,4097127.4884388717],[596713.2714451376,4097158.0138557674],[596735.0472844684,4097147.476354707],[596702.0857445861,4097107.432733019],[596712.7122036034,4097083.9454490943],[596747.399551976,4097064.4089135733],[596739.6897548547,4097049.5108057847],[596712.5028000013,4097044.612404154],[596702.7680368954,4097063.843814075],[596671.5814854397,4097066.111296499],[596661.2529012981,4097081.824654083]]],[[[596701.2299860142,4095814.449575928],[596716.5370179022,4095851.412535716],[596731.6072023293,4095838.3299972583],[596723.4576856748,4095808.473642485],[596701.2299860142,4095814.449575928]]],[[[596663.5341984513,4096156.861428572],[596676.5050954556,4096172.2910961267],[596696.4005457008,4096151.7918010456],[596680.3600605917,4096137.341142955],[596663.5341984513,4096156.861428572]]],[[[596578.8932328062,4097020.6144276373],[596623.8594231287,4097052.4405548754],[596658.5068056488,4097023.8858455922],[596674.1464751675,4097028.6863929373],[596690.4167278791,4097007.9272156856],[596666.8084007127,4096974.7548001586],[596611.2537521283,4097022.5439312933],[596580.3746003394,4097006.5812773136],[596578.8932328062,4097020.6144276373]]],[[[596609.026097933,4094651.303043136],[596655.6938622596,4094635.7972628274],[596648.1957464882,4094613.691464851],[596615.1804751867,4094626.095137644],[596609.026097933,4094651.303043136]]],[[[596620.4197602043,4095705.3097715466],[596616.5779826744,4095730.847899695],[596645.001651297,4095734.78505849],[596637.6387981465,4095708.090402681],[596620.4197602043,4095705.3097715466]]],[[[596623.1528967696,4096284.3200361873],[596594.0438605422,4096308.759425096],[596601.1456285483,4096319.8127433266],[596631.6434476674,4096295.460961265],[596623.1528967696,4096284.3200361873]]],[[[596615.5137957742,4095027.8559913007],[596581.9614225104,4095028.3265800676],[596581.6966895127,4095041.53680446],[596617.2059574125,4095057.294044822],[596628.5956499297,4095045.7504108953],[596615.5137957742,4095027.8559913007]]],[[[596571.165966024,4096163.9201610484],[596608.9745183784,4096178.3845444764],[596625.2195637791,4096172.268419158],[596598.1773354084,4096141.3249297724],[596567.3620413748,4096149.763388441],[596571.165966024,4096163.9201610484]]],[[[596569.0158606437,4092549.5773514453],[596551.6351660605,4092561.7497695284],[596569.9609317317,4092581.004767212],[596584.0447496384,4092567.3885870753],[596569.0158606437,4092549.5773514453]]],[[[596544.0010001884,4097457.3276594137],[596574.3243241303,4097464.7329979003],[596574.1960434389,4097432.496268595],[596540.8813599225,4097443.3295737286],[596544.0010001884,4097457.3276594137]]],[[[596567.1419451778,4096906.622526391],[596564.8767075735,4096874.3226555497],[596522.9027237955,4096881.4231624515],[596528.1832924264,4096911.76734445],[596567.1419451778,4096906.622526391]]],[[[596420.5210080289,4089197.085347687],[596448.7315003152,4089203.174733313],[596453.7349367433,4089188.9693098413],[596419.6372729784,4089176.5979675488],[596420.5210080289,4089197.085347687]]],[[[596331.116252904,4096569.951997474],[596346.5538681202,4096594.8025643053],[596363.5632238124,4096595.740905248],[596365.1298804652,4096584.0912081627],[596343.0635890999,4096562.198351941],[596331.116252904,4096569.951997474]]],[[[596290.3263086905,4097446.5896796556],[596276.6865866451,4097462.232650832],[596321.0307891684,4097491.8612375637],[596350.43189848,4097489.102192695],[596333.0625389277,4097453.2468236955],[596311.6703594956,4097466.496610594],[596290.3263086905,4097446.5896796556]]],[[[596287.7235689608,4096825.548035557],[596314.5615816094,4096830.5683645857],[596319.8329346024,4096815.3716821303],[596289.11206632,4096805.666437597],[596287.7235689608,4096825.548035557]]],[[[596222.8953915894,4096674.232349214],[596216.7196705005,4096689.6039988236],[596269.8991700995,4096696.415886142],[596265.312113334,4096658.5749352085],[596276.9480867459,4096631.8548652153],[596311.6012730139,4096611.6934619783],[596302.8494724056,4096580.2738008182],[596275.9263607444,4096605.0817507403],[596269.6241439458,4096627.9410742605],[596255.9155857145,4096631.7038772875],[596243.3485140689,4096671.586213946],[596222.8953915894,4096674.232349214]]],[[[596105.9913646047,4096899.678082262],[596254.1768901456,4096862.377735158],[596251.4713672394,4096848.2356348014],[596225.0961576153,4096847.7348112795],[596221.7928545489,4096812.909899655],[596197.3792805424,4096820.446403141],[596182.6812452021,4096812.793158966],[596181.2456651676,4096771.152407267],[596218.4522963538,4096764.0257784],[596228.5237874733,4096783.554487225],[596282.1495388187,4096776.302023439],[596283.1736099281,4096761.6910806033],[596266.1767316989,4096749.8311395794],[596279.6938424816,4096722.359359668],[596298.115193166,4096719.116866048],[596297.5451723387,4096706.7391671287],[596248.232856677,4096738.9793054974],[596242.8521660706,4096765.204543428],[596230.2130330345,4096760.0484035346],[596229.3721677797,4096717.110521757],[596212.6200770503,4096719.26720261],[596202.2797280947,4096744.2283967696],[596169.739821012,4096746.889857592],[596159.837353453,4096805.4215901634],[596130.0107698984,4096825.3219941407],[596123.3689579649,4096842.931909123],[596144.3634597232,4096849.482118199],[596160.7460969854,4096832.6506339004],[596161.1339366806,4096865.912847733],[596103.9040623487,4096883.4674196793],[596105.9913646047,4096899.678082262]]],[[[596142.9325484998,4096922.1130938544],[596149.724797699,4096949.3677251246],[596162.7530703179,4096957.6484735627],[596168.1159426965,4096933.144140473],[596150.4964600629,4096914.652647961],[596142.9325484998,4096922.1130938544]]],[[[596181.0606011855,4096932.8847189164],[596205.3112928912,4096954.725581552],[596223.1515044079,4096947.752237137],[596233.8880030261,4096966.049685772],[596250.6580562356,4096963.3811061815],[596246.0178237992,4096945.822474176],[596228.6618702173,4096945.6737593277],[596204.6229551128,4096920.333982824],[596181.0606011855,4096932.8847189164]]],[[[596096.3153721372,4097154.5294772647],[596096.3937517033,4097195.1480384455],[596113.0203109374,4097200.106695137],[596158.2017356738,4097165.543327077],[596208.0718677454,4097165.416263503],[596222.1040851537,4097151.7423407263],[596209.5006597129,4097123.2198083247],[596173.9839941533,4097126.9907019506],[596174.6485905192,4097148.3926641294],[596161.6601969793,4097157.4285836252],[596152.5488915538,4097150.5039870115],[596162.4258284202,4097133.803182251],[596156.3159532105,4097127.679756231],[596115.517471446,4097127.148222533],[596111.4037035604,4097148.582382407],[596096.3153721372,4097154.5294772647]]],[[[596167.1292122944,4096463.8414021935],[596193.1493180537,4096463.641636716],[596213.1429229126,4096441.1659604395],[596210.7900762792,4096426.65773262],[596186.7061362602,4096429.241166025],[596185.5220959861,4096445.738064483],[596165.8902511756,4096453.3859432223],[596167.1292122944,4096463.8414021935]]],[[[596134.3556506328,4097540.406283517],[596159.3304380651,4097575.5625307593],[596168.2214725225,4097548.3547033207],[596156.988271061,4097537.781809204],[596161.0839902946,4097501.0859431005],[596139.8435062438,4097507.8382641766],[596134.3556506328,4097540.406283517]]],[[[596116.98623968,4095751.2036106703],[596146.656828839,4095755.6550063],[596151.3652549102,4095774.894150551],[596163.0596785314,4095774.483819965],[596158.9537545865,4095740.067144338],[596119.3745580543,4095735.9669435844],[596116.98623968,4095751.2036106703]]],[[[596103.9053585968,4097649.3495474835],[596100.7508479259,4097659.631632082],[596126.9307346806,4097677.3842175347],[596123.9799416414,4097651.031432856],[596142.58202977,4097645.1415167022],[596160.0078361889,4097659.2138747536],[596160.6968546086,4097634.1873927885],[596103.9053585968,4097649.3495474835]]],[[[596143.7897230084,4096724.1949473987],[596128.5723594417,4096712.3133185524],[596114.0634615498,4096738.9416450053],[596129.7662478747,4096746.442097499],[596143.7897230084,4096724.1949473987]]]]}}]}
