{"type":"FeatureCollection","name":"carboneras-puntica-roads","crs":{"type":"name","properties":{"name":"EPSG:25830"}},"source":"\u00a9 OpenStreetMap contributors, ODbL 1.0","features":[{"type":"Feature","properties":{"class":"footway","widthMeters":2},"geometry":{"type":"Polygon","coordinates":[[[598348.6730089596,4094940.378713278],[598348.5747664806,4094940.3655969347],[598348.4757081316,4094940.3622702765],[598348.3768070246,4094940.3687659823],[598348.2790347268,4094940.385020242],[598348.1833517165,4094940.4108733786],[598348.0906979474,4094940.4460714217],[598348.0019836152,4094940.490268599],[598347.9180802163,4094940.543030733],[598347.8398119858,4094940.6038395087],[598347.7679478015,4094940.6720975647],[598332.1995607634,4094957.0013064803],[598332.1803558752,4094957.0220282883],[598329.0,4094960.5523346826],[598329.0,4094963.5404295563],[598332.9943224094,4094959.1065918054],[598338.7849100749,4094964.3648368116],[598338.0277743943,4094969.3280006777],[598338.0173066428,4094969.4347967063],[598338.0183426999,4094969.5420995126],[598338.0308706352,4094969.6486735074],[598338.05474619,4094969.7532914956],[598338.0896944382,4094969.8547488046],[598344.6502264037,4094986.025531215],[598329.0,4094991.0789104034],[598329.0,4094993.180587024],[598346.2885352022,4094987.5982061853],[598361.6384715891,4094982.6447364707],[598374.5342700953,4094988.87639938],[598366.2452598764,4095014.074654101],[598352.6123833779,4095007.8494584654],[598329.0,4094996.3616995765],[598329.0,4094998.5858362885],[598351.7484035671,4095009.6532567646],[598351.7705147245,4095009.663681878],[598366.4093088459,4095016.3482108023],[598379.3755154394,4095023.0234340783],[598390.654170671,4095028.8191210865],[598393.02252895,4095030.432395873],[598394.1484807056,4095028.7794492184],[598391.729103423,4095027.1314213825],[598391.6231783873,4095027.06845414],[598381.2195778805,4095021.7224259363],[598389.8940002738,4095006.5190685927],[598393.4100646557,4095007.554590783],[598393.5022935049,4095007.5770564945],[598393.5962369908,4095007.5906759766],[598393.6910486008,4095007.5953265056],[598393.785874,4095007.5909661762],[598393.8798587293,4095007.5776342787],[598397.171146896,4095006.9501398485],[598397.269086558,4095006.9262954704],[598397.3641281812,4095006.8927124147],[598397.4553060731,4095006.8497319096],[598397.5416937994,4095006.797790669],[598399.667525943,4095005.3689872273],[598399.7609787857,4095005.2978676665],[598400.1063671559,4095005.0014349157],[598410.9698392384,4095012.861617124],[598412.7722126711,4095014.2694306853],[598414.0033428939,4095012.6932586213],[598412.1864864617,4095011.2741325526],[598412.1571145841,4095011.252047311],[598401.3788150691,4095003.453491063],[598402.375588119,4095001.7700317646],[598402.4173093197,4095001.6918637366],[598402.4519474447,4095001.610309463],[598402.4792305535,4095001.526009219],[598402.4989444492,4095001.439624836],[598403.0027832459,4094998.671629923],[598403.0156055702,4094998.5742521044],[598403.0188132947,4094998.4760861117],[598403.0123754753,4094998.3780789385],[598402.9963542162,4094998.2811760446],[598402.2362073321,4094994.766203074],[598402.2083423838,4094994.663931822],[598402.169808528,4094994.565184639],[598402.1210387258,4094994.4710710337],[598402.0625809482,4094994.3826484545],[598400.0910787644,4094991.719045273],[598400.0236458145,4094991.6373681417],[598399.9479522721,4094991.563281407],[598399.8648472943,4094991.497616202],[598399.7752631822,4094991.441109181],[598396.6539218739,4094989.6961635],[598396.5690854947,4094989.6538835526],[598396.4806270975,4094989.6198259955],[598396.3893414639,4094989.59429683],[598396.2960487774,4094989.57752543],[598396.2015872546,4094989.5696624834],[598392.8616175714,4094989.4505877467],[598392.1647279315,4094985.3292585956],[598392.1434329366,4094985.232663837],[598392.1126992137,4094985.1386454212],[598392.0728274622,4094985.048123227],[598392.0242077884,4094984.9619829254],[598391.9673158884,4094984.8810673156],[598391.9027083938,4094984.8061680775],[598391.8310174259,4094984.7380180275],[598391.7529444108,4094984.677283947],[598380.623585511,4094976.87138885],[598385.991217984,4094962.2380415546],[598390.3275177252,4094954.6732410695],[598388.5923724963,4094953.678620019],[598384.7316053942,4094960.413840043],[598372.4484845974,4094952.70360772],[598372.3784087381,4094952.6634704303],[598348.9532869933,4094940.4750395925],[598348.8632034153,4094940.4337047143],[598348.7694704718,4094940.401490456],[598348.6730089596,4094940.378713278]],[[598379.4393461248,4095020.806818354],[598368.0627576543,4095014.9499574737],[598376.3294889533,4094989.819429124],[598385.4218221889,4094994.878083168],[598384.6997668342,4094997.030098153],[598384.673989437,4094997.12094119],[598384.6568956638,4094997.2138106385],[598384.6486379385,4094997.3078783886],[598384.6492898947,4094997.402305644],[598384.8105272584,4095000.3777425587],[598384.8197014,4095000.469114908],[598384.8372188917,4095000.5592603935],[598384.8629320075,4095000.647418812],[598384.8966239067,4095000.732846717],[598386.1371602471,4095003.498910997],[598386.1813410918,4095003.5858105933],[598386.23377341,4095003.6679953784],[598386.293958912,4095003.7446843097],[598386.3613256257,4095003.8151485757],[598388.1602926233,4095005.521919835],[598379.4393461248,4095020.806818354]],[[598388.1350574204,4094996.3448831243],[598388.6066328144,4094995.4630573774],[598388.1419791426,4094996.348549876],[598390.2627923108,4094997.4614261873],[598390.2850919315,4094997.4744359786],[598390.2611065528,4094997.5681040706],[598390.2461840324,4094997.665361373],[598390.1659761065,4094998.441107042],[598390.1607016462,4094998.536432252],[598390.1645416436,4094998.6318260143],[598390.1774610981,4094998.726418843],[598390.3198454077,4094999.49365446],[598390.341677894,4094999.5864142226],[598390.3722406997,4094999.676674656],[598390.4112562832,4094999.763616103],[598390.7679784979,4095000.466768864],[598390.8164296598,4095000.5517060654],[598390.8729448046,4095000.6315050735],[598390.936983543,4095000.7054028627],[598390.9558943725,4095000.7251821244],[598390.8071298848,4095000.9835098134],[598389.6227313492,4095002.9593600845],[598390.4804370917,4095003.4735009787],[598389.6118848961,4095002.9779032753],[598389.1808629901,4095003.7332841423],[598387.8811922661,4095002.500220589],[598386.7975422735,4095000.083970908],[598386.656706221,4094997.4850150584],[598387.2059571546,4094995.848026659],[598388.1350574204,4094996.3448831243]],[[598391.2119766184,4094995.700871436],[598389.0747545612,4094994.5793847176],[598388.2133499307,4094994.1187299574],[598389.4226300694,4094992.7316514538],[598392.2162027834,4094991.4288484007],[598394.7576100903,4094991.519453237],[598394.510665787,4094992.2004705076],[598393.6494247573,4094994.492897126],[598394.312271146,4094994.7419216754],[598394.2988035016,4094994.7414599764],[598393.6445504616,4094994.5061550625],[598393.5565562634,4094994.7508183406],[598393.4464466783,4094994.7525893985],[598393.3518622648,4094994.758602507],[598393.2582719015,4094994.7735428107],[598393.1665162519,4094994.79727611],[598392.4073056808,4094995.03255653],[598392.3138136524,4094995.0667160847],[598392.2241806961,4094995.110000813],[598392.1392948622,4094995.161981865],[598391.4844185859,4094995.609286571],[598391.4089133533,4094995.6662781374],[598391.3391313154,4094995.730149461],[598391.3132462989,4094995.7587868953],[598391.2512424999,4094995.7226133435],[598391.0347939353,4094996.093620133],[598390.9547477097,4094996.1910736724],[598391.2119766184,4094995.700871436]],[[598376.9663733869,4094987.8850649535],[598379.9481707831,4094978.840560771],[598390.2623921458,4094986.074735775],[598390.898494174,4094989.836573635],[598388.3853828467,4094991.0085814707],[598388.2932823893,4094991.0575351045],[598388.2067819344,4094991.1158156656],[598388.1268225163,4094991.182789123],[598388.05427401,4094991.2577268756],[598386.4126942593,4094993.1406652546],[598376.9663733869,4094987.8850649535]],[[598378.2188625621,4094977.6983094267],[598375.1654234341,4094986.960120105],[598362.8162945329,4094980.9926254596],[598364.6125924028,4094969.6161865545],[598378.2188625621,4094977.6983094267]],[[598370.5419971391,4094953.962489543],[598363.5458896096,4094966.504271306],[598356.6223848365,4094961.1830534237],[598356.5419661682,4094961.127285373],[598356.4564814827,4094961.0796449883],[598356.3667494874,4094961.040588533],[598350.9793428158,4094959.0030614887],[598350.8785985039,4094958.9709369848],[598350.7750252604,4094958.949630099],[598350.6697811794,4094958.939379072],[598350.5640430371,4094958.940298524],[598350.4589931339,4094958.952378175],[598342.5939649597,4094960.281280386],[598342.4988427471,4094960.302161913],[598342.406202799,4094960.3321971176],[598342.3169237379,4094960.3711011373],[598342.2318523108,4094960.418504996],[598342.1517953585,4094960.4739591023],[598342.077512163,4094960.5369375143],[598339.8444062605,4094962.625385661],[598334.3541115215,4094957.63982693],[598348.6968635008,4094942.5961494492],[598370.5419971391,4094953.962489543]],[[598378.8957564475,4094975.774154868],[598365.2023313083,4094967.640261948],[598372.2771272875,4094954.957416978],[598383.8637083819,4094962.230424673],[598378.8957564475,4094975.774154868]],[[598350.525159278,4094960.969546261],[598355.5208999353,4094962.858944503],[598362.7744990339,4094968.433863926],[598360.8208206313,4094980.807036192],[598346.5586241981,4094985.4094890184],[598340.0463780095,4094969.3577242116],[598340.7906672249,4094964.4787712907],[598343.2238583636,4094962.2031991747],[598350.525159278,4094960.969546261]],[[598393.4475205963,4095002.133963785],[598393.5391803101,4095002.1501183966],[598393.6319449437,4095002.1576812905],[598393.7250109258,4095002.156586953],[598394.5176246447,4095002.110316234],[598394.6164556979,4095002.099597084],[598394.7137341229,4095002.079118185],[598394.8084985678,4095002.0490819192],[598395.5593256359,4095001.769322732],[598395.6428967639,4095001.733686261],[598395.6785645774,4095001.7798725204],[598396.4700283731,4095001.1686564703],[598395.6866030795,4095001.7901424393],[598397.0684308276,4095003.5320302104],[598397.6653556585,4095004.304913523],[598396.5957386281,4095005.0238190577],[598393.7429839587,4095005.567705699],[598390.9124835578,4095004.73409014],[598391.343665659,4095003.9784285254],[598392.5270438232,4095002.00428047],[598391.6693380807,4095001.4901395757],[598392.5359164897,4095001.989180517],[598392.569273379,4095001.931256692],[598392.6663825072,4095001.958460078],[598393.4475205963,4095002.133963785]],[[598397.2229788608,4095000.1533178403],[598397.2703781109,4095000.05882251],[598397.3075367076,4094999.959851327],[598397.5662312497,4094999.141797309],[598397.5932751936,4094999.0367743764],[598397.608787225,4094998.929440467],[598397.6125849041,4094998.8210579553],[598397.5959403018,4094997.9554242315],[598397.5887350449,4094997.853300141],[598397.5711259998,4094997.7524479367],[598397.5432977309,4094997.653924675],[598397.2679512461,4094996.8407630045],[598397.2281830081,4094996.7412286345],[598397.177989961,4094996.646522449],[598397.1179487528,4094996.5577324894],[598396.6007953883,4094995.874906863],[598396.5329670775,4094995.794512123],[598396.4570693331,4094995.7216868084],[598396.3739418874,4094995.6572366585],[598395.6588300194,4094995.1607333734],[598395.5678833927,4094995.104545421],[598395.5579134609,4094995.0997728566],[598396.3849232998,4094992.8984618383],[598395.4488065531,4094992.5467724344],[598396.3889092021,4094992.8876639265],[598396.7049790435,4094992.01601385],[598398.6115276589,4094993.081845313],[598400.32691302,4094995.3994211913],[598400.999462117,4094998.509335797],[598400.5633577185,4095000.9052107567],[598399.2771378659,4095003.0775194587],[598399.257480865,4095003.094390261],[598398.6473294903,4095002.3043815508],[598397.8558943027,4095002.9156346438],[598398.6393195962,4095002.2941486747],[598397.2575063928,4095000.552279238],[598397.0946098674,4095000.341344492],[598397.1658686942,4095000.242281233],[598397.2229788608,4095000.1533178403]],[[598392.2599988336,4094998.9871621192],[598392.1702061167,4094998.503315474],[598392.2202816694,4094998.0190005796],[598392.4081134739,4094997.57266498],[598392.7304780042,4094997.1801972003],[598393.1430752777,4094996.89837801],[598393.6217759202,4094996.7500280095],[598394.127542537,4094996.741893006],[598394.6511218617,4094996.89587337],[598395.1025580214,4094997.2093062],[598395.4256455215,4094997.6358961435],[598395.5992869486,4094998.1486993236],[598395.6097977234,4094998.6953318575],[598395.448854125,4094999.204274011],[598395.1275902308,4094999.6508916426],[598394.7297115576,4094999.9441168406],[598394.2510297712,4095000.1224743254],[598393.748789869,4095000.1517937793],[598393.2586321562,4095000.0416666493],[598392.8236411521,4094999.784600379],[598392.4847135429,4094999.430108372],[598392.2599988336,4094998.9871621192]]]}},{"type":"Feature","properties":{"class":"pedestrian","widthMeters":3},"geometry":{"type":"MultiPolygon","coordinates":[[[[598341.658602269,4094921.38359485],[598350.957411373,4094927.256792409],[598351.0172786227,4094927.2926840875],[598431.2974463531,4094972.917328863],[598431.4407669053,4094972.988938971],[598451.7985171123,4094981.8355320273],[598451.9351668607,4094981.887158679],[598452.07619031,4094981.9252487253],[598491.1676956329,4094990.465588029],[598546.6102352195,4095003.5813941364],[598542.4527848215,4095012.8762204126],[598545.191323189,4095014.1011316786],[598549.5881463286,4095004.271138934],[598600.8670851941,4095015.7754306328],[598670.6747694043,4095060.7337573464],[598700.3480736637,4095081.6654594727],[598730.6257564818,4095106.8126384895],[598732.6257478142,4095127.1682880116],[598737.8704185619,4095182.904061378],[598738.0385545436,4095191.0],[598741.039201435,4095191.0],[598740.868633607,4095182.786965219],[598740.8623598206,4095182.6775829643],[598735.612264319,4095126.8841600576],[598735.611673333,4095126.878015168],[598733.5535658507,4095105.930867092],[598732.9445758298,4095096.495527972],[598729.9508051729,4095096.6887564748],[598730.3370537326,4095102.673068238],[598702.2193769717,4095079.319885787],[598702.125630361,4095079.248067454],[598672.3781857935,4095058.264066371],[598672.3257351755,4095058.2286998755],[598602.2675214055,4095013.1090243086],[598602.153719934,4095013.042615864],[598602.0345297895,4095012.9864503415],[598601.9108706354,4095012.9409611113],[598601.7836966179,4095012.9064991656],[598549.0565382246,4095001.0773033192],[598491.8457738427,4094987.543195782],[598491.8206106189,4094987.537471139],[598452.8597197718,4094979.0256672404],[598432.7099972198,4094970.2694739574],[598352.529926153,4094924.7017158936],[598342.1319876936,4094918.1342999917],[598330.6360452907,4094908.737845531],[598330.5086931294,4094908.644486232],[598330.3722322108,4094908.565032161],[598329.0,4094907.8600179763],[598329.0,4094911.275232632],[598339.2232660168,4094919.6314378213],[598336.4076014165,4094923.629459767],[598338.8603732252,4094925.356859679],[598341.658602269,4094921.38359485]]],[[[598600.9769572972,4095052.9025774957],[598600.9152082732,4095053.0317794983],[598600.8660610166,4095053.1662809723],[598600.8299634466,4095053.304856096],[598600.8072445501,4095053.44624192],[598600.798111383,4095053.5891498784],[598600.8026471834,4095053.732277535],[598600.8208106129,4095053.874320448],[598600.8524361331,4095054.013984065],[598600.8972355147,4095054.149995516],[598600.9548004641,4095054.281115217],[598601.0246063446,4095054.406148167],[598601.1060169579,4095054.5239548367],[598601.198290342,4095054.633461558],[598601.3005855338,4095054.733670306],[598607.1225883594,4095059.916101118],[598616.1154881556,4095067.9314904846],[598616.2265630038,4095068.0213751756],[598616.3456864533,4095068.100283245],[598616.4717775576,4095068.1674986673],[598616.6036921451,4095068.2224115185],[598616.7402332004,4095068.2645235104],[598616.8801617268,4095068.293452511],[598617.0222079895,4095068.3089360143],[598617.1650830365,4095068.31083352],[598617.3074903957,4095068.29912781],[598617.4481378386,4095068.2739251037],[598617.5857491067,4095068.235454095],[598617.719075492,4095068.1840638765],[598617.8469071685,4095068.120220771],[598617.9680841699,4095068.0445041023],[598618.0815069156,4095067.957600936],[598618.1861461886,4095067.8602998457],[598636.4612523352,4095049.166508286],[598636.5599624786,4095049.0549569516],[598636.6471222215,4095048.934165512],[598636.7218720765,4095048.8053251],[598636.7834749304,4095048.669706219],[598636.8313233135,4095048.5286462144],[598636.86494539,4095048.3835360887],[598636.8840096103,4095048.235806782],[598636.888327981,4095048.086915062],[598636.8778579185,4095047.9383291593],[598636.8527026685,4095047.7915142896],[598636.8131102887,4095047.647918203],[598636.7594712019,4095047.50895691],[598636.6923143467,4095047.3760007164],[598636.612301961,4095047.250360712],[598636.5202230522,4095047.1332758404],[598636.416985616,4095047.0259006834],[598636.3036076834,4095046.929294074],[598636.1812072815,4095046.8444086555],[598619.0664948216,4095036.193281096],[598618.9404503661,4095036.1230148883],[598618.8082370862,4095036.0651858877],[598618.6710786624,4095036.0203293217],[598618.5302445445,4095035.9888603543],[598618.3870382018,4095035.9710702416],[598618.2427850596,4095035.967123637],[598618.0988202317,4095035.9770570686],[598617.9564761637,4095036.0007785982],[598617.8170702999,4095036.0380686754],[598617.6818928908,4095036.0885821665],[598617.5521950513,4095036.1518515516],[598617.4291771805,4095036.2272912506],[598617.3139778523,4095036.314203042],[598617.2076632773,4095036.411782527],[598601.231644799,4095052.558238214],[598601.1358998471,4095052.6647229716],[598601.0507453188,4095052.7798524885],[598600.9769572972,4095052.9025774957]],[[598604.4763797271,4095053.5442190696],[598618.4980062542,4095039.373005404],[598633.0105775439,4095048.4047229034],[598617.0422761607,4095064.738860458],[598609.1183360056,4095057.676236933],[598604.4763797271,4095053.5442190696]]],[[[598356.6067772377,4095101.5775416717],[598356.7500047834,4095101.5320088584],[598356.8879570261,4095101.472372078],[598357.0192490869,4095101.3992300127],[598360.1927369334,4095099.416716817],[598360.3080016901,4095099.3369895574],[598360.4153221969,4095099.2468523905],[598360.5137615505,4095099.1470922097],[598360.6024603798,4095099.038579917],[598360.6806443479,4095098.9222628195],[598360.7476309123,4095098.7991563603],[598360.8028352832,4095098.670335254],[598360.8457755289,4095098.536924103],[598360.876076783,4095098.4000875796],[598363.2039355149,4095084.935123394],[598363.2201858244,4095084.8099545375],[598363.2258554446,4095084.6838626247],[598363.2209042311,4095084.557740459],[598362.9638394727,4095081.403664896],[598362.9440543709,4095081.2541936077],[598362.9093638457,4095081.107463639],[598362.8601183966,4095080.964957492],[598362.7968155803,4095080.8281149925],[598362.7200949836,4095080.6983187436],[598354.3676272313,4095068.0635486073],[598354.276461778,4095067.9399068262],[598354.1731286306,4095067.8262376105],[598354.058711567,4095067.7237331453],[598353.9344106151,4095067.633468516],[598353.8015294671,4095067.5563904364],[598353.6614618059,4095067.493307315],[598353.5156766879,4095067.4448807803],[598353.3657031353,4095067.411618739],[598338.5234199436,4095064.9092746195],[598338.370717817,4095064.891518622],[598338.2170002814,4095064.8894853466],[598338.0638819325,4095064.90319615],[598337.9129710717,4095064.932507019],[598337.7658528142,4095064.977110082],[598337.6240724387,4095065.036536844],[598337.489119157,4095065.1101631075],[598337.3624104711,4095065.1972155278],[598334.6775589243,4095067.251981348],[598334.5679814556,4095067.3444739264],[598334.4677365553,4095067.4470071346],[598334.3777403325,4095067.5586439506],[598334.2988152367,4095067.6783641577],[598334.2316825415,4095067.8050736682],[598334.1769557532,4095067.93761452],[598334.1351350042,4095068.074775461],[598334.1066024819,4095068.215303017],[598330.1403845995,4095094.021517431],[598330.1254418556,4095094.163413638],[598330.1240486839,4095094.3060876657],[598330.1362176896,4095094.448248611],[598330.1618387686,4095094.5886102132],[598330.2006801035,4095094.725902492],[598330.2523902608,4095094.858883238],[598330.3165013713,4095094.9863492516],[598331.7466114776,4095097.5216033254],[598331.8280518346,4095097.650249952],[598331.9221141246,4095097.7699778597],[598332.0278291932,4095097.8795534526],[598332.1441078233,4095097.9778477377],[598332.2697519582,4095098.0638479562],[598332.4034670454,4095098.136668021],[598332.5438753744,4095098.1955576413],[598332.6895302723,4095098.2399100596],[598332.8389310089,4095098.269268298],[598356.0103594558,4095101.611701191],[598356.1599989498,4095101.625679343],[598356.310286109,4095101.624613185],[598356.4597122261,4095101.6085134204],[598356.6067772377,4095101.5775416717]],[[598338.6677725664,4095067.975949821],[598352.2243854747,4095070.2615355463],[598360.0050488496,4095082.031337737],[598360.2153522461,4095084.6116712224],[598358.0342291242,4095097.2278769743],[598355.8953471758,4095098.564060345],[598333.9972080562,4095095.4052969282],[598333.1843936649,4095093.964365221],[598336.9801049745,4095069.2675525867],[598338.6677725664,4095067.975949821]]],[[[598653.0380596304,4095076.178346757],[598670.3659568421,4095092.499479869],[598642.0403289321,4095113.9826347623],[598643.853207034,4095116.372921981],[598673.5897324405,4095093.8196926815],[598690.8805636266,4095080.7856504535],[598689.0747238965,4095078.3900413727],[598672.7924868412,4095090.6637928807],[598655.0949905522,4095073.9945346806],[598653.0380596304,4095076.178346757]]]]}},{"type":"Feature","properties":{"class":"residential","widthMeters":5},"geometry":{"type":"MultiPolygon","coordinates":[[[[598388.2174545767,4094956.3453123164],[598388.2268955251,4094956.3506923057],[598438.5580292651,4094984.887511692],[598438.1488742403,4094987.2263670824],[598426.6696695158,4094998.763961974],[598411.7578543852,4095011.5857313704],[598411.669567194,4095011.665373185],[598410.7331464082,4095012.5513827605],[598392.131394784,4095027.5668420154],[598365.6437296717,4095044.167186361],[598355.6320675174,4095038.6251278087],[598354.421296467,4095040.8123711566],[598355.5460925067,4095038.5796970045],[598329.0,4095025.2060751985],[598329.0,4095030.8047426036],[598351.1734256966,4095041.9754642206],[598345.7645503894,4095054.206806217],[598345.6855188479,4095054.408787161],[598345.6242914855,4095054.616858054],[598345.5813291464,4095054.8294527945],[598344.7633205778,4095060.0302183945],[598335.0814758259,4095058.8942556153],[598334.8299900994,4095058.877541044],[598334.5780994546,4095058.8862330248],[598334.3283640856,4095058.9202432134],[598334.0833222807,4095058.9792259336],[598333.8454646228,4095059.0625816905],[598333.6172086766,4095059.1694632624],[598333.4008744152,4095059.2987843156],[598333.1986606406,4095059.449230442],[598333.0126226362,4095059.6192725203],[598332.8446512755,4095059.807182258],[598332.6964538047,4095060.011049757],[598332.5695364898,4095060.228802926],[598332.465189307,4095060.458228541],[598332.3844728321,4095060.696994741],[598332.32820746,4095060.9426747267],[598329.0,4095079.7986890567],[598329.0,4095099.5957675474],[598329.0,4095101.7514715362],[598329.0,4095108.7159804213],[598329.0,4095111.2268163115],[598329.0,4095123.569106515],[598330.6923170151,4095119.3256576885],[598330.7669122671,4095119.1106480323],[598330.821645782,4095118.8897456867],[598330.8560639846,4095118.6647812645],[598331.8817458333,4095109.0508135622],[598332.7108544654,4095102.612457689],[598355.7085760426,4095105.7421533545],[598356.0679158835,4095105.7648875243],[598361.4794464244,4095105.716768228],[598361.7250120739,4095105.7024828694],[598361.967985189,4095105.664134141],[598362.2060135351,4095105.602093299],[598362.436792748,4095105.516960963],[598362.6580886426,4095105.4095613044],[598362.8677588424,4095105.2809340637],[598363.0637735198,4095105.1323244884],[598363.244235047,4095104.9651712747],[598363.407396367,4095104.781092641],[598363.5516779071,4095104.581870662],[598363.6756828706,4095104.369434016],[598365.9332474867,4095100.0240644966],[598366.0496994021,4095099.7648957805],[598366.1359918528,4095099.4941872936],[598366.1910102239,4095099.2154357],[598366.5499500522,4095096.631200935],[598372.6230303025,4095100.624154596],[598381.3648040972,4095111.1268742178],[598355.762351945,4095164.522234205],[598329.0,4095150.501648792],[598329.0,4095156.1462545306],[598353.6829570923,4095169.077461357],[598344.2277144827,4095191.0],[598349.6729457082,4095191.0],[598358.1064466651,4095171.446429747],[598369.9196629102,4095177.89017541],[598365.312600705,4095191.0],[598370.6123564219,4095191.0],[598374.3768819317,4095180.2876920477],[598384.61147039,4095185.7364177243],[598381.9724063664,4095191.0],[598387.5656693814,4095191.0],[598389.0571657943,4095188.025227879],[598395.03178026,4095191.0],[598406.2498253997,4095191.0],[598391.3686902488,4095183.5906539694],[598408.0597972776,4095152.721639041],[598410.4116454782,4095157.171942747],[598410.5201859957,4095157.3575415947],[598410.6442723545,4095157.5331279025],[598410.7829867528,4095157.697402952],[598417.4448141175,4095164.931330095],[598417.6966094986,4095165.1693100426],[598433.7515456835,4095178.3621036774],[598426.0077788279,4095191.0],[598431.8717631102,4095191.0],[598437.5643047409,4095181.7097214726],[598447.6632772522,4095191.0],[598455.0485191368,4095191.0],[598440.2303964508,4095177.3684660145],[598455.1087452373,4095153.2222866677],[598470.1770371789,4095168.216454552],[598480.4057045437,4095179.247192695],[598469.2604538624,4095191.0],[598476.1511779528,4095191.0],[598483.9064677561,4095182.8219491635],[598492.3311218447,4095191.0],[598499.5095928601,4095191.0],[598487.4661994322,4095179.309136178],[598502.4177780212,4095165.463895484],[598502.5119003486,4095165.3720221682],[598512.3975789131,4095155.201169458],[598526.0871864443,4095168.9281968833],[598526.1435800754,4095168.982993481],[598543.4279674082,4095185.2573267515],[598537.8199331495,4095191.0],[598544.8086007308,4095191.0],[598547.0277804784,4095188.7275416693],[598549.3295833144,4095191.0],[598556.4464523052,4095191.0],[598550.5160191748,4095185.145170924],[598571.1922982987,4095163.848328369],[598602.8250027142,4095191.0],[598610.5017719128,4095191.0],[598574.6840073261,4095160.2561163967],[598599.8426040242,4095134.4006800666],[598629.4861942462,4095161.562207716],[598643.3468092036,4095182.389990658],[598630.4619564365,4095191.0],[598639.4612663245,4095191.0],[598646.0073925002,4095186.625700305],[598648.6054950466,4095191.0],[598654.4209338479,4095191.0],[598650.2031371148,4095183.8986994806],[598674.7889468034,4095168.3982683923],[598674.9779275057,4095168.2665791526],[598689.3029373843,4095157.270349871],[598727.9738137597,4095131.6915677995],[598731.6346084896,4095183.3324525757],[598731.8993926096,4095191.0],[598736.9023730574,4095191.0],[598736.6300657241,4095183.1145973885],[598736.6252969916,4095183.0240986543],[598732.8380833851,4095129.5998900025],[598734.2578750176,4095129.5208195643],[598733.979847945,4095124.5285554538],[598732.4890629803,4095124.6115796226],[598731.7300371431,4095113.614294769],[598731.7024593406,4095113.3784716628],[598731.6526345697,4095113.146328249],[598731.5810122347,4095112.919958389],[598731.4882383469,4095112.701403869],[598731.3751496981,4095112.4926359835],[598726.3807997094,4095104.2349237166],[598726.2373805629,4095104.0230847],[598726.0730634716,4095103.827011464],[598725.8895690279,4095103.648757125],[598718.5775629833,4095097.239162514],[598718.3965953495,4095097.09478318],[598691.4485006722,4095077.5663111345],[598667.8995671017,4095060.3631878495],[598667.7939804143,4095060.290137006],[598619.3837104598,4095028.603825123],[598619.2255590601,4095028.5084616547],[598619.0607993576,4095028.4250332615],[598599.6566594708,4095019.484005181],[598603.1654107289,4095016.1937546013],[598603.1710462697,4095016.1884535905],[598606.7254776569,4095012.834634348],[598603.2940604276,4095009.197963371],[598599.7424427231,4095012.549127735],[598593.5276929474,4095018.3768660235],[598593.5079588713,4095018.3955739303],[598578.6037956887,4095032.6794232437],[598578.5171805895,4095032.766617802],[598572.4487812367,4095039.183662222],[598556.6969317527,4095024.148051545],[598556.5067551708,4095023.9839662],[598556.3010733317,4095023.8397922986],[598556.0819625079,4095023.7169852154],[598555.8516345313,4095023.616784637],[598555.6124144662,4095023.540202046],[598555.3667171393,4095023.4880105113],[598555.1170227618,4095023.4607368847],[598554.8658518943,4095023.458656483],[598554.6157400013,4095023.4817903056],[598554.3692118577,4095023.529904827],[598554.1287560618,4095023.6025143513],[598553.8967999142,4095023.698885916],[598553.6756849152,4095023.818046689],[598553.4676431279,4095023.9587937943],[598553.2747746472,4095024.1197064472],[598553.0990263995,4095024.2991603026],[598552.9421724901,4095024.495343849],[598544.9456703425,4095035.5975705152],[598544.8142239513,4095035.8000049116],[598544.7029117584,4095036.01417175],[598544.6127713334,4095036.238074725],[598544.5446428978,4095036.469626782],[598544.4991614941,4095036.706669564],[598544.476751066,4095036.946993536],[598544.477620507,4095037.1883585765],[598544.5017617126,4095037.4285148606],[598544.5489496565,4095037.665223831],[598544.6187444881,4095037.8962790626],[598544.7104956318,4095038.119526832],[598544.823347852,4095038.3328861883],[598544.9562492244,4095038.534368356],[598545.1079609415,4095038.7220952683],[598545.27706886,4095038.8943170747],[598560.054725656,4095052.55739371],[598539.3839007708,4095074.039887001],[598519.6944265447,4095056.12056176],[598519.6862970251,4095056.113195657],[598516.9824615732,4095053.6740499856],[598515.3078912076,4095055.530340397],[598513.1999163672,4095054.186300936],[598502.3577063943,4095071.191088747],[598493.8283689385,4095062.5457419213],[598507.1552846351,4095048.0287520066],[598505.3136430669,4095046.338084584],[598507.1093206791,4095044.5986760887],[598474.8571973314,4095011.3032104173],[598489.2629457982,4094999.22906207],[598489.4635875465,4094999.041177083],[598489.642389556,4094998.8324003574],[598489.7971902426,4094998.60525585],[598489.9261181804,4094998.3624895704],[598493.7695273551,4094990.052342816],[598489.2313851396,4094987.953470444],[598485.6226648988,4094995.756177217],[598469.5864100553,4095009.196931118],[598471.1923087809,4095011.112939804],[598469.4335867392,4095009.3361739833],[598454.6909709792,4095023.9290724904],[598431.884972207,4095000.6112055876],[598442.248172059,4094990.195292243],[598440.4759262492,4094988.4320155233],[598442.938528277,4094988.8628185554],[598443.7869646598,4094984.01289643],[598443.8166227198,4094983.778663119],[598443.8240518754,4094983.542676568],[598443.8091858649,4094983.3070415827],[598443.7721572808,4094983.0738598322],[598443.7132963876,4094982.8452111064],[598443.6331281757,4094982.623134763],[598443.5323676796,4094982.409611539],[598443.4119135998,4094982.2065458866],[598443.2728402874,4094982.0157489832],[598443.1163881614,4094981.83892258],[598442.9439526459,4094981.6776438225],[598442.7570717235,4094981.5333511843],[598442.5574122176,4094981.4073316366],[598390.6977210497,4094952.0038485373],[598338.8764778548,4094922.323777951],[598337.6339873208,4094924.493159723],[598335.6386693256,4094922.9869372635],[598329.0,4094931.78129316],[598329.0,4094940.0802000836],[598338.3024867524,4094927.7570408466],[598388.2174545767,4094956.3453123164]],[[598374.1690991378,4095174.512638689],[598360.1767717424,4095166.880255001],[598385.0943319035,4095114.913275944],[598400.4070764036,4095129.225478343],[598405.3672781286,4095136.975093717],[598406.8035464144,4095141.9015096636],[598405.7263664752,4095146.5247949916],[598386.9220254691,4095181.3020858113],[598374.1690991378,4095174.512638689]],[[598378.0186072616,4095099.290834867],[598392.9581748392,4095089.468192373],[598425.6057200507,4095123.0328548113],[598410.7506342788,4095137.2180340956],[598410.6680987944,4095137.2929139705],[598410.0668038928,4095135.2304658745],[598409.9893999809,4095135.0054353382],[598409.8909507348,4095134.7887838813],[598409.7723481852,4095134.582474543],[598404.4491085169,4095126.2656636024],[598404.3297202513,4095126.0952041466],[598404.1965681767,4095125.9352650666],[598404.0505749836,4095125.786954677],[598386.1342335588,4095109.0412756307],[598378.0186072616,4095099.290834867]],[[598367.3298905998,4095091.160093246],[598368.410028261,4095084.03822161],[598368.4348624011,4095083.7942963922],[598368.435683053,4095083.54911162],[598368.4124823234,4095083.305025626],[598368.3654833706,4095083.064386177],[598368.2951382588,4095082.829507886],[598368.2021236096,4095082.6026499546],[598368.0873340935,4095082.385994437],[598357.9004404721,4095065.2473830706],[598357.752934509,4095065.0267823064],[598357.5828759976,4095064.823059924],[598357.3921810949,4095064.6385113928],[598357.1829984809,4095064.4752161377],[598356.9576851487,4095064.3350141095],[598356.7187798462,4095064.2194850533],[598349.6335300728,4095061.2462184895],[598350.4697529207,4095055.92964946],[598355.6021491777,4095044.3235224346],[598364.5116873746,4095049.2554889354],[598364.7288769273,4095049.3623240096],[598364.9553799211,4095049.447655298],[598365.1890732064,4095049.510682937],[598365.4277662343,4095049.5508161327],[598365.6692215904,4095049.567678691],[598365.9111759678,4095049.561112549],[598366.1513613813,4095049.531179256],[598366.3875264276,4095049.478159393],[598366.6174573888,4095049.4025499495],[598366.8389989828,4095049.3050596574],[598367.0500745659,4095049.186602352],[598393.2034408615,4095032.795769696],[598419.6273171384,4095059.907680481],[598391.793597071,4095084.2499654163],[598374.3068685198,4095095.747345247],[598367.3298905998,4095091.160093246]],[[598397.291887234,4095029.826953649],[598412.1565611012,4095017.8280887413],[598435.8568552495,4095042.753580741],[598423.2120981473,4095056.4220844484],[598397.291887234,4095029.826953649]],[[598428.2254519203,4095004.020410611],[598451.139265848,4095027.4485125216],[598439.336456987,4095039.1569209998],[598415.9572404405,4095014.569104859],[598428.2254519203,4095004.020410611]],[[598486.8246129496,4095062.619495952],[598475.0062455429,4095074.3992126277],[598442.8406492578,4095042.723602635],[598454.6696440615,4095030.989217653],[598486.8246129496,4095062.619495952]],[[598499.5707321314,4095075.485526024],[598490.3861485545,4095089.259452097],[598478.588275212,4095077.888412299],[598490.3628199222,4095066.152375003],[598499.5707321314,4095075.485526024]],[[598458.2215759604,4095027.4695768883],[598471.1549492719,4095014.667547237],[598501.8776631071,4095046.384127656],[598490.2860586765,4095059.010845529],[598458.2215759604,4095027.4695768883]],[[598362.1462200282,4095091.9941159575],[598364.617953954,4095092.368991136],[598362.1417256648,4095092.0250529735],[598361.2977946338,4095098.101046045],[598359.9317926011,4095100.7303322917],[598356.2039482875,4095100.76348026],[598332.427204032,4095097.5277695754],[598331.4567300683,4095094.6455085496],[598336.8420101444,4095064.1351153404],[598346.217561942,4095065.2351410226],[598354.0236738881,4095068.510911445],[598363.3325181473,4095084.172276917],[598362.1462200282,4095091.9941159575]],[[598473.739445687,4095164.7076416053],[598457.8218904588,4095148.8683881364],[598476.3250601451,4095119.6945514637],[598498.4989524949,4095139.5656525344],[598508.9754968702,4095151.548185882],[598498.9723111491,4095161.839935501],[598483.9673593589,4095175.734600061],[598473.8091995651,4095164.7798982705],[598473.739445687,4095164.7076416053]],[[598515.9542792458,4095151.686853241],[598534.8772540564,4095133.7238423373],[598567.3579768756,4095160.6197651937],[598546.9166667123,4095181.6745865936],[598529.5997766762,4095165.3696499923],[598515.9542792458,4095151.686853241]],[[598501.9492471325,4095135.9436842087],[598479.069954656,4095115.4404398506],[598491.3324543036,4095096.8751173625],[598506.999498726,4095110.266916606],[598507.0133312931,4095110.278653751],[598531.0155617878,4095130.4955872414],[598512.5424449807,4095148.0315614715],[598502.1628785119,4095136.1599464724],[598501.9492471325,4095135.9436842087]],[[598504.8880309303,4095076.522881264],[598515.827314173,4095059.36584494],[598516.333083428,4095059.822102323],[598535.877684802,4095077.609579262],[598508.4918629545,4095104.9648619536],[598494.1167146006,4095092.677343283],[598504.8600447786,4095076.5657978426],[598504.8880309303,4095076.522881264]],[[598461.1821153507,4095095.328563476],[598475.0513933566,4095081.42382516],[598487.5739344489,4095093.4933150588],[598475.5184675256,4095111.745191723],[598461.1821153507,4095095.328563476]],[[598426.7120869518,4095060.0016074856],[598439.3678909312,4095046.3211625223],[598471.4700049165,4095077.934257257],[598457.7786068849,4095091.6606608033],[598426.7120869518,4095060.0016074856]],[[598429.0944246849,4095126.6149449097],[598451.4839812723,4095149.5736414297],[598436.394550407,4095174.0623874017],[598421.0051603176,4095161.4164917544],[598414.6807295157,4095154.5489358814],[598410.7317531148,4095147.07645347],[598411.6447193027,4095143.1579779885],[598414.133890275,4095140.8996909847],[598414.1806092475,4095140.8562053805],[598429.0944246849,4095126.6149449097]],[[598396.9403780141,4095086.391187523],[598423.1282824826,4095063.4882686576],[598454.2228041707,4095095.1758578094],[598429.2042092234,4095119.561356872],[598396.9403780141,4095086.391187523]],[[598432.6927666744,4095123.143251712],[598457.6180241854,4095098.8487281804],[598472.6836946383,4095116.100502419],[598454.2178456775,4095145.2154957275],[598432.6927666744,4095123.143251712]],[[598555.3213800527,4095029.7472226825],[598569.0411472723,4095042.843150161],[598563.4780221953,4095048.912864579],[598550.2957027237,4095036.7247996065],[598555.3213800527,4095029.7472226825]],[[598603.939805804,4095051.7279963316],[598584.0388334572,4095034.396074429],[598595.7381386388,4095023.1836963682],[598616.8002776145,4095032.888696287],[598662.5180942251,4095062.8126978897],[598652.2747156239,4095073.3430477856],[598641.0985386089,4095084.826874243],[598618.7763220394,4095064.944859842],[598615.4507628871,4095068.678578675],[598637.6081141599,4095088.4137503915],[598630.6658992557,4095095.548474665],[598623.7103249133,4095102.6986176567],[598589.7795041872,4095073.255504689],[598567.1484062175,4095052.30827556],[598574.3692752763,4095044.4298596643],[598580.5012690197,4095037.945567193],[598600.6560295392,4095055.49851532],[598603.939805804,4095051.7279963316]],[[598715.3688038148,4095101.075474813],[598722.302693705,4095107.153618485],[598726.7835769315,4095114.562359256],[598727.5704790535,4095125.9635347696],[598686.4711933561,4095153.1485838476],[598686.3281266722,4095153.2506197034],[598672.024831408,4095164.230180314],[598647.5404524517,4095179.666663129],[598633.480381996,4095158.539166514],[598633.2980803786,4095158.2981897136],[598633.088037677,4095158.080966875],[598603.3309682437,4095130.8154616468],[598625.6474199864,4095107.8779856595],[598634.2495513358,4095099.035226418],[598643.013601992,4095090.0281464104],[598655.858127479,4095076.830046432],[598666.7031240233,4095065.681224176],[598688.5029215477,4095081.606556985],[598688.5106629259,4095081.6121895667],[598715.3688038148,4095101.075474813]],[[598596.1292187311,4095131.0472548557],[598570.8537604088,4095157.0227896282],[598538.4157100351,4095130.1622020323],[598564.3586477357,4095102.740955831],[598596.1292187311,4095131.0472548557]],[[598560.6124313973,4095099.4253197],[598534.5697758364,4095126.9519659923],[598512.3183736827,4095108.2097446183],[598539.6081148181,4095080.9504354945],[598560.6124313973,4095099.4253197]],[[598564.0915625792,4095095.826549935],[598543.1136634753,4095077.374901896],[598563.7257929876,4095055.953408733],[598584.5151737771,4095075.195953811],[598564.0915625792,4095095.826549935]],[[598567.8405631788,4095099.1465440756],[598588.2404042376,4095078.539958991],[598620.2180973224,4095106.2882659812],[598599.6193885917,4095127.460197454],[598567.8405631788,4095099.1465440756]]],[[[598329.0,4095172.301908706],[598329.4539271009,4095170.6343383645],[598329.0,4095170.510775473],[598329.0,4095172.301908706]]]]}},{"type":"Feature","properties":{"class":"unclassified","widthMeters":4},"geometry":{"type":"MultiPolygon","coordinates":[[[[598329.0,4095057.898200668],[598329.0,4095062.0166966426],[598334.3138508694,4095063.3196802726],[598335.2664516526,4095059.434766921],[598329.0,4095057.898200668]]],[[[598657.7094588226,4095143.6757990452],[598671.7358442855,4095167.304391966],[598685.8158112774,4095191.0],[598690.4686820381,4095191.0],[598675.1752411562,4095165.262199675],[598660.9804656197,4095141.3499399098],[598673.1662230695,4095132.6820384297],[598686.0979135603,4095156.197453238],[598686.1382275284,4095156.267381336],[598707.106792341,4095191.0],[598711.7792143732,4095191.0],[598689.5834384066,4095154.2346119303],[598676.4478717042,4095130.348461858],[598718.088355154,4095100.7492557024],[598715.7708738737,4095097.4889979647],[598672.6779683908,4095128.1206258317],[598658.9229148177,4095137.9047898194],[598644.6667938875,4095114.157182391],[598634.1828899696,4095096.2801578874],[598630.7324576108,4095098.303649063],[598641.2215518036,4095116.1895239595],[598641.2320228979,4095116.207171053],[598655.6532546411,4095140.2298173085],[598630.2403787535,4095158.294090659],[598632.5578684728,4095161.554342398],[598657.7094588226,4095143.6757990452]]],[[[598501.7041559428,4095139.210493362],[598498.8574456369,4095136.400468374],[598470.5526876686,4095165.0747494046],[598473.3993979745,4095167.8847743925],[598501.7041559428,4095139.210493362]]],[[[598513.4975102158,4095178.4402657147],[598500.8804840798,4095191.0],[598506.5502550198,4095191.0],[598516.3167744216,4095181.277828764],[598525.3757522177,4095191.0],[598530.8430720634,4095191.0],[598519.1645871764,4095178.4665517015],[598529.2561012835,4095168.592367126],[598526.4586277255,4095165.733321535],[598516.3458365158,4095175.628324992],[598502.0919536275,4095162.175093471],[598499.3464055215,4095165.084039259],[598513.4975102158,4095178.4402657147]]]]}}]}
