{"type":"FeatureCollection","name":"carboneras-corral-roads","crs":{"type":"name","properties":{"name":"EPSG:25830"}},"source":"\u00a9 OpenStreetMap contributors, ODbL 1.0","features":[{"type":"Feature","properties":{"class":"path","widthMeters":1.5},"geometry":{"type":"MultiPolygon","coordinates":[[[[597705.0652489405,4091039.2269270807],[597699.8709437946,4091048.4457549285],[597699.8380407328,4091048.5114897955],[597699.8117308441,4091048.5801299736],[597699.7922668759,4091048.6510160663],[597699.7798358095,4091048.723467104],[597699.7745570649,4091048.7967870813],[597699.7764813524,4091048.870271647],[597699.7855901864,4091048.9432148673],[597702.0766694229,4091062.0340896593],[597701.5668706319,4091071.8071214184],[597701.566849294,4091071.8848497034],[597701.9573689852,4091079.451108037],[597701.0997878968,4091090.0431206017],[597701.0974002534,4091090.1130198142],[597701.101534235,4091090.1828375123],[597701.1121538916,4091090.251966548],[597701.1291668728,4091090.319805764],[597701.1524252308,4091090.385765218],[597701.1817267066,4091090.4492713143],[597701.2168164894,4091090.5097717927],[597701.2573894322,4091090.5667405305],[597701.3030927052,4091090.619682117],[597703.2099592249,4091092.6308021205],[597697.5521301363,4091100.266067707],[597697.512442087,4091100.325322248],[597697.4785616449,4091100.3880785825],[597697.4507951637,4091100.4537692545],[597697.4293937138,4091100.5218002754],[597697.4145508114,4091100.5915564946],[597697.4064006692,4091100.6624071617],[597697.4050169826,4091100.7337116306],[597697.5819660253,4091107.0156855104],[597697.5880918406,4091107.0925144926],[597697.6020701156,4091107.168309123],[597698.4586279276,4091110.765290699],[597696.5039783777,4091116.1222641263],[597696.480940007,4091116.197422493],[597696.4658949674,4091116.274579433],[597696.4590085418,4091116.3528873106],[597696.4603563831,4091116.4314858466],[597696.4699236844,4091116.509511569],[597696.4876053405,4091116.5861072973],[597698.7584827412,4091124.5041694464],[597691.3041637962,4091136.5160721825],[597691.2702793784,4091136.5767856515],[597691.2421629775,4091136.640376115],[597691.2200562336,4091136.7062970605],[597691.2041491381,4091136.7739819433],[597691.1945784009,4091136.8428490628],[597691.1914262756,4091136.9123065546],[597691.1947198525,4091136.981757483],[597692.0568126811,4091146.149784822],[597685.6650024449,4091160.5305546364],[597685.6286310237,4091160.6311756284],[597682.6064150498,4091171.323511374],[597678.6862061283,4091183.4924125276],[597678.6675679432,4091183.561358402],[597678.6555723696,4091183.6317645228],[597678.6503281868,4091183.7029924253],[597678.6518829506,4091183.7743961946],[597678.6602225619,4091183.8453283203],[597678.6752713949,4091183.915145569],[597680.7099449243,4091191.5658352966],[597681.7113596062,4091199.8799658627],[597681.7241767362,4091199.95449572],[597681.7444341404,4091200.0273559703],[597681.7719258606,4091200.097805838],[597681.8063723862,4091200.1651290534],[597681.847423497,4091200.2286411375],[597681.8946618234,4091200.2876963574],[597681.9476070898,4091200.341694295],[597686.7946187141,4091204.810334935],[597690.8810403054,4091213.926847318],[597690.907045783,4091213.97928052],[597690.937060707,4091214.0295262155],[597699.2590938515,4091226.8010002696],[597705.0914699396,4091240.0271931197],[597705.7777101876,4091239.724580625],[597705.1193612684,4091240.083853085],[597708.1537754295,4091245.644266158],[597708.191803621,4091245.7065410796],[597708.2357034205,4091245.76482587],[597708.2850592966,4091245.8185688388],[597708.3394040748,4091245.8672612845],[597708.3982233576,4091245.9104423127],[597708.4609603949,4091245.947703195],[597708.5270213531,4091245.9786912412],[597735.3651757727,4091257.008913696],[597751.6605112613,4091266.526108993],[597772.5170207736,4091286.238218483],[597774.9211508615,4091293.7271114225],[597773.9174948831,4091304.6913363873],[597772.1110350704,4091319.3935242733],[597772.1056716869,4091319.466227075],[597772.1073920369,4091319.5391071388],[597772.1161798668,4091319.6114758984],[597772.1319521496,4091319.682649618],[597772.1545598697,4091319.751955854],[597772.183789431,4091319.818739804],[597772.2193646745,4091319.882370499],[597786.7139849901,4091343.0833181096],[597787.9861295932,4091342.2885551834],[597773.6322278999,4091319.3128501326],[597775.4077152581,4091304.8627369627],[597775.4101906815,4091304.839640726],[597776.4288327865,4091293.7117030285],[597776.4319237536,4091293.6364385043],[597776.4274493036,4091293.561243545],[597776.4154545732,4091293.4868766903],[597776.3960605612,4091293.4140881267],[597773.8863324677,4091285.5962561825],[597773.8597007332,4091285.525702014],[597773.8261183193,4091285.4581789705],[597773.7859247598,4091285.3943697414],[597773.7395264306,4091285.334919468],[597773.6873924405,4091285.2804292208],[597752.628268997,4091265.3768232586],[597752.5627435573,4091265.3216264932],[597752.4913506071,4091265.2742628697],[597736.0766966658,4091255.6873803283],[597735.9835529746,4091255.6413165117],[597709.3431220797,4091244.6923565175],[597706.4511985751,4091239.393050488],[597700.606980617,4091226.1400035983],[597700.5802125524,4091226.0854096552],[597700.5491101108,4091226.0331634493],[597692.2258259606,4091213.2597695296],[597688.1004779828,4091204.05641518],[597688.0660025897,4091203.9888751316],[597688.0248833797,4091203.925161542],[597687.9775406983,4091203.8659257297],[597687.9244585104,4091203.8117732387],[597683.167546015,4091199.4261983433],[597682.1928901486,4091191.3342297743],[597682.1730780033,4091191.231157468],[597680.1815228258,4091183.7425994673],[597684.0383188647,4091171.7705411646],[597684.0461713572,4091171.7445647493],[597687.0574905885,4091161.0907807257],[597693.5072493298,4091146.5796340574],[597693.5347977411,4091146.507980609],[597693.5548773203,4091146.4338864656],[597693.5672777004,4091146.358127887],[597693.5718689662,4091146.2814985723],[597693.5686030169,4091146.2048013415],[597692.7117581407,4091137.0925839683],[597700.2083609088,4091125.0125450045],[597700.2422478024,4091124.9518265715],[597700.2703657385,4091124.888230728],[597700.2924730253,4091124.822304121],[597700.3083796363,4091124.754613432],[597700.3179488438,4091124.6857405063],[597700.3210983947,4091124.6162773506],[597700.3178012164,4091124.546821046],[597700.3080856502,4091124.477968614],[597700.2920352076,4091124.410311885],[597697.9967565347,4091116.4071677364],[597699.944981583,4091111.067801498],[597699.9666187766,4091110.998158174],[597699.981389843,4091110.9267426557],[597699.9891551242,4091110.8542301664],[597699.9898412002,4091110.7813063017],[597699.9834415843,4091110.7086605476],[597699.9700167842,4091110.636979759],[597699.0791925684,4091106.8961017397],[597698.9117250112,4091100.9507357487],[597704.7899160179,4091093.018090771],[597704.8313883375,4091092.9558615424],[597704.8664573315,4091092.889811593],[597704.8947743403,4091092.8205975974],[597704.9160578336,4091092.748907688],[597704.9300962088,4091092.6754546133],[597704.9367498949,4091092.6009686505],[597704.9359527405,4091092.5261903466],[597704.9277126708,4091092.4518631552],[597704.9121116094,4091092.3787260437],[597704.8893046635,4091092.307506149],[597704.8595185824,4091092.2389115463],[597704.8230495017,4091092.173624209],[597704.780260001,4091092.1122932318],[597704.7315754975,4091092.055528372],[597702.6219094342,4091089.830521232],[597703.456487869,4091079.5226152055],[597703.4579371071,4091079.4234310687],[597703.066861262,4091071.8463973384],[597703.5790541894,4091062.0274690967],[597703.5786971117,4091061.9429988177],[597703.5688436736,4091061.859104448],[597701.3093324475,4091048.948604418],[597706.395252702,4091039.922137555],[597706.4362523216,4091039.837318216],[597713.8487455895,4091021.670949265],[597713.8751690541,4091021.59469961],[597713.8932471584,4091021.51605235],[597713.9027706075,4091021.4359180047],[597713.9036291459,4091021.3552243104],[597713.8958128341,4091021.2749054795],[597711.1182133211,4091003.0],[597709.6009865635,4091003.0],[597712.3817601303,4091021.295788811],[597705.0652489405,4091039.2269270807]]],[[[597903.9682946655,4091015.519849045],[597904.0000792054,4091015.581566368],[597904.0374341088,4091015.640080436],[597904.080039333,4091015.6948899226],[597904.1275298526,4091015.7455252414],[597904.1794987872,4091015.791552568],[597904.2355008868,4091015.832577558],[597920.6531459835,4091026.729054516],[597920.7065280196,4091026.7613688223],[597950.0991276418,4091042.922755455],[597953.584971221,4091049.032295346],[597939.3884726174,4091080.8897152776],[597915.7903692835,4091096.0510923252],[597883.7127473868,4091108.267617013],[597883.6189276624,4091108.310967427],[597865.8323035492,4091118.0693055536],[597865.772850371,4091118.1056138007],[597865.7170224877,4091118.147281734],[597850.570628681,4091130.5878907293],[597850.5210856085,4091130.6324108057],[597850.4756878398,4091130.6811508904],[597850.4347934363,4091130.7337265597],[597836.1974928335,4091150.818413441],[597836.1590520954,4091150.878508874],[597836.1264949237,4091150.941984712],[597836.1001158754,4091151.008266665],[597836.0801536117,4091151.0767550543],[597830.8241957694,4091172.9293469437],[597830.8114711572,4091172.9950022665],[597830.8046457553,4091173.0615300876],[597830.8037738336,4091173.1284014336],[597830.8088623247,4091173.195084598],[597832.9472834886,4091190.816895347],[597832.9573171654,4091190.878213797],[597832.9723919929,4091190.938491294],[597832.9924045074,4091190.9973141323],[597866.4894168538,4091277.522625669],[597869.3203199893,4091285.980237208],[597867.2785106816,4091295.8963900837],[597836.4969992756,4091341.0734152957],[597836.457385451,4091341.1384155126],[597836.4245642613,4091341.207096317],[597836.3988737962,4091341.2787502306],[597836.3805786917,4091341.3526391503],[597836.3698674048,4091341.4280019505],[597836.3668502718,4091341.504062323],[597836.3715583722,4091341.5800367733],[597836.3839432079,4091341.6551426933],[597836.4038772035,4091341.72860642],[597836.4311550199,4091341.7996712076],[597836.4654956697,4091341.8676050217],[597836.5065454118,4091341.9317080798],[597836.5538813947,4091341.9913200587],[597846.342972052,4091353.110189241],[597843.8724291916,4091365.074548813],[597845.3414376604,4091365.377887104],[597847.8876461356,4091353.047093645],[597847.8993352487,4091352.9708929574],[597847.9031403414,4091352.893894896],[597847.8990212103,4091352.816912995],[597847.8870213768,4091352.7407606207],[597847.8672676267,4091352.6662423704],[597847.8399686716,4091352.5941455797],[597847.8054129425,4091352.5252319975],[597847.7639655437,4091352.460229741],[597847.7160643936,4091352.399825602],[597838.0643566018,4091341.4370017727],[597868.6026340117,4091296.616963202],[597868.6412522822,4091296.553794231],[597868.6734540729,4091296.487125389],[597868.6989255699,4091296.41760638],[597868.7174185476,4091296.345914682],[597870.8302274811,4091286.0849484387],[597870.842050245,4091286.0069663185],[597870.8456180398,4091285.928173808],[597870.8408914071,4091285.849442316],[597870.8279226215,4091285.771642577],[597870.8068551116,4091285.695635019],[597867.90632982,4091277.0300201955],[597867.8945300172,4091276.9973071897],[597834.4250704189,4091190.5431664814],[597832.3142298115,4091173.148635258],[597837.5047763623,4091151.5680026007],[597851.6003813468,4091131.6832069913],[597866.6150752692,4091119.3507707254],[597884.2950128353,4091109.6509644147],[597916.3970974179,4091097.4251232943],[597916.4681452486,4091097.393762674],[597916.5355691939,4091097.3552231574],[597940.3877469202,4091082.030607666],[597940.4468054986,4091081.9884943496],[597940.5015196681,4091081.940872855],[597940.5513776501,4091081.888188619],[597940.5959130885,4091081.830934433],[597940.634709413,4091081.769645835],[597940.6674037352,4091081.704896098],[597955.1097172393,4091049.2958592693],[597955.1352917934,4091049.230374349],[597955.1546224686,4091049.162782503],[597955.1675394184,4091049.0936776185],[597955.1739291498,4091049.023666877],[597955.1737355201,4091048.9533654177],[597955.1669602307,4091048.883390936],[597955.1536628117,4091048.814358253],[597955.1339600992,4091048.746873916],[597955.1080252086,4091048.681530867],[597955.0760860133,4091048.6189032337],[597951.2971967374,4091041.995750402],[597951.2604690131,4091041.937723108],[597951.218587552,4091041.88329852],[597951.1719034949,4091041.832932943],[597951.1208082485,4091041.7870486495],[597951.065730204,4091041.746030342],[597951.0071311445,4091041.710221924],[597921.456613903,4091025.4620050094],[597905.3076308959,4091014.7438404853],[597902.3827476959,4091003.0],[597900.8369256202,4091003.0],[597903.9224758886,4091015.388942629],[597903.9423528066,4091015.455457237],[597903.9682946655,4091015.519849045]]]]}},{"type":"Feature","properties":{"class":"tertiary","widthMeters":8},"geometry":{"type":"Polygon","coordinates":[[[597651.1316646175,4091270.294390982],[597662.2269923011,4091288.003539922],[597722.0702138274,4091386.9936813624],[597747.0942491683,4091431.5274884156],[597750.3647343435,4091437.3714469965],[597752.8062826662,4091443.3776184632],[597754.1607526001,4091448.0779050463],[597756.2548071102,4091455.7686265144],[597758.3811152404,4091464.6776010995],[597760.9579151488,4091482.4084318997],[597765.8133841895,4091530.0],[597773.8549117673,4091530.0],[597768.9079437464,4091481.5115916743],[597768.8870169502,4091481.3423072747],[597766.2720527488,4091463.3488698914],[597766.2043562046,4091462.9955421817],[597764.0215968145,4091453.8500436265],[597763.9903667046,4091453.727768761],[597761.871994025,4091445.947735259],[597761.8560992042,4091445.891010381],[597760.4349725462,4091440.959411387],[597760.2969120432,4091440.560686393],[597757.6822102844,4091434.1285601263],[597757.4672423316,4091433.6814402654],[597754.0736915682,4091427.617578471],[597754.0703043318,4091427.6115381676],[597729.0134074079,4091383.0192492837],[597725.526227933,4091384.9787337338],[597728.9493286051,4091382.909342087],[597669.056689491,4091283.8374561504],[597665.633588819,4091285.9068477973],[597669.0232478601,4091283.783121924],[597657.9261201783,4091266.071100023],[597607.0,4091182.152870161],[597607.0,4091197.573137774],[597651.1017356035,4091270.245856072],[597654.5213236586,4091268.1706651086],[597651.1316646175,4091270.294390982]]]}},{"type":"Feature","properties":{"class":"track","widthMeters":2.5},"geometry":{"type":"Polygon","coordinates":[[[597822.0884283839,4091358.9065021607],[597822.214050967,4091358.9869962935],[597822.3483692916,4091359.0519495574],[597833.4340172247,4091363.6179382643],[597833.5973420328,4091363.672386822],[597844.2942041855,4091366.4364660415],[597844.4056183769,4091366.459900353],[597844.5187026507,4091366.4731002026],[597844.6325188752,4091366.475956085],[597844.7461228461,4091366.4684443087],[597857.494644211,4091365.03999345],[597857.6217798335,4091365.019065987],[597857.7460857758,4091364.9851623303],[597857.8662412982,4091364.938642704],[597857.9809697588,4091364.8800013745],[597858.0890521777,4091364.8098614006],[597868.576084088,4091357.208534925],[597868.6349926802,4091357.16310203],[597879.5651040254,4091348.202178853],[597879.6871242601,4091348.0876569925],[597889.0358984701,4091338.054442208],[597889.1179832395,4091337.9568002094],[597889.1896893058,4091337.8513008766],[597889.2502699223,4091337.7390428786],[597889.2990942028,4091337.62119527],[597889.3356536913,4091337.4989853157],[597889.3595676575,4091337.373685709],[597891.2030067528,4091324.0553449667],[597895.0096084136,4091310.5911594518],[597904.3465674551,4091294.0479682717],[597910.4970679971,4091284.3149994034],[597910.5540666697,4091284.2148593725],[597910.6016020539,4091284.109896228],[597910.639270232,4091284.001001863],[597910.66675113,4091283.8891015737],[597910.6838112373,4091283.7751462003],[597911.877285097,4091272.172139476],[597911.8836408333,4091272.066863567],[597911.8810992972,4091271.9614266045],[597909.9848665685,4091243.402414345],[597909.9829220239,4091243.3770384043],[597908.5760914596,4091227.1838457244],[597908.5646233737,4091227.0916954814],[597908.5463459188,4091227.000650883],[597906.6180668583,4091218.9564878936],[597906.5846417864,4091218.8416110836],[597906.5403872534,4091218.730455997],[597906.4857086707,4091218.6240409156],[597906.4211069439,4091218.523340698],[597899.7534945183,4091209.1494883904],[597892.3470415563,4091198.191788452],[597892.2617410332,4091198.079751413],[597892.1643807145,4091197.9780191868],[597884.606424136,4091190.9229439236],[597882.9005015529,4091192.750463593],[597890.3550294107,4091199.7089919387],[597897.6906128654,4091210.5618418492],[597897.7076312725,4091210.586383163],[597904.2434315222,4091219.7749235793],[597906.0935270773,4091227.4929300114],[597907.4912022171,4091243.5807400267],[597909.3795857814,4091272.021536638],[597908.2269507031,4091283.2275068867],[597902.2165670068,4091292.738745363],[597902.1846782838,4091292.792101342],[597892.7588843371,4091309.4926898945],[597892.6935698836,4091309.6264448143],[597892.644617803,4091309.7670152597],[597888.7738031802,4091323.4583259933],[597888.7384593218,4091323.627013772],[597886.9373734228,4091336.6393643124],[597877.9152404126,4091346.3220239077],[597867.0787587338,4091355.206185904],[597856.888721355,4091362.592241518],[597844.696649662,4091363.958343106],[597834.30634217,4091361.2734778984],[597823.439174777,4091356.7974775876],[597813.9805683387,4091349.907318767],[597813.8753043587,4091349.838468211],[597801.325760057,4091342.503992083],[597801.2235459017,4091342.4504238423],[597801.1168271628,4091342.406510283],[597801.0065134113,4091342.372625682],[597800.8935448584,4091342.3490588414],[597800.7788843425,4091342.336010622],[597787.4339125536,4091341.4387525003],[597787.3500572917,4091342.6859366465],[597786.7367974094,4091341.5967110884],[597767.657321025,4091352.3389098486],[597767.651977023,4091352.341935962],[597748.2126204472,4091363.4128875667],[597748.117010291,4091363.47322235],[597742.2380349257,4091367.5662054755],[597742.1711745901,4091367.6161486143],[597736.5816351267,4091372.089711238],[597736.5117787508,4091372.1499817055],[597730.3558556796,4091377.870790105],[597730.2856617164,4091377.9414386405],[597725.2747452594,4091383.4037643555],[597715.9780164517,4091378.1816066243],[597688.1373711302,4091341.6828927137],[597688.0706675843,4091341.602628723],[597687.9975010806,4091341.5282087387],[597664.1877403926,4091319.2520353543],[597664.1850637277,4091319.2495384333],[597620.702574454,4091278.8058980834],[597620.619679342,4091278.735274674],[597620.5309519282,4091278.6721342625],[597620.4370656477,4091278.61695608],[597620.3387330906,4091278.5701589244],[597607.0,4091272.9209727114],[597607.0,4091275.6359393657],[597619.1610976071,4091280.7863764027],[597662.4810807318,4091321.078867627],[597686.2130956769,4091343.2823028737],[597714.1468654189,4091379.9031016547],[597714.2290885176,4091380.0002159253],[597714.3207587788,4091380.0884677395],[597714.4209262452,4091380.166942565],[597714.5285529048,4091380.234827185],[597724.9140473101,4091386.068566237],[597725.526227933,4091384.9787337338],[597726.4473526482,4091385.8237362537],[597732.0942224759,4091379.668167201],[597738.1798249726,4091374.0127089573],[597743.7007272328,4091369.594079809],[597749.4989989303,4091365.5572831323],[597768.8865164916,4091354.515854481],[597787.6383246735,4091343.958140708],[597800.3179918282,4091344.810666627],[597812.5594761999,4091351.965099707],[597822.0884283839,4091358.9065021607]]]}},{"type":"Feature","properties":{"class":"unclassified","widthMeters":4},"geometry":{"type":"Polygon","coordinates":[[[597871.9498047133,4091407.563093877],[597796.4421583842,4091441.3486242713],[597759.534922355,4091452.8694971884],[597760.7268310786,4091456.6877891617],[597797.7469855176,4091445.1316679087],[597797.9678799951,4091445.0481062047],[597873.5086329464,4091411.2477624128],[597940.0868206399,4091387.7901389757],[597938.7575841509,4091384.0174568584],[597872.1020353081,4091407.502337101],[597871.9498047133,4091407.563093877]]]}}]}
