{"type":"FeatureCollection","name":"carboneras-marinicas-coastline","crs":{"type":"name","properties":{"name":"EPSG:25830"}},"features":[{"type":"Feature","properties":{"source":"DERA/IECA","id_dera":10125300000299.0},"geometry":{"type":"LineString","coordinates":[[597785.2699999996,4093181.91],[597786.0300000003,4093186.74],[597784.8099999996,4093188.9299999997],[597782.0599999996,4093190.130000001],[597776.0599999996,4093191.34],[597764.2999999998,4093194.210000001],[597760.8799999999,4093195.1799999997],[597759.7800000003,4093199.17],[597758.46,4093215.1099999994],[597758.8600000003,4093216.460000001],[597761.1699999999,4093217.0600000005],[597774.3799999999,4093221.99],[597780.3600000003,4093227.119999999],[597783.8899999997,4093236.4700000007],[597783.9100000001,4093236.9700000007]]}},{"type":"Feature","properties":{"source":"DERA/IECA","id_dera":10125300001272.0},"geometry":{"type":"LineString","coordinates":[[597745.0199999996,4093587.6899999995],[597742.4000000004,4093569.8100000005],[597742.5599999996,4093558.41],[597740.8499999996,4093554.49],[597740.2199999997,4093551.8000000007],[597740.1900000004,4093546.75],[597743.5099999998,4093537.3100000005],[597744.0,4093535.4499999993],[597744.1500000004,4093531.5199999996],[597742.2000000002,4093522.7200000007],[597744.8399999999,4093514.289999999],[597744.1100000003,4093504.1400000006],[597746.8600000003,4093494.1400000006],[597746.8499999996,4093481.2799999993],[597745.7000000002,4093476.6899999995],[597744.1699999999,4093473.5],[597743.8700000001,4093469.8499999996],[597746.46,4093462.039999999],[597747.9500000002,4093446.09],[597748.0800000001,4093429.0299999993],[597747.8200000003,4093422.6899999995],[597749.0199999996,4093411.210000001],[597750.2199999997,4093399.7300000004],[597748.75,4093387.76],[597747.2800000003,4093375.7799999993],[597750.2599999998,4093356.3499999996],[597752.3899999997,4093345.4000000004],[597752.9800000004,4093340.4000000004],[597756.4100000001,4093322.369999999],[597752.7800000003,4093314.4700000007],[597753.1600000001,4093311.6099999994],[597756.1299999999,4093301.2699999996],[597755.3499999996,4093291.5600000005],[597754.3700000001,4093288.26],[597755.6500000004,4093284.5999999996],[597759.2800000003,4093282.2300000004],[597762.7300000004,4093277.380000001],[597766.3700000001,4093265.0700000003],[597768.1699999999,4093256.08],[597769.5,4093252.99],[597775.2400000002,4093245.0500000007],[597783.6900000004,4093240.4499999993],[597784.0099999998,4093238.8200000003],[597783.9100000001,4093236.9700000007]]}},{"type":"Feature","properties":{"source":"DERA/IECA","id_dera":10125300001455.0},"geometry":{"type":"LineString","coordinates":[[597741.0899999999,4093616.34],[597741.9699999997,4093614.59],[597743.5,4093601.1400000006],[597745.0199999996,4093587.6899999995]]}},{"type":"Feature","properties":{"source":"DERA/IECA","id_dera":10125300000844.0},"geometry":{"type":"LineString","coordinates":[[597741.9400000004,4093640.5700000003],[597746.46,4093635.380000001],[597746.9000000004,4093633.8100000005],[597746.21,4093629.5500000007],[597743.9400000004,4093625.58],[597742.4800000004,4093624.8599999994],[597740.0,4093624.3599999994],[597738.5899999999,4093623.1400000006],[597738.2999999998,4093621.460000001],[597741.0899999999,4093616.34]]}},{"type":"Feature","properties":{"source":"DERA/IECA","id_dera":10125300000167.0},"geometry":{"type":"LineString","coordinates":[[597901.0700000003,4094198.0],[597892.8399999999,4094191.3100000005],[597890.75,4094188.0700000003],[597889.5999999996,4094184.7699999996],[597882.1100000003,4094178.3499999996],[597877.8700000001,4094173.6099999994],[597873.5,4094164.880000001],[597866.1600000001,4094155.7699999996],[597863.79,4094153.4299999997],[597862.0199999996,4094147.83],[597857.7699999996,4094141.0],[597854.8399999999,4094138.6099999994],[597853.3099999996,4094135.8599999994],[597851.3700000001,4094129.42],[597842.1699999999,4094120.9399999995],[597841.0199999996,4094115.7300000004],[597837.7000000002,4094113.7300000004],[597835.3399999999,4094112.9000000004],[597833.5899999999,4094111.1099999994],[597831.7199999997,4094108.26],[597831.8799999999,4094106.130000001],[597830.8899999997,4094100.130000001],[597826.9000000004,4094089.539999999],[597824.0199999996,4094085.0700000003],[597819.7300000004,4094081.7799999993],[597815.2000000002,4094073.9499999993],[597812.6699999999,4094063.33],[597810.1500000004,4094052.710000001],[597808.7699999996,4094036.84],[597806.5499999998,4094025.9399999995],[597804.3300000001,4094015.0299999993],[597801.6600000001,4094005.2300000004],[597799.0,4093995.42],[597797.4500000002,4093979.039999999],[597796.7699999996,4093977.76],[597797.0899999999,4093973.5999999996],[597794.8399999999,4093963.74],[597794.3099999996,4093959.4800000004],[597790.3399999999,4093950.1799999997],[597787.6699999999,4093945.539999999],[597787.4400000004,4093943.9700000007],[597787.5899999999,4093941.5600000005],[597787.1299999999,4093938.92],[597782.5599999996,4093934.960000001],[597781.3700000001,4093932.1099999994],[597780.9500000002,4093927.7300000004],[597777.3499999996,4093914.960000001],[597774.1699999999,4093908.630000001],[597768.4199999999,4093894.3000000007],[597766.6699999999,4093891.2799999993],[597761.3499999996,4093873.91],[597760.2999999998,4093866.34],[597756.6100000003,4093858.2799999993],[597755.8399999999,4093850.99],[597750.6100000003,4093838.7799999993],[597749.7999999998,4093834.0199999996],[597750.2400000002,4093822.460000001],[597750.0800000001,4093803.039999999],[597748.4100000001,4093796.369999999],[597745.5599999996,4093787.9700000007],[597745.4299999997,4093784.4399999995],[597747.2300000004,4093775.3900000006],[597747.6799999997,4093765.01],[597744.4100000001,4093763.17],[597744.1299999999,4093762.5],[597744.1699999999,4093760.42],[597746.2400000002,4093758.0600000005],[597747.1200000001,4093755.6400000006],[597746.8899999997,4093754.3499999996],[597746.04,4093753.0600000005],[597747.9400000004,4093741.4399999995],[597747.9299999997,4093738.5199999996],[597744.54,4093724.2799999993],[597743.4800000004,4093716.5500000007],[597745.04,4093713.2799999993],[597745.7999999998,4093698.3499999996],[597746.8300000001,4093691.67],[597746.7800000003,4093683.4700000007],[597745.9699999997,4093678.26],[597742.9900000002,4093667.84],[597742.1699999999,4093660.7699999996],[597743.3700000001,4093654.1999999993],[597743.1799999997,4093651.2300000004],[597741.9400000004,4093640.5700000003]]}},{"type":"Feature","properties":{"source":"DERA/IECA","id_dera":10125300000250.0},"geometry":{"type":"MultiLineString","coordinates":[[[598010.29,4094251.9499999993],[598016.0,4094249.1099999994],[598025.46,4094245.2200000007],[598034.9199999999,4094241.3200000003],[598042.0,4094242.5199999996],[598044.4299999997,4094245.76],[598044.8300000001,4094247.7699999996],[598044.8399999999,4094249.6799999997],[598041.2300000004,4094255.4299999997],[598035.1299999999,4094259.6099999994],[598027.79,4094261.0],[598027.79,4094261.34],[598028.25,4094263.0700000003],[598028.7000000002,4094263.58],[598030.1100000003,4094264.0199999996],[598031.4100000001,4094265.5299999993],[598032.1500000004,4094267.6500000004],[598032.04,4094268.2699999996],[598026.3600000003,4094270.9000000004],[598013.2199999997,4094276.9700000007],[598000.0800000001,4094283.039999999],[597983.1399999997,4094290.7300000004],[597966.21,4094298.4299999997],[597955.1299999999,4094303.99],[597955.4199999999,4094304.9399999995],[597960.2400000002,4094315.0199999996],[597965.0700000003,4094325.09],[597969.8899999997,4094335.17],[597974.7199999997,4094345.24],[597979.9000000004,4094356.3000000007],[597985.0800000001,4094367.3499999996],[597990.2599999998,4094378.41],[597995.4400000004,4094389.460000001],[598000.54,4094400.1400000006],[598004.7665604495,4094409.0]],[[598196.4995836325,4094409.0],[598193.5499999998,4094402.5700000003],[598187.1399999997,4094388.880000001],[598180.7199999997,4094375.1999999993],[598174.2999999998,4094361.51],[598167.8899999997,4094347.83],[598161.4699999997,4094334.1400000006],[598155.0499999998,4094320.460000001],[598148.6399999997,4094306.7699999996],[598142.2199999997,4094293.09],[598138.2999999998,4094285.08],[598139.2000000002,4094283.84],[598145.1699999999,4094279.039999999],[598147.8499999996,4094275.7200000007],[598147.9000000004,4094274.26],[598146.9800000004,4094270.4499999993],[598138.8099999996,4094254.16],[598130.6399999997,4094237.880000001],[598125.2400000002,4094226.3200000003],[598119.8499999996,4094214.76],[598111.8700000001,4094197.1799999997],[598103.8899999997,4094179.5999999996],[598100.1500000004,4094173.51],[598094.8399999999,4094166.4700000007],[598089.25,4094161.3900000006],[598073.8099999996,4094150.1999999993],[598065.0800000001,4094144.0199999996],[598056.3499999996,4094137.83],[598054.3499999996,4094140.539999999],[598051.5499999998,4094141.8499999996],[598048.8499999996,4094141.8000000007],[598044.0099999998,4094139.25],[598038.2599999998,4094133.67],[598035.6500000004,4094128.5199999996],[598035.71,4094118.76],[598038.0899999999,4094113.9700000007],[598041.9400000004,4094109.289999999],[598048.9500000002,4094108.9800000004],[598062.1100000003,4094113.0600000005],[598070.9199999999,4094119.49],[598079.7400000002,4094125.92],[598092.1399999997,4094134.75],[598104.5300000003,4094143.5700000003],[598112.0,4094154.42],[598119.2699999996,4094161.2799999993],[598122.7300000004,4094167.210000001],[598127.6100000003,4094177.710000001],[598132.5,4094188.1999999993],[598137.2699999996,4094199.0299999993],[598142.04,4094209.869999999],[598147.2400000002,4094221.119999999],[598152.4400000004,4094232.369999999],[598156.6399999997,4094242.3599999994],[598160.8499999996,4094252.3599999994],[598165.0599999996,4094262.3499999996],[598169.2699999996,4094272.34],[598177.0099999998,4094288.0999999996],[598184.7599999998,4094303.8499999996],[598193.04,4094320.1099999994],[598201.3300000001,4094336.3599999994],[598207.7400000002,4094349.710000001],[598214.1500000004,4094363.0600000005],[598222.0700000003,4094379.3499999996],[598229.9900000002,4094395.6400000006],[598236.7192383296,4094409.0]]]}},{"type":"Feature","properties":{"source":"DERA/IECA","id_dera":10125300000842.0},"geometry":{"type":"LineString","coordinates":[[598010.29,4094251.9499999993],[598007.7599999998,4094251.74],[598002.9800000004,4094250.1400000006],[597984.1600000001,4094245.6999999993],[597969.04,4094240.619999999],[597956.71,4094233.92],[597944.3799999999,4094227.2300000004],[597931.2599999998,4094218.74],[597918.1399999997,4094210.26],[597909.5999999996,4094204.130000001],[597901.0700000003,4094198.0]]}},{"type":"Feature","properties":{"source":"DERA/IECA","id_dera":10125300001424.0},"geometry":{"type":"LineString","coordinates":[[598172.5288920058,4093097.0],[598166.8700000001,4093100.8100000005],[598154.1699999999,4093108.3900000006],[598141.4800000004,4093115.9800000004],[598125.6600000001,4093122.2200000007],[598109.8399999999,4093128.4499999993],[598092.1799999997,4093132.58],[598080.54,4093133.210000001],[598068.9000000004,4093133.84],[598060.3099999996,4093133.3200000003],[598047.0599999996,4093131.3200000003],[598035.9800000004,4093129.8499999996],[598024.9100000001,4093128.380000001],[598013.8300000001,4093126.91],[598002.75,4093125.4399999995],[597987.5899999999,4093123.83],[597972.4299999997,4093122.2200000007],[597957.2699999996,4093120.5999999996],[597942.1100000003,4093118.99],[597931.0300000003,4093119.0999999996],[597919.9400000004,4093119.2200000007],[597909.0800000001,4093117.460000001],[597898.21,4093115.6899999995],[597883.5800000001,4093114.76],[597868.96,4093113.83],[597864.3300000001,4093116.6099999994]]}},{"type":"Feature","properties":{"source":"DERA/IECA","id_dera":10125300001432.0},"geometry":{"type":"LineString","coordinates":[[597785.2699999996,4093181.91],[597791.29,4093173.6899999995],[597798.3200000003,4093167.4800000004],[597806.3399999999,4093160.08],[597814.3499999996,4093152.6899999995],[597822.0499999998,4093145.1799999997],[597829.75,4093137.67],[597843.5,4093129.2699999996],[597857.2400000002,4093120.8599999994],[597864.3300000001,4093116.6099999994]]}}]}
