{"type":"FeatureCollection","name":"carboneras-barquicos-cocones-coastline","crs":{"type":"name","properties":{"name":"EPSG:25830"}},"features":[{"type":"Feature","properties":{"source":"DERA/IECA","id_dera":10125300000250.0},"geometry":{"type":"MultiLineString","coordinates":[[[598013.3560205996,4094427.0],[598015.8200000003,4094432.17],[598021.8700000001,4094445.26],[598027.9199999999,4094458.3599999994],[598034.3799999999,4094472.2200000007],[598040.8399999999,4094486.0700000003],[598047.2999999998,4094499.92],[598053.7599999998,4094513.7799999993],[598058.6100000003,4094523.9299999997],[598063.4699999997,4094534.09],[598081.2699999996,4094525.91],[598099.0700000003,4094517.74],[598099.9100000001,4094518.460000001],[598100.8200000003,4094519.8599999994],[598101.2699999996,4094520.4700000007],[598112.6600000001,4094515.6099999994],[598124.0599999996,4094510.75],[598125.54,4094514.4499999993],[598114.2699999996,4094519.7300000004],[598103.0,4094525.01],[598105.8799999999,4094531.3599999994],[598117.4900000002,4094526.2300000004],[598129.1100000003,4094521.1099999994],[598130.8899999997,4094525.7200000007],[598131.7199999997,4094525.3000000007],[598134.2400000002,4094524.0199999996],[598143.3399999999,4094519.42],[598154.9100000001,4094513.5600000005],[598160.0499999998,4094524.9399999995],[598164.1699999999,4094534.1899999995],[598165.7599999998,4094533.1400000006],[598169.3399999999,4094531.4299999997],[598183.6799999997,4094521.369999999],[598198.0199999996,4094511.3000000007],[598207.1299999999,4094505.17],[598216.25,4094499.0500000007],[598225.3600000003,4094492.9299999997],[598234.4800000004,4094486.8000000007],[598239.3799999999,4094480.99],[598240.8799999999,4094477.51],[598240.5199999996,4094472.960000001],[598235.5599999996,4094460.08],[598232.4100000001,4094457.9700000007],[598230.3899999997,4094457.3599999994],[598221.6399999997,4094459.6500000004],[598220.2999999998,4094459.5500000007],[598219.3899999997,4094458.9399999995],[598219.0999999996,4094458.289999999],[598212.71,4094444.3599999994],[598206.3300000001,4094430.4299999997],[598204.7565829149,4094427.0]],[[598245.7809146709,4094427.0],[598246.3899999997,4094428.210000001],[598253.0,4094441.6899999995],[598259.6100000003,4094455.1799999997],[598261.9500000002,4094462.24],[598263.0199999996,4094473.2300000004],[598261.0700000003,4094485.76],[598255.96,4094496.0],[598247.7000000002,4094504.5700000003],[598243.46,4094508.24],[598238.5899999999,4094510.8499999996],[598227.6399999997,4094520.17],[598218.3099999996,4094527.2699999996],[598208.9800000004,4094534.3599999994],[598197.7400000002,4094541.460000001],[598186.5,4094548.5700000003],[598174.8200000003,4094557.41],[598163.1399999997,4094566.26],[598156.4800000004,4094570.34]]]}},{"type":"Feature","properties":{"source":"DERA/IECA","id_dera":10125300001283.0},"geometry":{"type":"LineString","coordinates":[[598809.6832673266,4095067.0],[598809.7199999997,4095066.4700000007],[598807.7800000003,4095061.1500000004],[598808.0499999998,4095059.24],[598810.1100000003,4095055.8000000007],[598810.3200000003,4095053.9499999993],[598810.0300000003,4095051.4800000004],[598808.7300000004,4095050.26],[598808.2000000002,4095046.2200000007],[598808.46,4095041.84],[598807.54,4095038.42],[598804.7199999997,4095025.1899999995],[598803.3799999999,4095015.6099999994],[598799.2199999997,4095005.130000001],[598797.6600000001,4094996.7799999993],[598795.8399999999,4094992.4700000007],[598791.8899999997,4094988.119999999],[598784.4400000004,4094981.42],[598779.4000000004,4094972.0199999996],[598772.4299999997,4094960.84],[598766.5,4094953.74],[598758.8899999997,4094946.210000001],[598748.6900000004,4094938.75],[598738.4900000002,4094931.2799999993],[598726.4500000002,4094925.460000001],[598712.4000000004,4094921.66],[598703.0800000001,4094921.039999999],[598696.0800000001,4094923.0999999996],[598677.6900000004,4094927.24],[598662.8399999999,4094929.7300000004],[598647.9800000004,4094932.2300000004],[598629.1799999997,4094933.0600000005],[598618.6699999999,4094933.9299999997],[598608.1500000004,4094934.8000000007],[598593.5599999996,4094935.42],[598578.9800000004,4094936.0299999993],[598565.8200000003,4094936.380000001],[598552.6600000001,4094936.74],[598541.9100000001,4094935.76],[598531.1600000001,4094934.7799999993],[598513.1900000004,4094933.3100000005],[598494.2599999998,4094929.369999999],[598477.5,4094923.460000001],[598461.3600000003,4094916.08],[598449.7599999998,4094909.6400000006],[598438.1699999999,4094903.1899999995],[598429.5199999996,4094897.289999999],[598420.8700000001,4094891.3900000006],[598412.1600000001,4094888.5199999996],[598410.1900000004,4094887.0700000003],[598409.4500000002,4094884.66],[598401.1699999999,4094879.3200000003],[598394.1799999997,4094873.5199999996],[598385.21,4094866.3900000006],[598376.25,4094859.25],[598367.29,4094851.5],[598358.3200000003,4094843.75],[598355.2699999996,4094839.7799999993],[598349.2999999998,4094835.380000001],[598344.9500000002,4094831.369999999],[598339.1600000001,4094828.59],[598337.5199999996,4094827.09],[598335.0800000001,4094821.9399999995],[598333.7800000003,4094820.539999999],[598325.0499999998,4094814.59],[598318.8899999997,4094805.25],[598314.3200000003,4094801.51],[598313.2999999998,4094800.2799999993],[598312.8899999997,4094796.5299999993],[598312.0899999999,4094794.619999999],[598310.1699999999,4094792.1099999994],[598304.1500000004,4094788.7799999993],[598298.3099999996,4094787.8000000007],[598297.4000000004,4094786.619999999],[598297.3300000001,4094784.5500000007],[598296.5899999999,4094782.59],[598293.7800000003,4094781.0299999993],[598283.3200000003,4094777.2699999996],[598276.4500000002,4094772.3200000003],[598264.2400000002,4094767.1099999994],[598258.0599999996,4094755.9800000004],[598251.6900000004,4094749.7300000004],[598248.9100000001,4094744.130000001],[598243.8700000001,4094736.6400000006],[598238.1200000001,4094731.9000000004],[598235.29,4094726.9800000004],[598231.6699999999,4094722.17],[598224.4000000004,4094715.869999999],[598217.5099999998,4094708.6099999994],[598209.8499999996,4094703.7200000007],[598207.6500000004,4094701.0299999993],[598206.96,4094698.6799999997],[598205.6600000001,4094696.0500000007],[598202.3799999999,4094691.6899999995],[598190.4100000001,4094678.119999999],[598188.5899999999,4094674.3100000005],[598185.0,4094664.01],[598183.0700000003,4094659.92],[598180.5899999999,4094657.6400000006],[598178.21,4094653.4399999995],[598176.6100000003,4094648.4000000004],[598168.5599999996,4094633.2300000004],[598166.5899999999,4094632.119999999],[598164.8399999999,4094631.74],[598160.1900000004,4094632.16],[598158.8399999999,4094631.7699999996],[598157.4900000002,4094630.710000001],[598157.5300000003,4094627.91],[598158.6399999997,4094625.3200000003],[598160.1399999997,4094623.0700000003],[598155.7300000004,4094616.41],[598152.04,4094609.08],[598149.5700000003,4094599.16],[598147.0199999996,4094594.1799999997],[598146.1600000001,4094590.8200000003],[598147.2000000002,4094587.2799999993],[598151.8600000003,4094577.039999999],[598156.4800000004,4094570.34]]}}]}
