{"type":"FeatureCollection","name":"carboneras-corral-coastline","crs":{"type":"name","properties":{"name":"EPSG:25830"}},"features":[{"type":"Feature","properties":{"source":"DERA/IECA","id_dera":10125300001276.0},"geometry":{"type":"LineString","coordinates":[[597949.5199999996,4091234.66],[597950.9199999999,4091225.9399999995],[597950.1100000003,4091214.42],[597953.7599999998,4091200.91],[597953.9800000004,4091196.17],[597953.1200000001,4091193.3200000003],[597952.04,4091191.4299999997],[597951.7199999997,4091189.66],[597953.71,4091184.6500000004],[597954.2999999998,4091181.42],[597950.96,4091169.5700000003],[597949.5,4091159.4499999993],[597946.7000000002,4091150.1400000006],[597949.3399999999,4091144.0600000005],[597951.3899999997,4091142.2799999993],[597954.4000000004,4091141.1500000004],[597958.9800000004,4091140.8200000003],[597965.8099999996,4091142.0600000005],[597968.1299999999,4091141.9499999993],[597969.4199999999,4091140.880000001],[597971.6799999997,4091137.2699999996],[597976.5300000003,4091133.7699999996],[597980.6200000001,4091132.26],[597983.1500000004,4091132.0500000007],[597984.5999999996,4091130.539999999],[597985.8399999999,4091123.2699999996],[597988.9100000001,4091119.34],[597990.4100000001,4091118.210000001],[597996.9299999997,4091108.8900000006],[597999.5099999998,4091107.17],[598005.3799999999,4091106.630000001],[598009.3099999996,4091102.2699999996],[598009.9500000002,4091099.789999999],[598008.3399999999,4091098.34],[598004.79,4091097.59],[597993.96,4091097.8000000007],[597993.0,4091097.3200000003],[597992.46,4091095.92],[597993.1600000001,4091094.1999999993],[597996.0099999998,4091091.24],[598008.6600000001,4091084.83],[598012.75,4091080.41],[598014.5300000003,4091074.33],[598015.6600000001,4091072.66],[598023.46,4091067.0],[598024.8600000003,4091063.5600000005],[598024.6500000004,4091061.619999999],[598022.8700000001,4091056.7799999993],[598022.71,4091055.0],[598024.8099999996,4091052.58],[598028.8399999999,4091049.880000001],[598034.2300000004,4091044.34],[598035.2999999998,4091042.51],[598036.5899999999,4091037.8200000003],[598041.9800000004,4091032.8200000003],[598042.0800000001,4091030.66],[598043.1600000001,4091027.8100000005],[598044.5599999996,4091026.0299999993],[598047.9000000004,4091024.9499999993],[598054.1399999997,4091020.0500000007],[598055.4299999997,4091017.09],[598055.1100000003,4091015.4800000004],[598054.1900000004,4091014.67],[598052.6299999999,4091014.08],[598051.5599999996,4091013.2699999996],[598051.1799999997,4091012.09],[598050.3700000001,4091005.630000001],[598049.4000000004,4091003.4700000007],[598048.865375,4091003.0]]}},{"type":"Feature","properties":{"source":"DERA/IECA","id_dera":10125300000483.0},"geometry":{"type":"LineString","coordinates":[[597985.3799999999,4091366.539999999],[597980.5499999998,4091357.8900000006],[597974.8399999999,4091349.119999999],[597973.3799999999,4091341.8499999996],[597970.8499999996,4091326.0199999996],[597967.2999999998,4091313.8000000007],[597965.5700000003,4091299.6899999995],[597965.9500000002,4091288.34],[597966.8099999996,4091279.99],[597966.0999999996,4091275.5199999996],[597962.4400000004,4091270.3499999996],[597960.1799999997,4091268.5199999996],[597958.7300000004,4091266.59],[597958.2999999998,4091264.49],[597962.4400000004,4091260.34],[597962.5499999998,4091257.4299999997],[597958.5599999996,4091255.0700000003],[597955.9299999997,4091247.039999999],[597954.3099999996,4091244.6799999997],[597951.7800000003,4091242.630000001],[597949.1399999997,4091238.2699999996],[597949.5199999996,4091234.66]]}},{"type":"Feature","properties":{"source":"DERA/IECA","id_dera":10125300000841.0},"geometry":{"type":"LineString","coordinates":[[597990.7199999997,4091376.6799999997],[597988.5199999996,4091372.16],[597985.3799999999,4091366.539999999]]}},{"type":"Feature","properties":{"source":"DERA/IECA","id_dera":10125300000484.0},"geometry":{"type":"LineString","coordinates":[[598015.5999999996,4091383.51],[598013.7699999996,4091384.0],[598009.6200000001,4091386.1500000004],[598002.4100000001,4091387.2799999993],[597996.8099999996,4091385.51],[597990.7199999997,4091376.6799999997]]}},{"type":"Feature","properties":{"source":"DERA/IECA","id_dera":10125300000717.0},"geometry":{"type":"LineString","coordinates":[[597929.6015939087,4091530.0],[597929.9100000001,4091526.6799999997],[597930.8200000003,4091510.5199999996],[597930.8200000003,4091501.3200000003],[597932.3799999999,4091489.3100000005],[597933.6699999999,4091472.51],[597936.9500000002,4091452.92],[597940.2400000002,4091446.24],[597946.1299999999,4091436.09],[597952.0199999996,4091425.9399999995],[597957.9400000004,4091414.91],[597963.8600000003,4091403.869999999],[597966.0,4091402.619999999]]}},{"type":"Feature","properties":{"source":"DERA/IECA","id_dera":10125300001427.0},"geometry":{"type":"LineString","coordinates":[[598015.5999999996,4091383.51],[598019.6900000004,4091385.66],[598026.9000000004,4091386.3100000005],[598032.0199999996,4091388.08],[598035.46,4091390.880000001],[598035.6799999997,4091393.9000000004],[598034.3899999997,4091397.9399999995],[598030.3499999996,4091400.09],[598024.6399999997,4091401.49],[598005.96,4091400.039999999],[597989.4100000001,4091400.369999999],[597972.8499999996,4091400.6899999995],[597967.3600000003,4091401.8200000003],[597966.0,4091402.619999999]]}}]}
