{"type":"FeatureCollection","name":"carboneras-barquicos-cocones-roads","crs":{"type":"name","properties":{"name":"EPSG:25830"}},"source":"\u00a9 OpenStreetMap contributors, ODbL 1.0","features":[{"type":"Feature","properties":{"class":"footway","widthMeters":2},"geometry":{"type":"MultiPolygon","coordinates":[[[[597891.2888109818,4094465.880045953],[597886.0353138199,4094468.3934734766],[597886.8984722676,4094470.1976235523],[597892.1519694295,4094467.684196029],[597891.2888109818,4094465.880045953]]],[[[597940.0473861569,4094570.473028208],[597941.1404184117,4094572.1479253666],[597946.1354942374,4094568.888155675],[597945.0424619826,4094567.2132585165],[597940.0473861569,4094570.473028208]]],[[[598087.6324011286,4094746.0259920387],[598088.7677443075,4094747.6725022467],[598099.2914538875,4094740.415929025],[598098.1561107086,4094738.769418817],[598087.6324011286,4094746.0259920387]]],[[[598175.7167270568,4094820.643889929],[598174.1391149356,4094819.414605587],[598169.8207353855,4094824.9566333224],[598171.3983475066,4094826.185917665],[598175.7167270568,4094820.643889929]]],[[[598372.3784087381,4094952.6634704303],[598348.9532869933,4094940.4750395925],[598348.8632034153,4094940.4337047143],[598348.7694704718,4094940.401490456],[598348.6730089596,4094940.378713278],[598348.5747664806,4094940.3655969347],[598348.4757081316,4094940.3622702765],[598348.3768070246,4094940.3687659823],[598348.2790347268,4094940.385020242],[598348.1833517165,4094940.4108733786],[598348.0906979474,4094940.4460714217],[598348.0019836152,4094940.490268599],[598347.9180802163,4094940.543030733],[598347.8398119858,4094940.6038395087],[598347.7679478015,4094940.6720975647],[598332.1995607634,4094957.0013064803],[598332.1803558752,4094957.0220282883],[598322.7136246259,4094967.5304314895],[598322.6564417345,4094967.599960507],[598322.60574343,4094967.6743503534],[598314.7146386137,4094980.453412951],[598314.6673446904,4094980.5391212734],[598314.6286573777,4094980.6290430366],[598314.5989474017,4094980.7223165543],[598314.5784994623,4094980.81804802],[598314.5675095046,4094980.915320074],[598314.5660828414,4094981.0132005946],[598314.5742331436,4094981.110751629],[598314.59188231,4094981.207038381],[598314.6188612152,4094981.3011381705],[598314.6549113301,4094981.392149274],[598314.6996872,4094981.479199565],[598314.7527597541,4094981.5614548735],[598314.8136204176,4094981.6381269763],[598314.8816859851,4094981.708481153],[598314.9563042097,4094981.771843226],[598315.0367600521,4094981.8276060196],[598315.1222825336,4094981.8752351794],[598323.3679287154,4094985.9520648257],[598320.4284061128,4094992.228401254],[598305.4195035889,4094985.2330888715],[598295.489103882,4094979.817954477],[598294.5315968535,4094981.57385319],[598304.4897011499,4094987.0040951413],[598304.5460077324,4094987.0325334445],[598320.4851834301,4094994.46142526],[598321.9646293949,4094995.1630288614],[598351.7484035671,4095009.6532567646],[598351.7705147245,4095009.663681878],[598366.4093088459,4095016.3482108023],[598379.3755154394,4095023.0234340783],[598390.654170671,4095028.8191210865],[598393.02252895,4095030.432395873],[598394.1484807056,4095028.7794492184],[598391.729103423,4095027.1314213825],[598391.6231783873,4095027.06845414],[598381.2195778805,4095021.7224259363],[598389.8940002738,4095006.5190685927],[598393.4100646557,4095007.554590783],[598393.5022935049,4095007.5770564945],[598393.5962369908,4095007.5906759766],[598393.6910486008,4095007.5953265056],[598393.785874,4095007.5909661762],[598393.8798587293,4095007.5776342787],[598397.171146896,4095006.9501398485],[598397.269086558,4095006.9262954704],[598397.3641281812,4095006.8927124147],[598397.4553060731,4095006.8497319096],[598397.5416937994,4095006.797790669],[598399.667525943,4095005.3689872273],[598399.7609787857,4095005.2978676665],[598400.1063671559,4095005.0014349157],[598410.9698392384,4095012.861617124],[598412.7722126711,4095014.2694306853],[598414.0033428939,4095012.6932586213],[598412.1864864617,4095011.2741325526],[598412.1571145841,4095011.252047311],[598401.3788150691,4095003.453491063],[598402.375588119,4095001.7700317646],[598402.4173093197,4095001.6918637366],[598402.4519474447,4095001.610309463],[598402.4792305535,4095001.526009219],[598402.4989444492,4095001.439624836],[598403.0027832459,4094998.671629923],[598403.0156055702,4094998.5742521044],[598403.0188132947,4094998.4760861117],[598403.0123754753,4094998.3780789385],[598402.9963542162,4094998.2811760446],[598402.2362073321,4094994.766203074],[598402.2083423838,4094994.663931822],[598402.169808528,4094994.565184639],[598402.1210387258,4094994.4710710337],[598402.0625809482,4094994.3826484545],[598400.0910787644,4094991.719045273],[598400.0236458145,4094991.6373681417],[598399.9479522721,4094991.563281407],[598399.8648472943,4094991.497616202],[598399.7752631822,4094991.441109181],[598396.6539218739,4094989.6961635],[598396.5690854947,4094989.6538835526],[598396.4806270975,4094989.6198259955],[598396.3893414639,4094989.59429683],[598396.2960487774,4094989.57752543],[598396.2015872546,4094989.5696624834],[598392.8616175714,4094989.4505877467],[598392.1647279315,4094985.3292585956],[598392.1434329366,4094985.232663837],[598392.1126992137,4094985.1386454212],[598392.0728274622,4094985.048123227],[598392.0242077884,4094984.9619829254],[598391.9673158884,4094984.8810673156],[598391.9027083938,4094984.8061680775],[598391.8310174259,4094984.7380180275],[598391.7529444108,4094984.677283947],[598380.623585511,4094976.87138885],[598385.991217984,4094962.2380415546],[598390.3275177252,4094954.6732410695],[598388.5923724963,4094953.678620019],[598384.7316053942,4094960.413840043],[598372.4484845974,4094952.70360772],[598372.3784087381,4094952.6634704303]],[[598379.4393461248,4095020.806818354],[598368.0627576543,4095014.9499574737],[598376.3294889533,4094989.819429124],[598385.4218221889,4094994.878083168],[598384.6997668342,4094997.030098153],[598384.673989437,4094997.12094119],[598384.6568956638,4094997.2138106385],[598384.6486379385,4094997.3078783886],[598384.6492898947,4094997.402305644],[598384.8105272584,4095000.3777425587],[598384.8197014,4095000.469114908],[598384.8372188917,4095000.5592603935],[598384.8629320075,4095000.647418812],[598384.8966239067,4095000.732846717],[598386.1371602471,4095003.498910997],[598386.1813410918,4095003.5858105933],[598386.23377341,4095003.6679953784],[598386.293958912,4095003.7446843097],[598386.3613256257,4095003.8151485757],[598388.1602926233,4095005.521919835],[598379.4393461248,4095020.806818354]],[[598376.9663733869,4094987.8850649535],[598379.9481707831,4094978.840560771],[598390.2623921458,4094986.074735775],[598390.898494174,4094989.836573635],[598388.3853828467,4094991.0085814707],[598388.2932823893,4094991.0575351045],[598388.2067819344,4094991.1158156656],[598388.1268225163,4094991.182789123],[598388.05427401,4094991.2577268756],[598386.4126942593,4094993.1406652546],[598376.9663733869,4094987.8850649535]],[[598383.8637083819,4094962.230424673],[598378.8957564475,4094975.774154868],[598365.2023313083,4094967.640261948],[598372.2771272875,4094954.957416978],[598383.8637083819,4094962.230424673]],[[598325.631148083,4094985.8241495853],[598325.6590855032,4094985.731454109],[598325.6779282959,4094985.6364914845],[598325.6874998484,4094985.540151792],[598325.6877104474,4094985.44333802],[598325.6785581184,4094985.346957598],[598325.6601286462,4094985.2519138954],[598325.632594769,4094985.159097752],[598325.5962145608,4094985.069379129],[598325.5513290112,4094984.9835989545],[598325.4983588305,4094984.902561242],[598325.4378005053,4094984.8270255546],[598325.3702216462,4094984.7576998835],[598325.2962556662,4094984.6952340156],[598325.216595845,4094984.64021344],[598325.13198883,4094984.593153862],[598316.9936205402,4094980.5693647754],[598324.2600064751,4094968.801988358],[598332.9943224094,4094959.1065918054],[598338.7849100749,4094964.3648368116],[598338.0277743943,4094969.3280006777],[598338.0173066428,4094969.4347967063],[598338.0183426999,4094969.5420995126],[598338.0308706352,4094969.6486735074],[598338.05474619,4094969.7532914956],[598338.0896944382,4094969.8547488046],[598344.6502264037,4094986.025531215],[598322.4677717494,4094993.1881339666],[598322.2383555567,4094993.0793370046],[598325.5943778914,4094985.9137090845],[598325.631148083,4094985.8241495853]],[[598348.6968635008,4094942.5961494492],[598370.5419971391,4094953.962489543],[598363.5458896096,4094966.504271306],[598356.6223848365,4094961.1830534237],[598356.5419661682,4094961.127285373],[598356.4564814827,4094961.0796449883],[598356.3667494874,4094961.040588533],[598350.9793428158,4094959.0030614887],[598350.8785985039,4094958.9709369848],[598350.7750252604,4094958.949630099],[598350.6697811794,4094958.939379072],[598350.5640430371,4094958.940298524],[598350.4589931339,4094958.952378175],[598342.5939649597,4094960.281280386],[598342.4988427471,4094960.302161913],[598342.406202799,4094960.3321971176],[598342.3169237379,4094960.3711011373],[598342.2318523108,4094960.418504996],[598342.1517953585,4094960.4739591023],[598342.077512163,4094960.5369375143],[598339.8444062605,4094962.625385661],[598334.3541115215,4094957.63982693],[598348.6968635008,4094942.5961494492]],[[598366.2452598764,4095014.074654101],[598352.6123833779,4095007.8494584654],[598325.0698335611,4094994.449617949],[598346.288535202,4094987.5982061853],[598361.6384715891,4094982.6447364707],[598374.5342700953,4094988.87639938],[598366.2452598764,4095014.074654101]],[[598362.8162945329,4094980.9926254596],[598364.6125924028,4094969.6161865545],[598378.2188625621,4094977.6983094267],[598375.1654234341,4094986.960120105],[598362.8162945329,4094980.9926254596]],[[598355.5208999353,4094962.858944503],[598362.7744990339,4094968.433863926],[598360.8208206313,4094980.807036192],[598346.5586241981,4094985.4094890184],[598340.0463780095,4094969.3577242116],[598340.7906672249,4094964.4787712907],[598343.2238583636,4094962.2031991747],[598350.525159278,4094960.969546261],[598355.5208999353,4094962.858944503]],[[598394.2988035016,4094994.7414599764],[598393.6445504616,4094994.5061550625],[598393.5565562634,4094994.7508183406],[598393.4464466783,4094994.7525893985],[598393.3518622648,4094994.758602507],[598393.2582719015,4094994.7735428107],[598393.1665162519,4094994.79727611],[598392.4073056808,4094995.03255653],[598392.3138136524,4094995.0667160847],[598392.2241806961,4094995.110000813],[598392.1392948622,4094995.161981865],[598391.4844185859,4094995.609286571],[598391.4089133533,4094995.6662781374],[598391.3391313154,4094995.730149461],[598391.3132462989,4094995.7587868953],[598391.2512424999,4094995.7226133435],[598391.0347939353,4094996.093620133],[598390.9547477097,4094996.1910736724],[598391.2119766184,4094995.700871436],[598389.0747545612,4094994.5793847176],[598388.2133499307,4094994.1187299574],[598389.4226300694,4094992.7316514538],[598392.2162027834,4094991.4288484007],[598394.7576100903,4094991.519453237],[598394.510665787,4094992.2004705076],[598393.6494247573,4094994.492897126],[598394.3122711458,4094994.7419216754],[598394.2988035016,4094994.7414599764]],[[598388.6066328144,4094995.4630573774],[598388.1419791426,4094996.348549876],[598390.2627923108,4094997.4614261873],[598390.2850919315,4094997.4744359786],[598390.2611065528,4094997.5681040706],[598390.2461840324,4094997.665361373],[598390.1659761065,4094998.441107042],[598390.1607016462,4094998.536432252],[598390.1645416436,4094998.6318260143],[598390.1774610981,4094998.726418843],[598390.3198454077,4094999.49365446],[598390.341677894,4094999.5864142226],[598390.3722406997,4094999.676674656],[598390.4112562832,4094999.763616103],[598390.7679784979,4095000.466768864],[598390.8164296598,4095000.5517060654],[598390.8729448046,4095000.6315050735],[598390.936983543,4095000.7054028627],[598390.9558943725,4095000.7251821244],[598390.8071298848,4095000.9835098134],[598389.6227313492,4095002.9593600845],[598390.4804370917,4095003.4735009787],[598389.6118848961,4095002.9779032753],[598389.1808629901,4095003.7332841423],[598387.8811922661,4095002.500220589],[598386.7975422735,4095000.083970908],[598386.656706221,4094997.4850150584],[598387.2059571546,4094995.848026659],[598388.1350574204,4094996.3448831243],[598388.6066328144,4094995.4630573774]],[[598393.4475205963,4095002.133963785],[598393.5391803101,4095002.1501183966],[598393.6319449437,4095002.1576812905],[598393.7250109258,4095002.156586953],[598394.5176246447,4095002.110316234],[598394.6164556979,4095002.099597084],[598394.7137341229,4095002.079118185],[598394.8084985678,4095002.0490819192],[598395.5593256359,4095001.769322732],[598395.6428967639,4095001.733686261],[598395.6785645774,4095001.7798725204],[598396.4700283731,4095001.1686564703],[598395.6866030795,4095001.7901424393],[598397.0684308276,4095003.5320302104],[598397.6653556585,4095004.304913523],[598396.5957386281,4095005.0238190577],[598393.7429839587,4095005.567705699],[598390.9124835578,4095004.73409014],[598391.343665659,4095003.9784285254],[598392.5270438232,4095002.00428047],[598391.6693380807,4095001.4901395757],[598392.5359164897,4095001.989180517],[598392.569273379,4095001.931256692],[598392.6663825072,4095001.958460078],[598393.4475205963,4095002.133963785]],[[598397.2229788608,4095000.1533178403],[598397.2703781109,4095000.05882251],[598397.3075367076,4094999.959851327],[598397.5662312497,4094999.141797309],[598397.5932751936,4094999.0367743764],[598397.608787225,4094998.929440467],[598397.6125849041,4094998.8210579553],[598397.5959403018,4094997.9554242315],[598397.5887350449,4094997.853300141],[598397.5711259998,4094997.7524479367],[598397.5432977309,4094997.653924675],[598397.2679512461,4094996.8407630045],[598397.2281830081,4094996.7412286345],[598397.177989961,4094996.646522449],[598397.1179487528,4094996.5577324894],[598396.6007953883,4094995.874906863],[598396.5329670775,4094995.794512123],[598396.4570693331,4094995.7216868084],[598396.3739418874,4094995.6572366585],[598395.6588300194,4094995.1607333734],[598395.5678833927,4094995.104545421],[598395.557913461,4094995.0997728566],[598396.3849232998,4094992.8984618383],[598395.4488065531,4094992.5467724344],[598396.3889092021,4094992.8876639265],[598396.7049790435,4094992.01601385],[598398.6115276589,4094993.081845313],[598400.32691302,4094995.3994211913],[598400.999462117,4094998.509335797],[598400.5633577185,4095000.9052107567],[598399.2771378659,4095003.0775194587],[598399.257480865,4095003.094390261],[598398.6473294903,4095002.3043815508],[598397.8558943027,4095002.9156346438],[598398.6393195962,4095002.2941486747],[598397.2575063928,4095000.552279238],[598397.0946098674,4095000.341344492],[598397.1658686942,4095000.242281233],[598397.2229788608,4095000.1533178403]],[[598392.2599988336,4094998.9871621192],[598392.1702061167,4094998.503315474],[598392.2202816694,4094998.0190005796],[598392.4081134739,4094997.57266498],[598392.7304780042,4094997.1801972003],[598393.1430752777,4094996.89837801],[598393.6217759202,4094996.7500280095],[598394.127542537,4094996.741893006],[598394.6511218617,4094996.89587337],[598395.1025580214,4094997.2093062],[598395.4256455215,4094997.6358961435],[598395.5992869486,4094998.1486993236],[598395.6097977234,4094998.6953318575],[598395.448854125,4094999.204274011],[598395.1275902308,4094999.6508916426],[598394.7297115576,4094999.9441168406],[598394.2510297712,4095000.1224743254],[598393.748789869,4095000.1517937793],[598393.2586321562,4095000.0416666493],[598392.8236411521,4094999.784600379],[598392.4847135429,4094999.430108372],[598392.2599988336,4094998.9871621192]]]]}},{"type":"Feature","properties":{"class":"path","widthMeters":1.5},"geometry":{"type":"Polygon","coordinates":[[[597917.776892611,4094649.942726079],[597917.7043158588,4094649.960174261],[597917.6338329596,4094649.9847503663],[597917.5661420793,4094650.016210957],[597917.5019137276,4094650.054244401],[597917.4417841161,4094650.0984739596],[597909.1415476281,4094656.865446926],[597888.7476774384,4094671.317036803],[597872.2644314299,4094679.6733008893],[597856.2874354956,4094680.7196245855],[597856.213556599,4094680.728158042],[597856.1408860561,4094680.7439663764],[597856.0701384167,4094680.766894149],[597856.0020093233,4094680.7967159175],[597855.937168671,4094680.833138453],[597855.8762540207,4094680.8758036215],[597855.8198643295,4094680.9242919083],[597824.9828597684,4094710.2217251663],[597817.0,4094714.481613888],[597817.0,4094716.1818229263],[597825.7787909203,4094711.497201936],[597825.8367522395,4094711.4628413008],[597825.8913957654,4094711.4234172874],[597825.9422804477,4094711.3792481027],[597856.6562758236,4094682.198682661],[597872.5156440825,4094681.16006233],[597872.5908169816,4094681.151312777],[597872.6647253978,4094681.1350319455],[597872.7366167764,4094681.111385611],[597872.8057591012,4094681.080614547],[597889.4752870916,4094672.6299138768],[597889.5235895342,4094672.603147335],[597889.5697915416,4094672.5728992233],[597910.0294697856,4094658.074676167],[597910.0697536296,4094658.0440370734],[597918.2106255394,4094651.406990018],[597942.3467235185,4094649.3120082077],[597942.2170131785,4094647.8176269885],[597917.8508443098,4094649.932578652],[597917.776892611,4094649.942726079]]]}},{"type":"Feature","properties":{"class":"pedestrian","widthMeters":3},"geometry":{"type":"MultiPolygon","coordinates":[[[[598128.7041774229,4094780.773351733],[598148.2517563263,4094799.6955016376],[598148.3334131568,4094799.768949767],[598173.9662994079,4094821.180457522],[598173.974474883,4094821.187237615],[598217.1162708396,4094856.7086002706],[598207.2191453603,4094868.20210136],[598209.4924572456,4094870.1596644046],[598219.4417593348,4094858.60557078],[598236.0398953868,4094872.0125523647],[598231.6496990387,4094877.055939059],[598233.9124838786,4094879.0256610615],[598237.9202320395,4094874.421624671],[598240.9093104128,4094879.803484959],[598244.9186072926,4094889.002931273],[598247.0445881127,4094894.3846945195],[598249.8347702797,4094893.2824769933],[598247.6992045186,4094887.8764501777],[598247.6791967013,4094887.8282710207],[598243.6306951051,4094878.5388683635],[598243.566935047,4094878.4098490383],[598240.5764389319,4094873.025436095],[598249.5974087155,4094871.848906945],[598276.0839773468,4094884.117787804],[598273.0211603836,4094889.793472847],[598275.6612757285,4094891.218180173],[598278.7832588581,4094885.4328547143],[598328.8602321555,4094911.160990394],[598339.2232660168,4094919.6314378213],[598336.4076014165,4094923.629459767],[598338.8603732252,4094925.356859679],[598341.658602269,4094921.38359485],[598350.957411373,4094927.256792409],[598351.0172786227,4094927.2926840875],[598431.2974463531,4094972.917328863],[598431.4407669053,4094972.988938971],[598451.7985171123,4094981.8355320273],[598451.9351668607,4094981.887158679],[598452.07619031,4094981.9252487253],[598491.1676956329,4094990.465588029],[598546.6102352195,4095003.5813941364],[598542.4527848215,4095012.8762204126],[598545.191323189,4095014.1011316786],[598549.5881463286,4095004.271138934],[598600.8670851941,4095015.7754306328],[598670.6747694043,4095060.7337573464],[598679.5579516559,4095067.0],[598684.7624637176,4095067.0],[598672.3781857935,4095058.264066371],[598672.3257351755,4095058.2286998755],[598602.2675214055,4095013.1090243086],[598602.153719934,4095013.042615864],[598602.0345297895,4095012.9864503415],[598601.9108706354,4095012.9409611113],[598601.7836966179,4095012.9064991656],[598549.0565382246,4095001.0773033192],[598491.8457738427,4094987.543195782],[598491.8206106189,4094987.537471139],[598452.8597197718,4094979.0256672404],[598432.7099972198,4094970.2694739574],[598352.529926153,4094924.7017158936],[598342.1319876936,4094918.1342999917],[598330.6360452907,4094908.737845531],[598330.5086931294,4094908.644486232],[598330.3722322108,4094908.565032161],[598278.8467542272,4094882.0926956506],[598278.7917383469,4094882.065834716],[598250.4643922194,4094868.9442847134],[598250.333980097,4094868.891160837],[598250.1991609706,4094868.8505004006],[598250.0611230143,4094868.822661748],[598249.92108277,4094868.807890225],[598249.7802744259,4094868.8063160144],[598249.6399389395,4094868.817952989],[598238.6359964394,4094870.253104578],[598220.201576902,4094855.3628830197],[598175.8854668527,4094818.874633478],[598150.2988301102,4094797.5017585834],[598130.8680442648,4094778.6926649176],[598099.9102905255,4094738.674960325],[598079.3915576012,4094712.1414697003],[598079.33898718,4094712.0772427027],[598031.0344317923,4094656.2854292355],[598030.9306431324,4094656.177023527],[598030.8165412244,4094656.0795317935],[598030.6932682988,4094655.993929987],[598030.5620583933,4094655.9210750335],[598030.4242249996,4094655.861696257],[598030.281147915,4094655.8163880743],[598030.1342594291,4094655.785604049],[598029.9850299857,4094655.769652348],[598029.8349534635,4094655.768692658],[598029.6855322206,4094655.782734585],[598029.5382620558,4094655.811637562],[598029.3946172338,4094655.8551122514],[598029.2560357274,4094655.912723445],[598029.1239048232,4094655.98389442],[598028.9995472324,4094656.0679127104],[598028.884207851,4094656.163937242],[598018.9976714053,4094665.2697992725],[598021.0300795443,4094667.4764522035],[598029.7788625733,4094659.4185027247],[598077.0437734262,4094714.0095256353],[598097.5371920051,4094740.510281395],[598128.5610303109,4094780.6134105925],[598128.7041774229,4094780.773351733]]],[[[598257.6345330551,4094910.5099469554],[598264.7137828436,4094903.269105806],[598262.5686615786,4094901.171856474],[598255.5169560472,4094908.3845246397],[598247.9534142644,4094915.348632079],[598249.9854764149,4094917.5556036276],[598257.5780034979,4094910.5648080637],[598257.6345330551,4094910.5099469554]]],[[[598600.9152082732,4095053.0317794983],[598600.8660610166,4095053.1662809723],[598600.8299634466,4095053.304856096],[598600.8072445501,4095053.44624192],[598600.798111383,4095053.5891498784],[598600.8026471834,4095053.732277535],[598600.8208106129,4095053.874320448],[598600.8524361331,4095054.013984065],[598600.8972355147,4095054.149995516],[598600.9548004641,4095054.281115217],[598601.0246063446,4095054.406148167],[598601.1060169579,4095054.5239548367],[598601.198290342,4095054.633461558],[598601.3005855338,4095054.733670306],[598607.1225883594,4095059.916101118],[598615.0703984904,4095067.0],[598619.0271778727,4095067.0],[598636.4612523352,4095049.166508286],[598636.5599624786,4095049.0549569516],[598636.6471222215,4095048.934165512],[598636.7218720765,4095048.8053251],[598636.7834749304,4095048.669706219],[598636.8313233135,4095048.5286462144],[598636.86494539,4095048.3835360887],[598636.8840096103,4095048.235806782],[598636.888327981,4095048.086915062],[598636.8778579185,4095047.9383291593],[598636.8527026685,4095047.7915142896],[598636.8131102887,4095047.647918203],[598636.7594712019,4095047.50895691],[598636.6923143467,4095047.3760007164],[598636.612301961,4095047.250360712],[598636.5202230522,4095047.1332758404],[598636.416985616,4095047.0259006834],[598636.3036076834,4095046.929294074],[598636.1812072815,4095046.8444086555],[598619.0664948216,4095036.193281096],[598618.9404503661,4095036.1230148883],[598618.8082370862,4095036.0651858877],[598618.6710786624,4095036.0203293217],[598618.5302445445,4095035.9888603543],[598618.3870382018,4095035.9710702416],[598618.2427850596,4095035.967123637],[598618.0988202317,4095035.9770570686],[598617.9564761637,4095036.0007785982],[598617.8170702999,4095036.0380686754],[598617.6818928908,4095036.0885821665],[598617.5521950513,4095036.1518515516],[598617.4291771805,4095036.2272912506],[598617.3139778523,4095036.314203042],[598617.2076632773,4095036.411782527],[598601.231644799,4095052.558238214],[598601.1358998471,4095052.6647229716],[598601.0507453188,4095052.7798524885],[598600.9769572972,4095052.9025774957],[598600.9152082732,4095053.0317794983]],[[598618.4980062542,4095039.373005404],[598633.0105775439,4095048.4047229034],[598617.0422761607,4095064.738860458],[598609.1183360056,4095057.676236933],[598604.4763797271,4095053.5442190696],[598618.4980062542,4095039.373005404]]],[[[598337.9129710717,4095064.932507019],[598337.7658528142,4095064.977110082],[598337.6240724387,4095065.036536844],[598337.489119157,4095065.1101631075],[598337.3624104711,4095065.1972155278],[598335.0068093453,4095067.0],[598350.9242476047,4095067.0],[598338.5234199436,4095064.9092746195],[598338.370717817,4095064.891518622],[598338.2170002814,4095064.8894853466],[598338.0638819325,4095064.90319615],[598337.9129710717,4095064.932507019]]]]}},{"type":"Feature","properties":{"class":"residential","widthMeters":5},"geometry":{"type":"MultiPolygon","coordinates":[[[[597822.2023095425,4094571.4398145922],[597817.0,4094571.874063254],[597817.0,4094576.8914520727],[597822.7645043599,4094576.410275725],[597823.0546299818,4094576.368820248],[597842.1101032313,4094572.494667903],[597841.1139370195,4094567.594907411],[597822.2023095425,4094571.4398145922]]],[[[597861.4993510838,4094617.6382954703],[597861.6934543878,4094617.696727544],[597874.0634428817,4094620.8797488837],[597874.3109634172,4094620.9302610247],[597910.5153598966,4094626.430257811],[597910.8572624614,4094626.4583901805],[597940.0520460003,4094626.850538964],[597946.418515437,4094629.0994588477],[597946.6913421147,4094629.178712658],[597946.971399089,4094629.226500246],[597947.2550695671,4094629.24220446],[597955.7192220493,4094629.229108035],[597955.9391749055,4094629.2190716974],[597956.157391627,4094629.189721238],[597956.3721795508,4094629.141284322],[597960.9243922839,4094627.901733945],[597958.8996978757,4094629.919092552],[597953.6944124488,4094633.8481815294],[597953.4464665018,4094634.0622227592],[597940.5277655233,4094646.7834913284],[597940.3637377837,4094646.9614539035],[597940.2176870024,4094647.154443403],[597940.0909819853,4094647.3606511047],[597939.984810228,4094647.5781444046],[597939.900166785,4094647.8048849283],[597939.8378449455,4094648.0387476357],[597938.9349450441,4094652.233452991],[597938.8993970877,4094652.440578015],[597938.8813705494,4094652.6499568024],[597938.8809928101,4094652.860109818],[597940.0288606666,4094681.3662765813],[597940.0530692042,4094681.6269048024],[597940.1043954232,4094681.8835733477],[597940.1822766807,4094682.133468591],[597940.2858592344,4094682.373851156],[597940.414007602,4094682.6020859447],[597940.5653170085,4094682.815671025],[597942.591583396,4094685.3799346033],[597942.7572392037,4094685.5691698818],[597942.9410696778,4094685.7408037772],[597943.1412143998,4094685.893099304],[597943.3556478465,4094686.0245151864],[597943.5821998881,4094686.133721458],[597943.8185777515,4094686.219612918],[597944.0623892233,4094686.2813203204],[597944.3111668595,4094686.318219168],[597944.5623929575,4094686.329936033],[597976.5149339736,4094686.2111961646],[597976.7365255909,4094686.2005293076],[597976.9562990918,4094686.170259934],[597977.1725238346,4094686.120626404],[597977.383497123,4094686.0520195654],[597982.6931544594,4094684.0607821224],[597982.9091966198,4094683.9679511767],[597983.1155614274,4094683.8552330956],[598007.7912239736,4094668.82903963],[598008.00288899,4094668.6847826648],[598008.198681898,4094668.519624291],[598015.639550669,4094661.5601450955],[598012.2241140521,4094657.90846155],[598004.9710602587,4094664.6922765225],[597980.7165452911,4094679.462013045],[597976.0477916595,4094681.212897604],[597945.7603639367,4094681.3254496907],[597944.992119888,4094680.3532279506],[597943.8896987295,4094652.9756851355],[597944.5685947568,4094649.821660202],[597956.8377252528,4094637.7400349355],[597962.0489086722,4094633.8064939952],[597962.3073075734,4094633.5820987998],[597969.0331744176,4094626.8806008794],[597965.5040628588,4094623.3386562713],[597963.98052991,4094624.8566692094],[597963.2278469724,4094622.0924629965],[597955.3791698517,4094624.2296282067],[597947.6779026303,4094624.241544233],[597945.5202494332,4094623.479365254],[597947.3262508782,4094622.003268549],[597947.5061382189,4094621.841088915],[597956.2935858858,4094613.1107721217],[597952.7696011954,4094609.563726604],[597944.0681645627,4094618.2085915566],[597939.619902775,4094621.844283314],[597911.0963358327,4094621.461150414],[597875.1869611987,4094616.0059719193],[597863.1362534646,4094612.9051072826],[597852.7069417317,4094608.321711107],[597825.4943029215,4094590.273219328],[597817.0,4094583.0892696306],[597817.0,4094589.637688821],[597822.3767280695,4094594.184988858],[597822.6093172975,4094594.3595467457],[597850.1224918338,4094612.607365632],[597850.3060700992,4094612.7180916914],[597850.4984598682,4094612.8126824764],[597861.3106197988,4094617.564329924],[597861.4993510838,4094617.6382954703]]],[[[598039.197253479,4094686.9171791454],[598013.3905949735,4094701.339099459],[597994.1970336311,4094708.229598601],[597985.2957091347,4094710.563784577],[597975.3362416144,4094711.2179269474],[597975.0761419925,4094711.248760476],[597974.8206957917,4094711.3066375726],[597974.5727068926,4094711.3909229552],[597974.3348973214,4094711.500691474],[597958.7539640572,4094719.708616609],[597958.6007275596,4094719.796390144],[597941.6312458733,4094730.329412509],[597941.4396589223,4094730.4610506496],[597926.2118695216,4094742.001725407],[597926.01904749,4094742.163779924],[597925.8435104894,4094742.344414262],[597925.6870403471,4094742.5417948514],[597925.5512253477,4094742.753918137],[597925.4374441112,4094742.9786309153],[597925.3468515992,4094743.2136521894],[597925.280367391,4094743.456596324],[597925.2386663491,4094743.7049972615],[597925.2221717692,4094743.9563335525],[597925.2310510832,4094744.208053954],[597925.2652141595,4094744.457603321],[597925.3243142185,4094744.7024485487],[597925.4077513517,4094744.9401042815],[597925.5146786125,4094745.1681581424],[597925.6440106119,4094745.38429522],[597935.1283984035,4094759.561024804],[597909.24145039,4094779.420113811],[597894.9834220685,4094771.2458417914],[597894.8139846203,4094771.1571341944],[597881.8822362957,4094765.0051242867],[597881.6321270275,4094764.9023346016],[597881.3723790247,4094764.827159203],[597881.1060311465,4094764.7804775885],[597854.087606364,4094761.5391858118],[597853.8763632698,4094761.5228860658],[597853.6644986435,4094761.52453129],[597853.453534159,4094761.544109668],[597837.5599936908,4094763.7016698658],[597837.3330823992,4094763.74321379],[597837.110966416,4094763.805496387],[597836.8955369124,4094763.8879873618],[597836.6886281286,4094763.9899843573],[597836.4920017567,4094764.110618937],[597830.5626436177,4094768.1363344425],[597830.3627523565,4094768.2872119965],[597830.17895946,4094768.45733173],[597830.0131093429,4094768.6449864428],[597829.8668663591,4094768.8482929654],[597829.7416980992,4094769.065211059],[597829.6388606626,4094769.2935638875],[597829.5593860527,4094769.531059864],[597827.9255626108,4094775.370544099],[597827.8661521713,4094775.6389982975],[597827.8365809047,4094775.9123530076],[597827.837206492,4094776.18730185],[597827.8680213664,4094776.460519164],[597831.445250569,4094797.6391325695],[597830.1182249908,4094802.8380536865],[597827.0158558104,4094805.7067902256],[597817.0,4094810.0355983092],[597817.0,4094815.482599718],[597829.3914616465,4094810.1270654174],[597829.643425527,4094810.000865412],[597829.8795859435,4094809.84711075],[597830.0969422517,4094809.667755032],[597834.0551702062,4094806.0076125725],[597834.22290466,4094805.836908113],[597834.3735479758,4094805.650947228],[597834.5057196617,4094805.4514340586],[597834.6182084994,4094805.240196939],[597834.7099836438,4094805.019171641],[597834.7802040695,4094804.7903836365],[597835.9614061229,4094800.1627589692],[597847.5243162648,4094799.666999877],[597866.711779156,4094802.5498982333],[597883.1203619663,4094809.8265725323],[597900.0214531869,4094827.2445190717],[597908.3466986842,4094840.850262468],[597912.1520455036,4094854.8316611885],[597914.2247623074,4094870.922122012],[597913.0454564064,4094874.7256994713],[597903.0308225028,4094863.4543799204],[597902.8973325226,4094863.3153268853],[597888.5504326636,4094849.4800507044],[597888.3515633085,4094849.307531223],[597871.0634336275,4094835.8377351942],[597870.8891876512,4094835.7135800133],[597870.70496413,4094835.6047780677],[597870.5121123514,4094835.5121262427],[597861.1513022571,4094831.4984224187],[597860.8685889435,4094831.3968397183],[597860.5757322152,4094831.3299009446],[597849.2323410797,4094829.445809255],[597848.9958300288,4094829.418023015],[597848.7577481963,4094829.4128661454],[597848.5202558242,4094829.4303854364],[597848.2855078065,4094829.470421926],[597836.4988090516,4094832.063752771],[597836.2847462875,4094832.1209039027],[597836.0765841771,4094832.196783113],[597835.8759576795,4094832.2907944275],[597835.684442567,4094832.4021994565],[597835.5035430492,4094832.5301231965],[597818.9513209203,4094845.3720759456],[597817.0,4094846.70045274],[597817.0,4094852.749070522],[597821.8292447926,4094849.461524814],[597821.9548704091,4094849.370166531],[597838.1233973461,4094836.8259016383],[597848.8888758735,4094834.4572615204],[597859.4585108696,4094836.2128354246],[597868.2450339776,4094839.980297967],[597885.1745417074,4094853.170678893],[597899.3571278198,4094866.8475009073],[597912.2319108235,4094881.337875171],[597914.8309711961,4094884.4079882214],[597907.6583060062,4094887.356501995],[597847.0728968976,4094896.302706003],[597835.2019975848,4094894.5298939166],[597826.1144083907,4094889.1410368048],[597819.0401985017,4094882.655532733],[597817.0,4094876.192003723],[597817.0,4094887.5683462685],[597822.9267435168,4094893.0018745083],[597823.12593058,4094893.166377852],[597823.3410302612,4094893.3094476378],[597833.0730884947,4094899.0804689843],[597833.286776572,4094899.193591123],[597833.5103929096,4094899.285541904],[597833.741845918,4094899.3554612687],[597833.9789707074,4094899.402695228],[597846.7015642411,4094901.302700189],[597846.9459674467,4094901.327001122],[597847.1915757151,4094901.32720278],[597847.4360184959,4094901.3033032175],[597908.6911996318,4094892.2581988755],[597908.9887606483,4094892.1955666193],[597909.2765165233,4094892.0972715816],[597918.178715684,4094888.437787116],[597929.7001419754,4094902.802015242],[597910.8139777,4094911.6824784065],[597879.930740395,4094922.3703814056],[597847.67019997,4094931.208600972],[597836.3424132972,4094929.617679534],[597821.168476178,4094923.560860794],[597817.0,4094921.2525169323],[597817.0,4094926.967961784],[597818.8841658836,4094928.0113413227],[597819.1684808906,4094928.14614915],[597834.7690889585,4094934.373277585],[597835.0540112895,4094934.467608973],[597835.3481846976,4094934.5271165473],[597847.4855962048,4094936.2317450615],[597847.7388217372,4094936.2542562657],[597847.9930241898,4094936.2509339647],[597848.245574909,4094936.2218125146],[597848.4938623213,4094936.1671930533],[597881.3311969546,4094927.170952766],[597881.4882380284,4094927.1223247014],[597912.5749528029,4094916.364003325],[597912.8211356099,4094916.263856583],[597933.0367045846,4094906.7582940445],[597940.0855296722,4094914.441555373],[597956.4831992482,4094933.7240746734],[597956.4868920342,4094933.728407128],[597975.6819655468,4094956.1966072144],[597975.899061516,4094956.420742464],[597990.4431025482,4094969.6715130107],[597985.6781550549,4094972.946515529],[597923.6591585735,4094969.5369675397],[597880.5705902275,4094967.086322506],[597880.4431200647,4094967.082330864],[597846.8750201762,4094966.887808199],[597840.8429267232,4094960.039230405],[597840.6598274573,4094959.8520891913],[597840.4581605911,4094959.6851231772],[597840.2401379156,4094959.540163569],[597840.0081506049,4094959.4188002194],[597839.7647429912,4094959.3223641864],[597823.5590211353,4094953.864915643],[597823.5257913908,4094953.8539834255],[597817.0,4094951.7575539434],[597817.0,4094957.009228517],[597821.9798503026,4094958.609019924],[597837.5338097188,4094963.84698056],[597840.4250973904,4094967.1296234266],[597817.0,4094968.236564318],[597817.0,4094973.242143671],[597845.7915546382,4094971.881613611],[597880.350360207,4094972.0818772833],[597923.3776066405,4094974.529034658],[597923.3823312894,4094974.529298885],[597986.2546409346,4094977.9857585034],[597986.4892186695,4094977.987631953],[597986.7229392949,4094977.967510007],[597986.9537449393,4094977.925569835],[597987.1796033968,4094977.862180714],[597987.3985260208,4094977.777900775],[597987.6085852336,4094977.6734720883],[597987.8079314983,4094977.5498141316],[597994.6899769919,4094972.8197061177],[598005.1019833698,4094977.724705963],[598005.3517424134,4094977.826292633],[598048.0679304643,4094992.569911548],[598051.5092860195,4095003.453466106],[598051.6049386277,4095003.707197172],[598051.7275089738,4095003.949076037],[598051.8755550644,4095004.176257089],[598073.4804920288,4095033.6959624724],[598073.5051986171,4095033.729140612],[598087.7840595723,4095052.576485695],[598052.286382869,4095063.9665608816],[598046.4099873564,4095063.3937026863],[598037.0066172475,4095058.7540958244],[597995.1838182423,4095020.4506749767],[597991.8068312481,4095024.1379448124],[598033.892401893,4095062.682025132],[598034.0736679671,4095062.8329491867],[598034.2683508877,4095062.9661183283],[598034.474717651,4095063.080347129],[598042.418913731,4095067.0],[598059.197779844,4095067.0],[598091.1372747665,4095056.7516321526],[598100.4294431068,4095067.0],[598107.1787023415,4095067.0],[598093.833423513,4095052.281440872],[598077.5030919719,4095030.7262625666],[598056.1528576137,4095001.5545677287],[598053.9143313128,4094994.4750542236],[598074.7121300532,4095001.1471440853],[598074.9780325382,4095001.2165841246],[598082.8535584377,4095002.816737211],[598083.1219569033,4095002.8562499783],[598083.3930565328,4095002.866447329],[598083.6636649008,4095002.847209181],[598089.6351839028,4095002.0952937324],[598089.9113703284,4095002.044623375],[598090.180132416,4095001.9633007646],[598090.4380796169,4095001.8523518196],[598095.5940776166,4094999.2824506066],[598095.802991988,4094999.1655124915],[598095.9997624969,4094999.029126627],[598096.1825845301,4094998.874543829],[598096.3497813976,4094998.7031818004],[598116.5671598372,4094975.892216797],[598116.5775205491,4094975.880452865],[598142.5706808164,4094946.179641461],[598142.5746287704,4094946.17511943],[598189.2283915692,4094892.607692075],[598210.1549873577,4094870.9166621137],[598206.5566152482,4094867.445103651],[598185.5857997496,4094889.1819686377],[598187.3849858043,4094890.917747869],[598185.4997515134,4094889.275830798],[598140.8582526162,4094940.532794989],[598129.4638512919,4094924.975540047],[598134.8110931377,4094921.1509140492],[598135.0075387906,4094920.9949341323],[598135.1873649205,4094920.820053625],[598135.3487611638,4094920.628033101],[598135.4901026957,4094920.420805689],[598135.6099665887,4094920.2004576093],[598135.7071461369,4094919.9692071727],[598135.7806630046,4094919.729382447],[598135.8297770753,4094919.4833978196],[598135.853993903,4094919.2337296912],[598135.8530696896,4094918.9828915466],[598135.8270137393,4094918.7334086485],[598135.7760883654,4094918.4877926167],[598135.7008062487,4094918.2485161405],[598135.6019252772,4094918.0179880895],[598135.480440915,4094917.798529258],[598132.2773188625,4094912.641053913],[598141.8221107975,4094906.390016349],[598142.0264178024,4094906.240918448],[598142.2146142413,4094906.0719402344],[598142.3847738394,4094905.884811275],[598142.5351549374,4094905.6814469183],[598142.6642183178,4094905.463928689],[598142.7706429594,4094905.2344829827],[598142.8533395585,4094904.9954582793],[598142.9114616784,4094904.749301103],[598142.9444144135,4094904.498530982],[598142.9518604778,4094904.2457146607],[598142.9337236575,4094903.993439826],[598142.890189591,4094903.7442886243],[598142.8217038689,4094903.500811229],[598142.728967473,4094903.265499739],[598142.612929602,4094903.040762673],[598140.005649624,4094898.5624626074],[598176.3372313364,4094874.9397034496],[598173.611703109,4094870.747866635],[598137.4245763047,4094894.276701352],[598131.4323161873,4094884.6316148313],[598131.2945949936,4094884.4321993724],[598131.1382122748,4094884.2470559212],[598130.9646376193,4094884.077924341],[598130.7755021751,4094883.9263940267],[598130.5725833207,4094883.793888967],[598130.3577879623,4094883.6816543625],[598130.1331346146,4094883.5907449257],[598129.9007344315,4094883.5220149662],[598129.6627713668,4094883.476110367],[598129.4214816509,4094883.4534625113],[598129.179132776,4094883.454284229],[598128.9380021876,4094883.478567798],[598128.7003558826,4094883.5260850172],[598128.4684271147,4094883.596389348],[598128.2443954075,4094883.688820115],[598128.0303660734,4094883.802508709],[598103.4666327231,4094898.4191036657],[598106.0234481767,4094902.7159274616],[598128.4795156817,4094889.3534943834],[598134.5053323118,4094899.052593157],[598137.0985292683,4094903.50670403],[598127.496261544,4094909.795383412],[598127.300793697,4094909.9373514536],[598127.1199413248,4094910.0975233098],[598126.9553932298,4094910.274403293],[598126.808685965,4094910.4663396953],[598126.6811894851,4094910.671540211],[598126.5740943544,4094910.8880886743],[598126.488400629,4094911.113962952],[598126.4249085184,4094911.347053827],[598126.384210913,4094911.585184692],[598126.3666878475,4094911.8261318775],[598126.3725029529,4094912.0676454147],[598126.4016019275,4094912.307470046],[598126.4537130445,4094912.5433662846],[598126.5283496896,4094912.773131328],[598126.6248149044,4094912.9946196266],[598126.7422078953,4094913.2057629186],[598129.9971901589,4094918.4467404704],[598124.4986210153,4094922.379603637],[598124.3049920782,4094922.5331105227],[598124.1274627738,4094922.7049822053],[598123.9677673941,4094922.8935396634],[598123.8274660105,4094923.09694087],[598123.7079292332,4094923.3131987904],[598123.6103248225,4094923.540200791],[598123.5356062802,4094923.775729279],[598123.4845035351,4094924.017483366],[598123.4575158121,4094924.263101346],[598123.4549067557,4094924.5101837656],[598123.4767018537,4094924.7563168653],[598123.5226881888,4094924.9990961608],[598123.5924165185,4094925.2361499295],[598123.6852056637,4094925.465162383],[598123.800149163,4094925.683896288],[598123.9361241283,4094925.890214823],[598137.4888016506,4094944.3942549536],[598115.016218101,4094970.0723163704],[598081.5837638816,4094917.3870066],[598077.3620278232,4094920.0659886184],[598111.5769301442,4094973.9843374095],[598092.9295972126,4094995.0238436037],[598088.5884117052,4094997.1876182794],[598083.4465692966,4094997.835063384],[598076.1084556839,4094996.344101981],[598050.8622075709,4094988.244916188],[598009.507549164,4094973.9712332655],[598011.2180321892,4094969.906562114],[598058.9377875198,4094933.0540846977],[598055.8816861811,4094929.0967820045],[598007.6409950164,4094966.351561904],[598007.445698649,4094966.5191155197],[598007.2686600779,4094966.705856596],[598007.1117549172,4094966.9098067265],[598006.97664548,4094967.128805186],[598006.8647631673,4094967.360531821],[598004.8743424186,4094972.090427223],[597995.8625319595,4094967.845046717],[597981.2624254661,4094954.5431961054],[598009.0869168189,4094928.3635237976],[598031.614675784,4094909.570584509],[598035.2952777847,4094910.7892219936],[598035.5404810703,4094910.856779692],[598035.7912795501,4094910.899074095],[598036.0450774118,4094910.915667446],[598036.2992477991,4094910.906388001],[598036.5511600001,4094910.8713318044],[598036.7982066752,4094910.810861694],[598037.0378308443,4094910.725603548],[598037.2675523513,4094910.6164398035],[598037.4849935349,4094910.484500326],[598037.6879038371,4094910.3311507152],[598054.8674341395,4094895.917872865],[598077.8006125893,4094878.244556102],[598099.7401610462,4094912.5113273757],[598103.95102617,4094909.8152904864],[598081.4140572092,4094874.6154247234],[598089.3851640049,4094862.457911927],[598095.9015531391,4094853.365311199],[598139.5075203221,4094820.261101299],[598136.4842072673,4094816.2786927093],[598092.5776778002,4094849.611079567],[598092.3866680327,4094849.771729987],[598092.2126286145,4094849.9506254024],[598092.0572941836,4094850.145982776],[598085.2908703523,4094859.5874677743],[598085.2322181421,4094859.6730006523],[598078.5868065383,4094869.80856635],[598037.0053016194,4094796.689015507],[598036.8566584889,4094796.458137395],[598036.6835915396,4094796.244953638],[598033.2651152472,4094792.477351612],[598033.0994683014,4094792.311173416],[598032.9189715395,4094792.161256698],[598032.7252148954,4094792.028922023],[598032.5199051053,4094791.91533508],[598032.3048506723,4094791.8214964196],[598032.0819459371,4094791.748232633],[598031.8531543909,4094791.6961890757],[598028.5314430384,4094791.102984215],[598028.3032659172,4094791.072995817],[598028.0732979339,4094791.0641172314],[598027.843487896,4094791.076423698],[598027.6157832727,4094791.1098109293],[598027.3921136914,4094791.1639959924],[598027.1743745856,4094791.2385197096],[598009.4985202954,4094798.2127144295],[598009.2906632717,4094798.3058820884],[598009.0921489793,4094798.4175818227],[598005.1835521652,4094800.8577270834],[598004.9867562217,4094800.994103558],[598004.8039089355,4094801.148680581],[598004.6366874457,4094801.320040318],[598004.4866255664,4094801.5066109975],[598004.3550997174,4094801.7066813284],[598004.2433163001,4094801.918416195],[598004.1523006308,4094802.139873491],[598004.0828875374,4094802.3690219335],[598004.0357137008,4094802.603759692],[598004.011211816,4094802.84193367],[598003.8305868208,4094806.146264346],[598003.8303294077,4094806.4143789522],[598003.8587862952,4094806.680979241],[598003.9156301811,4094806.942998861],[598004.0002072653,4094807.1974241454],[598004.1115447689,4094807.4413287756],[598011.0575205071,4094820.722348003],[598005.4146659726,4094823.503854344],[598005.1919886611,4094823.628117082],[598004.9831281843,4094823.7744171657],[598004.7902575738,4094823.941232455],[598004.6153834991,4094824.126827366],[598004.4603253894,4094824.329270928],[598001.3554500564,4094828.842454163],[598001.2215830986,4094829.0600754283],[598001.1106269294,4094829.290223437],[598001.0237404528,4094829.5304943626],[598000.9618311719,4094829.778378647],[598000.9255457105,4094830.031287213],[598000.9152630595,4094830.286578506],[598000.9842333641,4094836.6339281923],[598000.9958174446,4094836.848675197],[598001.0258148968,4094837.0616320465],[598001.0740037372,4094837.2712228443],[598001.1400273648,4094837.475896603],[598003.7400613743,4094844.488218055],[597975.7819416712,4094853.919192596],[597967.7423825569,4094832.4013735172],[597955.6332956442,4094784.5551997297],[597974.6913703895,4094778.6265314315],[597994.0465643551,4094772.6149638863],[598011.5100123641,4094767.18015739],[598029.8842695648,4094761.4650771343],[598049.6600433805,4094755.7780570937],[598077.809692192,4094747.7947602062],[598078.0017965636,4094747.731782604],[598078.1881842704,4094747.6534889853],[598085.445436909,4094744.253559911],[598083.3242435755,4094739.7258078377],[598076.2505109368,4094743.0397601635],[598050.0089063392,4094750.481931883],[598018.0551000697,4094704.460164305],[598041.6364314518,4094691.2818567757],[598039.197253479,4094686.9171791454]],[[598013.469830776,4094706.623095285],[598044.9310186529,4094751.9353646277],[598030.1840829314,4094756.1762160743],[597998.8765165494,4094711.862103167],[598013.469830776,4094706.623095285]],[[597919.2271788709,4094871.6232220763],[597919.2645199513,4094871.357988567],[597919.2732704894,4094871.0902823876],[597919.2533300387,4094870.8231765116],[597917.0890570283,4094854.0219666106],[597917.0217936963,4094853.684821774],[597913.0775424889,4094839.1930680913],[597913.0048626343,4094838.9684706866],[597912.9113226722,4094838.751729756],[597912.7977566252,4094838.5447778087],[597904.1414594635,4094824.3980048415],[597903.9843929975,4094824.1705864556],[597903.803182758,4094823.961895665],[597887.3578391487,4094807.0136340368],[597895.3168909588,4094777.200451769],[597907.8274608612,4094784.3728881814],[597926.3714612778,4094805.9018505355],[597933.9627727356,4094816.100778104],[597944.696365937,4094853.0188853387],[597945.8051620437,4094866.831178438],[597946.1195533783,4094889.7328333003],[597943.1131964197,4094906.3476186893],[597941.6056333531,4094908.70234165],[597935.5345646598,4094902.0848406153],[597920.9085987655,4094883.850057407],[597920.866493764,4094883.798964514],[597916.9144930998,4094879.1307048067],[597919.1616758832,4094871.8829383235],[597919.2271788709,4094871.6232220763]],[[597947.7120342073,4094908.4155919445],[597947.8121846208,4094908.1931522754],[597947.8901788093,4094907.9620107207],[597947.9452741493,4094907.7243680996],[597951.082687206,4094890.3852944863],[597951.1141031729,4094890.146527065],[597951.1223995739,4094889.905844672],[597950.8277628375,4094868.4432020914],[597972.8037320274,4094860.279792411],[597978.3890753153,4094875.5255843266],[597984.1744709268,4094892.899445301],[597984.1932845836,4094892.9538462376],[597987.7419937851,4094902.8450275967],[597958.6420300796,4094928.544529028],[597945.0625485935,4094912.5760029736],[597947.590681153,4094908.627211764],[597947.7120342073,4094908.4155919445]],[[597977.7798595242,4094950.954643344],[597961.8858953655,4094932.3504547924],[597990.2688777656,4094907.284152161],[598004.105530987,4094926.185189576],[597977.7798595242,4094950.954643344]],[[597988.9092761222,4094891.2924455414],[597983.121235009,4094873.9106399803],[597983.0967141809,4094873.840497706],[597977.5172123009,4094858.6106505375],[598005.1248349492,4094849.2979074386],[598008.9989388618,4094867.29504898],[598011.4835636345,4094879.863139094],[598011.5378128403,4094880.0841453094],[598011.6119339335,4094880.299302896],[598011.7053127557,4094880.5068290853],[598011.8171755815,4094880.7050043405],[598027.8041076239,4094906.2380517162],[598007.8720229197,4094922.865646956],[597992.8986231573,4094902.411799872],[597988.9092761222,4094891.2924455414]],[[598013.8999211892,4094866.3046874832],[598013.8914035398,4094866.2634322667],[598009.4234967284,4094845.507780614],[598009.3235391238,4094845.164753023],[598005.9792166746,4094836.145077138],[598005.9235713038,4094831.0240235296],[598008.2101185985,4094827.700345182],[598013.5620232649,4094825.062255422],[598021.4190085247,4094837.3005251144],[598037.6426477801,4094869.756381361],[598037.6697646603,4094869.8090592776],[598050.1447609526,4094893.353448847],[598035.5427660778,4094905.604226696],[598032.7216332707,4094904.6701571643],[598016.2993426833,4094878.4417899908],[598013.8999211892,4094866.3046874832]],[[597949.9702367231,4094771.3580142325],[597949.8309173356,4094771.1496773893],[597940.5523139635,4094758.676366032],[597931.110330032,4094744.563019354],[597942.4015073961,4094736.0057821767],[597969.9199711044,4094774.874491554],[597953.9656406294,4094779.837633467],[597950.0879962927,4094771.5792535045],[597949.9702367231,4094771.3580142325]],[[597959.2155885055,4094725.2996251825],[597989.313628418,4094768.849358839],[597974.9409912295,4094773.313384331],[597946.5248860205,4094733.1767928875],[597959.2155885055,4094725.2996251825]],[[597974.7029573263,4094716.9581511673],[598006.7786576806,4094763.4160693446],[597994.3168327042,4094767.294319051],[597963.5786567325,4094722.8183538206],[597974.7029573263,4094716.9581511673]],[[597985.8622035326,4094715.5373501657],[597986.0991695151,4094715.5103856283],[597986.332487771,4094715.460963421],[597993.8959117612,4094713.4776138403],[598025.1414870284,4094757.7039817846],[598011.780157567,4094761.8598542837],[597980.0610191736,4094715.918374601],[597985.8622035326,4094715.5373501657]],[[597962.9288797854,4094833.7611627337],[597963.0105861494,4094834.0227736537],[597971.0687721142,4094855.5904473565],[597950.531315009,4094863.2194931884],[597949.6599745965,4094852.365189954],[597949.6269161903,4094852.113918693],[597949.5685878621,4094851.867285542],[597938.6380709996,4094814.2718609637],[597938.5663253769,4094814.060717474],[597938.4760499217,4094813.8568073227],[597938.3679629236,4094813.66175295],[597938.242924392,4094813.477106333],[597930.329207309,4094802.8450267804],[597930.2179542226,4094802.706163263],[597913.0632079649,4094782.790078379],[597938.0176798189,4094763.646335463],[597945.6690028332,4094773.932078955],[597950.2636317625,4094783.7174507403],[597962.9288797854,4094833.7611627337]],[[597868.0076124036,4094797.698575467],[597867.7883103676,4094797.655524055],[597848.0291772501,4094794.6867327816],[597847.7905174337,4094794.662512575],[597847.5506349582,4094794.661277923],[597836.096044149,4094795.1523928302],[597832.891327262,4094776.1791998423],[597834.1280021009,4094771.7591731492],[597838.8146158209,4094768.577214313],[597853.8093976199,4094766.541661288],[597880.1039743621,4094769.696115926],[597890.7882412502,4094774.7789333533],[597882.9161432078,4094804.2664023847],[597868.4303386087,4094797.8424178613],[597868.2221934246,4094797.7610397968],[597868.0076124036,4094797.698575467]],[[598042.1017737975,4094867.494286567],[598025.8314151835,4094834.944966902],[598025.6989938013,4094834.712144723],[598016.6232885169,4094820.5755611295],[598008.8606402217,4094805.733027099],[598008.9328844395,4094804.4114005724],[598011.5461913856,4094802.779907517],[598028.3501767323,4094796.1497178837],[598030.1349822661,4094796.4684557887],[598032.7953031838,4094799.4004727523],[598075.187605947,4094873.9457818577],[598054.1218075583,4094890.1800133497],[598042.1017737975,4094867.494286567]]],[[[598156.1888206959,4094844.443757974],[598172.4252010065,4094827.289815677],[598168.7938818857,4094823.8527353103],[598152.5575015751,4094841.0066776075],[598156.1888206959,4094844.443757974]]],[[[598234.6370614027,4094879.7157256007],[598230.9251215146,4094876.3658745196],[598201.3357191235,4094909.153625479],[598203.1916890675,4094910.8285510195],[598201.3197920491,4094909.17144464],[598128.4107328714,4094991.5308225243],[598130.2826298898,4094993.187928904],[598128.6921052355,4094995.116719023],[598157.0395810162,4095018.4926989526],[598159.7455194518,4095023.0677535282],[598158.0444948287,4095027.660016708],[598146.5954503064,4095039.9956348375],[598150.2602261995,4095043.397019505],[598162.0481782712,4095030.6962500215],[598162.2063165371,4095030.5081069916],[598162.3452166028,4095030.3053453523],[598162.4635360154,4095030.0899247695],[598162.5601312316,4095029.8639272586],[598164.8477188789,4095023.688117467],[598164.9219171798,4095023.452731387],[598164.9725445932,4095023.2111763014],[598164.9991077083,4095022.965806386],[598165.0013476436,4095022.7190129966],[598164.9792425683,4095022.4732013615],[598164.933007917,4095022.2307671406],[598164.8630942887,4095021.9940730785],[598164.7701830562,4095021.7654259764],[598164.6551797247,4095021.5470542107],[598162.0342698618,4095017.115761354],[598221.419098746,4094948.2669499493],[598221.5508985077,4094948.1003247746],[598221.6680753265,4094947.923111008],[598221.7697829962,4094947.73658842],[598224.756046435,4094941.659044624],[598227.3329664408,4094938.228398037],[598250.5935031128,4094918.35275889],[598247.3453875665,4094914.5514768166],[598223.8754400084,4094934.6060531596],[598223.677057447,4094934.795346415],[598223.5005988654,4094935.005227206],[598220.6170549178,4094938.8440814116],[598220.4852613396,4094939.0378215597],[598220.372185398,4094939.2430497827],[598217.4235909843,4094945.2439308343],[598158.6722543089,4095013.358292272],[598133.8707280313,4094992.906383785],[598205.0556651487,4094912.4946050313],[598234.6370614027,4094879.7157256007]]],[[[598276.5295955405,4094891.714546488],[598272.1528405716,4094889.297106532],[598265.8416667588,4094900.7234343174],[598265.1005707335,4094900.1906284634],[598264.848897593,4094900.0315270126],[598249.6473545781,4094891.644631629],[598247.2320038143,4094896.022539884],[598262.302964658,4094904.3373913304],[598264.972765979,4094906.256826498],[598272.8833582925,4094915.3586530616],[598279.1517434298,4094931.4954885114],[598290.021583039,4094971.119614206],[598290.0956084098,4094971.3464266406],[598290.1909177966,4094971.5651496546],[598290.3066431419,4094971.7737911665],[598290.4417304448,4094971.970450915],[598290.5949493595,4094972.153337766],[598290.7649044016,4094972.320786026],[598290.9500476578,4094972.4712706124],[598295.6152936429,4094975.9069167664],[598293.0508991405,4094979.143308945],[598292.9918840842,4094979.2208465934],[598282.9904926966,4094992.9067367082],[598281.2296483758,4094995.312671624],[598276.8100315082,4095001.316682151],[598278.8233740369,4095002.798725289],[598277.7196772791,4095005.04190461],[598283.8062089891,4095008.0366207487],[598351.1734256966,4095041.9754642206],[598345.7645503894,4095054.206806217],[598345.6855188479,4095054.408787161],[598345.6242914855,4095054.616858054],[598345.5813291464,4095054.8294527945],[598344.7633205778,4095060.0302183945],[598335.0814758259,4095058.8942556153],[598334.8299900994,4095058.877541044],[598334.5780994546,4095058.8862330248],[598334.3283640856,4095058.9202432134],[598334.0833222807,4095058.9792259336],[598333.8454646228,4095059.0625816905],[598333.6172086766,4095059.1694632624],[598333.4008744152,4095059.2987843156],[598333.1986606406,4095059.449230442],[598333.0126226362,4095059.6192725203],[598332.8446512755,4095059.807182258],[598332.6964538047,4095060.011049757],[598332.5695364898,4095060.228802926],[598332.465189307,4095060.458228541],[598332.3844728321,4095060.696994741],[598332.32820746,4095060.9426747267],[598331.2590507014,4095067.0],[598336.3363396283,4095067.0],[598336.8420101444,4095064.1351153404],[598346.217561942,4095065.2351410226],[598350.4231945017,4095067.0],[598358.9421656058,4095067.0],[598357.9004404721,4095065.2473830706],[598357.752934509,4095065.0267823064],[598357.5828759976,4095064.823059924],[598357.3921810949,4095064.6385113928],[598357.1829984809,4095064.4752161377],[598356.9576851487,4095064.3350141095],[598356.7187798462,4095064.2194850533],[598349.6335300728,4095061.2462184895],[598350.4697529207,4095055.92964946],[598355.6021491777,4095044.3235224346],[598364.5116873746,4095049.2554889354],[598364.7288769273,4095049.3623240096],[598364.9553799211,4095049.447655298],[598365.1890732064,4095049.510682937],[598365.4277662343,4095049.5508161327],[598365.6692215904,4095049.567678691],[598365.9111759678,4095049.561112549],[598366.1513613813,4095049.531179256],[598366.3875264276,4095049.478159393],[598366.6174573888,4095049.4025499495],[598366.8389989828,4095049.3050596574],[598367.0500745659,4095049.186602352],[598393.2034408615,4095032.795769696],[598419.6273171384,4095059.907680481],[598411.5177400529,4095067.0],[598419.1128604548,4095067.0],[598423.1282824826,4095063.4882686576],[598426.5742879792,4095067.0],[598433.5794969896,4095067.0],[598426.7120869518,4095060.0016074856],[598439.3678909312,4095046.3211625223],[598460.3666069182,4095067.0],[598467.4925753637,4095067.0],[598442.8406492578,4095042.723602635],[598454.6696440615,4095030.989217653],[598486.8246129496,4095062.619495952],[598482.4297359174,4095067.0],[598489.5124137608,4095067.0],[598490.3628199222,4095066.152375003],[598491.1990708886,4095067.0],[598498.2228566364,4095067.0],[598493.8283689385,4095062.5457419213],[598507.1552846351,4095048.0287520066],[598505.3136430669,4095046.338084584],[598507.1093206791,4095044.5986760887],[598474.8571973314,4095011.3032104173],[598489.2629457982,4094999.22906207],[598489.4635875465,4094999.041177083],[598489.642389556,4094998.8324003574],[598489.7971902426,4094998.60525585],[598489.9261181804,4094998.3624895704],[598493.7695273551,4094990.052342816],[598489.2313851396,4094987.953470444],[598485.6226648988,4094995.756177217],[598469.5864100553,4095009.196931118],[598471.1923087809,4095011.112939804],[598469.4335867392,4095009.3361739833],[598454.6909709792,4095023.9290724904],[598431.884972207,4095000.6112055876],[598442.248172059,4094990.195292243],[598440.4759262492,4094988.4320155233],[598442.938528277,4094988.8628185554],[598443.7869646598,4094984.01289643],[598443.8166227198,4094983.778663119],[598443.8240518754,4094983.542676568],[598443.8091858649,4094983.3070415827],[598443.7721572808,4094983.0738598322],[598443.7132963876,4094982.8452111064],[598443.6331281757,4094982.623134763],[598443.5323676796,4094982.409611539],[598443.4119135998,4094982.2065458866],[598443.2728402874,4094982.0157489832],[598443.1163881614,4094981.83892258],[598442.9439526459,4094981.6776438225],[598442.7570717235,4094981.5333511843],[598442.5574122176,4094981.4073316366],[598390.6977210497,4094952.0038485373],[598338.8764778548,4094922.323777951],[598337.6339873208,4094924.493159723],[598335.6386693256,4094922.9869372635],[598298.6762985948,4094971.9516057894],[598294.6138353088,4094968.9598693606],[598283.9395869512,4094930.0487378417],[598283.8590125957,4094929.804882087],[598277.3863591058,4094913.142194329],[598277.2997229843,4094912.9448269345],[598277.1964080562,4094912.7556557646],[598277.0771823185,4094912.5760870334],[598276.9429320421,4094912.407455574],[598269.7019054233,4094904.076022754],[598276.5295955405,4094891.714546488]],[[598435.8568552495,4095042.753580741],[598423.2120981473,4095056.4220844484],[598397.291887234,4095029.826953649],[598412.1565611012,4095017.8280887413],[598435.8568552495,4095042.753580741]],[[598451.1392658479,4095027.4485125216],[598439.3364569868,4095039.1569209998],[598415.9572404405,4095014.569104859],[598428.2254519203,4095004.020410611],[598451.1392658479,4095027.4485125216]],[[598287.0258473944,4094995.859009267],[598297.0000648054,4094982.21030506],[598301.1425947407,4094976.982228229],[598301.1784615087,4094976.9358558],[598338.3024867524,4094927.7570408466],[598388.2174545767,4094956.3453123164],[598388.2268955251,4094956.3506923057],[598438.5580292651,4094984.887511692],[598438.1488742403,4094987.2263670824],[598426.6696695158,4094998.763961974],[598411.7578543852,4095011.5857313704],[598411.669567194,4095011.665373185],[598410.7331464082,4095012.5513827605],[598392.131394784,4095027.5668420154],[598365.6437296717,4095044.167186361],[598355.6320675174,4095038.6251278087],[598354.421296467,4095040.8123711566],[598355.5460925067,4095038.5796970045],[598286.0452761885,4095003.5659701284],[598286.0241769066,4095003.5554649592],[598282.6079295259,4095001.874591245],[598285.2583731526,4094998.273986959],[598285.2624449311,4094998.268439508],[598287.0258473944,4094995.859009267]],[[598490.2860586765,4095059.010845529],[598458.2215759604,4095027.4695768883],[598471.1549492719,4095014.667547237],[598501.8776631071,4095046.384127656],[598490.2860586765,4095059.010845529]]],[[[598240.0221412941,4095018.4976706654],[598243.9983831057,4095021.529089649],[598265.9497624215,4094992.735975688],[598261.9735206099,4094989.704556704],[598240.0221412941,4095018.4976706654]]],[[[598202.253513807,4095002.7009980604],[598202.1543508633,4095002.8607553723],[598186.0202286671,4095031.1777680633],[598185.9065055999,4095031.4031015337],[598185.81608322,4095031.6387536116],[598185.7498832295,4095031.882322226],[598185.7085804247,4095032.13132461],[598185.6925958173,4095032.3832226074],[598185.7020923432,4095032.6354485475],[598185.7369732015,4095032.885431416],[598185.7968828412,4095033.130623063],[598185.8812105856,4095033.368524178],[598185.9890968568,4095033.5967097627],[598186.119441938,4095033.812853855],[598186.2709171831,4095034.014753233],[598208.8289248267,4095061.1159803094],[598212.6718680534,4095057.917263793],[598191.2222541164,4095032.147662719],[598206.405388189,4095005.499730157],[598218.3343116662,4094990.3917543036],[598240.7020328529,4094962.9839061294],[598236.8283092161,4094959.822535353],[598214.4478383651,4094987.246006078],[598214.4225927001,4094987.277454808],[598202.3644035093,4095002.5491456254],[598202.253513807,4095002.7009980604]]],[[[598584.0388334572,4095034.396074429],[598595.7381386388,4095023.1836963682],[598616.8002776145,4095032.888696287],[598662.5180942251,4095062.8126978897],[598658.4449037558,4095067.0],[598665.4202872426,4095067.0],[598666.7031240233,4095065.681224176],[598668.5083639063,4095067.0],[598676.9845364915,4095067.0],[598667.8995671017,4095060.3631878495],[598667.7939804143,4095060.290137006],[598619.3837104598,4095028.603825123],[598619.2255590601,4095028.5084616547],[598619.0607993576,4095028.4250332615],[598599.6566594708,4095019.484005181],[598603.1654107289,4095016.1937546013],[598603.1710462697,4095016.1884535905],[598606.7254776569,4095012.834634348],[598603.2940604276,4095009.197963371],[598599.7424427231,4095012.549127735],[598593.5276929474,4095018.3768660235],[598593.5079588713,4095018.3955739303],[598578.6037956887,4095032.6794232437],[598578.5171805895,4095032.766617802],[598572.4487812367,4095039.183662222],[598556.6969317527,4095024.148051545],[598556.5067551708,4095023.9839662],[598556.3010733317,4095023.8397922986],[598556.0819625079,4095023.7169852154],[598555.8516345313,4095023.616784637],[598555.6124144662,4095023.540202046],[598555.3667171393,4095023.4880105113],[598555.1170227618,4095023.4607368847],[598554.8658518943,4095023.458656483],[598554.6157400013,4095023.4817903056],[598554.3692118577,4095023.529904827],[598554.1287560618,4095023.6025143513],[598553.8967999142,4095023.698885916],[598553.6756849152,4095023.818046689],[598553.4676431279,4095023.9587937943],[598553.2747746472,4095024.1197064472],[598553.0990263995,4095024.2991603026],[598552.9421724901,4095024.495343849],[598544.9456703425,4095035.5975705152],[598544.8142239513,4095035.8000049116],[598544.7029117584,4095036.01417175],[598544.6127713334,4095036.238074725],[598544.5446428978,4095036.469626782],[598544.4991614941,4095036.706669564],[598544.476751066,4095036.946993536],[598544.477620507,4095037.1883585765],[598544.5017617126,4095037.4285148606],[598544.5489496565,4095037.665223831],[598544.6187444881,4095037.8962790626],[598544.7104956318,4095038.119526832],[598544.823347852,4095038.3328861883],[598544.9562492244,4095038.534368356],[598545.1079609415,4095038.7220952683],[598545.27706886,4095038.8943170747],[598560.054725656,4095052.55739371],[598546.1578012413,4095067.0],[598553.096572693,4095067.0],[598563.7257929876,4095055.953408733],[598575.6603781137,4095067.0],[598583.0211430407,4095067.0],[598567.1484062175,4095052.30827556],[598574.3692752763,4095044.4298596643],[598580.5012690197,4095037.945567193],[598600.6560295392,4095055.49851532],[598603.939805804,4095051.7279963316],[598584.0388334572,4095034.396074429]],[[598563.4780221953,4095048.912864579],[598550.2957027237,4095036.7247996065],[598555.3213800527,4095029.7472226825],[598569.0411472723,4095042.843150161],[598563.4780221953,4095048.912864579]]],[[[598513.1999163672,4095054.186300936],[598505.0299340464,4095067.0],[598510.959796092,4095067.0],[598515.827314173,4095059.36584494],[598516.333083428,4095059.822102323],[598524.2200450967,4095067.0],[598531.6485830735,4095067.0],[598519.6944265447,4095056.12056176],[598519.6862970251,4095056.113195657],[598516.9824615732,4095053.6740499856],[598515.3078912076,4095055.530340397],[598513.1999163672,4095054.186300936]]],[[[598621.0836980812,4095067.0],[598618.7763220394,4095064.944859842],[598616.9458440447,4095067.0],[598621.0836980812,4095067.0]]]]}},{"type":"Feature","properties":{"class":"service","widthMeters":3},"geometry":{"type":"Polygon","coordinates":[[[597956.3044295027,4094427.0],[597945.940821667,4094431.929083082],[597943.5770439176,4094427.0],[597941.9203221996,4094427.0],[597940.2496314098,4094427.0],[597939.703109174,4094427.0],[597900.3547901731,4094445.342385457],[597892.1426113476,4094427.0],[597888.8556604389,4094427.0],[597898.2390573147,4094447.958370007],[597898.265425672,4094448.0141592007],[597932.9982241753,4094517.750466037],[597933.0077871653,4094517.769332056],[597945.2819924162,4094541.5665308735],[597945.3473435375,4094541.680656771],[597968.9201434427,4094578.956241811],[597969.0036423447,4094579.0751171084],[597969.0982488454,4094579.185357813],[597969.2030756031,4094579.285929945],[597969.317139417,4094579.37589021],[597969.4393704496,4094579.454394844],[597969.5686222607,4094579.520707529],[597969.7036825599,4094579.5742063],[597969.8432845774,4094579.614389376],[597969.9861189455,4094579.640879868],[597970.1308459793,4094579.6534293145],[597970.2761082418,4094579.6519200103],[597974.2126594114,4094579.4200567096],[597974.351166987,4094579.405421209],[597974.487720009,4094579.3780019],[597974.6211411755,4094579.33803518],[597974.7502801854,4094579.285865625],[598004.1488021475,4094565.7897233446],[598012.8444853404,4094585.7633296624],[597999.8052452907,4094592.263120972],[597999.7184684235,4094592.3100006264],[597995.5502602422,4094594.7421326316],[597989.6454442046,4094595.948303055],[597978.411693091,4094596.3120898707],[597978.2814580584,4094596.3219967387],[597978.152578556,4094596.343195408],[597971.8805824955,4094597.657586181],[597972.4959108016,4094600.5938033178],[597978.6397077022,4094599.3062786],[597989.8696236666,4094598.9426159794],[597989.9960763191,4094598.9331582985],[597990.1212783104,4094598.91305401],[597990.5866896927,4094598.8179849274],[597987.4301599325,4094600.954227069],[597987.3559316144,4094601.0078369686],[597983.0814156391,4094604.298105633],[597982.9576105794,4094604.4046236877],[597982.8461199416,4094604.5239703525],[597982.7482654488,4094604.654730771],[597979.9224012692,4094608.8937654602],[597982.4185953499,4094610.557801251],[597985.1072831653,4094606.524542682],[597989.149529652,4094603.4130612826],[597993.3186911542,4094600.59150116],[597993.469965091,4094600.4743930805],[597996.9749764256,4094597.3841733322],[598001.1877782089,4094594.926021147],[598015.457493034,4094587.8128636274],[598015.5897766992,4094587.7383367484],[598015.7138485973,4094587.650818819],[598015.8284375026,4094587.551206538],[598015.9323693515,4094587.4405205203],[598016.024579271,4094587.319894841],[598016.1041224895,4094587.1905654157],[598016.1701840169,4094587.053857338],[598016.222086995,4094586.911171303],[598016.2592996322,4094586.7639692533],[598016.2814406524,4094586.6137594036],[598016.2882832015,4094586.462080785],[598016.2797571715,4094586.3104874785],[598016.2559499191,4094586.16053269],[598016.2171053705,4094586.0137528386],[598016.163621522,4094585.871651812],[598006.8548326988,4094564.489768512],[598051.9436166204,4094541.7758326],[598052.0687936503,4094541.705055261],[598052.1866180237,4094541.6226165714],[598052.2960068707,4094541.529274187],[598052.3959548485,4094541.425885976],[598052.4855433808,4094541.3134021307],[598052.5639491007,4094541.1928564394],[598052.6304514167,4094541.0653567826],[598055.0678576687,4094535.789979243],[598055.1229076198,4094535.6536543025],[598055.1643475079,4094535.5125950165],[598055.1917792341,4094535.3681564936],[598055.2049392711,4094535.221726306],[598055.203701195,4094535.074711158],[598055.1880768995,4094534.928523375],[598055.1582164818,4094534.7845673333],[598055.1144068011,4094534.6442259694],[598055.0570687219,4094534.5088474955],[598039.7054121309,4094502.700816902],[598042.5439759347,4094490.906643227],[598042.5722894422,4094490.755177629],[598042.5849146205,4094490.6016065152],[598042.5817182406,4094490.4475504695],[598042.5627340329,4094490.2946351925],[598042.5281623311,4094490.1444743467],[598042.4783679587,4094489.998652529],[598035.8092222123,4094473.3228167924],[598035.7491337478,4094473.191329617],[598035.6766666408,4094473.066237574],[598035.5924940142,4094472.9487026017],[598035.4973977195,4094472.839816443],[598035.3922610746,4094472.7405905053],[598035.2780606587,4094472.6519464655],[598035.1558572414,4094472.5747077083],[598035.0267859296,4094472.5095916786],[598034.8920456237,4094472.4572032182],[598034.7528878817,4094472.4180289456],[598034.6106052933,4094472.3924327376],[598034.4665194743,4094472.380652349],[598034.3219687897,4094472.3827972035],[598034.1782959227,4094472.398847379],[598034.036835403,4094472.42865379],[598033.8989012098,4094472.4719395754],[598033.7657745683,4094472.528302667],[597978.2524541463,4094499.255671094],[597961.3233596856,4094466.677623014],[597947.1956733692,4094434.6542872773],[597963.2891394937,4094427.0],[597956.3044295027,4094427.0]],[[597973.7548445581,4094576.441822726],[597970.9828419982,4094576.6050939844],[597947.9180579745,4094540.1328326594],[597936.3800198209,4094517.762912791],[597943.984261532,4094514.0915465388],[597951.4966455711,4094528.517741386],[597951.5487107396,4094528.6096681627],[597970.9069224502,4094560.144610757],[597970.9896184709,4094560.2656347696],[597971.0837319279,4094560.3780095913],[597971.1883641238,4094560.480662146],[597971.3025159166,4094560.5726121957],[597971.4250972612,4094560.6529817013],[597971.5549376177,4094560.721003207],[597971.6907971294,4094560.77602717],[597971.831378462,4094560.817528162],[597971.9753391925,4094560.845109886],[597972.1213046275,4094560.8585089617],[597972.2678809303,4094560.857597441],[597972.4136684313,4094560.842384027],[597972.5572749933,4094560.813013994],[597972.6973293045,4094560.7697678],[597972.8324939747,4094560.713058406],[597984.9503645803,4094554.917172694],[597985.0791202552,4094554.847679869],[597985.200493049,4094554.7659735563],[597985.3133281787,4094554.672831138],[597985.4165520921,4094554.569138803],[597985.5091826811,4094554.4558831165],[597985.5903386265,4094554.334141632],[597985.6592477825,4094554.2050726395],[597985.7152545237,4094554.0699041463],[597985.7578259824,4094553.9299221924],[597985.7865571193,4094553.786458614],[597985.8011745765,4094553.640878373],[597985.8015392782,4094553.4945665705],[597985.7876477547,4094553.3489152673],[597985.7596321746,4094553.20531024],[597985.717759088,4094553.0651177964],[597985.6624268898,4094552.929671776],[597977.5392637514,4094535.5224929354],[597988.6448516516,4094530.0856365515],[598002.9523722079,4094563.0379520175],[597973.7548445581,4094576.441822726]],[[597962.6295427403,4094503.588357014],[597948.80469918,4094473.968067638],[597959.2916852054,4094469.2739959303],[597976.2389532983,4094501.887017025],[597987.4422239641,4094527.3341822033],[597976.270135825,4094532.8035944724],[597962.6295427403,4094503.588357014]],[[597947.5359087969,4094471.2491698493],[597935.0023238484,4094444.386163217],[597934.9338106985,4094444.2563134176],[597934.8529315785,4094444.1337834615],[597934.7604613113,4094444.0197471874],[597934.657285763,4094443.915297064],[597934.5443933562,4094443.821433724],[597934.4228656014,4094443.739056379],[597934.2938667357,4094443.6689542052],[597934.1586325694,4094443.611798782],[597934.0184586472,4094443.568137659],[597933.8746878366,4094443.53838911],[597933.7286974635,4094443.522838127],[597933.581886117,4094443.5216336874],[597933.4356602513,4094443.534787331],[597933.2914207117,4094443.5621730443],[597933.1505493142,4094443.6035284735],[597933.0143956082,4094443.658457432],[597913.7135090875,4094452.566869781],[597913.5791868033,4094452.6373124453],[597913.45266491,4094452.7209596536],[597913.3352370036,4094452.816956173],[597913.2281037007,4094452.924320508],[597913.1323603629,4094453.0419549337],[597913.0489858974,4094453.1686567236],[597912.978832749,4094453.303130441],[597912.9226181832,4094453.4440011885],[597912.8809169541,4094453.5898286635],[597912.8541554268,4094453.7391218836],[597912.8426072191,4094453.8903544326],[597912.846390403,4094454.0419800654],[597912.8654662981,4094454.192448518],[597912.899639867,4094454.3402213575],[597912.9485617095,4094454.483787712],[597913.0117316346,4094454.621679719],[597942.5979321038,4094511.4295213423],[597935.0230255278,4094515.086724444],[597901.6370633728,4094448.0545876394],[597941.4473100079,4094429.4968726607],[597943.8720432996,4094434.553063688],[597957.9957019645,4094466.5672699157],[597947.5359087969,4094471.2491698493]],[[597974.1981670819,4094535.457088732],[597982.3155557326,4094552.851893452],[597972.756836881,4094557.423756267],[597954.1330700173,4094527.0852401005],[597946.6921191561,4094512.796219942],[597960.5495954057,4094506.224762804],[597974.1981670819,4094535.457088732]],[[597945.4416159659,4094473.8557841573],[597959.2805772964,4094503.50632146],[597945.3054666055,4094510.1335629034],[597916.3992678855,4094454.631378341],[597932.9152889673,4094447.008333358],[597945.4416159659,4094473.8557841573]],[[598039.5154817344,4094490.6691051307],[598036.6633846776,4094502.51950919],[598036.6360447492,4094502.663850168],[598036.6229554892,4094502.8101733066],[598036.6242424484,4094502.9570750883],[598036.6398932826,4094503.103146444],[598036.6697578701,4094503.246986272],[598036.7135497531,4094503.387214873],[598036.7708488834,4094503.522487188],[598052.0473530353,4094535.1748048747],[598050.1265744198,4094539.3320241966],[598005.6568362196,4094561.734109497],[597990.7713544003,4094527.450664588],[597990.7682935391,4094527.443663837],[597979.5493383786,4094501.960872819],[598033.6201042393,4094475.9280347666],[598039.5154817344,4094490.6691051307]]]}},{"type":"Feature","properties":{"class":"tertiary","widthMeters":8},"geometry":{"type":"Polygon","coordinates":[[[597967.2742470129,4094590.2526492206],[597961.8967572298,4094586.2462066864],[597957.2105064808,4094580.1313323355],[597949.0719320897,4094566.0832395535],[597921.2260046133,4094515.5103302677],[597895.3015960056,4094464.999593585],[597876.9693033943,4094427.0],[597870.2375799264,4094427.0],[597868.0869884526,4094427.0],[597861.3668503399,4094427.0],[597868.2322735164,4094441.3300833274],[597868.2513818973,4094441.3694147486],[597882.8786318518,4094471.063140554],[597882.9134303657,4094471.1320950007],[597904.5294893725,4094512.956170513],[597904.5635233505,4094513.020576847],[597937.0744735843,4094573.2114296076],[597937.1168440873,4094573.287865544],[597945.5386673055,4094588.096875334],[597950.6948303244,4094597.45115233],[597951.5331781341,4094606.3521332648],[597950.6251180922,4094610.477336826],[597950.5601038248,4094610.8605215177],[597950.5325847303,4094611.248207038],[597950.5428206186,4094611.6367332144],[597950.7587703137,4094614.512929349],[597950.8152668559,4094614.946386473],[597950.918723856,4094615.371090589],[597951.7502385112,4094618.1212594016],[597951.8957538027,4094618.523508856],[597952.083392125,4094618.9079190325],[597953.487130974,4094621.43170133],[597953.7212126828,4094621.803010876],[597953.994568965,4094622.146436804],[597955.9099066816,4094624.298892179],[597956.211590613,4094624.6033772784],[597956.5441235178,4094624.873832889],[597958.8829686946,4094626.5762755717],[597959.2444697458,4094626.810709916],[597959.6290892009,4094627.004901436],[597962.2767822401,4094628.167243061],[597962.6012130848,4094628.2931361897],[597962.9353584712,4094628.3903540554],[597964.6038655625,4094628.7979846587],[597965.0959945727,4094628.886053715],[597966.8114334472,4094629.0834153965],[597967.170556305,4094629.108426367],[597967.5304734356,4094629.101048381],[597970.5499009158,4094628.9029605803],[597970.9878144237,4094628.8498556833],[597971.4172175082,4094628.7488538935],[597972.885042315,4094628.316930377],[597980.262081961,4094631.694342601],[597989.5113064022,4094637.3248690628],[598010.8914524512,4094662.3335512923],[598010.9962565235,4094662.451359543],[598015.2192554079,4094667.013993688],[598017.033377464,4094669.040827297],[598017.0373938064,4094669.0453077825],[598037.3895330782,4094691.7150841868],[598081.2731510488,4094744.5037475945],[598085.0137605697,4094749.2682616166],[598112.6801443299,4094786.965410029],[598129.7986565141,4094814.3118303553],[598130.0512075337,4094814.6700231005],[598134.7600851653,4094820.62672294],[598151.0495931531,4094844.9509526957],[598151.0910465843,4094845.011639465],[598155.333349968,4094851.1013847743],[598171.6679853917,4094875.094824336],[598171.7275121722,4094875.1798678534],[598177.5485337942,4094883.270589409],[598184.0460287577,4094893.1203295],[598184.2521733495,4094893.4048116244],[598199.9371851743,4094913.162327006],[598215.1221813345,4094936.6862743367],[598215.2199269376,4094936.830688674],[598219.353050243,4094942.6593029606],[598219.4418924592,4094942.7797493776],[598235.5911096598,4094963.8374217167],[598235.6456190613,4094963.906897135],[598256.1305255943,4094989.4308549208],[598256.3344537478,4094989.665633884],[598256.5560046339,4094989.883860963],[598261.2675685821,4094994.176948632],[598261.5033221863,4094994.375684722],[598273.0809988051,4095003.395605847],[598260.1243621514,4095018.7221706244],[598241.4186844957,4095035.8506928827],[598221.5391303428,4095049.5730911386],[598209.0388116302,4095055.8997521442],[598203.3788352198,4095058.3966023843],[598189.0947883886,4095063.139832963],[598188.6430839949,4095063.321026368],[598188.2167286269,4095063.5557368486],[598182.7728183839,4095067.0],[598190.7713415673,4095067.0],[598202.8552610527,4095067.0],[598204.8184705445,4095067.0],[598206.7835933197,4095065.6384642823],[598212.3648500028,4095063.1763405777],[598212.5567028966,4095063.0855514403],[598225.3941580212,4095056.5882589617],[598225.8601703058,4095056.31122379],[598246.1895725825,4095042.278305738],[598246.618579494,4095041.936469099],[598265.7154557882,4095024.4497318263],[598266.0688538357,4095024.0820497265],[598281.8780977371,4095005.3811007678],[598278.8233740369,4095002.798725289],[598281.2816933664,4094999.643306763],[598266.5416704344,4094988.1596690174],[598262.1745394627,4094984.1804221408],[598241.9123611822,4094958.933981194],[598225.8355631956,4094937.970739444],[598221.7961812642,4094932.274321143],[598206.5523382615,4094908.6592107983],[598206.3245015224,4094908.3414872643],[598190.627123102,4094888.568394387],[598184.1817999731,4094878.7977430853],[598184.089797977,4094878.6642419053],[598178.2517374661,4094870.5498377536],[598161.9342249985,4094846.581549571],[598161.9098577186,4094846.54616719],[598157.6762811716,4094840.4689490884],[598141.3194317771,4094816.0441620992],[598141.1338006547,4094815.789301861],[598136.4631831794,4094809.8810008727],[598119.3827509223,4094782.595412334],[598119.2169931594,4094782.351147101],[598091.4248028346,4094744.4825795116],[598091.3462880953,4094744.3791603427],[598087.5310556195,4094739.5195970745],[598087.4607875852,4094739.4326254195],[598043.4927898084,4094686.5424595056],[598043.3933241338,4094686.427335916],[598022.9923669721,4094663.7031823955],[598021.1579962175,4094661.6537258634],[598021.1130740438,4094661.604371202],[598016.920971455,4094657.075118192],[597995.546862607,4094632.0734977685],[597990.9389232105,4094621.884415572],[597990.8045329627,4094621.6147843595],[597990.6502305532,4094621.3560325555],[597985.1472039759,4094612.8714921563],[597985.1703875978,4094609.7555437717],[597985.1535105612,4094609.357526104],[597985.0971263003,4094608.963161154],[597985.001794087,4094608.576360602],[597983.9562809996,4094605.091420126],[597983.8356387004,4094604.747172647],[597983.6841374725,4094604.415346986],[597983.5030372466,4094604.098702707],[597981.5538548513,4094601.024935817],[597981.3430370563,4094600.7239985587],[597981.1054942625,4094600.443675892],[597980.8432308466,4094600.1863331697],[597978.1300674946,4094597.758358539],[597977.8490512078,4094597.5289550945],[597977.548407267,4094597.325954319],[597977.2306083954,4094597.1510258447],[597973.9562155692,4094595.537619235],[597973.6157673876,4094595.389094083],[597973.2630099903,4094595.2727888646],[597972.8598413841,4094595.160325479],[597967.5301137649,4094590.4601999433],[597967.2742470129,4094590.2526492206]],[[597981.6390214638,4094622.1641741865],[597982.8955181285,4094624.101434813],[597980.8448843407,4094623.162598104],[597981.6390214638,4094622.1641741865]],[[597958.5223663542,4094595.4678769237],[597958.4219592854,4094595.0706887664],[597958.2814519377,4094594.6858541304],[597958.1023182336,4094594.3174099317],[597957.2399820953,4094592.7529653884],[597961.3909572865,4094595.8456060505],[597960.6252397802,4094596.081233823],[597960.2965883646,4094596.1982850786],[597959.9793862918,4094596.343528303],[597959.6760465327,4094596.5158586246],[597959.3888766072,4094596.713965119],[597958.7092163137,4094597.2279803655],[597958.5816198741,4094595.873252098],[597958.5223663542,4094595.4678769237]],[[597970.7545446499,4094602.878475139],[597973.2033603971,4094604.0850913646],[597975.094899152,4094605.7778048185],[597976.4519633995,4094607.917829868],[597977.1661278373,4094610.2983075352],[597977.1434594584,4094613.3450057227],[597976.1246741061,4094616.2455021446],[597974.2041708996,4094618.6600427562],[597971.5145780446,4094620.3810361684],[597969.5839965678,4094620.949130901],[597967.3670797216,4094621.0945704537],[597966.2591867192,4094620.9671070804],[597965.1730079815,4094620.701744292],[597963.2411161737,4094619.8536405917],[597961.6001918557,4094618.65921369],[597960.264137032,4094617.157756082],[597959.2835446188,4094615.394748828],[597958.7034408908,4094613.4761017296],[597958.5643448759,4094611.623506289],[597959.3248682386,4094608.1685434678],[597961.0760246562,4094605.4682414443],[597963.652082846,4094603.520013487],[597966.7538020936,4094602.5655476544],[597970.2572349785,4094602.7397512197],[597970.7545446499,4094602.878475139]]]}},{"type":"Feature","properties":{"class":"track","widthMeters":2.5},"geometry":{"type":"Polygon","coordinates":[[[597911.9483026342,4095047.405354808],[597921.4192505832,4095036.6825455795],[597931.5037000302,4095030.971106126],[597943.5261508867,4095029.0607885863],[597955.896264386,4095033.5096722287],[597969.061476243,4095044.399907052],[597989.8270659514,4095067.0],[597993.2221397748,4095067.0],[597970.8445378962,4095042.6454842114],[597970.7208242409,4095042.528043653],[597957.3214957151,4095031.444148027],[597957.235341268,4095031.3789416486],[597957.1438775889,4095031.321418993],[597957.0477880628,4095031.27200985],[597956.9477906375,4095031.2310833866],[597944.0701035982,4095026.599652056],[597943.949877526,4095026.56312447],[597943.8265916895,4095026.538851533],[597943.7014918532,4095026.527078516],[597943.575842112,4095026.5279243807],[597943.4509121169,4095026.5413805805],[597930.8881798647,4095028.5375465914],[597930.7787025778,4095028.5600005332],[597930.6716683182,4095028.592142767],[597930.5679326379,4095028.63371637],[597930.468324722,4095028.6843890348],[597920.00499569,4095034.610411131],[597919.8886428414,4095034.685096384],[597919.7812498859,4095034.772174657],[597919.6841306861,4095034.870580619],[597909.9540542145,4095045.8867697422],[597909.8787607296,4095045.9807811556],[597909.8128649059,4095046.0816027564],[597909.7569785623,4095046.1882984512],[597900.1037061919,4095067.0],[597902.8595480891,4095067.0],[597911.9483026342,4095047.405354808]]]}},{"type":"Feature","properties":{"class":"unclassified","widthMeters":4},"geometry":{"type":"MultiPolygon","coordinates":[[[[598293.1395306685,4095053.0720499624],[598292.99933759,4095055.067130387],[598291.0151352338,4095054.816249918],[598289.4746346275,4095067.0],[598293.5064814674,4095067.0],[598294.7462386983,4095057.1948157633],[598315.1955614497,4095058.6317771384],[598334.3138508694,4095063.3196802726],[598335.2664516526,4095059.434766921],[598315.9823545532,4095054.7062068894],[598315.8154218465,4095054.672735521],[598315.6462472401,4095054.6535831406],[598293.1395306685,4095053.0720499624]]],[[[598234.046319494,4095067.0],[598239.7351072484,4095065.093885745],[598254.3422382826,4095062.3697951795],[598258.5530260913,4095066.6869879686],[598258.5608353602,4095067.0],[598262.5620800501,4095067.0],[598262.5322051115,4095065.802549216],[598262.5188154164,4095065.616102983],[598262.4880773791,4095065.4317211644],[598262.4402595076,4095065.251014405],[598262.3757795088,4095065.075561244],[598262.2952006395,4095064.906894331],[598262.1992267859,4095064.746487033],[598262.0886963151,4095064.5957405674],[598261.9645747518,4095064.4559717607],[598256.4588616497,4095058.811131417],[598255.0271141607,4095060.2075909143],[598254.6604547178,4095058.2414879533],[598238.8649871696,4095061.1871919404],[598238.5962361653,4095061.2569158347],[598221.456032326,4095067.0],[598234.046319494,4095067.0]]]]}}]}
