{"type":"FeatureCollection","name":"carboneras-coast-roads","crs":{"type":"name","properties":{"name":"EPSG:25830"}},"source":"\u00a9 OpenStreetMap contributors, ODbL 1.0","features":[{"type":"Feature","properties":{"class":"residential","widthMeters":5},"geometry":{"type":"MultiPolygon","coordinates":[[[[597710.5502673,4094027.3869252317],[597709.161313072,4094022.5837173294],[597631.51899328,4094035.2635503467],[597631.5836114626,4094040.263132778],[597710.5502673,4094027.3869252317]]],[[[596969.3346930058,4094060.8910516077],[596992.844868624,4094078.891775394],[596920.8681693374,4094163.875694984],[596907.2552826365,4094169.715742592],[596909.2265766968,4094174.3107398422],[596924.0971242661,4094167.760882662],[596988.9140425043,4094093.977426114],[597056.2667206574,4093975.4864709214],[597055.5940961152,4093952.032191158],[597027.5596137625,4093930.131811189],[596986.7953968846,4093930.462562694],[596932.4591845884,4093999.8447902882],[596920.2883021992,4093989.537601693],[596917.0569927564,4093993.353180192],[596969.3346930058,4094060.8910516077]],[[597051.2269220657,4093954.7462963285],[597051.5127152345,4093973.76886565],[596995.4351250217,4094074.6149960994],[596965.0947156246,4094048.1938503585],[596935.9007796384,4094003.562399061],[596989.5402428947,4093934.767190716],[597018.127682244,4093931.7680676742],[597051.2269220657,4093954.7462963285]]],[[[597738.3358053305,4094233.612322081],[597729.583555294,4094245.580011095],[597780.6152580999,4094360.502004108],[597671.5218245242,4094403.2465270176],[597681.6268143305,4094434.134931111],[597686.2865786662,4094432.3220338896],[597676.2984664056,4094406.657101737],[597767.3184638451,4094371.8568890607],[597789.6676979163,4094423.231256253],[597851.4623507749,4094397.683289508],[597849.4485221313,4094393.106774],[597818.0173191016,4094406.9376147017],[597797.2712924209,4094358.936927333],[597825.532563313,4094349.549528666],[597825.8693712408,4094344.5608855216],[597785.206341609,4094358.520497133],[597734.495975131,4094244.328564187],[597778.0764336162,4094223.3183053206],[597776.2836536427,4094218.6507642153],[597742.8970375365,4094231.474402056],[597719.1232247027,4094158.8487777733],[597753.2987360641,4094150.8730152017],[597752.1623884725,4094146.003855711],[597627.4459566254,4094176.641720822],[597628.6623417082,4094181.491505078],[597714.2474198239,4094160.025722926],[597738.3358053305,4094233.612322081]],[[597792.6604819242,4094360.871679568],[597813.4091445477,4094408.878465795],[597791.7635196713,4094417.5996800177],[597771.932542101,4094369.930669943],[597792.6604819242,4094360.871679568]]],[[[597583.491217586,4094554.886582259],[597593.5811697147,4094522.142743411],[597588.583661034,4094521.9849239388],[597566.1017439482,4094580.3831601036],[597514.6104381309,4094602.074000594],[597501.5115177879,4094613.546781582],[597494.0323278288,4094629.686742496],[597496.7284115,4094644.1126552224],[597535.8912480739,4094664.9632897205],[597556.5532407131,4094686.3499173457],[597585.4049505629,4094781.158183781],[597630.7154099738,4094871.2584416815],[597653.8115212201,4094882.6902798205],[597692.256704403,4094869.5256340965],[597745.1760977872,4094902.4040091834],[597801.7599961153,4094951.979315272],[597840.4250973904,4094967.1296234266],[597767.7108173236,4094967.3477497525],[597701.7185652036,4094948.4387269015],[597673.6443138344,4094948.696453293],[597673.6922955629,4094953.6962230625],[597701.1594758127,4094953.432626367],[597767.286865953,4094972.3402977195],[597986.4892186695,4094977.987631953],[597994.6899769919,4094972.8197061177],[598048.0679304643,4094992.569911548],[598087.7840595723,4095052.576485695],[598046.4099873564,4095063.3937026863],[597995.1838182423,4095020.4506749767],[597991.8068312481,4095024.1379448124],[598044.6069603473,4095068.079578489],[598091.1372747665,4095056.7516321526],[598110.8957765688,4095078.547608533],[598053.672699664,4095096.0417766348],[598035.2246230334,4095093.199696528],[598038.9312798606,4095108.385099504],[597978.725728577,4095096.3962340136],[597920.6782217027,4095073.0237329197],[597918.8106999433,4095077.6618750566],[597977.3756701249,4095101.213996748],[598039.8859292906,4095113.6631906875],[598054.4381681156,4095138.6811709004],[598067.4331024741,4095186.8670928376],[598065.9864509127,4095221.2355182455],[598046.7111923809,4095235.550822939],[598029.590365561,4095234.2321004258],[598014.7670251281,4095176.9332515905],[598002.4292994913,4095157.6723283986],[597966.2147736644,4095154.61156621],[597916.2194472553,4095127.9450983475],[597914.0628076923,4095132.4560744944],[597964.9562112538,4095159.479378074],[597990.5328172737,4095157.777114204],[598003.8853414516,4095165.99758784],[598021.5730610075,4095233.4834442954],[598032.9484783997,4095241.017351586],[598023.443108249,4095250.5608645338],[598006.1424274119,4095255.147291147],[597998.4516679175,4095249.487343985],[597983.0208948149,4095188.8229721184],[597966.9739089916,4095182.2393567613],[597937.240689606,4095181.517053712],[597936.2072839102,4095186.409095481],[597979.6149196638,4095192.525633668],[597997.8241212956,4095257.1737177796],[598025.3875005806,4095255.2025163653],[598037.9619787243,4095241.8842465766],[598055.1066282036,4095236.634364208],[598108.6260058633,4095262.2338847397],[598129.616053972,4095286.6514761294],[598133.4076769435,4095283.392090414],[598111.7064358976,4095258.2276659184],[598059.2057365398,4095233.6999606383],[598070.2776790835,4095223.9104320183],[598074.9693789373,4095201.171130449],[598063.7937046711,4095152.751543454],[598191.2277759708,4095147.83397674],[598201.056001529,4095122.832202051],[598114.226559632,4095118.2941338113],[598087.0836950027,4095110.51996687],[598087.408613558,4095098.0926958863],[598181.54317694,4095102.270525713],[598180.8557637453,4095097.3180048293],[598086.8311658897,4095091.78492773],[598133.5058844618,4095079.382497991],[598183.5965492402,4095083.7246366697],[598185.3343845713,4095079.036361042],[598161.3044796974,4095072.9710863368],[598116.2714372163,4095077.034278165],[598053.9143313128,4094994.4750542236],[598083.1219569033,4095002.8562499783],[598095.9997624969,4094999.029126627],[598210.1549873577,4094870.9166621137],[598206.5566152482,4094867.445103651],[598140.8582526162,4094940.532794989],[598129.4638512919,4094924.975540047],[598135.7806630046,4094919.729382447],[598132.2773188625,4094912.641053913],[598142.6642183178,4094905.463928689],[598140.005649624,4094898.5624626074],[598176.3372313364,4094874.9397034496],[598173.611703109,4094870.747866635],[598137.4245763047,4094894.276701352],[598128.9380021876,4094883.478567798],[598103.4666327231,4094898.4191036657],[598106.0234481767,4094902.7159274616],[598128.4795156817,4094889.3534943834],[598137.0985292683,4094903.50670403],[598126.808685965,4094910.4663396953],[598129.9971901589,4094918.4467404704],[598123.4549067557,4094924.5101837656],[598137.4888016506,4094944.3942549536],[598115.016218101,4094970.0723163704],[598081.5837638816,4094917.3870066],[598077.3620278232,4094920.0659886184],[598111.5769301442,4094973.9843374095],[598088.5884117052,4094997.1876182794],[598009.507549164,4094973.9712332655],[598058.9377875198,4094933.0540846977],[598055.8816861811,4094929.0967820045],[598004.8743424186,4094972.090427223],[597981.2624254661,4094954.5431961054],[598031.614675784,4094909.570584509],[598037.4849935349,4094910.484500326],[598077.8006125893,4094878.244556102],[598099.7401610462,4094912.5113273757],[598103.95102617,4094909.8152904864],[598081.4140572092,4094874.6154247234],[598095.9015531391,4094853.365311199],[598139.5075203221,4094820.261101299],[598136.4842072673,4094816.2786927093],[598092.5776778002,4094849.611079567],[598078.5868065383,4094869.80856635],[598036.8566584889,4094796.458137395],[598027.6157832727,4094791.1098109293],[598004.2433163001,4094801.918416195],[598011.0575205071,4094820.722348003],[598001.0237404528,4094829.5304943626],[598003.7400613743,4094844.488218055],[597975.7819416712,4094853.919192596],[597955.6332956442,4094784.5551997297],[598085.445436909,4094744.253559911],[598083.3242435755,4094739.7258078377],[598050.0089063392,4094750.481931883],[598018.0551000697,4094704.460164305],[598041.6364314518,4094691.2818567757],[598039.197253479,4094686.9171791454],[597941.4396589223,4094730.4610506496],[597925.280367391,4094743.456596324],[597935.1283984035,4094759.561024804],[597909.24145039,4094779.420113811],[597881.3723790247,4094764.827159203],[597836.4920017567,4094764.110618937],[597827.8661521713,4094775.6389982975],[597830.1182249908,4094802.8380536865],[597800.0828495534,4094823.6105926395],[597786.3438826114,4094855.438253656],[597724.3655355776,4094852.9197345525],[597666.8649016957,4094876.342440757],[597642.3086995123,4094873.511425688],[597619.3686272298,4094841.1083459374],[597590.0414409541,4094779.279940752],[597560.8929667182,4094683.790580956],[597538.7857932851,4094660.8571391725],[597501.2251396581,4094641.6379787694],[597499.1168014321,4094630.3245821744],[597517.1783579328,4094606.399593856],[597568.5873230664,4094584.72587314],[597676.4960006505,4094601.4482979937],[597763.8806221829,4094601.2790470873],[597803.9588530394,4094578.608303052],[597861.4993510838,4094617.6382954703],[597960.9243922839,4094627.901733945],[597939.900166785,4094647.8048849283],[597943.5821998881,4094686.133721458],[597977.383497123,4094686.0520195654],[598015.639550669,4094661.5601450955],[598012.2241140521,4094657.90846155],[597976.0477916595,4094681.212897604],[597945.7603639367,4094681.3254496907],[597944.5685947568,4094649.821660202],[597969.0331744176,4094626.8806008794],[597945.5202494332,4094623.479365254],[597956.2935858858,4094613.1107721217],[597952.7696011954,4094609.563726604],[597939.619902775,4094621.844283314],[597863.1362534646,4094612.9051072826],[597810.3300119035,4094577.4482112164],[597842.1101032313,4094572.494667903],[597841.1139370195,4094567.594907411],[597804.1284845367,4094572.948478054],[597691.803099283,4094570.884873543],[597583.491217586,4094554.886582259]],[[598004.105530987,4094926.185189576],[597977.7798595242,4094950.954643344],[597961.8858953655,4094932.3504547924],[597990.2688777656,4094907.284152161],[598004.105530987,4094926.185189576]],[[597992.8986231573,4094902.411799872],[597977.5172123009,4094858.6106505375],[598005.1248349492,4094849.2979074386],[598011.6119339335,4094880.299302896],[598027.8041076239,4094906.2380517162],[598007.8720229197,4094922.865646956],[597992.8986231573,4094902.411799872]],[[597953.9656406294,4094779.837633467],[597931.110330032,4094744.563019354],[597942.4015073961,4094736.0057821767],[597969.9199711044,4094774.874491554],[597953.9656406294,4094779.837633467]],[[597989.313628418,4094768.849358839],[597974.9409912295,4094773.313384331],[597946.5248860205,4094733.1767928875],[597959.2155885055,4094725.2996251825],[597989.313628418,4094768.849358839]],[[598006.7786576806,4094763.4160693446],[597994.3168327042,4094767.294319051],[597963.5786567325,4094722.8183538206],[597974.7029573262,4094716.9581511673],[598006.7786576806,4094763.4160693446]],[[597980.0610191736,4094715.918374601],[597993.8959117612,4094713.4776138403],[598025.1414870286,4094757.7039817846],[598011.780157567,4094761.8598542837],[597980.0610191736,4094715.918374601]],[[598030.1840829314,4094756.1762160743],[597998.8765165494,4094711.862103167],[598013.469830776,4094706.623095285],[598044.9310186529,4094751.9353646277],[598030.1840829314,4094756.1762160743]],[[597691.629994294,4094575.884698618],[597797.135523197,4094577.2669928554],[597763.0783629181,4094596.314664082],[597703.5604834276,4094598.13642618],[597571.7332448894,4094580.153941376],[597581.374014468,4094559.6240647906],[597691.629994294,4094575.884698618]],[[597778.1718998314,4094881.334386064],[597801.7726616999,4094918.4244801775],[597835.3481846976,4094934.5271165473],[597881.3311969546,4094927.170952766],[597933.0367045846,4094906.7582940445],[597990.4431025482,4094969.6715130107],[597846.8750201762,4094966.887808199],[597804.3861232483,4094947.705309315],[597748.1332865352,4094898.367069078],[597697.2806417911,4094867.1648833714],[597724.9835961752,4094857.889826217],[597776.0722190198,4094860.396022729],[597778.1718998314,4094881.334386064]],[[597781.1056177705,4094860.4817946698],[597807.2829283958,4094858.0389943523],[597814.6817803667,4094885.277401445],[597833.5103929096,4094899.285541904],[597918.178715684,4094888.437787116],[597929.7001419754,4094902.802015242],[597879.930740395,4094922.3703814056],[597836.3424132972,4094929.617679534],[597805.0598369995,4094914.640507941],[597787.2687700798,4094891.157191543],[597781.1056177705,4094860.4817946698]],[[597859.4585108696,4094836.2128354246],[597885.1745417074,4094853.170678893],[597914.8309711961,4094884.4079882214],[597847.0728968976,4094896.302706003],[597826.1144083907,4094889.1410368048],[597811.9801358936,4094856.1663818005],[597838.1233973461,4094836.8259016383],[597859.4585108696,4094836.2128354246]],[[597945.0625485935,4094912.5760029736],[597950.8277628375,4094868.4432020914],[597972.8037320274,4094860.279792411],[597987.7419937851,4094902.8450275967],[597958.6420300797,4094928.544529028],[597945.0625485935,4094912.5760029736]],[[597938.5663253769,4094814.060717474],[597913.0632079649,4094782.790078379],[597938.0176798189,4094763.646335463],[597950.2636317625,4094783.7174507403],[597971.0687721142,4094855.5904473565],[597950.531315009,4094863.2194931884],[597938.5663253769,4094814.060717474]],[[597916.9144930998,4094879.1307048067],[597912.9113226722,4094838.751729756],[597887.3578391487,4094807.0136340368],[597895.3168909588,4094777.200451769],[597933.9627727356,4094816.100778104],[597944.696365937,4094853.0188853387],[597941.6056333531,4094908.70234165],[597916.9144930998,4094879.1307048067]],[[597870.8891876512,4094835.7135800133],[597836.4988090516,4094832.063752771],[597808.1464507176,4094852.7275748253],[597791.4505620982,4094855.334914402],[597803.7971222624,4094826.9800925725],[597835.9614061229,4094800.1627589692],[597866.711779156,4094802.5498982333],[597900.0214531869,4094827.2445190717],[597908.3466986842,4094840.850262468],[597913.0454564064,4094874.7256994713],[597870.8891876512,4094835.7135800133]],[[597882.9161432078,4094804.2664023847],[597836.096044149,4094795.1523928302],[597832.891327262,4094776.1791998423],[597838.8146158209,4094768.577214313],[597890.7882412502,4094774.7789333533],[597882.9161432078,4094804.2664023847]],[[598054.1218075583,4094890.1800133497],[598008.9328844395,4094804.4114005724],[598028.3501767323,4094796.1497178837],[598075.1876059471,4094873.9457818577],[598054.1218075583,4094890.1800133497]],[[598032.7216332707,4094904.6701571643],[598016.2993426833,4094878.4417899908],[598005.9792166746,4094836.145077138],[598013.5620232649,4094825.062255422],[598050.1447609526,4094893.353448847],[598032.7216332707,4094904.6701571643]],[[598045.1079935677,4095101.011622269],[598047.9759165649,4095108.4578980384],[598050.6509502156,4095119.4223217242],[598043.8297856944,4095110.58967791],[598045.1079935677,4095101.011622269]],[[598081.8264135015,4095093.3521221783],[598080.6400687085,4095110.129135418],[598089.5288948375,4095117.194379405],[598192.151445426,4095128.3013437875],[598190.8945666049,4095141.463205586],[598062.4288244579,4095147.7943053925],[598054.1428979415,4095103.5695229387],[598081.8264135015,4095093.3521221783]]],[[[597966.6434851631,4095492.647047084],[597972.2458581794,4095537.5851756297],[597907.5410993899,4095527.9258909496],[597859.5633415128,4095540.7601226177],[597861.1817650101,4095545.4909476396],[597907.7400606716,4095532.9344814094],[597972.991572692,4095542.7295703744],[597975.764147544,4095562.3530614614],[597949.7707864167,4095558.3423151975],[597928.0155890096,4095545.6419599196],[597925.7332511087,4095550.0906601464],[597963.8300925641,4095568.1688260627],[598009.9173328902,4095558.9344907803],[598107.8393473896,4095556.727031624],[598112.8430561412,4095553.642295726],[598113.0843378572,4095536.8237589765],[598146.7727066148,4095545.6257411307],[598148.0366595797,4095540.788136051],[598114.4829601822,4095528.4362765835],[598180.088285447,4095495.1374939363],[598183.4873692488,4095486.644849631],[598164.666831303,4095428.021600516],[598160.7377129089,4095431.113853521],[598176.7321189448,4095491.238535972],[598111.0851244398,4095524.6152807],[598108.5458490023,4095531.5529216984],[597977.3606304986,4095538.000006836],[597971.6434183752,4095492.6212038184],[597966.6434851631,4095492.647047084]],[[597978.0792969536,4095542.9989815922],[598108.0839796009,4095536.845710438],[598107.963149718,4095551.298472951],[598009.4252640842,4095553.9475162635],[597980.7167062174,4095561.665809339],[597978.0792969536,4095542.9989815922]]],[[[597642.993900952,4095569.613795692],[597624.3378299498,4095574.07475451],[597603.5348871831,4095603.2055352842],[597585.7374073458,4095605.875993416],[597537.2164779947,4095584.535136379],[597473.5884647465,4095529.215071275],[597470.3078630108,4095532.9883526387],[597534.4197034799,4095588.7123772963],[597584.6054735011,4095610.8283636323],[597606.5591160399,4095607.6318738377],[597614.0468695671,4095590.786671258],[597641.2541323523,4095574.5013846015],[597699.849210813,4095609.377187385],[597760.057252074,4095622.605148162],[597762.6232049788,4095618.3137747585],[597701.5294690344,4095604.659532605],[597642.993900952,4095569.613795692]]],[[[597810.3128969048,4095962.5928547014],[597821.1064092867,4095979.8547840775],[597892.5232334451,4096016.2081463686],[597916.0783744307,4096042.2832754524],[597943.7417227875,4096091.998149985],[597976.9402637561,4096118.654263852],[597980.0648086041,4096114.750775733],[597947.6018605147,4096088.765827369],[597920.2791034395,4096039.53291786],[597895.5906219429,4096012.160863387],[597824.1059974945,4095975.693099347],[597805.4571830411,4095929.375295007],[597786.9194159715,4095806.4485119227],[597759.442303027,4095773.4950726614],[597756.0498666775,4095777.1681334577],[597782.0929422803,4095807.9847929454],[597793.1582470705,4095896.0704017947],[597810.3128969048,4095962.5928547014]]],[[[596344.4515518303,4096823.639666736],[596349.3667414633,4096829.617174574],[596361.8069051296,4096827.5957092973],[596374.662659095,4096817.0879863813],[596393.9101442258,4096751.9524845984],[596386.4943008075,4096742.2937670224],[596366.5851561283,4096734.1206049616],[596366.6858858985,4096725.2705822196],[596361.6862097343,4096725.2136765774],[596362.1306260293,4096737.3749752035],[596388.6631173717,4096752.11835439],[596370.3842660546,4096814.2914693994],[596360.2703540975,4096822.791006406],[596349.7733950694,4096823.3477862705],[596354.8198383742,4096789.8212214755],[596337.2752042798,4096753.8100212864],[596148.772166346,4096768.6232458367],[596149.1667235915,4096773.6076539843],[596335.7555442596,4096758.8376012584],[596349.8838641604,4096790.872206719],[596344.4515518303,4096823.639666736]]],[[[596158.0680286455,4096787.837832561],[596136.0754106395,4096785.4783671247],[596136.1040717558,4096790.4782849783],[596152.5565119447,4096790.3839743687],[596137.9086346887,4096869.200764571],[596120.6919652818,4096874.0777977095],[596100.0,4096864.1437676665],[596100.0,4096885.1521201218],[596106.1674279183,4096900.3998662704],[596144.7355962052,4096941.8618868003],[596175.7097111949,4096956.0634008893],[596212.3926123963,4096934.100020296],[596209.4462564941,4096930.0603437126],[596175.8879867333,4096950.882690535],[596147.7171379892,4096937.7437365297],[596110.4244720247,4096897.696411785],[596100.7188204166,4096870.035234158],[596120.8924829961,4096879.2038642243],[596272.0758676822,4096841.8336389163],[596275.2313195121,4096887.394704701],[596312.1706573326,4096937.907317185],[596346.4207904256,4096950.388404356],[596386.3328644714,4096948.682451089],[596406.7938949459,4096988.5992747606],[596403.9618631952,4096992.47012568],[596369.6864979919,4096979.657333057],[596353.391266286,4096982.299365975],[596312.2454556351,4097027.9310820294],[596274.2606808668,4097017.5485372846],[596222.8557495346,4097018.003070528],[596195.5046322754,4097030.695150588],[596181.4243646974,4097042.9364015106],[596171.3096043626,4097087.7945108972],[596178.5616070466,4097099.181413284],[596223.2600212209,4097117.4731394113],[596228.6250861309,4097122.9361361302],[596223.0731516954,4097139.527340267],[596175.8587480854,4097146.9633726045],[596141.202382729,4097144.843026613],[596134.3441791964,4097160.828385793],[596100.0,4097164.430630012],[596102.1425507604,4097172.0293429215],[596137.3568895336,4097165.238244168],[596143.6649444856,4097149.6286663823],[596189.8089980144,4097150.9455961534],[596227.025896887,4097143.144756268],[596233.2655545045,4097120.525413901],[596181.4500048831,4097094.975628829],[596176.3231368671,4097086.6097982405],[596185.8595638102,4097045.40065964],[596198.1326578311,4097034.9729711423],[596223.2641108028,4097023.1056762515],[596274.10006438,4097022.6435879064],[596313.149353501,4097033.014494207],[596355.7332309844,4096986.8245536946],[596368.8633694863,4096984.638201768],[596404.7108862166,4096997.9728285098],[596412.2011511677,4096989.1532015144],[596389.6784130442,4096944.6820109417],[596347.0520772918,4096945.3546142993],[596315.5939906453,4096934.14034198],[596279.8681248821,4096885.365174947],[596276.5014298412,4096839.0227454184],[596287.8567951878,4096812.656752678],[596283.2645870056,4096810.6789700785],[596272.0607577845,4096836.6931114895],[596204.3693777502,4096853.0660883556],[596211.4082206106,4096801.55819064],[596230.4441726285,4096799.713116958],[596229.9618044656,4096794.736439255],[596155.488362677,4096801.952800047],[596158.0680286455,4096787.837832561]],[[596154.5365648923,4096807.068793115],[596170.1994084797,4096805.5473001273],[596158.9872071701,4096864.044536884],[596143.2456219884,4096867.8472725945],[596154.5365648923,4096807.068793115]],[[596175.3868750911,4096805.0440882184],[596206.2940800153,4096802.053374614],[596199.1503878194,4096854.328524697],[596164.3256624806,4096862.7535740747],[596175.3868750911,4096805.0440882184]]],[[[596118.7639493285,4097539.634163774],[596138.0711636085,4097525.115764684],[596159.7752204819,4097525.392849782],[596166.6232362529,4097587.7071206803],[596177.8980716758,4097602.3166244724],[596214.9226083881,4097602.631753053],[596214.9519500525,4097597.6318391473],[596179.882541809,4097597.426036642],[596171.1286183737,4097585.400514573],[596163.2543393485,4097521.62200697],[596147.1111035828,4097517.198199161],[596118.882939764,4097534.432559366],[596100.0,4097525.4567622393],[596100.0,4097530.488367162],[596118.7639493285,4097539.634163774]]],[[[598168.7938818857,4094823.8527353103],[598152.5575015751,4094841.0066776075],[598156.1888206959,4094844.443757974],[598172.4252010065,4094827.289815677],[598168.7938818857,4094823.8527353103]]],[[[598128.4107328714,4094991.5308225243],[598159.7455194518,4095023.0677535282],[598146.5954503064,4095039.9956348375],[598150.2602261995,4095043.397019505],[598162.4635360154,4095030.0899247695],[598162.0342698618,4095017.115761354],[598227.3329664408,4094938.228398037],[598250.5935031128,4094918.35275889],[598247.3453875665,4094914.5514768166],[598223.677057447,4094934.795346415],[598158.6722543089,4095013.358292272],[598133.8707280313,4094992.906383785],[598234.6370614027,4094879.7157256007],[598230.9251215146,4094876.3658745196],[598128.4107328714,4094991.5308225243]]],[[[598186.0202286671,4095031.1777680633],[598208.8289248267,4095061.1159803094],[598212.6718680534,4095057.917263793],[598191.2222541164,4095032.147662719],[598240.7020328529,4094962.9839061294],[598236.8283092161,4094959.822535353],[598186.0202286671,4095031.1777680633]]],[[[598195.8845080705,4095118.106165523],[598261.0379713937,4095092.901278172],[598288.8314913337,4095103.943046085],[598276.5968455445,4095127.91483979],[598260.2696564114,4095116.718819979],[598206.854797859,4095122.325272661],[598207.3115658977,4095127.304365245],[598260.0922860536,4095121.8576735435],[598353.6829570923,4095169.077461357],[598339.7111217487,4095201.4719871115],[598322.6368939007,4095195.6777481055],[598329.4539271009,4095170.6343383645],[598324.6294734373,4095169.3210802604],[598279.9205088363,4095278.271993748],[598205.5548421496,4095390.46325233],[598203.9382728052,4095416.251781115],[598208.8223643554,4095415.181430831],[598209.7681108854,4095393.9780129683],[598261.1420749938,4095322.426271423],[598280.1735378789,4095335.1520442287],[598260.6654492815,4095375.5639828434],[598265.1682564579,4095377.737626681],[598284.5238322269,4095337.6416256856],[598296.3900250904,4095343.510155684],[598272.1910187997,4095395.082859875],[598272.7989550731,4095404.9394010166],[598277.7818114387,4095404.525707363],[598300.7979872515,4095345.8836573763],[598368.076377865,4095389.819447737],[598365.0821299303,4095379.9960494954],[598339.3412363179,4095363.6275129374],[598361.6716980557,4095320.968559179],[598376.6592316311,4095388.604100939],[598381.5885711594,4095387.766478223],[598373.7316343893,4095341.529063388],[598440.2376223778,4095330.9227842153],[598449.0172454589,4095377.3190976335],[598453.9300591208,4095376.389440748],[598445.1943557195,4095330.225222855],[598497.8211418721,4095323.7123723803],[598518.7801027728,4095429.0560904015],[598488.7469569033,4095436.530274744],[598471.2074370768,4095372.6984779276],[598466.3861355344,4095374.0232614717],[598483.900116182,4095437.762113231],[598422.9603797126,4095453.5616331412],[598405.1172027355,4095383.9659298826],[598400.2738520105,4095385.207684188],[598418.1203114584,4095454.816190428],[598391.5038335843,4095461.7132095494],[598373.3992840474,4095389.0066216527],[598368.5474416149,4095390.214771068],[598386.6635720085,4095462.967866865],[598362.2415572789,4095469.3005239703],[598342.7863903451,4095393.8459307905],[598337.9447401222,4095395.0942989727],[598357.4016335211,4095470.5555880456],[598331.9433776644,4095477.157640663],[598311.9306285401,4095398.7418162157],[598307.0859169132,4095399.978250304],[598327.1033702821,4095478.4125073617],[598301.9100531654,4095484.942871296],[598294.6049439242,4095454.567583422],[598266.1066409437,4095418.4400470397],[598267.856917925,4095406.729139664],[598262.9118429383,4095405.9900636356],[598248.6182178678,4095443.2024749652],[598201.2729136475,4095518.7546484154],[598232.587478597,4095559.399579346],[598266.3209838743,4095613.3424473703],[598265.7652942231,4095621.119763064],[598259.5073184123,4095628.922533754],[598209.9488722787,4095580.8549977364],[598165.7719406347,4095572.4622024004],[598159.9963030693,4095584.5243120585],[598176.4244099067,4095594.7237099037],[598178.6113126796,4095590.227327328],[598165.5294355275,4095583.864702943],[598167.7691077242,4095577.59990354],[598207.8744586661,4095585.4311610116],[598256.627497132,4095633.207054201],[598235.9920310129,4095674.584856709],[598204.2645356872,4095687.0270677493],[598191.3391595269,4095720.3030872303],[598207.9175916181,4095729.156101541],[598366.2636551062,4095707.0154865235],[598410.4809835391,4095765.505190619],[598463.4598783131,4095866.6104330514],[598484.3096401355,4095861.93270765],[598495.5274188379,4095913.9190000845],[598550.8326530186,4095921.043368408],[598627.2321556465,4095899.523315771],[598626.1581343446,4095894.640030172],[598604.864454013,4095899.3233250175],[598592.0957575026,4095831.326687309],[598653.1426232427,4095814.620258304],[598651.951892182,4095809.7641117307],[598623.211216243,4095816.811348677],[598610.1864308702,4095765.768268807],[598721.4946765046,4095739.049860928],[598731.8405945788,4095768.2817887585],[598660.4614786986,4095783.1584730106],[598660.1481069998,4095788.1486431663],[598733.7130869548,4095772.9729674263],[598746.4815019259,4095800.633234578],[598647.5796387113,4095826.823105749],[598648.85955667,4095831.6565113827],[598748.4749407574,4095805.277695139],[598759.4487447038,4095833.6430333387],[598637.687492073,4095863.5131948753],[598636.7701642129,4095868.428325555],[598761.0798660187,4095838.3852473036],[598779.8343264177,4095901.902285393],[598612.8578734295,4095939.69134572],[598613.9615313725,4095944.568018679],[598781.1928700573,4095906.7212742246],[598791.5394943423,4095945.443627006],[598600.4502021951,4095978.7320685894],[598601.3082972196,4095983.6578855705],[598792.6358375187,4095950.3279403024],[598803.4928398248,4096023.1387379025],[598543.1510731062,4096019.3186364146],[598540.3118399127,4096048.3732877397],[598448.8304419838,4096062.1056876904],[598387.5246006916,4096088.6321014464],[598351.3021139151,4096112.9630465684],[598241.6523106074,4096218.114962008],[598205.5926670311,4096260.705552204],[598185.8556179035,4096262.6898534847],[598124.54195963,4096243.2477530325],[598122.6305643095,4096247.8679876514],[598155.4936393272,4096261.4172638217],[598221.4852853428,4096271.779561672],[598245.579119436,4096221.2686703326],[598354.253641122,4096117.003642254],[598389.905336133,4096093.031847654],[598450.4180398348,4096066.849784395],[598486.68862903,4096058.561170552],[598529.662921765,4096052.9390391354],[598577.4997618343,4096059.8171443017],[598579.5008533194,4096055.235045125],[598572.8091155576,4096052.3126335973],[598582.9132597175,4096049.8040369814],[598581.2987599551,4096045.0718714604],[598545.3114284624,4096048.494950551],[598546.4030978826,4096024.2535701846],[598646.3676348072,4096026.4482719107],[598647.0866603692,4096070.0199128357],[598669.1489735356,4096138.4603201686],[598629.8106557316,4096151.0160307907],[598631.3309586173,4096155.7792942873],[598670.783770338,4096143.1870403513],[598700.7099055196,4096227.129497872],[598682.7953576349,4096246.6132482425],[598686.4760010993,4096249.997456228],[598802.9594291406,4096136.4650097517],[598806.3176541701,4096158.0821283],[598678.8610239951,4096293.4681576076],[598682.501561125,4096296.895472796],[598807.0776396303,4096164.5692015584],[598811.4926768026,4096205.1065851017],[598691.6198183834,4096328.9101709523],[598694.5006695129,4096332.9968195506],[598709.3447035458,4096322.521934942],[598729.304070988,4096299.1550244438],[598791.2404415485,4096413.503747245],[598795.1904738172,4096450.0128289647],[598761.2790669295,4096456.9359658426],[598762.2792056046,4096461.834917019],[598826.5525477903,4096449.404856674],[598836.5904027884,4096526.7711751056],[598822.3940811491,4096560.948373571],[598823.3081465802,4096585.491210855],[598831.8909397917,4096612.609451771],[598846.0066818106,4096627.2423770986],[598885.4165649898,4096626.486577897],[598888.4406433048,4096681.889169186],[598870.7756127563,4096685.820296354],[598811.5825895529,4096655.5343411798],[598794.1752891223,4096630.2325013625],[598782.3542428334,4096593.3150183912],[598772.0232384057,4096587.503325452],[598769.4247283019,4096591.775063417],[598778.193350143,4096596.6103782477],[598789.6439852637,4096632.351501891],[598808.1468937238,4096659.1889128853],[598869.2989428753,4096690.6086998344],[598888.7564032181,4096687.5511477985],[598886.9760626141,4096698.1357691595],[598891.7040749221,4096699.7623913083],[598896.4812152144,4096697.5527086123],[598889.9170772056,4096575.6811464727],[598911.0066123973,4096509.0483214417],[598936.5610908881,4096480.262692817],[598937.0566619252,4096471.789851485],[598924.8659145124,4096464.989614888],[598885.7390486151,4096480.9909308394],[598841.2896158115,4096523.9453302682],[598834.0046147953,4096462.6783464407],[598915.8862981884,4096431.3047568123],[598925.7372059096,4096416.213781749],[598923.473898574,4096406.360097336],[598985.6212116026,4096413.535941997],[598996.4686516486,4096424.040103127],[599009.3763585198,4096460.6513144956],[599043.73704505,4096477.4518122156],[599051.1210623573,4096487.7583894627],[599040.1987873185,4096491.183507217],[599014.0653603435,4096478.735872949],[599011.9152495903,4096483.2499646354],[599038.9040994105,4096496.057846228],[599053.2015066992,4096493.1527279257],[599076.8870500266,4096505.1401130306],[599128.5200006234,4096518.3377818656],[599129.7582193072,4096513.493526041],[599059.5168322494,4096494.942724199],[599053.9514208541,4096479.1097175805],[599013.3132611508,4096457.301437978],[598995.0814420703,4096412.86104162],[598921.3044828027,4096399.757016864],[598915.6138501654,4096391.251098568],[598983.9830971289,4096383.510383384],[598999.2261882877,4096387.7748052077],[599018.045370211,4096401.6595257916],[599025.4346903353,4096417.036425578],[599030.1787111028,4096415.4571007355],[599021.8357274913,4096398.3118053563],[599001.2302595595,4096383.1541602714],[598970.0088929803,4096378.542071237],[598912.1973340566,4096386.6840546886],[598871.2034720287,4096355.9989286344],[598900.6805334747,4096343.8193681175],[598898.7711632148,4096339.198296249],[598868.5260672029,4096351.695199236],[598855.2524841868,4096318.912694056],[598900.6171755188,4096301.5139175677],[598898.8266899302,4096296.8454958475],[598853.0984185932,4096314.3837166275],[598836.4449903618,4096282.288778737],[598889.8724669076,4096260.4590477287],[598887.9813039196,4096255.830494764],[598834.1014268862,4096277.8450703803],[598818.0550968042,4096247.137592291],[598885.9679404645,4096219.1016175384],[598884.0600107262,4096214.479950727],[598817.0288692951,4096242.151938638],[598805.0143612227,4096099.194352692],[598841.8155561854,4096094.6419225186],[598840.0871842721,4096089.950149876],[598805.2951164255,4096094.1551649515],[598808.863073192,4096025.5621744166],[598801.5411029618,4095972.305602475],[598833.277150419,4095964.104153305],[598832.0261155298,4095959.263191447],[598800.7484617163,4095967.3461793577],[598765.9698217522,4095837.28980967],[598815.1125979063,4095827.798364981],[598814.1644200804,4095822.8890922433],[598764.3701355392,4095832.50636938],[598753.4094063435,4095804.174827093],[598810.43612035,4095793.1481728526],[598809.4869048329,4095788.239100649],[598751.447645508,4095799.461540099],[598721.6523161959,4095722.3971944465],[598796.1787939089,4095710.2817545016],[598795.4037621144,4095705.3421871406],[598758.1313001493,4095711.190339615],[598747.7039749728,4095652.759658807],[598784.9033224727,4095642.742203758],[598783.6031832937,4095637.9141981537],[598747.0652728948,4095647.753534045],[598743.7590417672,4095610.7346141357],[598774.5893548098,4095603.2493060916],[598773.4096738067,4095598.3904633555],[598743.497476733,4095605.652861537],[598742.5472971984,4095568.4958678326],[598767.2816009482,4095562.9651462715],[598766.190518429,4095558.085644357],[598741.7112110675,4095563.5593473725],[598730.1143306532,4095525.5204980816],[598777.7956378843,4095515.0916402624],[598776.7272931099,4095510.207109636],[598728.6609095564,4095520.720191367],[598717.1834424782,4095482.504023414],[598757.050659496,4095472.274977979],[598755.9680443482,4095467.3935904256],[598748.5306891005,4095469.043079093],[598742.41930857,4095430.7828976745],[598756.7457174921,4095427.9005285525],[598755.7595158968,4095422.99875271],[598731.9074282015,4095427.9454639023],[598713.0156042925,4095368.037508543],[598752.6065813943,4095358.292769172],[598751.411570787,4095353.437673947],[598711.4172925642,4095363.2816799837],[598698.6797659474,4095327.9861210976],[598731.9239294766,4095314.202663867],[598699.0636147838,4095266.15445698],[598738.5795957434,4095239.568564023],[598731.4882383469,4095112.701403869],[598667.8995671017,4095060.3631878495],[598599.6566594708,4095019.484005181],[598606.7254776569,4095012.834634348],[598603.2940604276,4095009.197963371],[598572.4487812367,4095039.183662222],[598553.2747746472,4095024.1197064472],[598544.5489496565,4095037.665223831],[598560.054725656,4095052.55739371],[598539.3839007708,4095074.039887001],[598516.9824615732,4095053.6740499856],[598502.3577063943,4095071.191088747],[598493.8283689385,4095062.5457419213],[598507.1093206791,4095044.5986760887],[598474.8571973314,4095011.3032104173],[598493.7695273551,4094990.052342816],[598489.2313851396,4094987.953470444],[598454.6909709792,4095023.9290724904],[598431.884972207,4095000.6112055876],[598442.9439526459,4094981.6776438225],[598338.8764778548,4094922.323777951],[598298.6762985948,4094971.9516057894],[598269.7019054233,4094904.076022754],[598276.5295955405,4094891.714546488],[598272.1528405716,4094889.297106532],[598265.8416667588,4094900.7234343174],[598249.6473545781,4094891.644631629],[598247.2320038143,4094896.022539884],[598272.8833582925,4094915.3586530616],[598295.6152936429,4094975.9069167664],[598277.7196772791,4095005.04190461],[598351.1734256966,4095041.9754642206],[598344.7633205778,4095060.0302183945],[598332.465189307,4095060.458228541],[598327.2439040015,4095105.9178950316],[598260.9928773104,4095087.707106263],[598193.2832338256,4095113.836110219],[598195.8845080705,4095118.106165523]],[[598320.1153916621,4095145.847072456],[598332.7108544654,4095102.612457689],[598361.967985189,4095105.664134141],[598366.5499500522,4095096.631200935],[598381.3648040972,4095111.1268742178],[598355.762351945,4095164.522234205],[598320.1153916621,4095145.847072456]],[[598367.3298905998,4095091.160093246],[598368.0873340935,4095082.385994437],[598349.6335300728,4095061.2462184895],[598355.6021491777,4095044.3235224346],[598366.3875264276,4095049.478159393],[598393.2034408615,4095032.795769696],[598419.6273171384,4095059.907680481],[598374.3068685198,4095095.747345247],[598367.3298905998,4095091.160093246]],[[598365.6437296717,4095044.167186361],[598282.6079295259,4095001.874591245],[598338.3024867524,4094927.7570408466],[598438.5580292651,4094984.887511692],[598392.131394784,4095027.5668420154],[598365.6437296717,4095044.167186361]],[[598293.9156594303,4095104.9803127027],[598326.6576575715,4095110.8852859093],[598315.5688659222,4095143.749750755],[598281.2623250281,4095129.772458483],[598293.9156594303,4095104.9803127027]],[[598359.9317926011,4095100.7303322917],[598332.427204032,4095097.5277695754],[598336.8420101444,4095064.1351153404],[598354.0236738881,4095068.510911445],[598363.3325181473,4095084.172276917],[598359.9317926011,4095100.7303322917]],[[598414.8270385698,4095763.0265619378],[598367.4718146042,4095702.0515139955],[598207.789090676,4095724.1335586514],[598196.3867323635,4095718.534173062],[598201.0207496806,4095706.6787380814],[598375.053954702,4095679.7820783253],[598430.7625405864,4095757.4752414683],[598482.5942829994,4095857.233562141],[598466.9044867719,4095862.4114782936],[598414.8270385698,4095763.0265619378]],[[598334.0435775104,4095682.042287988],[598330.1337040127,4095665.696560294],[598360.3886989439,4095660.2962958887],[598371.67570724,4095675.3072404424],[598334.0435775104,4095682.042287988]],[[598357.2909485985,4095655.7701947936],[598254.7042554424,4095673.139190473],[598276.9634680924,4095641.343776445],[598337.469348898,4095625.6213003616],[598357.2909485985,4095655.7701947936]],[[598273.4215629306,4095637.720685942],[598252.9211996224,4095665.5886269044],[598246.3330413243,4095665.8604046153],[598271.3486820251,4095612.3620920912],[598236.6002411677,4095556.4023308964],[598207.4922179556,4095523.4820711487],[598225.6795636856,4095489.4579169867],[598269.9102907607,4095532.1410058364],[598258.3991333948,4095547.3677280536],[598292.6798898813,4095595.5055642095],[598282.9706029374,4095634.2279407824],[598273.4215629306,4095637.720685942]],[[598288.4949011256,4095632.754243454],[598299.9646612148,4095589.748597454],[598322.0480038609,4095585.1706247497],[598331.221069885,4095622.0237716176],[598288.4949011256,4095632.754243454]],[[598301.3942112572,4095584.3459379403],[598298.954700252,4095551.940923632],[598280.8930374729,4095533.600152203],[598275.1426064454,4095505.5359440856],[598298.2713774075,4095491.0891937367],[598320.8299670625,4095580.316821471],[598301.3942112572,4095584.3459379403]],[[598253.6994027308,4095444.2233702955],[598263.9493618839,4095423.7725943206],[598290.0520165393,4095456.7761632856],[598297.077269846,4095486.231992651],[598284.960669933,4095489.560686435],[598253.6994027308,4095444.2233702955]],[[598326.9032462322,4095583.976134629],[598353.6922067772,4095576.3351419717],[598361.6542862293,4095614.4792695567],[598336.0729792183,4095620.8158908878],[598326.9032462322,4095583.976134629]],[[598303.1025148836,4095489.7990173064],[598328.3813859,4095483.246476932],[598352.5261889155,4095571.4683116237],[598325.6857170776,4095579.1239968035],[598303.1025148836,4095489.7990173064]],[[598214.4597886117,4095685.6430330765],[598325.196216727,4095666.5475815213],[598329.1019322571,4095682.875926298],[598203.1316896821,4095701.740752118],[598214.4597886117,4095685.6430330765]],[[598298.9303449978,4095572.6202090485],[598294.635666634,4095589.760737692],[598263.8533419915,4095546.81898632],[598273.9275963318,4095535.1206641765],[598294.7043268401,4095554.600780363],[598298.9303449978,4095572.6202090485]],[[598270.9396318133,4095500.7624528194],[598276.3480645786,4095530.738801392],[598228.4175711601,4095485.1614289014],[598250.9099447669,4095448.9859735607],[598280.5966906005,4095492.039806674],[598270.9396318133,4095500.7624528194]],[[598248.9005555691,4095673.90551999],[598243.7546875959,4095670.9710206436],[598250.3153270218,4095670.7003781535],[598248.9005555691,4095673.90551999]],[[598227.1530881942,4096253.1405786956],[598219.8201489863,4096248.536383704],[598235.871809826,4096231.5260085333],[598227.1530881942,4096253.1405786956]],[[598224.3709643196,4096262.267547045],[598215.2521425445,4096267.00805193],[598211.1395324802,4096257.4843730987],[598218.9536236043,4096253.4926974988],[598224.3709643196,4096262.267547045]],[[598370.9277273421,4095327.336193743],[598412.954397456,4095317.0744300555],[598437.9476124349,4095312.1616243],[598439.4927730612,4095325.9783874094],[598372.8158152857,4095336.6119325976],[598370.9277273421,4095327.336193743]],[[598367.8945459201,4095320.24264044],[598361.0868928989,4095313.9328117482],[598407.9773706663,4095231.6534314696],[598439.192215951,4095242.59301501],[598409.7075273594,4095312.720333991],[598367.8945459201,4095320.24264044]],[[598332.9646685721,4095299.4985572957],[598373.9787862677,4095218.088974779],[598403.2398453291,4095229.852038055],[598356.6980604841,4095311.5373555813],[598332.9646685721,4095299.4985572957]],[[598389.0571657943,4095188.025227879],[598418.830805115,4095202.8495805967],[598405.7758200873,4095225.482615891],[598376.231578237,4095213.605711996],[598389.0571657943,4095188.025227879]],[[598408.0597972776,4095152.721639041],[598433.7515456835,4095178.3621036774],[598421.3890299163,4095198.537839268],[598391.3686902488,4095183.5906539694],[598408.0597972776,4095152.721639041]],[[598386.9220254691,4095181.3020858113],[598360.1767717424,4095166.880255001],[598385.0943319035,4095114.913275944],[598406.8035464144,4095141.9015096636],[598386.9220254691,4095181.3020858113]],[[598371.4981489457,4095211.8907837085],[598364.0873201394,4095209.5675984602],[598374.3768819317,4095180.2876920477],[598384.61147039,4095185.7364177243],[598371.4981489457,4095211.8907837085]],[[598328.4795236443,4095297.288259852],[598308.0592734265,4095287.521912104],[598342.4796596541,4095207.6790402574],[598369.2223010508,4095216.4172650445],[598328.4795236443,4095297.288259852]],[[598358.1064466651,4095171.446429747],[598369.9196629102,4095177.89017541],[598359.3282137678,4095208.0291303936],[598344.4666804102,4095203.0710337],[598358.1064466651,4095171.446429747]],[[598303.4923967591,4095285.485368747],[598285.432072504,4095277.987901354],[598320.9270793878,4095200.377575032],[598337.7250143552,4095206.0780524346],[598303.4923967591,4095285.485368747]],[[598282.3449924579,4095330.5892164707],[598263.7802738162,4095318.175541649],[598283.2977945737,4095282.5156137184],[598301.4342315658,4095290.0446781497],[598282.3449924579,4095330.5892164707]],[[598305.021098016,4095342.552198427],[598286.6761387142,4095333.128011672],[598306.0021876773,4095292.0805016924],[598326.2015211113,4095301.7411920605],[598305.021098016,4095342.552198427]],[[598330.6882730604,4095303.9503308414],[598357.7123690281,4095317.750987574],[598335.0870487087,4095360.973223845],[598309.3230298078,4095345.1174536347],[598330.6882730604,4095303.9503308414]],[[598388.2608417068,4095567.588963583],[598422.0435961247,4095559.132563856],[598443.5487023205,4095592.7308854056],[598396.4531869875,4095605.8898548973],[598388.2608417068,4095567.588963583]],[[598363.5089508051,4095474.137245745],[598387.8933574051,4095467.814340443],[598404.9935088118,4095533.94109909],[598419.0905448295,4095554.7174962577],[598387.0932235174,4095562.726971585],[598363.5089508051,4095474.137245745]],[[598382.2424212259,4095563.9415593036],[598357.3559933803,4095570.1745867957],[598333.2217958426,4095481.9915030813],[598358.6689306559,4095475.3923344803],[598382.2424212259,4095563.9415593036]],[[598391.6130844414,4095607.166164053],[598366.5019142185,4095613.2330192327],[598358.5286529759,4095575.035322773],[598383.4076658644,4095568.804152403],[598391.6130844414,4095607.166164053]],[[598525.0018460301,4095319.651062198],[598524.2506060635,4095314.7078204975],[598501.9477734308,4095318.0972520197],[598493.5984865716,4095280.8225950683],[598461.6151728915,4095268.6797553278],[598438.643746343,4095306.9291087277],[598414.2542397858,4095308.0408930285],[598443.9112630204,4095244.3132084184],[598526.0221289438,4095276.505599487],[598578.8167063781,4095348.346802801],[598605.7612079429,4095323.5466188393],[598629.3894104204,4095356.7345050904],[598665.0200048422,4095341.9509463334],[598677.9945625647,4095371.7041119635],[598614.663324997,4095387.9114912944],[598615.9110187915,4095392.753315351],[598654.3504352047,4095382.847829161],[598671.7700483531,4095442.424863182],[598641.7138569102,4095449.9570319196],[598642.9292869148,4095454.8070556214],[598699.5348664364,4095441.208909831],[598710.9105850917,4095479.005713871],[598581.9931631838,4095513.253639071],[598558.9183397592,4095423.0945877824],[598623.355406613,4095406.588130293],[598622.1146490326,4095401.744524134],[598523.6145029993,4095427.77271309],[598502.7744077098,4095323.0290358094],[598525.0018460301,4095319.651062198]],[[598706.5408659267,4095364.4987004097],[598682.9081194694,4095370.4631151943],[598669.6390547985,4095340.0345882764],[598694.0565988347,4095329.904921134],[598706.5408659267,4095364.4987004097]],[[598733.5310754519,4095238.2498334576],[598696.5034099505,4095261.852231228],[598650.2031371148,4095183.8986994806],[598727.9738137597,4095131.6915677995],[598733.5310754519,4095238.2498334576]],[[598580.9507727447,4095336.354396669],[598500.3167677354,4095234.0079397415],[598517.7360326523,4095216.7671107813],[598569.591395612,4095270.815512169],[598560.7757115257,4095280.341259398],[598596.6797806354,4095323.5314021967],[598590.0308363411,4095328.418192216],[598567.8686441311,4095301.3418535925],[598563.9994757096,4095304.508797818],[598586.1652027812,4095331.5894551077],[598580.9507727447,4095336.354396669]],[[598483.9064677561,4095182.8219491635],[598514.2512005754,4095213.181301191],[598496.7977573631,4095230.4559583385],[598466.2891233504,4095201.399660868],[598483.9064677561,4095182.8219491635]],[[598521.3625157722,4095213.324519712],[598547.0277804784,4095188.7275416693],[598581.3554606297,4095222.61759581],[598552.772607655,4095245.717279809],[598521.3625157722,4095213.324519712]],[[598487.4661994322,4095179.309136178],[598512.3975789131,4095155.201169458],[598543.4279674082,4095185.2573267515],[598517.8761235242,4095209.736918226],[598487.4661994322,4095179.309136178]],[[598614.8593747385,4095201.329604235],[598585.6624142647,4095219.843502626],[598550.5160191748,4095185.145170924],[598571.1922982987,4095163.848328369],[598614.8593747385,4095201.329604235]],[[598534.8772540564,4095133.7238423373],[598567.3579768756,4095160.6197651937],[598546.9166667123,4095181.6745865936],[598515.9542792458,4095151.686853241],[598534.8772540564,4095133.7238423373]],[[598599.8426040242,4095134.4006800666],[598643.3468092036,4095182.389990658],[598619.2389719103,4095198.4995037476],[598574.6840073261,4095160.2561163967],[598599.8426040242,4095134.4006800666]],[[598596.1292187311,4095131.0472548557],[598570.8537604088,4095157.0227896282],[598538.4157100351,4095130.1622020323],[598564.3586477357,4095102.740955831],[598596.1292187311,4095131.0472548557]],[[598599.6193885917,4095127.460197454],[598567.8405631788,4095099.1465440756],[598588.2404042376,4095078.539958991],[598620.2180973224,4095106.2882659812],[598599.6193885917,4095127.460197454]],[[598563.7257929876,4095055.953408733],[598584.5151737771,4095075.195953811],[598564.0915625792,4095095.826549935],[598543.1136634753,4095077.374901896],[598563.7257929876,4095055.953408733]],[[598539.6081148182,4095080.9504354945],[598560.6124313973,4095099.4253197],[598534.5697758364,4095126.9519659923],[598512.3183736827,4095108.2097446183],[598539.6081148182,4095080.9504354945]],[[598600.6560295392,4095055.49851532],[598603.939805804,4095051.7279963316],[598584.0388334572,4095034.396074429],[598595.7381386388,4095023.1836963682],[598662.5180942251,4095062.8126978897],[598641.0985386089,4095084.826874243],[598618.7763220394,4095064.944859842],[598615.4507628871,4095068.678578675],[598637.6081141599,4095088.4137503915],[598623.7103249133,4095102.6986176567],[598567.1484062175,4095052.30827556],[598580.5012690197,4095037.945567193],[598600.6560295392,4095055.49851532]],[[598494.1167146006,4095092.677343283],[598515.827314173,4095059.36584494],[598535.877684802,4095077.609579262],[598508.4918629545,4095104.9648619536],[598494.1167146006,4095092.677343283]],[[598410.7506342788,4095137.2180340956],[598378.0186072616,4095099.290834867],[598392.9581748392,4095089.468192373],[598425.6057200507,4095123.0328548113],[598410.7506342788,4095137.2180340956]],[[598396.9403780141,4095086.391187523],[598423.1282824826,4095063.4882686576],[598454.2228041707,4095095.1758578094],[598429.2042092234,4095119.561356872],[598396.9403780141,4095086.391187523]],[[598451.4839812723,4095149.5736414297],[598436.394550407,4095174.0623874017],[598410.7317531148,4095147.07645347],[598429.0944246849,4095126.6149449097],[598451.4839812723,4095149.5736414297]],[[598432.6927666744,4095123.143251712],[598457.6180241854,4095098.8487281804],[598472.6836946383,4095116.100502419],[598454.2178456775,4095145.2154957275],[598432.6927666744,4095123.143251712]],[[598462.6388721352,4095197.982541382],[598440.2303964508,4095177.3684660145],[598455.1087452373,4095153.2222866677],[598480.4057045437,4095179.247192695],[598462.6388721352,4095197.982541382]],[[598508.9754968702,4095151.548185882],[598483.9673593589,4095175.734600061],[598457.8218904588,4095148.8683881364],[598476.3250601451,4095119.6945514637],[598508.9754968702,4095151.548185882]],[[598491.3324543036,4095096.8751173625],[598531.0155617878,4095130.4955872414],[598512.5424449807,4095148.0315614715],[598479.069954656,4095115.4404398506],[598491.3324543036,4095096.8751173625]],[[598412.1565611012,4095017.8280887413],[598435.8568552495,4095042.753580741],[598423.2120981473,4095056.4220844484],[598397.291887234,4095029.826953649],[598412.1565611012,4095017.8280887413]],[[598428.2254519203,4095004.020410611],[598451.139265848,4095027.4485125216],[598439.336456987,4095039.1569209998],[598415.9572404405,4095014.569104859],[598428.2254519203,4095004.020410611]],[[598486.8246129496,4095062.619495952],[598475.0062455429,4095074.3992126277],[598442.8406492578,4095042.723602635],[598454.6696440615,4095030.989217653],[598486.8246129496,4095062.619495952]],[[598499.5707321314,4095075.485526024],[598490.3861485545,4095089.259452097],[598478.588275212,4095077.888412299],[598490.3628199222,4095066.152375003],[598499.5707321314,4095075.485526024]],[[598458.2215759604,4095027.4695768883],[598471.1549492719,4095014.667547237],[598501.8776631071,4095046.384127656],[598490.2860586765,4095059.010845529],[598458.2215759604,4095027.4695768883]],[[598550.2957027237,4095036.7247996065],[598555.3213800527,4095029.7472226825],[598569.0411472723,4095042.843150161],[598563.4780221953,4095048.912864579],[598550.2957027237,4095036.7247996065]],[[598471.4700049167,4095077.934257257],[598457.7786068849,4095091.6606608033],[598426.7120869518,4095060.0016074856],[598439.3678909312,4095046.3211625223],[598471.4700049167,4095077.934257257]],[[598487.5739344489,4095093.4933150588],[598475.5184675256,4095111.745191723],[598461.1821153507,4095095.328563476],[598475.0513933566,4095081.42382516],[598487.5739344489,4095093.4933150588]],[[598487.5820235437,4095283.5294817695],[598496.9876883164,4095318.7773737567],[598444.4458081096,4095325.2797166593],[598442.717933461,4095309.8291322375],[598462.5808642141,4095274.2521779276],[598487.5820235437,4095283.5294817695]],[[598452.8314150241,4095215.719213822],[598425.8250605697,4095200.8682722794],[598437.5643047409,4095181.7097214726],[598459.6793811873,4095202.0538920914],[598452.8314150241,4095215.719213822]],[[598441.4156564595,4095238.074077222],[598410.5288424181,4095227.249455814],[598423.2661178829,4095205.167224043],[598450.5717607352,4095220.182745907],[598441.4156564595,4095238.074077222]],[[598491.3167068111,4095240.558769633],[598496.6157758323,4095237.3706302475],[598523.3820256211,4095270.0238756198],[598446.1424570198,4095239.8130034273],[598454.9787340328,4095222.5466251867],[598491.3167068111,4095240.558769633]],[[598493.0732320114,4095233.8135491167],[598457.2381757753,4095218.0857444545],[598463.4803122143,4095205.629374097],[598493.0732320114,4095233.8135491167]],[[598722.302693705,4095107.153618485],[598727.5704790535,4095125.9635347696],[598647.5404524517,4095179.666663129],[598603.3309682437,4095130.8154616468],[598666.7031240233,4095065.681224176],[598722.302693705,4095107.153618485]],[[598609.9830672812,4095320.8678002516],[598637.0346132511,4095304.1454171836],[598662.3846652771,4095337.6310819318],[598629.4105278107,4095351.312444999],[598609.9830672812,4095320.8678002516]],[[598667.1569373041,4095335.6511162845],[598641.3111372653,4095301.5106027126],[598670.7247898437,4095283.417782407],[598698.6031870238,4095322.6039803224],[598667.1569373041,4095335.6511162845]],[[598675.0718130535,4095280.902836232],[598694.8440873504,4095268.8408922],[598721.2943633936,4095313.1943229153],[598703.3407110554,4095320.6379266246],[598675.0718130535,4095280.902836232]],[[598613.0699722451,4095312.94837343],[598556.2269912544,4095249.332154525],[598618.2333476763,4095205.1106443596],[598664.3697657299,4095281.342306812],[598613.0699722451,4095312.94837343]],[[598622.4268588574,4095202.3828547425],[598646.0073925002,4095186.625700305],[598692.2867562955,4095264.5440285113],[598668.6944089916,4095278.831188036],[598622.4268588574,4095202.3828547425]],[[598608.8038426011,4095315.663327854],[598600.8427664945,4095320.7002678006],[598566.4847444461,4095279.6854455355],[598572.9599188312,4095274.5245569027],[598608.8038426011,4095315.663327854]],[[598567.9725162827,4095837.8226920343],[598587.2648919913,4095832.6927659023],[598600.036935158,4095900.707225428],[598581.3493160116,4095907.6301952237],[598567.9725162827,4095837.8226920343]],[[598570.9510100838,4095775.864825148],[598605.3510271754,4095767.0411799415],[598618.3876190592,4095818.1305285734],[598590.7132621348,4095826.521087363],[598570.9510100838,4095775.864825148]],[[598541.4714089031,4095784.1906397496],[598566.0940160485,4095777.172172608],[598585.8792945597,4095827.8874581773],[598566.3886084827,4095833.070115894],[598541.4714089031,4095784.1906397496]],[[598530.6131644568,4095714.7552020703],[598559.65246114,4095756.78534476],[598564.457797224,4095772.4394075437],[598539.2141401451,4095779.634899747],[598512.4554994442,4095723.3173843813],[598530.6131644568,4095714.7552020703]],[[598541.9540346026,4095658.8949174755],[598554.2629403586,4095701.1241956116],[598532.4227776572,4095708.6178616704],[598504.8065162426,4095669.6498609204],[598541.9540346026,4095658.8949174755]],[[598575.8362117694,4095647.8494888335],[598587.3899696796,4095689.7487334046],[598558.9973110572,4095699.499034951],[598546.7321035109,4095657.419676222],[598575.8362117694,4095647.8494888335]],[[598618.746811754,4095678.978792599],[598592.1278840947,4095688.121542047],[598580.6010506215,4095646.3199378788],[598607.1902452605,4095638.009425102],[598618.746811754,4095678.978792599]],[[598655.7637398547,4095666.27235998],[598623.4831972627,4095677.352549099],[598611.9585731196,4095636.496420935],[598646.7108386453,4095625.292805895],[598655.7637398547,4095666.27235998]],[[598647.7921184688,4095619.6908084266],[598579.3012201823,4095641.487670309],[598571.3988488903,4095611.4144222],[598661.9468627117,4095587.68939553],[598660.6793694472,4095582.8527168324],[598637.0780041545,4095589.037657658],[598626.5058492568,4095550.968894833],[598725.233765769,4095526.657497868],[598736.8561401515,4095564.7799697514],[598680.0378214144,4095580.5135012497],[598681.3721560084,4095585.3321682015],[598737.5781982895,4095569.768181863],[598738.5286467534,4095606.935692111],[598692.3439565017,4095619.9939213293],[598693.704323644,4095624.8053037953],[598738.8556588957,4095612.039244696],[598742.160203624,4095649.039282477],[598698.4641640945,4095658.005305615],[598704.1777828241,4095679.141244158],[598694.2392844643,4095675.479451322],[598692.5106575777,4095680.1711300286],[598706.0199878328,4095685.148579031],[598719.9553609114,4095734.2799298284],[598640.939963954,4095752.4492455795],[598624.7370999473,4095682.208497455],[598699.0702920897,4095656.6911683953],[598697.4467326916,4095651.9621034893],[598660.5233435216,4095664.6384605896],[598647.7921184688,4095619.6908084266]],[[598501.824268066,4095665.307942954],[598482.119067704,4095634.812326925],[598566.5621507007,4095612.681845653],[598574.5327450067,4095643.014723125],[598501.824268066,4095665.307942954]],[[598451.7952027875,4095595.6810850953],[598518.5835536349,4095578.0923446533],[598529.8322542723,4095617.136246422],[598479.097954461,4095630.434682549],[598451.7952027875,4095595.6810850953]],[[598554.4915318481,4095569.2344115516],[598565.2552457018,4095607.85549182],[598534.6702388629,4095615.8679922516],[598523.4320421354,4095576.860549239],[598554.4915318481,4095569.2344115516]],[[598600.1282827543,4095598.7152085486],[598570.0925269149,4095606.5879209656],[598559.3522287031,4095568.050857924],[598588.5508203264,4095560.9968340225],[598600.1282827543,4095598.7152085486]],[[598621.6589695961,4095552.2016448327],[598632.2407000704,4095590.30488789],[598604.9692104431,4095597.4468723414],[598593.4012526198,4095559.759462998],[598621.6589695961,4095552.2016448327]],[[598615.4817908821,4095509.637118866],[598712.3509400078,4095483.7963524107],[598723.7843482909,4095521.8658191534],[598625.1929000502,4095546.1422816194],[598615.4817908821,4095509.637118866]],[[598583.2292340421,4095518.0985496426],[598610.647985305,4095510.915545889],[598620.3473853657,4095547.3766927775],[598592.0820104307,4095554.9365591425],[598583.2292340421,4095518.0985496426]],[[598704.4030561851,4095440.034841699],[598737.5217986682,4095431.8213501466],[598743.656503388,4095470.227552207],[598715.7432397187,4095477.713578566],[598704.4030561851,4095440.034841699]],[[598396.1453005903,4095699.1817114423],[598363.5085006007,4095656.1256863847],[598342.6159295541,4095624.3478314984],[598363.4584660337,4095619.1834298233],[598412.1554300513,4095694.9228998777],[598396.1453005903,4095699.1817114423]],[[598417.1377206822,4095693.4266613536],[598368.5529076566,4095617.8616222288],[598381.8262526462,4095614.336110906],[598432.5644198499,4095687.8355881325],[598417.1377206822,4095693.4266613536]],[[598403.3795067928,4095608.9085512725],[598453.0792551015,4095680.622279321],[598437.4369193363,4095686.092697516],[598387.0984734122,4095613.172257861],[598403.3795067928,4095608.9085512725]],[[598458.0166319406,4095678.968696468],[598408.4615120911,4095607.4636585307],[598422.8826136943,4095603.6424734066],[598471.3437083759,4095674.8512117313],[598458.0166319406,4095678.968696468]],[[598496.8537201894,4095666.8283811184],[598476.3347097408,4095673.298009494],[598427.9813789924,4095602.2476195055],[598446.5423249069,4095597.0883313217],[598496.8537201894,4095666.8283811184]],[[598479.4009168984,4095677.573883014],[598499.7474674406,4095671.158631115],[598527.6998701942,4095710.600945016],[598509.9145789066,4095718.9875358217],[598479.4009168984,4095677.573883014]],[[598513.7685495127,4095536.104855119],[598543.6445737309,4095527.723265638],[598553.1912488093,4095564.405163379],[598522.1682871922,4095572.022332204],[598513.7685495127,4095536.104855119]],[[598587.2362134594,4095556.170584412],[598558.0497956105,4095563.2216672776],[598548.4839352532,4095526.466052516],[598578.3788433942,4095519.3134597894],[598587.2362134594,4095556.170584412]],[[598490.0177480117,4095441.3665279294],[598519.9671564791,4095433.913182855],[598542.4028470315,4095522.878588382],[598512.5881677391,4095531.2429678086],[598490.0177480117,4095441.3665279294]],[[598554.0885252864,4095424.3938678005],[598577.142075868,4095514.4682468013],[598547.2424867213,4095521.621959496],[598524.8008688272,4095432.6330499733],[598554.0885252864,4095424.3938678005]],[[598419.3722137987,4095459.6569286147],[598442.6328522083,4095548.8283339893],[598424.2621530117,4095553.4232810307],[598409.6617213523,4095532.0591399986],[598392.7333968107,4095466.55973638],[598419.3722137987,4095459.6569286147]],[[598424.2122710213,4095458.4023745684],[598485.171689966,4095442.597751852],[598507.7552238365,4095532.526412847],[598447.483507638,4095547.614408966],[598424.2122710213,4095458.4023745684]],[[598508.9332073999,4095537.3858089494],[598517.3214746475,4095573.2542381957],[598448.6024781523,4095591.351762875],[598427.1606649465,4095557.8523265957],[598508.9332073999,4095537.3858089494]],[[598502.6088565848,4095851.5653719325],[598487.4528198189,4095855.739874567],[598436.3207058395,4095757.3280985863],[598451.0817251832,4095750.3379766503],[598502.6088565848,4095851.5653719325]],[[598515.9228964257,4095911.9752167775],[598500.0149970513,4095911.0109747136],[598489.1090680445,4095860.469880112],[598504.3224948259,4095856.27957026],[598515.9228964257,4095911.9752167775]],[[598509.157744394,4095854.973396267],[598526.073296534,4095850.5043851105],[598537.1322577607,4095914.0944012334],[598521.1138603874,4095912.376892547],[598509.157744394,4095854.973396267]],[[598455.6377089459,4095748.26634639],[598469.2644230569,4095742.3021970955],[598524.3789842868,4095845.7804597],[598507.5393189403,4095850.229421914],[598455.6377089459,4095748.26634639]],[[598542.3174926578,4095914.727981246],[598530.9088789173,4095849.1274318974],[598544.6743320773,4095844.853934059],[598557.0893378858,4095914.320259981],[598542.3174926578,4095914.727981246]],[[598529.3035924793,4095844.390386798],[598473.8927297561,4095740.3558145165],[598489.3512273397,4095734.0731608598],[598543.092958457,4095840.109465203],[598529.3035924793,4095844.390386798]],[[598549.4885697792,4095843.3712411243],[598563.1469515179,4095839.2077325257],[598576.5549676103,4095909.1781398794],[598561.9387374779,4095913.0343101933],[598549.4885697792,4095843.3712411243]],[[598507.933201004,4095725.450228128],[598561.4969539185,4095834.483557745],[598547.9346166465,4095838.6177889393],[598493.9351062863,4095732.0532771703],[598507.933201004,4095725.450228128]],[[598505.3056058332,4095721.1613319023],[598491.3876260492,4095727.7265898655],[598460.9832699909,4095683.2853318034],[598474.354639558,4095679.1541624228],[598505.3056058332,4095721.1613319023]],[[598440.3564478144,4095690.368624295],[598456.0227972055,4095684.8898080844],[598486.7126467603,4095729.74836458],[598471.3157756854,4095736.005971947],[598440.3564478144,4095690.368624295]],[[598420.0615913182,4095697.6852247547],[598435.4857124622,4095692.0950858826],[598466.6259249313,4095737.999076703],[598453.0639861053,4095743.934875108],[598420.0615913182,4095697.6852247547]],[[598399.2634401963,4095703.526139924],[598415.0840643056,4095699.3177381693],[598448.4367116992,4095746.0582335256],[598433.7480728877,4095753.0140794585],[598399.2634401963,4095703.526139924]],[[598684.6216275368,4095375.1874415255],[598708.1546707238,4095369.248189777],[598727.0326729107,4095429.1123150056],[598702.9517210247,4095435.244856866],[598684.6216275368,4095375.1874415255]],[[598659.1981841895,4095381.611132117],[598679.7680222543,4095376.413131419],[598698.0801380745,4095436.4116440457],[598676.6391775777,4095441.2612889595],[598659.1981841895,4095381.611132117]],[[598569.2861247775,4095771.1300079953],[598535.3972565003,4095712.883407258],[598588.611469834,4095694.6158691845],[598604.1709610763,4095762.182006087],[598569.2861247775,4095771.1300079953]],[[598593.3662858759,4095692.9828963056],[598619.9824007612,4095683.8411129145],[598636.0732987527,4095753.5964791537],[598609.0082828465,4095760.9073092756],[598593.3662858759,4095692.9828963056]],[[598768.4677966941,4096071.7476803707],[598770.2148469753,4096027.722199613],[598803.7478579648,4096028.142325361],[598801.6242885562,4096073.687765462],[598768.4677966941,4096071.7476803707]],[[598669.2659382671,4096123.1010132493],[598726.8942493126,4096118.3097665138],[598770.2081516037,4096125.2761790957],[598786.3222987648,4096141.552421912],[598704.599861487,4096223.151219323],[598669.2659382671,4096123.1010132493]],[[598651.5442266817,4096063.252614058],[598685.0716111115,4096064.597739446],[598688.4349898485,4096115.735203679],[598667.5382973701,4096118.2741511646],[598651.5442266817,4096063.252614058]],[[598728.4811263616,4096061.3397218683],[598651.3367470836,4096058.240267478],[598651.3675860513,4096026.500880413],[598729.387801574,4096027.3997009667],[598728.4811263616,4096061.3397218683]],[[598733.463203448,4096062.0774123445],[598734.3883215451,4096027.447009829],[598765.2128671383,4096027.672923551],[598763.5011715835,4096070.807468974],[598733.463203448,4096062.0774123445]],[[598764.8633699587,4096076.410260261],[598800.0845407599,4096097.5623757765],[598802.1275033167,4096131.111221935],[598790.2334901256,4096138.396235289],[598771.7607624267,4096120.334168023],[598727.2969340003,4096113.292562683],[598693.4164312595,4096115.2887844103],[598690.0956910944,4096064.799605316],[598730.5075324397,4096066.4252837226],[598764.8633699587,4096076.410260261]],[[598720.2574012702,4095717.562042344],[598704.5688527114,4095663.6741014095],[598742.8502177119,4095654.021790596],[598753.1959075489,4095711.9950186657],[598720.2574012702,4095717.562042344]],[[598812.2559244678,4096283.628963884],[598756.6731070562,4096340.435769128],[598732.8439997983,4096295.1448542317],[598811.6760272438,4096212.172727502],[598812.2559244678,4096283.628963884]],[[598801.3379532475,4096078.6795632383],[598800.4344445029,4096091.9401406203],[598775.8726249698,4096077.1895110356],[598801.3379532475,4096078.6795632383]],[[598812.2737460295,4096290.832554022],[598822.0896315456,4096349.7161445115],[598825.8956958449,4096444.4428279307],[598800.1179051973,4096449.0724009005],[598795.9692074137,4096411.749050051],[598759.1436852767,4096345.0511864456],[598812.2737460295,4096290.832554022]],[[598830.676741421,4096281.997522268],[598864.431725915,4096354.939156627],[598828.0182467769,4096368.988093447],[598817.264585195,4096286.434198052],[598830.676741421,4096281.997522268]],[[598817.2440531969,4096281.1745266803],[598817.1224127795,4096256.14935243],[598828.2891816881,4096277.5208521117],[598817.2440531969,4096281.1745266803]],[[598836.3168229484,4096610.214827339],[598826.0753728276,4096570.8266798556],[598840.9893131824,4096529.2139413613],[598888.298549578,4096485.333050568],[598930.7567742195,4096470.165162732],[598932.0501156087,4096477.8313695174],[598906.5398039612,4096506.708585984],[598887.8503798303,4096561.9788459074],[598885.2535900149,4096621.472387348],[598855.0499236301,4096624.6800151533],[598836.3168229484,4096610.214827339]],[[598830.8343174249,4096443.4094221606],[598844.2167796965,4096453.038892405],[598833.185135524,4096457.604463152],[598830.8343174249,4096443.4094221606]],[[598909.3858325164,4096390.9338742304],[598920.7552575092,4096415.339277769],[598913.1463573102,4096427.040103635],[598850.8537854954,4096450.330353979],[598830.3407295314,4096436.028926333],[598828.2439771566,4096374.2592786932],[598867.104305155,4096359.266979142],[598909.3858325164,4096390.9338742304]]],[[[598195.3192311185,4095197.1013391945],[598247.3173194656,4095228.2273961385],[598249.900343572,4095223.946276371],[598197.6610922685,4095192.683682989],[598195.3192311185,4095197.1013391945]]],[[[598243.9983831057,4095021.529089649],[598265.9497624215,4094992.735975688],[598261.9735206099,4094989.704556704],[598240.0221412941,4095018.4976706654],[598243.9983831057,4095021.529089649]]],[[[598570.378440444,4096081.940794838],[598587.634818863,4096068.7738228473],[598584.5622638372,4096064.8292816053],[598578.7380981408,4096062.2962448136],[598568.743650613,4096077.110816529],[598516.7312230684,4096067.0195375164],[598515.5535165938,4096071.8788592243],[598570.378440444,4096081.940794838]]],[[[598542.6639556751,4096136.936942434],[598513.7435230309,4096137.2384563796],[598496.1366653017,4096147.8304151134],[598524.1790893563,4096163.482447996],[598571.7514286613,4096226.755007271],[598568.0824375055,4096233.174424907],[598543.6442258069,4096234.7271435545],[598496.5941169825,4096174.2254891437],[598490.4095493332,4096172.4704255415],[598489.3760604667,4096177.36244974],[598540.4732018459,4096238.7050155248],[598569.9351680174,4096237.924243858],[598576.8424873451,4096225.863421382],[598521.5751084698,4096153.2958025387],[598501.7494197016,4096147.99988775],[598529.5271383006,4096139.3122359863],[598563.2050392106,4096157.0953268106],[598625.3534259729,4096247.461099225],[598633.9553023609,4096249.937402568],[598659.734684224,4096237.05530101],[598657.492489402,4096232.586233727],[598628.5089001603,4096243.400288358],[598566.996369069,4096153.801774124],[598542.6639556751,4096136.936942434]]]]}},{"type":"Feature","properties":{"class":"tertiary","widthMeters":8},"geometry":{"type":"MultiPolygon","coordinates":[[[[596341.059174829,4089428.980158246],[596239.174363759,4089447.7267267667],[596100.0,4089431.958880776],[596100.0,4089440.056701352],[596239.4734614696,4089455.730632176],[596356.3634735347,4089437.67466122],[596414.7395405904,4089454.452591037],[596438.9377734674,4089469.2497237734],[596453.8597857744,4089488.160549586],[596527.9427162112,4089605.053886544],[596560.9702697474,4089643.6327668047],[596859.5661974311,4089764.9012144874],[597207.6198376435,4089936.0602004398],[597325.8657330172,4090004.636679288],[597391.2622101193,4090084.0332369064],[597491.7836078379,4090189.405415406],[597530.1651774324,4090246.6469577444],[597537.4454194556,4090402.8395621344],[597551.206286954,4090438.622243836],[597602.3584696396,4090512.848970832],[597612.8546887053,4090552.0080640255],[597602.9870011447,4090609.557747298],[597544.3846350214,4090742.234851699],[597531.4012285512,4090801.1864948682],[597555.2389563959,4091085.660237338],[597582.6513965467,4091157.4402957987],[597654.5213236586,4091268.1706651086],[597752.8062826662,4091443.3776184632],[597776.0187919755,4091630.0297511057],[597798.6703756189,4091900.423981916],[597740.8328304753,4092139.44467882],[597735.276385339,4092228.6890471824],[597732.4141268667,4092239.684174461],[597719.3379219502,4092242.544627079],[597711.0284243989,4092255.338659325],[597714.1400933434,4092269.2339380076],[597723.7826969081,4092276.335055885],[597735.0940391152,4092449.155757012],[597659.4746025541,4093387.472605908],[597662.6855123625,4093616.1078257933],[597667.6004971012,4093644.5383152184],[597662.2178072358,4093757.305704317],[597650.6684634915,4093789.5006566346],[597632.2777764016,4093800.1633733544],[597607.9895382898,4093796.362811507],[597542.7238085103,4093765.756027658],[597533.8167077465,4093763.9670227496],[597529.7696818691,4093770.2074588933],[597614.3553128886,4093825.9534291285],[597639.3082606312,4093850.7279968215],[597675.2286801252,4093908.91391654],[597702.983747337,4093994.16041905],[597706.0577324984,4094026.240214823],[597822.8102602813,4094351.3263431587],[597950.6948303244,4094597.45115233],[597953.487130974,4094621.43170133],[597989.5113064022,4094637.3248690628],[598037.3895330782,4094691.7150841868],[598112.6801443299,4094786.965410029],[598219.4418924592,4094942.7797493776],[598273.0809988051,4095003.395605847],[598241.4186844957,4095035.8506928827],[598188.2167286269,4095063.5557368486],[598173.5267379227,4095077.8534200694],[598174.049801729,4095095.158725964],[598203.4818636689,4095136.634786466],[598202.926443476,4095155.8442520387],[598175.4496480541,4095239.025555573],[598172.8165320191,4095258.3280804944],[598180.8590713225,4095313.0658334047],[598162.4798369836,4095417.46055929],[598152.9194265278,4095417.746900562],[598093.041843044,4095457.4543422926],[598054.0825836362,4095473.361822944],[598007.6994331995,4095476.45336807],[597969.0098819726,4095468.9507285245],[597938.9233236685,4095481.002349144],[597900.8413441605,4095482.1887362036],[597823.679804316,4095522.316282616],[597740.1412201277,4095650.9563891967],[597755.6693617789,4095736.286771067],[597749.5537776168,4095758.0707670706],[597738.7766042128,4095764.604264461],[597738.6645799946,4095779.9633814604],[597640.1067617699,4095823.620575152],[597601.3380862854,4095830.7683118405],[597579.0866615212,4095825.9094906347],[597548.275245271,4095808.1983922785],[597465.1821532658,4095735.3347008997],[597342.9485863327,4095644.578018552],[597313.246980464,4095630.723394917],[597272.3245794346,4095623.9678803845],[597181.6475573411,4095625.9448763174],[597155.0666258641,4095632.047393102],[597055.9138020475,4095708.8869692143],[596829.3129551936,4096064.214960154],[596595.7503382701,4096279.520592729],[596469.6716034984,4096375.534144955],[596418.3802673942,4096385.833787505],[596395.195927541,4096378.5835271785],[596375.8971962917,4096363.5204689098],[596225.8216360153,4096124.592626692],[596193.3200312159,4096023.8759723487],[596153.5047700522,4095930.701205619],[596136.7482730148,4095913.258101773],[596100.0,4095896.213001224],[596100.0,4095905.0299059236],[596132.3638776501,4095920.0243128366],[596146.8511278488,4095935.2121579587],[596185.8279504131,4096026.6895083115],[596218.8999266699,4096128.6128205154],[596369.491672145,4096368.3644905114],[596391.4505546255,4096385.726738457],[596418.1779073392,4096393.8664957234],[596449.2070135957,4096391.71790699],[596473.3958723355,4096382.6597387507],[596600.7341077793,4096285.7809166117],[596703.7420294435,4096192.272750272],[596718.5470676081,4096209.70035891],[596666.1670155862,4096252.5666327947],[596603.2154878535,4096318.065702573],[596558.538764862,4096348.3706021905],[596496.6479892918,4096412.4765409157],[596354.545403597,4096508.12449129],[596253.8308675162,4096585.653685037],[596145.5935884492,4096768.9451148286],[596100.0,4096826.7264954005],[596100.0,4096839.3544777143],[596152.3340946701,4096773.2785801394],[596259.7919218767,4096591.0815158556],[596359.2574049586,4096514.591627196],[596501.8587162138,4096418.552045924],[596563.7029031431,4096354.5088805784],[596608.386750876,4096324.1985925683],[596671.3740212682,4096258.6659044344],[596726.5154758075,4096212.9453262826],[596973.8674428116,4096047.112951243],[597011.4560753623,4096024.696068446],[597144.2793481247,4095971.3190536015],[597215.2498414165,4095962.680746145],[597303.6422874591,4095934.5692479615],[597412.4720083172,4095936.4017063994],[597504.6419640685,4095915.0287696337],[597561.4114706728,4095909.009093609],[597655.9876767242,4095859.4123890586],[597710.465750636,4095817.908405895],[597759.2970991884,4095790.3671785425],[597768.0487756969,4095722.3550179927],[597753.195699256,4095651.6647018814],[597837.3967004566,4095527.7407176686],[597902.2567574882,4095495.2440430396],[598058.8954685428,4095492.760324031],[598103.7962867392,4095473.3429983887],[598169.1956707975,4095425.187154141],[598556.454304113,4095364.0427662637],[598589.028599273,4095368.177582242],[598611.9339342228,4095392.542053323],[598630.3771548226,4095430.1315341657],[598694.2543669258,4095654.1152568264],[598588.5668756604,4096009.158539646],[598587.6217377423,4096029.774669781],[598574.5643898208,4096058.2392226243],[598602.0227258401,4096080.3466727305],[598689.3516493895,4096332.4522702177],[598734.5272825714,4096420.1965703033],[598781.3633746015,4096639.687183636],[598804.6322925658,4096671.570855147],[598822.047889901,4096682.4482604754],[598872.8967728694,4096703.4651676095],[598887.5244716984,4096717.283267337],[598908.0305204146,4096716.8282311494],[598948.5393896324,4096733.285190737],[599002.8920306971,4096764.9285782315],[599027.0154922246,4096787.252429804],[599140.0627059111,4096928.1673748526],[599337.4822022048,4097066.996426906],[599373.0545933411,4097099.5575880585],[599536.6122143182,4097280.2057475243],[599678.4269765859,4097541.3881736686],[599687.1959980491,4097572.381844854],[599694.6256376514,4097652.0060178842],[599694.0086157856,4097719.4117511827],[599683.2843513627,4097777.38231402],[599508.9933032782,4098131.7485775836],[599506.0495414815,4098161.804270223],[599507.9436543519,4098195.086217755],[599522.1920012035,4098220.982698205],[599609.3329199967,4098301.318712586],[599615.7415283339,4098324.618563057],[599612.3843796914,4098355.7315625246],[599597.9495066515,4098384.7379492456],[599579.4772177438,4098403.8421572633],[599442.3264586299,4098477.7290018117],[599409.9524782001,4098513.8149647834],[599399.9253710351,4098538.956945316],[599374.8013783575,4098775.8913069456],[599383.4210517755,4098810.765952526],[599403.0406516517,4098837.637326938],[599507.2182981978,4098890.807242952],[599554.8896801501,4098924.9515704494],[599725.180329924,4099079.544724923],[599749.3310300409,4099135.9810136887],[599780.3970151214,4099383.0165926684],[599790.4901436489,4099402.570409109],[599820.7270613284,4099434.806281065],[599883.9527404613,4099475.457103347],[599913.6891124493,4099505.082009901],[599923.740743655,4099535.8107341635],[599900.6129799093,4099630.9648422543],[599898.1508909737,4099654.510230377],[599903.3855476638,4099671.9379975675],[599952.4075992535,4099730.6470884057],[599981.5244453122,4099750.0],[599995.7298554633,4099750.0],[599941.7139624786,4099710.809332018],[599920.6117928858,4099684.934307063],[599906.1979341682,4099653.7489985973],[599930.1195227493,4099558.9675053204],[599931.7402865076,4099534.979027526],[599920.5907640052,4099500.9740169803],[599888.7914685843,4099469.082600162],[599825.9317003344,4099428.720847781],[599787.8220450279,4099379.997963956],[599757.1927750563,4099134.4781285636],[599731.8969764468,4099075.180827553],[599559.6771039427,4098918.540191001],[599511.2437267802,4098883.889170743],[599408.4931320241,4098831.6729255384],[599390.7449486747,4098807.3593017794],[599382.7121116939,4098774.561422536],[599407.8343886158,4098540.2946498594],[599417.0467754711,4098517.5559343663],[599446.7599349505,4098484.3928401656],[599584.5754090867,4098410.0410971325],[599604.509808228,4098389.335773071],[599620.140919712,4098357.7602423658],[599623.7530920634,4098324.3179714372],[599616.4275179988,4098297.579342673],[599594.5693179123,4098271.44434161],[599553.557285166,4098243.1024791515],[599528.732799461,4098216.367404775],[599515.6946599208,4098192.876574775],[599514.0383457991,4098162.285552529],[599516.5043766444,4098134.6004285337],[599690.9819417276,4097779.570559663],[599701.9764130136,4097720.163865939],[599702.626606523,4097651.9367894367],[599695.1002111817,4097571.1091645816],[599685.9136067432,4097538.5229510223],[599543.2949016927,4097275.7822738066],[599378.7309509553,4097093.9188808915],[599342.2967132876,4097060.6022082646],[599145.6009312407,4096922.37464439],[599033.0714171546,4096782.016577588],[599007.7021045077,4096758.530335665],[598982.7379300545,4096741.1197608695],[598910.8968083087,4096709.357418827],[598898.1048095016,4096695.8440830144],[598875.9944792207,4096696.0889841807],[598825.9627317811,4096675.4647725266],[598810.2506543914,4096665.843267648],[598788.5532863493,4096636.1338473293],[598742.1327775832,4096417.6379140904],[598696.8069986912,4096329.5491445023],[598595.6163505773,4096030.0694502913],[598596.3844532943,4096010.92627121],[598702.2285922641,4095654.8149655424],[598700.2356288339,4095632.835639604],[598637.7186623663,4095426.946708951],[598615.2871718942,4095390.3324033227],[598615.9861166001,4095377.913982081],[598600.4581750091,4095355.706353492],[598581.578004532,4095344.1827372587],[598555.1333825003,4095356.150867732],[598170.4775770488,4095416.9202293246],[598188.8726716297,4095313.3578918395],[598183.3074243566,4095240.5934738372],[598210.911617876,4095156.4726336673],[598210.821965198,4095123.393024563],[598187.3530121394,4095085.6273151627],[598194.8598890719,4095073.8998052147],[598246.618579494,4095041.936469099],[598281.8780977371,4095005.3811007678],[598281.2816933664,4094999.643306763],[598225.8355631956,4094937.970739444],[598091.4248028346,4094744.4825795116],[597995.546862607,4094632.0734977685],[597981.3430370563,4094600.7239985587],[597961.8967572298,4094586.2462066864],[597949.0719320897,4094566.0832395535],[597850.5724259389,4094370.899650989],[597849.2167368893,4094339.687046257],[597829.8992755739,4094322.478112242],[597821.453914912,4094305.6156519507],[597719.5157903124,4094013.9174475227],[597692.3685405809,4093881.857922502],[597672.7705077123,4093668.131415531],[597667.46212986,4093387.9279329753],[597743.0895537268,4092449.4703903794],[597731.8829556344,4092277.323080181],[597748.5395914816,4092262.099955813],[597739.9620820181,4092242.4448820446],[597748.7634861878,4092140.631283574],[597801.9039590164,4091928.613451393],[597806.6750599867,4091900.9552540667],[597804.3297226488,4091840.3815325894],[597760.4349725462,4091440.959411387],[597589.6459700236,4091153.5561604276],[597563.1721761175,4091084.5903884354],[597539.3657115521,4090801.9467760287],[597551.88168279,4090745.0297026453],[597610.5601370675,4090612.138872525],[597620.8488316853,4090551.6654195855],[597609.5074933771,4090509.2558523933],[597558.1396001949,4090434.629194979],[597545.1745509153,4090400.771787892],[597539.8008685348,4090353.4545758404],[597541.1897227728,4090260.6023632744],[597535.5610786856,4090237.9127082415],[597497.8725000637,4090184.2155655418],[597397.3013251249,4090078.784091214],[597330.6750595998,4089998.2271336843],[597211.3149828044,4089928.964171854],[596862.9754347018,4089757.662455546],[596565.3901562864,4089636.9032617817],[596534.5085794964,4089600.4819221552],[596444.5040531361,4089463.429402909],[596403.2134239319,4089440.125060359],[596341.059174829,4089428.980158246]],[[597838.8680525413,4094359.551340792],[597840.5243424684,4094359.2323822207],[597841.1452970966,4094364.6636695266],[597838.8680525413,4094359.551340792]],[[597678.130643435,4093897.01708522],[597660.4502032375,4093866.2513722153],[597635.8837546256,4093835.978927733],[597655.4101080523,4093836.224578919],[597665.1627759659,4093846.9048912204],[597678.130643435,4093897.01708522]],[[597667.3270633221,4093830.5881014313],[597668.3539352091,4093838.5356049133],[597663.3902111681,4093833.0997463968],[597667.3270633221,4093830.5881014313]],[[597658.0950904874,4093826.9885057355],[597630.1665364711,4093808.1127488744],[597650.0484970254,4093801.2439302388],[597663.257044998,4093783.9155396475],[597666.1530268523,4093820.851065332],[597658.0950904874,4093826.9885057355]],[[597567.171691499,4093788.8968405784],[597568.5195002509,4093785.93708292],[597568.71803705,4093786.0343338777],[597567.171691499,4093788.8968405784]],[[597585.5636041686,4093794.285940325],[597648.3904993484,4093829.5990791246],[597618.530590639,4093818.9811974317],[597585.5636041686,4093794.285940325]],[[597739.0955277628,4092252.453635979],[597736.1393610678,4092267.4321941915],[597720.8033701007,4092264.745082867],[597723.8357218016,4092249.2021888997],[597739.0955277628,4092252.453635979]],[[597670.5627052891,4093733.2530367216],[597671.4528048603,4093748.107257315],[597672.9546004692,4093805.2630161983],[597670.5627052891,4093733.2530367216]],[[597668.8841199207,4093705.1833641315],[597666.9642327345,4093705.1558996565],[597668.8833626945,4093705.170701631],[597668.8841199207,4093705.1833641315]],[[597695.3179325088,4093940.648350572],[597684.8275838828,4093890.3194436664],[597682.9804698844,4093879.946745917],[597684.5350278238,4093883.4848988974],[597695.3179325088,4093940.648350572]],[[597683.0085089484,4093861.46784759],[597674.3900619686,4093822.8214652543],[597677.8088050977,4093814.8996708267],[597683.0085089484,4093861.46784759]],[[597714.7934350083,4094022.548587112],[597714.4065600539,4094024.3138154345],[597713.6693971155,4094023.4077755404],[597714.7934350083,4094022.548587112]],[[597828.1515089856,4094332.7490261775],[597828.5709132123,4094333.2400015914],[597828.3505771128,4094333.399932382],[597828.1515089856,4094332.7490261775]],[[597840.7970325765,4094341.3072192017],[597839.7694250206,4094350.746430749],[597831.1596474863,4094349.664722119],[597831.2955034227,4094341.2945121806],[597840.7970325765,4094341.3072192017]],[[596842.9276019476,4096060.523487353],[597062.1165068388,4095714.0146826296],[597137.3948051995,4095651.1765250065],[597182.2317377512,4095633.934040848],[597272.1310702009,4095631.9740005806],[597310.3807101232,4095638.212363044],[597338.5094940847,4095651.2461034735],[597460.2824036044,4095741.660754253],[597543.6098747196,4095814.72147795],[597576.3815551832,4095833.485927743],[597601.372891884,4095838.823017101],[597642.2552012485,4095831.3365181237],[597746.2110311699,4095783.007368776],[597751.8018849042,4095785.4309610045],[597705.835211177,4095811.378869848],[597651.7298059418,4095852.63529711],[597559.0408254801,4095901.3124660323],[597503.0757691376,4095907.1796428193],[597411.5351123228,4095928.4227115717],[597302.2153343274,4095926.6505065495],[597213.5011910562,4095954.870664],[597142.816921065,4095963.4215738373],[597104.1916663481,4095974.9884243812],[596969.656341489,4096040.3097108305],[596724.6765242674,4096204.5591256996],[596709.6256122808,4096186.8420890514],[596842.9276019476,4096060.523487353]],[[598594.7105533021,4095362.5051060338],[598590.6638501032,4095359.18222646],[598599.5196323514,4095368.216483996],[598594.7105533021,4095362.5051060338]],[[597745.9753274141,4095768.2445682255],[597752.5735621669,4095766.8410467706],[597754.225824782,4095773.310499942],[597747.0889638505,4095774.7349421717],[597745.9753274141,4095768.2445682255]],[[597981.6390214638,4094622.1641741865],[597982.8955181285,4094624.101434813],[597980.8448843407,4094623.162598104],[597981.6390214638,4094622.1641741865]],[[597961.3909572866,4094595.8456060505],[597958.7092163137,4094597.2279803655],[597957.2399820953,4094592.7529653884],[597961.3909572866,4094595.8456060505]],[[597977.1661278373,4094610.2983075352],[597969.5839965678,4094620.949130901],[597958.7034408908,4094613.4761017296],[597966.7538020936,4094602.5655476544],[597977.1661278373,4094610.2983075352]],[[598582.6785955575,4095352.720679327],[598579.6820423155,4095356.714396637],[598579.0022070638,4095353.4674743647],[598582.6785955575,4095352.720679327]],[[598032.0710708342,4095484.723194171],[598077.3841756503,4095474.4484001785],[598160.2373294006,4095425.421107928],[598099.7800420419,4095466.4088477143],[598056.8680281058,4095484.993862614],[597989.3016343829,4095489.427745539],[597982.2643712691,4095480.1624419484],[598032.0710708342,4095484.723194171]],[[597968.9397760343,4095476.9949447885],[597974.5792976655,4095482.592235713],[597968.9876850273,4095488.5798898675],[597962.9139174492,4095482.400791863],[597968.9397760343,4095476.9949447885]],[[598584.091518684,4096060.596475002],[598584.8485131803,4096050.424814977],[598595.6345671028,4096050.930337847],[598595.357071097,4096061.2127454],[598584.091518684,4096060.596475002]],[[598600.6566072818,4096067.660665565],[598600.4173564306,4096067.421204214],[598600.5378544274,4096067.3323744563],[598600.6566072818,4096067.660665565]],[[598896.0619294791,4096704.9205914913],[598893.0860243863,4096710.1883827266],[598888.5044357452,4096707.161048874],[598890.8934941961,4096702.663291949],[598896.0619294791,4096704.9205914913]]],[[[596183.1176919853,4096203.777808167],[596237.313307721,4096203.5846720827],[596237.7987609444,4096195.599414719],[596171.1303235051,4096194.487386781],[596136.0685657638,4096180.4817400523],[596100.0,4096176.3807354667],[596100.0,4096184.384546533],[596183.1176919853,4096203.777808167]]]]}}]}
