{"type":"FeatureCollection","name":"carboneras-algarrobico-roads","crs":{"type":"name","properties":{"name":"EPSG:25830"}},"source":"\u00a9 OpenStreetMap contributors, ODbL 1.0","features":[{"type":"Feature","properties":{"class":"footway","widthMeters":2},"geometry":{"type":"Polygon","coordinates":[[[599846.2236864272,4099146.328388615],[599846.2501688179,4099146.4236797816],[599846.2859347002,4099146.5158889196],[599846.3306342218,4099146.6041140645],[599846.3838301444,4099146.6874922225],[599856.9023664242,4099161.503454074],[599860.8068637139,4099173.247354774],[599860.8125874494,4099173.264075543],[599865.0722135772,4099185.3578858473],[599864.3666606516,4099213.681253182],[599864.3694879474,4099213.785307833],[599864.3831166121,4099213.888504846],[599868.9242370727,4099238.3744604904],[599868.9500952889,4099238.4809573176],[599868.9874517992,4099238.583985045],[599869.0358579438,4099238.6823062873],[599869.094732354,4099238.774740184],[599879.9804096665,4099253.959735773],[599883.8840855655,4099265.7014204534],[599883.9340454646,4099265.823944489],[599895.8619680582,4099290.304877807],[599907.9647447794,4099333.655379435],[599907.9944284105,4099333.7450969187],[599908.0324483768,4099333.8316118135],[599908.0784651466,4099333.914151511],[599927.7393602774,4099365.564217915],[599931.2460340061,4099375.6351640946],[599931.6573006002,4099402.951217917],[599931.6629962832,4099403.043793975],[599931.67724476,4099403.135444115],[599931.6999234542,4099403.225379893],[599931.7308372664,4099403.312827612],[599931.7697202523,4099403.397034979],[599931.8162379105,4099403.477277579],[599931.8699900603,4099403.552865102],[599931.9305142849,4099403.6231472874],[599931.997289908,4099403.687519513],[599940.442931954,4099411.1051203148],[599946.445544115,4099423.100603554],[599956.078375207,4099465.183079769],[599956.1073330203,4099465.2846086565],[599956.1468336917,4099465.38251865],[599956.1964369204,4099465.47571838],[599973.1905033364,4099493.7038690564],[599973.2482528377,4099493.789459629],[599973.3145200327,4099493.868639234],[599995.0784099647,4099517.3008880275],[600001.0245058865,4099525.694759863],[600001.0984462621,4099525.787043202],[600001.182763212,4099525.8699530675],[600023.6597491832,4099545.497424106],[600023.7375995748,4099545.5588752767],[600023.8211543701,4099545.612312399],[600023.909591646,4099545.6572098155],[600024.0020414517,4099545.6931258743],[600028.8879443418,4099547.3173390753],[600046.4683061538,4099568.4446527865],[600053.0493157426,4099583.8668197463],[600053.0903357485,4099583.9516388057],[600053.1391562457,4099584.032220893],[600053.1953438588,4099584.1078506876],[600053.2583998152,4099584.177856831],[600077.6709624801,4099608.838688946],[600091.5427950785,4099633.3348047007],[600088.5804586523,4099653.7202015207],[600088.5707712381,4099653.8264188482],[600088.5724517509,4099653.9330637846],[600089.2181413643,4099663.260959856],[600089.2306599742,4099663.363919679],[600089.2537756761,4099663.465029051],[600089.2872398044,4099663.5632002936],[600089.3306923707,4099663.6573773352],[600089.3836659365,4099663.7465470727],[600096.8848569348,4099675.0],[600099.2884482694,4099675.0],[600091.1950400101,4099662.858089617],[600090.5750742975,4099653.901811531],[600093.5712293172,4099633.2836911604],[600093.5803695763,4099633.189946542],[600093.5806493616,4099633.0957577983],[600093.5720661905,4099633.0019605327],[600093.55469621,4099632.909386878],[600093.5286935191,4099632.81885811],[600093.4942888033,4099632.7311773635],[600093.4517872877,4099632.6471225065],[600079.3455949266,4099607.737153439],[600079.298716859,4099607.662288836],[600079.2454153,4099607.591853009],[600079.1861061227,4099607.526395516],[600054.8139601288,4099582.906391099],[600048.2503739719,4099567.5250548157],[600048.2080888721,4099567.437913975],[600048.1575717011,4099567.3552727555],[600048.0992963882,4099567.2779064598],[600030.2428176645,4099545.818767461],[600030.1803506268,4099545.7504012105],[600030.1118270407,4099545.688106803],[600030.0378345695,4099545.6324184807],[600029.9590077781,4099545.5838138307],[600029.8760226911,4099545.5427096905],[600029.789590995,4099545.509458571],[600024.8237742023,4099543.858679714],[600002.5877992404,4099524.4416655675],[599996.6721631449,4099516.0907926816],[599996.5888683972,4099515.9882969754],[599974.8504883143,4099492.5835135444],[599957.9922994227,4099464.5810634824],[599948.368334524,4099422.53732057],[599948.3347909703,4099422.422727366],[599948.2878283072,4099422.312949041],[599942.1440059374,4099410.035274541],[599942.0967092871,4099409.9511622097],[599942.041525631,4099409.872000214],[599941.9789688314,4099409.7985257],[599941.9096214081,4099409.7314228513],[599933.6503957446,4099402.4775469983],[599933.2433778346,4099375.4436879493],[599933.2360917225,4099375.3373167613],[599933.2175218095,4099375.2323259264],[599933.1878791967,4099375.1299089715],[599929.5916863926,4099364.8018696425],[599929.5497094208,4099364.6998266163],[599929.496745734,4099364.603029441],[599909.8526914719,4099332.9800734315],[599897.7638837184,4099289.6796067473],[599897.7356166942,4099289.593598672],[599897.6996868368,4099289.5104995803],[599885.7610290946,4099265.007533385],[599881.8304303412,4099253.184868706],[599881.7940585865,4099253.0914080497],[599881.7485084968,4099253.00206048],[599881.6942382058,4099252.9177246373],[599870.8500636864,4099237.790623446],[599866.368643208,4099213.6265731845],[599867.0761706103,4099185.223943439],[599867.0743046696,4099185.1331057423],[599867.0642017236,4099185.0428123353],[599867.0459451714,4099184.9538085875],[599867.0196857207,4099184.8668292216],[599862.7019331664,4099172.607988007],[599858.7531233804,4099160.7308047055],[599858.7173763757,4099160.63874261],[599858.672722856,4099160.550655489],[599858.6195983398,4099160.4674024796],[599848.1307112958,4099145.693203278],[599844.9965809027,4099131.78217729],[599844.9698468302,4099131.686129034],[599844.9336815741,4099131.593220195],[599844.8884446161,4099131.5043742848],[599844.8345856105,4099131.4204744296],[599834.237147398,4099116.5938425465],[599832.610043188,4099117.7568265917],[599843.0899209587,4099132.4189823666],[599846.2236864272,4099146.328388615]]]}},{"type":"Feature","properties":{"class":"path","widthMeters":1.5},"geometry":{"type":"MultiPolygon","coordinates":[[[[599506.8325484715,4097782.135144154],[599506.84213946,4097782.216191884],[599506.860480024,4097782.2957176366],[599510.2560030115,4097794.055419585],[599498.7559242445,4097812.6221161718],[599479.0906747205,4097825.5707188933],[599467.3081827346,4097831.806000266],[599455.2785567663,4097831.8176033758],[599455.2019741529,4097831.821597813],[599455.1261997623,4097831.8333916217],[599455.0520258042,4097831.8528614994],[599454.980227756,4097831.8798038913],[599454.9115562554,4097831.913937119],[599454.8467292528,4097831.9549043244],[599454.7864245045,4097832.002277202],[599436.1884306766,4097848.2161600604],[599436.1429354167,4097848.25929983],[599436.1012022569,4097848.3060887367],[599436.0635228365,4097848.3561998103],[599417.8252833093,4097874.848764522],[599417.7870547851,4097874.9104925534],[599417.7549742415,4097874.975627864],[599417.7293423384,4097875.043560003],[599417.7103992992,4097875.113652308],[599417.6983226584,4097875.185247871],[599417.6932255989,4097875.2576756966],[599417.6951558904,4097875.3302569888],[599417.7040954422,4097875.4023115123],[599417.7199604727,4097875.47316397],[599427.1486207605,4097909.7136342274],[599427.1712332198,4097909.782543863],[599427.2003957153,4097909.848947252],[599427.2358355527,4097909.912223465],[599427.2772213387,4097909.9717808147],[599427.3241660804,4097910.0270623886],[599427.3762308041,4097910.0775512564],[599427.4329286595,4097910.122775303],[599427.4937294726,4097910.1623116448],[599427.5580647034,4097910.195790583],[599448.9405772246,4097920.0398543216],[599466.9435932966,4097934.573375895],[599467.0114459421,4097934.6221677857],[599467.0843058593,4097934.6631075284],[599467.1612683379,4097934.6956867697],[599482.17780631,4097940.0870676255],[599482.2490252232,4097940.108712705],[599482.3220389518,4097940.123191603],[599482.3961283081,4097940.1303617023],[599482.4705635096,4097940.1301523778],[599482.5446113673,4097940.1225656904],[599482.6175425074,4097940.10767637],[599495.8773584558,4097936.7073032246],[599506.8272368284,4097942.087014082],[599506.8951534692,4097942.116317715],[599506.9656263551,4097942.1387887043],[599507.0379700048,4097942.154208476],[599507.1114807397,4097942.162427045],[599507.1854435293,4097942.163364469],[599507.2591389461,4097942.1570116305],[599507.3318501632,4097942.143430323],[599527.9908403436,4097937.219259125],[599548.9010036035,4097943.191642537],[599556.0470314035,4097953.2240331685],[599550.9818869976,4097976.115667093],[599539.6705569153,4097984.8122737817],[599539.6521697285,4097984.826874163],[599528.4320626436,4097994.0262200157],[599528.3787683755,4097994.074362586],[599528.330323244,4097994.127381972],[599528.2871714788,4097994.184792],[599528.2497087712,4097994.2460662327],[599528.2182786448,4097994.3106428017],[599528.1931693063,4097994.3779295553],[599528.1746110017,4097994.4473094903],[599528.1627739066,4097994.5181464106],[599528.1577665638,4097994.5897907587],[599528.1596348896,4097994.6615855736],[599529.1192386416,4098007.620467336],[599529.9371202997,4098019.013218534],[599529.945471267,4098019.0832427563],[599529.9603622218,4098019.1521730823],[599529.9816615114,4098019.2194000906],[599530.009180826,4098019.284329419],[599530.0426768643,4098019.3463870194],[599530.0818534837,4098019.4050242333],[599545.4754434023,4098040.252140537],[599533.4731682566,4098056.0031264955],[599533.4304067969,4098056.065539823],[599502.7995321782,4098106.0011916338],[599504.0781470287,4098106.785502837],[599534.6892169216,4098056.8821374658],[599546.6132516875,4098041.233828967],[599573.8390258502,4098056.6175327124],[599573.9070764023,4098056.6515519368],[599573.9782233047,4098056.6785019557],[599574.0517344483,4098056.6981054517],[599574.1268533954,4098056.710160701],[599574.202807164,4098056.7145436555],[599606.1122506431,4098056.9347151173],[599606.1226002229,4098055.4347508224],[599574.4076247148,4098055.215921167],[599546.9212599348,4098039.6849727985],[599531.4176998669,4098018.6889269403],[599530.615327831,4098007.512218326],[599530.6152051988,4098007.5105365813],[599529.6843016606,4097994.9392342516],[599540.5941392051,4097985.9942778433],[599552.112387976,4097977.138583723],[599552.1692750327,4097977.0901528555],[599552.2210614278,4097977.0363025498],[599552.2672332851,4097976.9775671624],[599552.3073324413,4097976.9145295243],[599552.3409609927,4097976.847815158],[599552.3677852431,4097976.7780860695],[599552.3875390157,4097976.706034181],[599557.5557302093,4097953.3486861233],[599564.4417339626,4097942.340090802],[599581.8099825657,4097924.997054806],[599581.859493846,4097924.942502148],[599581.9034141643,4097924.88335517],[599581.9413197495,4097924.8201845596],[599581.9728448642,4097924.7535998276],[599581.997685334,4097924.684243426],[599584.6262155663,4097916.0274030645],[599584.6429035942,4097915.961983129],[599584.6536408826,4097915.89532753],[599584.6583404209,4097915.8279764154],[599584.6569641263,4097915.760475571],[599584.6495231515,4097915.693371993],[599584.6360777951,4097915.627209461],[599579.8093868091,4097896.364123522],[599579.7958837933,4097896.3168607396],[599574.2600658234,4097879.0981012606],[599574.2293351672,4097879.018406693],[599574.189742454,4097878.9427230456],[599574.1418011995,4097878.872031932],[599568.4903222874,4097871.4825197286],[599568.4421641078,4097871.42564596],[599568.3885993663,4097871.3738323105],[599568.3301569334,4097871.3275903617],[599568.2674138398,4097871.2873766823],[599556.8585684461,4097864.751067044],[599556.8278835939,4097864.7344234614],[599552.7281180703,4097862.6326676495],[599553.6611701383,4097854.6841170276],[599565.6512973943,4097839.4370164243],[599565.7017240231,4097839.3644741587],[599565.7432704208,4097839.286505434],[599575.8702647291,4097817.2432987597],[599586.4374622122,4097797.0356162447],[599586.4654584068,4097796.975804769],[599586.4880846273,4097796.913762415],[599596.2436409753,4097765.9976801593],[599602.2438573278,4097755.0],[599600.5351290784,4097755.0],[599594.8919574873,4097765.343259742],[599594.8602947898,4097765.4086389844],[599594.8351056192,4097765.4767747126],[599585.0775429022,4097796.3992153],[599574.5321437794,4097816.5652127475],[599574.5152386617,4097816.599658587],[599564.4173077681,4097838.579603563],[599552.351387659,4097853.923085233],[599552.3114563047,4097853.9789488064],[599552.2768016509,4097854.038230396],[599552.2477141959,4097854.1004330628],[599552.2244377702,4097854.165035384],[599552.2071674926,4097854.2314958186],[599552.196048134,4097854.299257251],[599551.2382719496,4097862.4584294423],[599543.2136301132,4097864.432199762],[599528.1094225886,4097864.7473326516],[599500.1730951606,4097813.182757584],[599511.7065380312,4097794.562195176],[599511.0689376981,4097794.1672701],[599511.717299249,4097794.544267845],[599518.7274286246,4097782.488231917],[599518.7640922318,4097782.4165873006],[599518.7928677942,4097782.341426552],[599518.813423962,4097782.2636151444],[599524.4706953033,4097755.0],[599522.9387426275,4097755.0],[599517.3694638312,4097781.839560024],[599511.3026843205,4097792.273220778],[599508.3476404079,4097782.039028347],[599511.2574247963,4097763.341893146],[599511.2651821708,4097763.2683182703],[599511.2656529464,4097763.1943370732],[599511.2588325422,4097763.1206694325],[599511.2447873246,4097763.048032176],[599511.2236539614,4097762.977132105],[599511.195638092,4097762.9086591154],[599511.1610123265,4097762.8432794893],[599507.6799920911,4097756.9883185904],[599507.6404853801,4097756.928563683],[599507.5954580713,4097756.872850393],[599507.5453209284,4097756.8216869677],[599507.4905313294,4097756.775540147],[599507.4315890948,4097756.7348309075],[599504.6438329791,4097755.0],[599501.8048152052,4097755.0],[599506.4839952848,4097757.9118710128],[599509.7337678851,4097763.3778810385],[599506.8399645487,4097781.972328256],[599506.8318206283,4097782.0535341557],[599506.8325484715,4097782.135144154]],[[599527.0471720757,4097865.9277517353],[599527.0920950306,4097865.9873575177],[599527.1427200384,4097866.042203025],[599527.1985457162,4097866.091745076],[599527.2590191745,4097866.1354930126],[599527.3235414925,4097866.1730135614],[599527.39147365,4097866.203935125],[599527.4621428568,4097866.227951459],[599527.5348492148,4097866.244824711],[599527.6088726505,4097866.2543877685],[599527.6834800462,4097866.256545922],[599543.327855168,4097865.930143022],[599543.4101936432,4097865.923878215],[599543.4913443251,4097865.908599501],[599551.8296362269,4097863.857682661],[599556.128049857,4097866.0612759585],[599567.3906341699,4097872.5137902885],[599572.8716743337,4097879.6804476907],[599578.360344045,4097896.752555938],[599583.1305785379,4097915.790326795],[599580.6170257804,4097924.0684986403],[599563.3213060003,4097941.3391110995],[599563.2645720781,4097941.4025916774],[599563.2153982501,4097941.4720931617],[599556.8108823105,4097951.7109380323],[599549.9703856597,4097942.1074860957],[599549.9257491321,4097942.050802006],[599549.8758725061,4097941.9986692155],[599549.8212173516,4097941.9515701737],[599549.7622894602,4097941.9099407457],[599549.6996341642,4097941.8741661804],[599549.6338312903,4097941.8445775434],[599549.5654897935,4097941.8214486553],[599528.2139610053,4097935.723001945],[599528.1391342718,4097935.705718915],[599528.062932426,4097935.696178377],[599527.9861544349,4097935.6944803623],[599527.9096053063,4097935.700642674],[599527.8340876484,4097935.714600701],[599507.2465151751,4097940.6217491394],[599496.2901379534,4097935.2388453763],[599496.2205102168,4097935.208903957],[599496.1482160988,4097935.1861427897],[599496.0739939002,4097935.1707943203],[599495.9986016125,4097935.1630152953],[599495.9228091766,4097935.162885158],[599495.84739062,4097935.170405237],[599495.7731161519,4097935.185498734],[599482.4679677815,4097938.5974970143],[599467.7872957492,4097933.326701956],[599449.8101419617,4097918.8140585544],[599449.7604051892,4097918.777190974],[599449.707797125,4097918.7445511734],[599449.6526762487,4097918.7163615655],[599428.5021908535,4097908.979118286],[599419.2588551657,4097875.4116600226],[599437.2454248547,4097849.28466675],[599455.5606177961,4097833.3173320135],[599467.4954613018,4097833.305820326],[599467.5682085404,4097833.3022133755],[599467.640262847,4097833.2915668865],[599467.7109446473,4097833.2739812694],[599467.7795873121,4097833.2496223818],[599467.8455434438,4097833.2187199625],[599479.823983374,4097826.8797431597],[599479.8856333452,4097826.843246652],[599499.0363367331,4097814.233447335],[599527.0083960847,4097865.8639760064],[599527.0471720757,4097865.9277517353]]],[[[599378.4825324299,4098775.661471869],[599378.8905642804,4098774.218034995],[599363.0,4098769.7260780074],[599363.0,4098771.2848576405],[599378.4825324299,4098775.661471869]]],[[[599671.0789319662,4098768.00966823],[599671.1453161607,4098767.9791877256],[599671.2084203191,4098767.9423938724],[599671.2676458298,4098767.8996356996],[599671.3224308748,4098767.8513188157],[599684.9758973103,4098754.5731940316],[599700.4647152093,4098750.0058750976],[599700.5286978958,4098749.9838246615],[599700.5904324214,4098749.9560964396],[599700.6494161291,4098749.9229162023],[599700.7051687598,4098749.884554111],[599700.7572363628,4098749.8413225175],[599700.8051949912,4098749.7935734247],[599710.2002416557,4098739.554873038],[599724.5779802279,4098733.0149985547],[599748.0845164857,4098725.1051793164],[599747.6061320782,4098723.683508342],[599724.0632061915,4098731.605572489],[599723.9918675877,4098731.633714328],[599709.4402750263,4098738.252668234],[599709.3734354083,4098738.2872171747],[599709.3103937564,4098738.3282892327],[599709.2517845399,4098738.375471046],[599709.198197619,4098738.4282877645],[599699.8407494844,4098748.6260133595],[599684.3738002953,4098753.1868836815],[599684.3051676379,4098753.2107932903],[599684.2391714449,4098753.241233618],[599684.1764314483,4098753.277918818],[599684.1175368031,4098753.3205044],[599684.0630405546,4098753.368590468],[599670.4384525756,4098766.618630681],[599648.1748514859,4098770.8277238375],[599648.0919026842,4098770.8483631797],[599616.4673298846,4098780.661637168],[599616.4067980081,4098780.6833059215],[599573.8945896563,4098797.9911657306],[599573.8307414979,4098798.0207232046],[599573.7699440344,4098798.0561336554],[599554.8916500134,4098810.272038609],[599555.7065522389,4098811.5313774683],[599574.5255808857,4098799.3538223878],[599616.9426078635,4098782.084713468],[599648.4955645386,4098772.293662346],[599670.9388675139,4098768.050595262],[599671.0098974615,4098768.033546245],[599671.0789319662,4098768.00966823]]],[[[599804.0920153836,4098948.375251906],[599804.0741625245,4098948.4507923396],[599804.0642128763,4098948.527773416],[599804.0622730121,4098948.6053705723],[599804.0683637103,4098948.682752644],[599804.0824197319,4098948.7590907733],[599804.1042905193,4098948.8335672817],[599833.351418394,4099032.202550682],[599831.9529875468,4099062.1868581027],[599831.9530838307,4099062.2587469826],[599831.9600624418,4099062.330296401],[599831.9738592632,4099062.4008489917],[599831.9943475357,4099062.4697565455],[599853.1777546526,4099122.9404728496],[599857.058037926,4099161.1221248517],[599858.5503513936,4099160.970465647],[599854.6610911345,4099122.7004808816],[599854.6470021459,4099122.6132865087],[599854.62276005,4099122.5283531286],[599833.4581431077,4099062.111275756],[599834.8565821397,4099032.1267928397],[599834.856481681,4099032.0548194153],[599834.8494827352,4099031.9831870296],[599834.835649757,4099031.9125553607],[599834.8151101373,4099031.843574871],[599805.5994186525,4098948.564200949],[599810.9738079592,4098930.1413876987],[599810.9920325816,4098930.0637915893],[599811.0019192732,4098929.9846995776],[599811.0033563665,4098929.9050049866],[599810.9963276299,4098929.825607947],[599805.2128454755,4098889.2143609677],[599805.2015471299,4098889.1532735857],[599805.1852319408,4098889.0933308173],[599781.0396502091,4098812.974592689],[599759.5410490718,4098689.0561149167],[599759.5256275362,4098688.986858757],[599759.5037304921,4098688.9193698037],[599759.4755539126,4098688.8542520665],[599759.4413499713,4098688.7920883326],[599759.4014247854,4098688.7334349537],[599759.3561356755,4098688.6788168624],[599759.3058879683,4098688.6287228777],[599759.2511313688,4098688.5836013285],[599743.8986165891,4098677.1073747477],[599743.0005289137,4098678.3088066136],[599758.1141167949,4098689.606431886],[599779.5704190346,4098813.281097749],[599779.594485668,4098813.379666812],[599803.7366098807,4098889.487505141],[599809.4884792849,4098929.876769383],[599804.0920153836,4098948.375251906]]],[[[599858.5954096797,4099267.2443314716],[599858.5282355605,4099267.226116434],[599858.459662154,4099267.214206867],[599858.390280002,4099267.2087053326],[599858.3206866116,4099267.2096592095],[599858.2514813084,4099267.2170602833],[599842.5404475977,4099269.639065517],[599842.4693156288,4099269.653586436],[599842.3999208707,4099269.674916735],[599842.3329135509,4099269.702856549],[599842.2689215268,4099269.737144083],[599842.2085444026,4099269.7774580624],[599828.0570339178,4099280.251055371],[599828.0029975227,4099280.2950770026],[599827.9532810124,4099280.343924773],[599827.9083137462,4099280.397176825],[599827.8684840683,4099280.4543732656],[599819.8820057944,4099293.1421740935],[599819.8465343824,4099293.2050478947],[599819.8172720502,4099293.271040711],[599819.7944899014,4099293.339541146],[599819.7783990033,4099293.409914571],[599819.7691484318,4099293.4815090043],[599819.7668238897,4099293.553661152],[599819.7714469129,4099293.6257025534],[599819.7829746709,4099293.696965775],[599825.8417243792,4099322.330744458],[599825.9525090174,4099353.3456881093],[599815.5005830656,4099377.922575425],[599815.4743034284,4099377.994313008],[599815.4554582858,4099378.068351922],[599815.4442431879,4099378.1439238866],[599815.440774511,4099378.220244712],[599815.4450882482,4099378.296522441],[599815.4571396373,4099378.3719655597],[599815.4768036245,4099378.445791218],[599815.5038761622,4099378.5172333475],[599815.5380763265,4099378.5855506146],[599815.5790492322,4099378.65003411],[599823.7769143364,4099390.2062769677],[599825.1997856689,4099398.114104349],[599825.2151662497,4099398.181562522],[599825.2366979419,4099398.247316256],[599825.2641974997,4099398.3108059536],[599825.2974308875,4099398.3714912836],[599825.3361152718,4099398.428855783],[599825.3799214285,4099398.4824112495],[599825.4284765444,4099398.531701898],[599825.4813673903,4099398.5763082406],[599839.5744697195,4099409.3900794215],[599844.3655441706,4099420.278365576],[599844.4005019176,4099420.347806609],[599844.4424603261,4099420.4132557726],[599844.4909685503,4099420.4740098114],[599886.4549549675,4099467.778982869],[599885.5532629802,4099472.0465209116],[599887.0208610557,4099472.356611041],[599887.7403821736,4099468.9512533504],[599932.7848436314,4099507.256238494],[599963.2632244102,4099533.559396817],[599981.7910562803,4099566.739639467],[599986.1424472322,4099579.036333175],[599987.5565214857,4099578.535939324],[599983.1839190666,4099566.179303653],[599983.1602561224,4099566.120470278],[599983.1317077503,4099566.063846154],[599964.5083141105,4099532.712468385],[599964.4739047021,4099532.6567162503],[599964.4347610391,4099532.604179772],[599964.3911818179,4099532.555259844],[599964.3434995811,4099532.5103297625],[599933.7627984515,4099506.118867917],[599933.7586500779,4099506.115314103],[599887.7929638636,4099467.0269362964],[599845.6911347937,4099419.5665765963],[599840.8700143816,4099408.610007424],[599840.8362967885,4099408.542749773],[599840.7960104028,4099408.479208646],[599840.7495606283,4099408.420023461],[599840.6974148916,4099408.3657898013],[599840.6400979381,4099408.3170534233],[599826.6246948863,4099397.5629016357],[599825.223578215,4099389.7759791464],[599825.2045913253,4099389.6959342347],[599825.1769519066,4099389.6184503497],[599825.1409925014,4099389.5444597346],[599825.0971457533,4099389.4748526043],[599817.0449507862,4099378.1239558286],[599827.3932351501,4099353.79077361],[599827.4194057087,4099353.719388101],[599827.438214363,4099353.6457197657],[599827.4494678172,4099353.5705256914],[599827.4530504202,4099353.4945786437],[599827.3414393225,4099322.2482617907],[599827.3372309473,4099322.171555689],[599827.3251980597,4099322.095682465],[599821.3134255575,4099293.6839190475],[599829.0627769809,4099281.372832229],[599842.9520256979,4099271.093336048],[599858.1510005259,4099268.7502695597],[599874.1397213524,4099281.7471352625],[599874.2013574702,4099281.7922271104],[599874.2672596129,4099281.830817179],[599874.3367444732,4099281.8625053465],[599896.5246624222,4099290.6458561495],[599897.0767695133,4099289.2511598524],[599874.9962469307,4099280.5103227803],[599858.8388277593,4099267.376326049],[599858.7828413945,4099267.3349778103],[599858.7232631223,4099267.298997547],[599858.6606060201,4099267.268695114],[599858.5954096797,4099267.2443314716]]],[[[600071.9518727356,4099634.5570838326],[600071.8965228444,4099634.500547392],[600071.8355250263,4099634.450156463],[600067.1180821126,4099630.9547285456],[600067.0549888808,4099630.912744582],[600066.9879808186,4099630.8773421994],[600066.917742112,4099630.848882874],[600066.8449899337,4099630.82765719],[600066.7704671202,4099630.813881872],[600066.694934587,4099630.807697574],[600066.6191635596,4099630.80916744],[600066.5439276983,4099630.8182764617],[600066.4699951992,4099630.834931632],[600066.3981209507,4099630.858962893],[600066.329038825,4099630.890124873],[600066.2634541854,4099630.928099393],[600060.7628863056,4099634.4957786403],[600056.7729549498,4099633.8202964226],[600048.3674556975,4099625.594759741],[600048.3101071888,4099625.544100627],[600048.247895356,4099625.4995485763],[600048.1814677771,4099625.461567343],[600048.1115159127,4099625.430552283],[600048.0387679084,4099625.4068262386],[600047.9639810156,4099625.3906361805],[600047.8879337092,4099625.382150634],[600030.9261752539,4099624.3617272843],[600021.3789835057,4099616.0236552865],[600016.3689122669,4099603.2302796473],[600016.3378530932,4099603.1614052868],[600016.300022047,4099603.0960052735],[600011.975934558,4099596.4208414303],[600011.9329168809,4099596.36108242],[600011.8842466956,4099596.305829611],[600011.8303931096,4099596.255615558],[600011.7718751911,4099596.2109242496],[600011.7092569654,4099596.172186443],[599996.8361809731,4099587.952081054],[599996.110599475,4099589.264914436],[600010.8191808449,4099597.3941063425],[600014.9998511132,4099603.8478747006],[600020.0491415685,4099616.741397852],[600020.0785473974,4099616.807030326],[600020.1141044095,4099616.869544511],[600020.1554856495,4099616.928365574],[600020.2023106066,4099616.9829526404],[600020.2541487142,4099617.032803769],[600030.1322711633,4099625.659895207],[600030.1874543618,4099625.7036961466],[600030.2465041184,4099625.7421257445],[600030.3088993564,4099625.774844883],[600030.3740894771,4099625.8015648364],[600030.4414992188,4099625.822049818],[600030.510533733,4099625.836119061],[600030.5805838336,4099625.8436484127],[600047.5184159112,4099626.862632346],[600055.8916692405,4099635.0566134932],[600055.9484753783,4099635.1068402836],[600056.0100627313,4099635.151074498],[600056.0758017761,4099635.1888639904],[600056.1450205527,4099635.219822491],[600056.2170115319,4099635.243633553],[600056.2910388487,4099635.2600537883],[600060.800638898,4099636.023514202],[600060.869767932,4099636.03193832],[600060.9393803246,4099636.033914143],[600061.0088758887,4099636.0294246366],[600061.0776554439,4099636.018508508],[600061.1451259836,4099636.001259874],[600061.2107057871,4099635.9778274507],[600061.2738294352,4099635.948413268],[600061.3339526855,4099635.9132709308],[600066.6431481341,4099632.469716222],[600070.7450707605,4099635.5090693473],[600074.6733211923,4099648.214649998],[600074.6983190427,4099648.2834192407],[600074.7298992214,4099648.3494252525],[600074.7677611354,4099648.4120397614],[600074.8115443998,4099648.4706667773],[600074.8608322679,4099648.5247482653],[600074.9151555978,4099648.5737694553],[600074.9739973184,4099648.6172637446],[600075.0367973505,4099648.654817136],[600075.1029579381,4099648.6860721824],[600089.2831663358,4099654.556964692],[600089.856962721,4099653.171050659],[600076.0023119517,4099647.4349455787],[600072.1055546994,4099634.831226848],[600072.0782296695,4099634.7569750985],[600072.0432345241,4099634.686015114],[600072.000958719,4099634.6191365984],[600071.9518727356,4099634.5570838326]]],[[[599912.0886801436,4099634.6869131913],[599912.0509030669,4099634.6253766795],[599912.0073834489,4099634.56775817],[599911.958524676,4099634.5145917325],[599911.9047796234,4099634.4663701695],[599911.8466464574,4099634.423540451],[599911.7846640183,4099634.386499568],[599904.943136232,4099630.7329283743],[599904.236537813,4099632.056075635],[599910.8097866286,4099635.5663781976],[599917.9400471945,4099657.841593013],[599917.965234838,4099657.9089665874],[599917.9967605984,4099657.973617514],[599922.768397959,4099666.6734078187],[599922.8078818118,4099666.7375339945],[599922.853597371,4099666.797377363],[599922.905083731,4099666.852334581],[599931.3452194897,4099675.0],[599933.5049491422,4099675.0],[599924.0288067278,4099665.852227966],[599919.3466386615,4099657.3155607237],[599912.1456625143,4099634.819427647],[599912.1203645209,4099634.751797319],[599912.0886801436,4099634.6869131913]]],[[[600040.1191543473,4099665.6076164674],[600040.0538885535,4099665.576366375],[600039.9859149697,4099665.5515513797],[600039.9158663476,4099665.533402478],[600024.263780257,4099662.27483095],[600024.1945589029,4099662.263766175],[600024.12460685,4099662.2592125614],[600024.0545352024,4099662.26120989],[600023.9849561094,4099662.2697407114],[600023.9164774169,4099662.2847305005],[600013.0240216781,4099665.208599436],[599985.9881883205,4099666.780937396],[599985.9258917904,4099666.7871780274],[599964.5064541752,4099669.8404775406],[599964.4384341349,4099669.853401814],[599964.3718957821,4099669.872543662],[599964.3074061726,4099669.897739951],[599964.245514903,4099669.928775954],[599964.1867494256,4099669.9653871735],[599956.8801357567,4099675.0],[599959.5237990748,4099675.0],[599964.8926696279,4099671.300586595],[599986.1065561144,4099668.2765879985],[600013.1878069418,4099666.70160867],[600013.2638771213,4099666.6932739243],[600013.3387020015,4099666.677230935],[600024.1328838568,4099663.779741721],[600039.3522073013,4099666.948217397],[600045.9963341821,4099675.0],[600047.9410847327,4099675.0],[600040.3414835159,4099665.79031181],[600040.2927892134,4099665.7367855827],[600040.2391632458,4099665.688201144],[600040.181104806,4099665.6450107554],[600040.1191543473,4099665.6076164674]]]]}},{"type":"Feature","properties":{"class":"service","widthMeters":3},"geometry":{"type":"MultiPolygon","coordinates":[[[[599514.3984548085,4098444.2732391134],[599517.7890157893,4098450.2156458977],[599522.2777592645,4098458.0904914658],[599522.3727790669,4098458.236719472],[599522.4841283043,4098458.370931021],[599527.0788895959,4098463.29589749],[599527.1923816791,4098463.4053934333],[599527.3167424125,4098463.502368804],[599540.8081022507,4098472.9258083235],[599540.9255882008,4098473.0000184784],[599541.0494374908,4098473.0630379114],[599541.1785872133,4098473.114325773],[599541.3119289712,4098473.1534418967],[599541.4483183902,4098473.180050579],[599541.5865849402,4098473.193923455],[599550.0503633872,4098473.648549896],[599550.2115096085,4098473.6485372493],[599550.3717245484,4098473.631237599],[599561.2458363859,4098471.8618460787],[599561.3770853252,4098471.834418106],[599561.5053605716,4098471.795379164],[599570.608439778,4098468.5738418386],[599570.733496624,4098468.523146163],[599570.8534914022,4098468.4614167586],[599570.967452994,4098468.3891532],[599571.0744591072,4098468.3069403186],[599571.1736437408,4098468.215443462],[599599.7144085247,4098439.4051150633],[599605.863283132,4098436.6535868254],[599613.049704109,4098436.84788829],[599616.9639186586,4098439.708968982],[599618.6341817487,4098443.442002719],[599618.4818656876,4098447.311283235],[599617.4599332856,4098449.562700801],[599608.9922437166,4098454.4433837608],[599608.8876324662,4098454.5095766806],[599608.7888356912,4098454.584170337],[599608.696526308,4098454.6666566636],[599604.7099742738,4098458.5364405285],[599604.6052629799,4098458.6490715197],[599604.5126342191,4098458.771831888],[599604.4330616308,4098458.9034312735],[599604.3673816181,4098459.042486411],[599604.3162845568,4098459.187535663],[599603.1952064998,4098462.980095927],[599603.1606223672,4098463.1222667038],[599603.1400542408,4098463.267130585],[599603.1336978251,4098463.413309201],[599603.141613601,4098463.5594116733],[599603.1637262502,4098463.7040478466],[599603.1998253725,4098463.845841518],[599613.3098982146,4098496.7520624655],[599616.1776004252,4098495.8709926433],[599606.2003091023,4098463.3969484046],[599607.081736512,4098460.4151162757],[599610.6521230954,4098456.94930816],[599619.3756550339,4098451.921160478],[599619.5060792466,4098451.8366959537],[599619.6270656912,4098451.739192049],[599619.7373160627,4098451.6296950774],[599619.8356472655,4098451.5093800505],[599619.9210041085,4098451.3795380676],[599619.9924706278,4098451.241562462],[599621.3350291912,4098448.283773936],[599621.3885010476,4098448.1490196954],[599621.4287143146,4098448.0097328047],[599621.4552933476,4098447.8672143854],[599621.4679898636,4098447.7227957468],[599621.6456768371,4098443.2090186724],[599621.6447578839,4098443.071053018],[599621.6311662822,4098442.9337554043],[599621.6050170193,4098442.7982873917],[599621.5665313221,4098442.665795062],[599621.5160347859,4098442.537399322],[599619.5397079589,4098438.120313916],[599619.4688796381,4098437.9817725834],[599619.3840806666,4098437.8513138304],[599619.2862234946,4098437.730341413],[599619.1763610805,4098437.620157014],[599619.0556755611,4098437.521946234],[599614.4426676648,4098434.150085122],[599614.3164510506,4098434.067238954],[599614.1825457456,4098433.997500223],[599614.0423083073,4098433.941575433],[599613.8971594418,4098433.900031142],[599613.7485696117,4098433.873288224],[599613.5980441392,4098433.8616176033],[599605.6029201777,4098433.6454509883],[599605.468648895,4098433.6478343373],[599605.3351288888,4098433.662217163],[599605.203430364,4098433.6884841816],[599605.0746089257,4098433.726424856],[599604.9496971184,4098433.775735079],[599598.2332878554,4098436.7812264776],[599598.1096558807,4098436.8435501903],[599597.9922970092,4098436.9170076996],[599597.882211092,4098437.000973176],[599597.780336018,4098437.094731267],[599569.2839679407,4098465.8602436385],[599560.6312834279,4098468.9223883804],[599550.0496599344,4098470.6441873796],[599542.1749991606,4098470.2212050175],[599529.164444165,4098461.1335978685],[599524.7972799385,4098456.452584859],[599520.3951790385,4098448.729741049],[599519.0920189357,4098449.4725557948],[599520.3948650453,4098448.729190464],[599517.0041470277,4098442.786508452],[599514.3984548085,4098444.2732391134]]],[[[599728.5175473285,4098699.4171385765],[599728.6597783458,4098699.4649055866],[599728.8060697757,4098699.498224756],[599728.954957966,4098699.5167627255],[599729.1049532839,4098699.5203340217],[599746.030214353,4098699.0763063445],[599745.9515375837,4098696.077338194],[599729.3304460632,4098696.5133861005],[599707.9898864613,4098688.1368453135],[599706.8937513197,4098690.9294225737],[599728.5175473285,4098699.4171385765]]],[[[599757.5774691005,4098959.286939898],[599747.7924506139,4098964.5528926924],[599747.6614877298,4098964.632248513],[599747.5392978487,4098964.724542913],[599747.4271543861,4098964.8288140357],[599747.3262260571,4098964.943975209],[599747.2375646979,4098965.0688262666],[599747.1620943024,4098965.2020660606],[599743.0078924908,4098973.496916135],[599742.9464215278,4098973.6370981727],[599742.8995568705,4098973.7828149763],[599742.8677865294,4098973.9325491693],[599742.8514413354,4098974.08474154],[599742.850691494,4098974.2378072795],[599742.8655448135,4098974.390152486],[599743.871397616,4098981.1258937865],[599743.8984880382,4098981.2631381247],[599743.938246356,4098981.3972618566],[599743.990326762,4098981.5270984103],[599744.0542762749,4098981.6515185013],[599744.1295386788,4098981.7694399576],[599744.2154593614,4098981.8798371297],[599744.3112910076,4098981.9817498126],[599760.0665153478,4098997.243593413],[599765.9247662502,4099015.469026783],[599771.562459281,4099038.507357924],[599772.4244082714,4099048.289822957],[599768.5413855589,4099050.9272925043],[599755.9020933677,4099042.5726884906],[599747.5268863019,4099032.16888373],[599747.4370549509,4099032.067091453],[599747.3383879542,4099031.9738382325],[599747.2316935632,4099031.889887972],[599747.117845787,4099031.8159283665],[599746.997777233,4099031.7525652726],[599734.099689462,4099025.675499023],[599733.9598812122,4099025.618045663],[599733.8150006458,4099025.5749544026],[599733.6665189273,4099025.5466628037],[599733.5159437887,4099025.5334581495],[599723.1662226438,4099025.1496665217],[599705.3298729479,4099020.146190104],[599697.0174800024,4099017.374193624],[599696.8780451673,4099017.3350647655],[599696.7354868116,4099017.3095646477],[599696.5911337781,4099017.2979309666],[599696.4463316386,4099017.3002721653],[599696.3024301513,4099017.31656642],[599696.1607706787,4099017.346661845],[599696.022673685,4099017.3902779105],[599695.8894264268,4099017.4470080524],[599695.7622709548,4099017.5163234673],[599695.6423925352,4099017.5975780385],[599695.5309086025,4099017.69001436],[599695.4288583423,4099017.7927707965],[599695.3371930058,4099017.904889514],[599695.2567670416,4099018.0253254105],[599695.188330132,4099018.1529558543],[599695.1325202046,4099018.286591152],[599695.089857486,4099018.424985636],[599695.0607396519,4099018.566849277],[599694.1848118359,4099024.2041440355],[599694.1689654025,4099024.3581961053],[599694.1690870615,4099024.513060998],[599694.1851755161,4099024.6670879805],[599694.2170592765,4099024.8186352523],[599694.2643984881,4099024.9660874438],[599694.3266885539,4099025.107872836],[599694.403265513,4099025.242480113],[599694.4933131179,4099025.3684744723],[599694.5958715351,4099025.4845129177],[599701.8035882431,4099032.8370148772],[599701.9120193354,4099032.937242376],[599702.0297793668,4099033.0263233976],[599702.1557272241,4099033.103394732],[599702.2886424527,4099033.167709546],[599723.7972365118,4099042.297628622],[599724.9694367038,4099039.5361169507],[599703.7363637679,4099030.5231504543],[599697.2647260568,4099023.9215135034],[599697.7525853828,4099020.7817492774],[599704.4152543566,4099023.00359984],[599704.4846376776,4099023.0248868414],[599722.5274660415,4099028.086284928],[599722.7006258932,4099028.1239872593],[599722.8770237969,4099028.1410042974],[599733.0983838366,4099028.5200359984],[599745.4066230321,4099034.319189046],[599753.7116736089,4099044.6358443894],[599753.8145547652,4099044.7509727404],[599753.9287256692,4099044.854915389],[599754.0529766635,4099044.9465710483],[599767.5537888518,4099053.8706419524],[599777.5361524379,4099065.3950823224],[599782.9783558531,4099071.95223501],[599781.2360533801,4099087.708253054],[599781.22727734,4099087.8425417566],[599781.2305724409,4099087.977076573],[599781.9225775681,4099097.937919452],[599781.9395359127,4099098.081493899],[599781.9702373574,4099098.22276891],[599782.0143967035,4099098.360432121],[599782.0716037358,4099098.4932047194],[599782.1413270342,4099098.6198533243],[599782.2229189092,4099098.739201443],[599782.3156214189,4099098.8501403993],[599782.4185734105,4099098.951639635],[599782.5308185192,4099099.04275628],[599782.6513140522,4099099.1226439136],[599782.7789406753,4099099.1905604247],[599782.9125128106,4099099.2458749083],[599783.0507896495,4099099.288073525],[599790.8643842833,4099101.266475166],[599791.0193079651,4099101.297125874],[599791.1765955645,4099101.311318272],[599791.334503579,4099101.30889504],[599811.6058338681,4099099.928088156],[599811.4019575632,4099096.9350237646],[599791.3690662512,4099098.2995890807],[599784.8400869698,4099096.6464519612],[599784.23271395,4099087.903818445],[599786.0301643022,4099071.649086204],[599786.0391803874,4099071.498879827],[599786.0331016964,4099071.348525928],[599786.0119894033,4099071.1995376176],[599785.976055975,4099071.053414265],[599785.9256630334,4099070.9116264065],[599785.8613177163,4099070.775600947],[599785.7836675734,4099070.6467068014],[599785.6934940495,4099070.526241117],[599779.8345428103,4099063.4669610914],[599779.8141014212,4099063.4428532845],[599770.7910097068,4099053.025873226],[599774.838751609,4099050.2765212925],[599774.9544406965,4099050.189496857],[599775.0612019952,4099050.091725479],[599775.1580410961,4099049.984117831],[599775.244056009,4099049.867676206],[599775.3184455635,4099049.743485178],[599775.3805168718,4099049.612701501],[599775.4296917818,4099049.4765433376],[599775.4655122625,4099049.336278907],[599775.4876446709,4099049.1932146773],[599775.4958828585,4099049.0486831944],[599775.4901500922,4099048.9040306704],[599774.5408487224,4099038.1301826155],[599774.5265259319,4099038.017031771],[599774.5036472463,4099037.9052962726],[599768.826120939,4099014.704187164],[599768.7971525835,4099014.601711716],[599762.8077588411,4098995.9682836845],[599762.7559589901,4098995.8306790115],[599762.6909360476,4098995.6988067725],[599762.6133147619,4098995.573934011],[599762.5238409276,4098995.4572605197],[599762.4233742201,4098995.349907312],[599746.7634714806,4098980.1804002807],[599745.902699267,4098974.416198069],[599749.6320048077,4098966.969754265],[599758.7512532613,4098962.062095486],[599774.819103433,4098960.0813037585],[599774.4520518507,4098957.103842905],[599758.1047892006,4098959.119079684],[599757.9676765869,4098959.1424804507],[599757.8333211023,4098959.178481401],[599757.7028780524,4098959.2267729677],[599757.5774691005,4098959.286939898]]]]}},{"type":"Feature","properties":{"class":"tertiary","widthMeters":8},"geometry":{"type":"Polygon","coordinates":[[[599637.3118196455,4097878.517010559],[599567.5347324583,4098012.168875185],[599571.0805747106,4098014.0200917367],[599567.4879712879,4098012.261341997],[599508.9933032782,4098131.7485775836],[599512.5859067009,4098133.5073273233],[599508.6016813269,4098133.152435553],[599506.0495414815,4098161.804270223],[599506.0350916405,4098162.2621014128],[599506.6396793188,4098185.747271367],[599506.6773221936,4098186.2013084283],[599507.875963116,4098194.725645847],[599507.9436543519,4098195.086217755],[599508.0440969093,4098195.4390711193],[599508.176445852,4098195.7812376893],[599508.3395878422,4098196.109839112],[599521.8777748115,4098220.501605102],[599522.1920012035,4098220.982698205],[599533.6250883649,4098236.0073221335],[599533.875217085,4098236.304839243],[599534.1530413012,4098236.5766746933],[599548.4690969909,4098249.2829857715],[599548.6980527587,4098249.4714964093],[599548.9403465054,4098249.6425248994],[599576.1562777844,4098267.379401997],[599589.0512714698,4098277.2438005493],[599602.5166808716,4098291.009888775],[599609.3329199967,4098301.318712586],[599614.2893680892,4098313.5175551735],[599615.7415283339,4098324.618563057],[599614.8575419083,4098340.6542325523],[599612.3843796914,4098355.7315625246],[599607.231966828,4098369.8886485607],[599597.9495066515,4098384.7379492456],[599579.4772177438,4098403.8421572633],[599558.4004786572,4098417.480616255],[599513.9340131448,4098439.9412340857],[599466.7411979217,4098462.591262261],[599466.3613709958,4098462.799578783],[599442.3264586299,4098477.7290018117],[599441.9199475894,4098478.01812635],[599424.5765189449,4098492.0609319615],[599424.2744076637,4098492.3320508064],[599424.0013302023,4098492.6323928684],[599423.76009886,4098492.958865063],[599410.1571589941,4098513.4699408775],[599409.9524782001,4098513.8149647834],[599409.7833863941,4098514.1787554985],[599400.2001959904,4098537.832716576],[599400.072405167,4098538.197992981],[599399.9805101412,4098538.573908731],[599399.9253710351,4098538.956945316],[599395.5433725225,4098585.150622547],[599389.5643302593,4098635.8991434784],[599377.1240929598,4098728.9352010996],[599377.0943761335,4098729.2543272697],[599374.6921179974,4098774.728741305],[599378.6865483552,4098774.939753432],[599374.8013783575,4098775.8913069456],[599383.1627307998,4098810.030506878],[599383.2739337184,4098810.404537193],[599383.4210517755,4098810.765952526],[599383.6026849146,4098811.1113134506],[599383.8171046155,4098811.4373333235],[599402.5087471416,4098837.0434224014],[599402.7598654617,4098837.3536600317],[599403.0406516517,4098837.637326938],[599403.3483099972,4098837.8915987224],[599403.679777225,4098838.1139436685],[599428.6606165471,4098853.120116945],[599429.0964827735,4098853.346752506],[599478.5476811456,4098875.314468707],[599507.2182981978,4098890.807242952],[599554.8896801501,4098924.9515704494],[599597.7265047702,4098961.098201987],[599648.1492865473,4099007.20812269],[599648.2282982355,4099007.278480259],[599686.0759840201,4099040.0936872642],[599711.0279465636,4099063.5424955734],[599725.180329924,4099079.544724923],[599736.1279167009,4099098.3716538106],[599744.1056423855,4099118.1348782713],[599749.3310300409,4099135.9810136887],[599754.0806883322,4099166.012487303],[599765.5548618161,4099261.585681301],[599771.4441061825,4099339.3251317944],[599771.4635938727,4099339.5193359586],[599774.4874215237,4099363.698861334],[599774.5458686455,4099364.0432855235],[599774.6341451454,4099364.3812963935],[599780.2801368128,4099382.6889358945],[599780.3970151214,4099383.0165926684],[599780.5419206504,4099383.3328550407],[599790.0279744341,4099401.8633289468],[599790.240341432,4099402.2291034297],[599790.4901436489,4099402.570409109],[599798.1099482808,4099411.9028773187],[599798.2370582052,4099412.0510258554],[599808.1323658103,4099423.030297461],[599808.3743203166,4099423.2765077716],[599820.7270613284,4099434.806281065],[599820.9903960917,4099435.031538411],[599821.2722391776,4099435.233158213],[599839.5975849862,4099447.177404836],[599839.6313553844,4099447.1991751087],[599883.9527404613,4099475.457103347],[599899.8396338419,4099488.213652303],[599913.6891124493,4099505.082009901],[599919.60060204,4099517.9984696736],[599923.740743655,4099535.8107341635],[599922.1683283934,4099557.995758016],[599910.2720426882,4099600.378866892],[599900.7785477149,4099630.180387589],[599900.6760602725,4099630.5684562726],[599900.6129799093,4099630.9648422543],[599898.1562556415,4099653.7038616044],[599898.1332012732,4099654.1069104583],[599898.1508909737,4099654.510230377],[599898.2091445517,4099654.909713046],[599898.3073686218,4099655.3012892385],[599903.3855476638,4099671.9379975675],[599903.4984199022,4099672.258376953],[599903.6380673058,4099672.5680246493],[599903.8034828153,4099672.8647076488],[599905.1158576588,4099675.0],[599914.5060553412,4099675.0],[599910.8874300232,4099669.112335358],[599906.1979341682,4099653.7489985973],[599908.5234170094,4099632.2247274285],[599917.915718898,4099602.7408671733],[599917.9556003453,4099602.607717057],[599929.980702999,4099559.7656697454],[599930.0703721405,4099559.3701111004],[599930.1195227493,4099558.9675053204],[599931.76334074,4099535.775068677],[599931.771673798,4099535.376472929],[599931.7402865076,4099534.979027526],[599931.669490678,4099534.586680791],[599927.3016378717,4099515.7947271154],[599927.1912247379,4099515.408700348],[599927.0426685737,4099515.0356872226],[599920.7473322483,4099501.2805317487],[599920.5907640052,4099500.9740169803],[599920.4084251785,4099500.682096665],[599920.2016658154,4099500.406932198],[599905.7592284315,4099482.816363969],[599905.4807061257,4099482.5108034606],[599905.1721302855,4099482.2356256098],[599888.7914685843,4099469.082600162],[599888.437456145,4099468.828762232],[599843.9490835124,4099440.4643679536],[599825.9317003344,4099428.720847781],[599813.9592992237,4099417.5460752784],[599804.2450149218,4099406.7676568544],[599796.9555823113,4099397.839816655],[599787.8220450279,4099379.997963956],[599782.3821131497,4099362.3584919907],[599779.4138744232,4099338.6234740294],[599773.525374818,4099260.893854563],[599773.5082844996,4099260.719211819],[599762.0147394162,4099164.9846636597],[599761.994151269,4099164.8366078893],[599757.1927750563,4099134.4781285636],[599757.0807085243,4099133.978969286],[599751.7277108489,4099115.6970105674],[599751.5980850488,4099115.3237522445],[599743.4390549053,4099095.1113821426],[599743.1877477692,4099094.597942311],[599731.8969764468,4099075.180827553],[599731.681970894,4099074.849816696],[599731.4353886192,4099074.541607746],[599716.898156044,4099058.104225868],[599716.6411162721,4099057.839298],[599691.4961349609,4099034.209098745],[599691.3772243278,4099034.101753565],[599653.5089793579,4099001.26872106],[599603.0664088634,4098955.1407042467],[599602.9466535223,4098955.035496151],[599559.9275483184,4098918.7350523467],[599559.6771039427,4098918.540191001],[599511.6712869498,4098884.1563265086],[599511.2437267802,4098883.889170743],[599482.2146822871,4098868.202712651],[599481.9369753546,4098868.0662512477],[599432.5691874464,4098846.1355884946],[599408.4931320241,4098831.6729255384],[599390.7449486747,4098807.3593017794],[599382.7121116939,4098774.561422536],[599385.0747762038,4098729.836510365],[599397.4979055378,4098636.9283970604],[599397.5057159949,4098636.8662899174],[599403.4937324171,4098586.0415987098],[599403.5033316059,4098585.9513174747],[599407.8343886158,4098540.2946498594],[599417.0467754711,4098517.5559343663],[599430.0878457775,4098497.8920687316],[599446.7599349505,4098484.3928401656],[599470.3982950129,4098469.709737864],[599517.4320684888,4098447.1360412245],[599517.5047464592,4098447.1002496984],[599562.197839946,4098424.525158989],[599562.5674634215,4098424.3130223514],[599584.2076743616,4098410.309948713],[599584.5754090867,4098410.0410971325],[599584.9101911752,4098409.7321781246],[599603.9935699578,4098389.9959754394],[599604.2690273836,4098389.6794317486],[599604.509808228,4098389.335773071],[599614.2386732721,4098373.772351347],[599614.4418919075,4098373.4058431988],[599614.6056490986,4098373.0200847005],[599620.0298892024,4098358.116109444],[599620.140919712,4098357.7602423658],[599620.2183385309,4098357.3955843374],[599622.7868800998,4098341.7367858486],[599622.8335668537,4098341.3094820203],[599623.749840562,4098324.6881155293],[599623.7530920634,4098324.3179714372],[599623.7221133444,4098323.9491116535],[599622.155048207,4098311.969715779],[599622.0964377364,4098311.633753406],[599622.0094224688,4098311.3040046426],[599621.8946349283,4098310.9828664726],[599616.5947453344,4098297.938743407],[599616.4275179988,4098297.579342673],[599616.2255388565,4098297.2382586724],[599608.9794782343,4098286.279376376],[599608.7549795267,4098285.9725983096],[599608.5023723315,4098285.6885172357],[599594.5693179123,4098271.44434161],[599594.140182568,4098271.0643552374],[599580.8970748557,4098260.9336567875],[599580.6507058392,4098260.759514941],[599553.557285166,4098243.1024791515],[599539.7552355252,4098230.8523775833],[599528.732799461,4098216.367404775],[599515.6946599208,4098192.876574775],[599514.6311578859,4098185.3133003856],[599514.0383457991,4098162.285552529],[599516.5043766444,4098134.6004285337],[599574.6503964249,4098015.8253777414],[599644.4287460046,4097882.1710951137],[599644.4779020811,4097882.073727762],[599680.1612781544,4097808.9307931415],[599680.3194836145,4097808.5602231314],[599690.8610518,4097779.9581492054],[599690.9819417276,4097779.570559663],[599697.2968772153,4097755.0],[599689.0368808549,4097755.0],[599683.2843513627,4097777.38231402],[599672.88283484,4097805.6043905923],[599637.3118196455,4097878.517010559]]]}},{"type":"Feature","properties":{"class":"track","widthMeters":2.5},"geometry":{"type":"MultiPolygon","coordinates":[[[[599678.657866975,4097884.428697636],[599671.7751947398,4097897.1439265194],[599651.5487866575,4097922.325016785],[599632.9312609375,4097945.4838229343],[599632.8909790863,4097945.53675518],[599616.7192329305,4097968.003381638],[599616.6416696514,4097968.1254597134],[599616.5787272854,4097968.2556802086],[599605.4345114637,4097995.1864168574],[599605.3936241658,4097995.3006153586],[599605.3639979102,4097995.4182391395],[599605.3459116684,4097995.5381806116],[599605.3395357471,4097995.6593103623],[599605.2228420594,4098024.4684586166],[599604.8675039461,4098056.1707230955],[599604.8693032324,4098056.2532236427],[599605.8069519757,4098073.340224918],[599605.8084694562,4098073.363803088],[599608.2870482814,4098106.9235608396],[599608.2991348312,4098107.027616669],[599608.3198916097,4098107.1302950815],[599608.3491728385,4098107.23087495],[599619.0113766564,4098138.8525774055],[599591.0613828949,4098123.8139060764],[599590.9706408088,4098123.769709141],[599590.8766287038,4098123.732977419],[599554.4685845042,4098111.177223675],[599554.3725105175,4098111.148349626],[599554.2744305044,4098111.127272799],[599536.6152359886,4098108.0680090236],[599536.4018652078,4098109.299663565],[599536.6133087233,4098108.0676766983],[599509.6845041565,4098103.445938222],[599509.5736799145,4098103.4319813657],[599509.4620522119,4098103.4279735642],[599509.3505124132,4098103.4339468204],[599509.2399511813,4098103.449853438],[599509.131251365,4098103.4755663993],[599503.0971953642,4098105.1909416285],[599488.2809903137,4098109.3985280064],[599465.3297984514,4098109.936985964],[599448.4141601097,4098104.671305419],[599363.0,4098065.602552525],[599363.0,4098068.3516639094],[599447.4466702252,4098106.9778833506],[599447.5950865799,4098107.0346625615],[599462.819437817,4098111.773861195],[599452.7410756622,4098121.960258995],[599452.7244156529,4098121.9774229936],[599433.6780681721,4098141.979368299],[599420.6510880132,4098148.229948997],[599387.9110008313,4098156.9117576214],[599363.5900469852,4098152.0091545824],[599363.0,4098151.8305622186],[599363.0,4098154.4386129477],[599363.037790362,4098154.448118084],[599387.7026838129,4098159.420052259],[599387.8158349736,4098159.4375125165],[599387.9301090604,4098159.4445466343],[599388.0445474111,4098159.441095602],[599388.1581899852,4098159.4271883704],[599388.2700834183,4098159.4029416107],[599416.0118469232,4098152.046556751],[599382.1824466315,4098180.5363103426],[599382.0897784154,4098180.6227499368],[599382.0063383899,4098180.7181279417],[599381.9329841423,4098180.821464073],[599381.8704695996,4098180.9316962534],[599381.8194372791,4098181.0476915287],[599381.7804116855,4098181.168257713],[599381.7537939195,4098181.2921556393],[599381.7398575554,4098181.4181118994],[599381.7387458297,4098181.5448319283],[599383.3276779316,4098219.40950883],[599381.1455500363,4098225.8177915905],[599367.182341414,4098227.7373019066],[599363.0,4098227.335591609],[599363.0,4098229.8470969307],[599367.0885374582,4098230.239797439],[599367.2335830244,4098230.2452629227],[599367.3782842988,4098230.233877453],[599382.250367388,4098228.1894249436],[599382.3738067657,4098228.1660836292],[599382.4942798686,4098228.1304700314],[599382.6105698532,4098228.0829438665],[599382.7215021277,4098228.0239851745],[599382.825956216,4098227.95418947],[599382.922877075,4098227.8742617276],[599383.0112857517,4098227.785009261],[599383.0902892705,4098227.6873335685],[599383.1590896529,4098227.5822212277],[599383.216991978,4098227.4707339294],[599383.2634114006,4098227.3539977563],[599385.7696697051,4098219.9938370977],[599385.8018389256,4098219.8827745314],[599385.8236079876,4098219.7692145896],[599385.8347906212,4098219.6541289645],[599385.8352911404,4098219.538502402],[599384.2622789135,4098182.053200381],[599421.7693120932,4098150.4662930155],[599434.9660911383,4098144.13423974],[599435.0658634914,4098144.080677907],[599435.1603791191,4098144.018306531],[599435.2488623342,4098143.9476374923],[599435.3305869575,4098143.8692507693],[599454.5266538162,4098123.71007433],[599465.6878108502,4098112.4292745623],[599488.4987116718,4098111.894107973],[599488.603971283,4098111.8871862544],[599488.7082724853,4098111.871414281],[599488.8108724875,4098111.846904375],[599503.7803186041,4098107.5957997674],[599509.5416103131,4098105.9579666434],[599535.7690142378,4098110.459325088],[599557.3780206372,4098134.046140904],[599557.391682708,4098134.0608153883],[599582.3912766868,4098160.484848649],[599582.4322447681,4098160.5261799125],[599621.357867101,4098198.009999948],[599621.4963747647,4098198.125337008],[599656.1651163301,4098222.991647636],[599668.5013227877,4098245.477492356],[599674.1308501399,4098265.50770325],[599676.498565152,4098302.071867649],[599676.7030040398,4098337.471332731],[599675.5886591782,4098357.4471709793],[599678.0847783266,4098357.586416077],[599679.2012648266,4098337.572186641],[599679.2031844073,4098337.4953452162],[599678.9983108419,4098302.0206138366],[599678.9957191384,4098301.9470580514],[599676.6171402043,4098265.215124209],[599676.6018763279,4098265.0852534436],[599676.5731285629,4098264.957687901],[599670.8693847134,4098244.6634100615],[599670.8231483201,4098244.5288331606],[599670.7619163283,4098244.400383211],[599658.2411147446,4098221.57806736],[599647.0099726901,4098197.2617777847],[599636.4275397882,4098168.8767966907],[599636.3724132865,4098168.750636952],[599622.3636767559,4098140.9701764695],[599610.7686192739,4098106.581839507],[599608.3025490574,4098073.191447312],[599607.3678096109,4098056.15746286],[599607.7227351719,4098024.492005142],[599607.7228034306,4098024.483058448],[599607.8385196703,4097995.915220966],[599618.8331727011,4097969.3459127205],[599634.9005593525,4097947.0242678854],[599653.4973992233,4097923.8911933815],[599673.7951544859,4097898.621278821],[599673.8617663257,4097898.5302191563],[599673.9198963207,4097898.433524258],[599680.9500523391,4097885.4458299717],[599681.0058986178,4097885.3284623674],[599681.0492554428,4097885.2059301385],[599681.0796540346,4097885.07955812],[599694.0058188153,4097815.642303892],[599702.489331573,4097770.6515823114],[599702.5049566,4097770.542508536],[599704.0360732417,4097755.0],[599701.523971873,4097755.0],[599700.0224061413,4097770.242534479],[599691.5488428246,4097815.1804910614],[599691.5483079111,4097815.1833460885],[599678.657866975,4097884.428697636]],[[599553.7486026743,4098113.573416262],[599589.9659266821,4098126.0633978443],[599620.268671707,4098142.3679819056],[599634.109124811,4098169.8147227075],[599644.6840377961,4098198.1795333265],[599644.7204844436,4098198.267010063],[599654.0029366477,4098218.3642356764],[599623.0268833386,4098196.146522288],[599584.1873115067,4098158.7455654494],[599559.2146102804,4098132.34995725],[599539.7984623661,4098111.1567058694],[599553.7486026743,4098113.573416262]]],[[[599927.0835092594,4099603.230408251],[599927.189479176,4099603.1751949377],[599927.2896929465,4099603.110115499],[599927.3832348171,4099603.035764631],[599927.4692500015,4099602.9528217516],[599927.5469524926,4099602.862044794],[599942.4299026334,4099583.690960254],[599947.802525185,4099583.0283308555],[599966.8254580895,4099586.4178021476],[599966.9396440247,4099586.4327591816],[599967.0547218831,4099586.4371440606],[599967.1697149104,4099586.4309195657],[599978.8271058995,4099585.259425656],[599978.9434113017,4099585.2421801058],[599979.0575818436,4099585.214083078],[599979.1686073911,4099585.175383163],[599979.2755056361,4099585.1264227624],[599979.3773307869,4099585.0676350575],[599987.0088091396,4099580.1692142594],[599990.171944295,4099581.292612722],[599995.4286458661,4099589.2947988645],[599997.518134582,4099587.9221966253],[599992.030826556,4099579.5689622536],[599991.9628762953,4099579.4752804944],[599991.8865531058,4099579.3882846283],[599991.802511218,4099579.3087203708],[599991.711471026,4099579.2372697345],[599991.6142129124,4099579.1745451833],[599991.5115705589,4099579.1210843828],[599991.4044237997,4099579.07734559],[599987.2678259605,4099577.6082184664],[599987.1465356007,4099577.57194493],[599987.0221982801,4099577.5481257886],[599986.896089371,4099577.5370053626],[599986.7695024177,4099577.538697718],[599986.6437358677,4099577.553185497],[599986.5200797536,4099577.580320092],[599986.3998024601,4099577.619823174],[599986.2841377147,4099577.6712895464],[599986.1742719316,4099577.7341912994],[599978.27903435,4099582.801911365],[599967.0927807555,4099583.926058952],[599948.0556766154,4099580.5340626556],[599947.9321221847,4099580.5183507064],[599947.8076174931,4099580.515012372],[599947.6833986281,4099580.5240807957],[599941.608159588,4099581.273367006],[599941.4869079465,4099581.2944255816],[599941.3683147302,4099581.3273052596],[599941.2535294716,4099581.3716873345],[599941.1436647924,4099581.4271416077],[599941.0397856187,4099581.4931305572],[599940.9428988589,4099581.569014547],[599940.8539436432,4099581.6540580285],[599940.7737822208,4099581.747436669],[599925.9694404798,4099600.8172638468],[599914.1614512063,4099600.278054021],[599914.0474079745,4099602.775451495],[599926.5025448033,4099603.344213204],[599926.6220356616,4099603.3439525287],[599926.7409556755,4099603.33228362],[599926.8582181535,4099603.309313108],[599926.9727515504,4099603.275250898],[599927.0835092594,4099603.230408251]]]]}},{"type":"Feature","properties":{"class":"unclassified","widthMeters":4},"geometry":{"type":"Polygon","coordinates":[[[599606.3718510353,4098248.2872480075],[599606.388908324,4098248.29846125],[599633.5105434617,4098265.9303138116],[599650.1014551047,4098282.22509874],[599661.1258203806,4098305.7824715395],[599668.7817095519,4098341.1142717823],[599668.8561091085,4098341.372419664],[599674.8962443719,4098358.032342123],[599682.3129864326,4098400.841149312],[599682.3280616119,4098400.918962021],[599696.9793256971,4098469.261890886],[599718.1941839175,4098580.7992391195],[599718.233938464,4098580.9680204345],[599730.11153816,4098623.11560577],[599730.1175380627,4098623.136462283],[599736.2379021898,4098643.985291288],[599741.4727820526,4098678.0118975774],[599743.5914675345,4098691.8119592974],[599743.9955478186,4098697.713444283],[599745.8500890094,4098724.532315591],[599745.8526141073,4098724.5649491036],[599748.3782008963,4098754.064403375],[599748.3958960243,4098754.208941823],[599756.5004106549,4098805.000175211],[599759.1990931744,4098826.520562883],[599759.8912237755,4098860.332284771],[599759.8915982628,4098860.347681568],[599761.6538022503,4098922.8916876987],[599761.6701030813,4098923.096289539],[599763.3927239156,4098936.187120043],[599763.4391960622,4098936.4264144124],[599763.5144346352,4098936.6582777617],[599768.3682772447,4098948.998252231],[599768.3899269557,4098949.051067279],[599772.7960322857,4098959.3774764356],[599772.8262267307,4098959.4447759367],[599801.7769775027,4099020.9114588373],[599801.7885015217,4099020.935508745],[599809.3250075113,4099036.3983267657],[599819.7338669734,4099077.067191445],[599819.7502639366,4099077.1273380495],[599831.5024463023,4099117.7313800314],[599837.0017435236,4099136.7303111134],[599841.5582464488,4099153.59797326],[599841.2625033016,4099166.3240824984],[599834.5645464769,4099194.9687457834],[599834.5402067029,4099195.089498535],[599827.3725955717,4099237.3256624555],[599824.7253701533,4099242.5803915695],[599821.6450831377,4099246.3990205145],[599804.5419463759,4099255.632853301],[599804.3904704629,4099255.723486439],[599804.2475760245,4099255.82712281],[599804.1143761842,4099255.9429551046],[599797.5291704562,4099262.2008089637],[599797.4030807541,4099262.3320544497],[599797.2894440945,4099262.4742187914],[599797.1892015025,4099262.626124727],[599792.4249250335,4099270.6141747725],[599792.3342273227,4099270.7844006866],[599792.2603489333,4099270.9625717285],[599792.2039769884,4099271.1470307764],[599790.1981786437,4099279.056668062],[599790.148712182,4099279.3304651887],[599784.9990311353,4099326.332990762],[599781.17707397,4099352.2309021084],[599779.8377000841,4099356.7796245352],[599776.7220156002,4099362.20673394],[599780.1909944054,4099364.198262511],[599783.4241202518,4099358.566585819],[599783.5288142129,4099358.3565724827],[599783.60818886,4099358.1357420227],[599785.0537530454,4099353.226380791],[599785.1137652377,4099352.953453369],[599788.9616315264,4099326.879979569],[599788.9711645348,4099326.8058066573],[599794.1097308075,4099279.9047286194],[599796.0096044535,4099272.412793317],[599800.4838140848,4099264.911085412],[599806.6766853428,4099259.026062999],[599823.8993513878,4099249.7276974064],[599824.0690440226,4099249.6248984216],[599824.2277165083,4099249.5057923184],[599824.3738073799,4099249.3715511966],[599824.5058789855,4099249.2234960967],[599827.9724009443,4099244.9260520525],[599828.096579673,4099244.7542091273],[599828.2018696378,4099244.570186381],[599831.0802220843,4099238.856671281],[599831.1607881197,4099238.674751814],[599831.2228804376,4099238.485727682],[599831.2658845481,4099238.2914695414],[599838.4735136381,4099195.819494129],[599845.204618079,4099167.0330708525],[599845.2411765654,4099166.8299592375],[599845.2566097021,4099166.624161596],[599845.5638824066,4099153.4019245296],[599845.5591747893,4099153.210675344],[599845.536215978,4099153.02075087],[599845.4952160362,4099152.8338888423],[599840.8586583736,4099135.669873047],[599840.8490037326,4099135.6353636547],[599835.3447419582,4099116.6192810726],[599823.6012291601,4099076.0451926324],[599813.1496046087,4099035.209238789],[599813.08940247,4099035.0155144166],[599813.0098855471,4099034.8288851343],[599805.3899974867,4099019.1949902526],[599776.460646406,4098957.77374203],[599772.0802193964,4098947.5075141047],[599767.3265541892,4098935.4222216853],[599765.6493213148,4098922.6763110133],[599763.8902283836,4098860.2427222496],[599763.1961192137,4098826.3343440085],[599763.1809957168,4098826.126422336],[599760.4651595141,4098804.4692442445],[599760.4557169526,4098804.4029538953],[599752.357406344,4098753.6506012976],[599749.8394305264,4098724.2400449817],[599747.9861579083,4098697.4395253733],[599747.5763841441,4098691.4548886265],[599747.5578940401,4098691.288012138],[599745.4264107972,4098677.4045921783],[599740.171152326,4098643.2455247333],[599740.1134299699,4098642.9862939827],[599733.958636369,4098622.0201820517],[599722.1075190948,4098579.966569418],[599700.9045368109,4098468.4916590503],[599700.895329064,4098468.4461354082],[599686.2475054581,4098400.1192551535],[599678.8073615215,4098357.1753743184],[599676.8367187524,4098357.516793528],[599678.716957853,4098356.835103771],[599672.6624758041,4098340.1356099583],[599664.9873934697,4098304.7152335886],[599664.9277075421,4098304.4991238764],[599664.8442087774,4098304.2910523172],[599653.5715487325,4098280.20311179],[599653.4888559298,4098280.0451586246],[599653.3924249638,4098279.895197394],[599653.2830221545,4098279.7544198125],[599653.161516907,4098279.623944616],[599636.1702599709,4098262.9359600497],[599636.0208493525,4098262.803213505],[599635.8589357783,4098262.6860419535],[599608.5776614675,4098244.950407509],[599566.2060888256,4098216.785155104],[599566.0578335017,4098216.6956118336],[599536.4186405317,4098200.5025761165],[599536.2660650708,4098200.427457508],[599536.1076594655,4098200.3655726085],[599512.4849143015,4098192.2765274136],[599511.1890766107,4098196.060811319],[599534.6504905183,4098204.094612476],[599564.0639656055,4098220.164329797],[599606.3718510353,4098248.2872480075]]]}}]}
