{"type":"FeatureCollection","name":"carboneras-coast-coastline","crs":{"type":"name","properties":{"name":"EPSG:25830"}},"features":[{"type":"Feature","properties":{"source":"DERA/IECA","id_dera":10125300001271.0},"geometry":{"type":"LineString","coordinates":[[596349.8499999996,4088302.6500000004],[596356.5999999996,4088301.6999999993],[596359.6500000004,4088300.51],[596361.6200000001,4088298.4499999993],[596364.25,4088293.24],[596370.1600000001,4088285.1099999994],[596375.1900000004,4088277.289999999],[596379.0300000003,4088267.74],[596384.3899999997,4088261.34],[596389.2999999998,4088258.6400000006],[596395.5099999998,4088256.16],[596404.21,4088255.4299999997],[596410.8499999996,4088255.3499999996],[596415.75,4088254.3900000006],[596417.5999999996,4088252.880000001],[596419.1299999999,4088250.5999999996],[596419.9100000001,4088246.9000000004],[596419.2699999996,4088243.42],[596415.8300000001,4088233.83],[596415.0899999999,4088226.3200000003],[596415.0099999998,4088220.7799999993],[596416.6600000001,4088216.0],[596422.6799999997,4088205.4700000007],[596423.0499999998,4088195.789999999],[596426.3600000003,4088183.619999999],[596427.5700000003,4088179.92],[596427.0599999996,4088171.5500000007],[596427.6299999999,4088164.369999999],[596429.0599999996,4088159.1500000004],[596431.5800000001,4088155.6799999997],[596440.29,4088153.3200000003],[596445.29,4088155.3000000007],[596451.3499999996,4088162.5],[596455.6900000004,4088166.869999999],[596459.9199999999,4088169.17],[596463.5099999998,4088169.84],[596470.4699999997,4088169.869999999],[596473.8399999999,4088169.2300000004],[596476.46,4088167.3900000006],[596479.1900000004,4088164.460000001],[596484.4500000002,4088155.24],[596493.5199999996,4088144.3900000006],[596502.0300000003,4088137.3599999994],[596506.5,4088134.2200000007],[596518.3799999999,4088128.2799999993],[596522.96,4088126.8900000006],[596539.8399999999,4088120.6500000004],[596551.3899999997,4088117.9700000007],[596554.7599999998,4088118.42],[596558.4400000004,4088121.26],[596561.7999999998,4088125.1899999995],[596566.3499999996,4088129.2300000004],[596576.5499999998,4088137.3200000003],[596581.54,4088140.17],[596589.1299999999,4088145.75],[596593.5800000001,4088147.83],[596597.4900000002,4088150.789999999],[596604.4100000001,4088160.9299999997],[596608.0999999996,4088164.210000001],[596611.25,4088165.1999999993],[596614.8300000001,4088165.4299999997],[596621.6900000004,4088164.369999999],[596626.3799999999,4088162.76],[596629.75,4088162.66],[596633.2199999997,4088163.869999999],[596641.1399999997,4088171.630000001],[596646.5599999996,4088176.2200000007],[596653.4000000004,4088177.7699999996],[596660.7999999998,4088177.1400000006],[596667.9900000002,4088176.1899999995],[596675.7000000002,4088177.5299999993],[596676.5700000003,4088179.0500000007],[596676.5599999996,4088181.5500000007],[596675.7800000003,4088185.25],[596667.2300000004,4088202.1899999995],[596664.3799999999,4088206.960000001],[596657.2699999996,4088217.76],[596650.1600000001,4088228.5500000007],[596648.3799999999,4088236.8100000005],[596652.3600000003,4088249.5600000005],[596656.04,4088253.0500000007],[596660.2800000003,4088255.789999999],[596664.5199999996,4088256.5700000003],[596668.8700000001,4088256.039999999],[596677.8099999996,4088251.6099999994],[596680.8499999996,4088251.1899999995],[596684.1100000003,4088252.51],[596685.5099999998,4088255.4499999993],[596685.2699999996,4088262.5199999996],[596684.3700000001,4088269.369999999],[596681.6100000003,4088280.24],[596678.8499999996,4088291.0999999996],[596679.1299999999,4088302.8499999996],[596680.6399999997,4088306.67],[596680.71,4088315.1500000004],[596682.5499999998,4088317.01],[596688.9699999997,4088318.4499999993],[596690.3700000001,4088320.09],[596691.4299999997,4088327.2699999996],[596693.2699999996,4088329.4499999993],[596703.5999999996,4088332.539999999],[596709.7800000003,4088335.7200000007],[596719.75,4088345.2200000007],[596722.0199999996,4088350.7799999993],[596721.8700000001,4088360.7799999993],[596721.4100000001,4088366.9800000004],[596723.2199999997,4088377.210000001],[596727.6500000004,4088383.1099999994],[596734.9900000002,4088390.0600000005]]}},{"type":"Feature","properties":{"source":"DERA/IECA","id_dera":10125300001274.0},"geometry":{"type":"LineString","coordinates":[[596100.0,4088338.4934627176],[596102.79,4088338.7300000004],[596104.0899999999,4088338.5299999993],[596105.7300000004,4088337.4499999993],[596116.0999999996,4088326.5500000007],[596126.46,4088315.6400000006],[596138.9299999997,4088307.039999999],[596141.3300000001,4088305.75],[596141.8799999999,4088305.75],[596142.6299999999,4088306.41],[596143.79,4088310.880000001],[596143.5499999998,4088314.1400000006],[596143.6500000004,4088314.9000000004],[596144.6299999999,4088315.460000001],[596147.04,4088313.3000000007],[596151.9900000002,4088306.16],[596152.3300000001,4088303.7699999996],[596156.7699999996,4088292.380000001],[596163.9199999999,4088282.4299999997],[596171.0700000003,4088272.4800000004],[596173.2699999996,4088269.4499999993],[596175.2699999996,4088263.92],[596175.29,4088261.74],[596176.7400000002,4088256.8599999994],[596181.3300000001,4088253.5199999996],[596190.8399999999,4088248.49],[596196.8700000001,4088241.3499999996],[596199.5,4088239.8499999996],[596203.3099999996,4088239.5600000005],[596205.7000000002,4088239.789999999],[596207.3200000003,4088241.1099999994],[596208.5,4088243.51],[596208.3399999999,4088249.8200000003],[596205.0700000003,4088263.83],[596204.8399999999,4088265.8900000006],[596205.9299999997,4088266.2200000007],[596207.3499999996,4088264.8200000003],[596217.54,4088255.5500000007],[596220.4900000002,4088253.5],[596223.6399999997,4088253.6400000006],[596227.9900000002,4088256.16],[596229.4900000002,4088260.4000000004],[596229.2599999998,4088263.67],[596227.7199999997,4088268.01],[596225.0899999999,4088272.24],[596224.6500000004,4088275.7200000007],[596225.7300000004,4088277.58],[596228.7699999996,4088278.460000001],[596232.0300000003,4088278.4700000007],[596240.5700000003,4088283.1799999997],[596245.5199999996,4088288.6500000004],[596248.4400000004,4088290.7200000007],[596251.8099999996,4088289.9700000007],[596255.8600000003,4088287.369999999],[596261.3700000001,4088278.92],[596262.9299999997,4088275.7699999996],[596269.7999999998,4088269.9299999997],[596278.7599999998,4088263.0999999996],[596284.3200000003,4088260.7300000004],[596291.8300000001,4088258.1500000004],[596300.0099999998,4088254.0500000007],[596302.0700000003,4088254.49],[596304.9800000004,4088260.4800000004],[596306.9400000004,4088261.6899999995],[596314.5599999996,4088260.09],[596318.3700000001,4088260.0999999996],[596322.5099999998,4088258.59],[596325.46,4088254.58],[596329.5,4088250.9000000004],[596338.4299999997,4088247.8900000006],[596347.5,4088237.59],[596356.1200000001,4088229.9000000004],[596360.9199999999,4088227.09],[596362.4400000004,4088226.880000001],[596363.8499999996,4088228.3000000007],[596364.71,4088231.0199999996],[596364.2599999998,4088234.83],[596362.1699999999,4088240.4700000007],[596359.54,4088246.2300000004],[596355.0499999998,4088254.1500000004],[596350.1100000003,4088264.4700000007],[596344.6100000003,4088280.5500000007],[596343.2599999998,4088291.039999999],[596341.9199999999,4088301.5299999993],[596343.9800000004,4088302.619999999],[596349.8499999996,4088302.6500000004]]}},{"type":"Feature","properties":{"source":"DERA/IECA","id_dera":10125300001275.0},"geometry":{"type":"LineString","coordinates":[[596804.46,4088394.67],[596812.0499999998,4088387.9000000004],[596816.96,4088384.539999999],[596824.5899999999,4088380.33],[596833.6299999999,4088376.130000001],[596843.5499999998,4088372.3599999994],[596853.46,4088368.59],[596860.54,4088365.460000001],[596866.54,4088362.2200000007],[596877.2199999997,4088355.9499999993],[596883.3300000001,4088351.5199999996],[596893.4500000002,4088350.1400000006],[596900.2000000002,4088348.9700000007],[596907.71,4088348.789999999],[596917.8300000001,4088347.74],[596936.1200000001,4088343.789999999],[596941.5700000003,4088342.3900000006],[596950.3799999999,4088342.210000001],[596956.3499999996,4088343.8599999994],[596962.4299999997,4088346.5],[596967.8600000003,4088349.130000001],[596982.4199999999,4088354.5199999996],[596992.8499999996,4088357.8200000003],[597003.2800000003,4088361.130000001],[597008.1699999999,4088362.4499999993],[597012.4100000001,4088362.6899999995],[597017.4199999999,4088361.84],[597029.3899999997,4088358.7300000004],[597037.0199999996,4088357.24],[597044.6299999999,4088357.4800000004],[597051.7999999998,4088358.49],[597062.0300000003,4088358.5299999993],[597067.3600000003,4088357.5700000003],[597070.2000000002,4088356.2799999993],[597076.8099999996,4088348.3599999994],[597083.4199999999,4088340.4499999993],[597090.5099999998,4088335.039999999],[597095.5300000003,4088331.58],[597100.8700000001,4088328.2200000007],[597104.9000000004,4088328.0199999996],[597108.0499999998,4088329.4499999993],[597110.9699999997,4088332.51],[597118.1200000001,4088341.8900000006],[597118.9800000004,4088344.5],[597118.96,4088349.289999999],[597118.25,4088363.0999999996],[597118.4500000002,4088367.3499999996],[597119.3099999996,4088370.83],[597121.04,4088373.7699999996],[597121.46,4088377.8000000007],[597121.2999999998,4088388.789999999],[597122.3499999996,4088398.6899999995],[597123.96,4088403.8100000005],[597129.0499999998,4088411.66],[597132.7400000002,4088414.0700000003],[597139.3399999999,4088421.2699999996],[597145.2999999998,4088427.0600000005],[597149.4299999997,4088429.3599999994],[597154.6399999997,4088430.91],[597161.6799999997,4088431.210000001]]}},{"type":"Feature","properties":{"source":"DERA/IECA","id_dera":10125300000850.0},"geometry":{"type":"LineString","coordinates":[[597161.6799999997,4088431.210000001],[597171.9400000004,4088430.76],[597176.5099999998,4088429.58],[597181.2000000002,4088427.42],[597189.5999999996,4088421.4700000007],[597200.4000000004,4088411.83],[597204.1100000003,4088409.5600000005],[597215.6399999997,4088409.2799999993],[597227.0,4088410.9000000004],[597238.3700000001,4088412.5199999996],[597250.21,4088415.51],[597254.9900000002,4088417.2699999996],[597263.4699999997,4088418.0600000005],[597266.0800000001,4088417.5299999993],[597268.3700000001,4088416.34],[597270.0099999998,4088414.6099999994],[597272.0999999996,4088410.4800000004],[597273.75,4088404.9399999995],[597274.9500000002,4088402.5500000007],[597282.5,4088391.59],[597289.9699999997,4088374.6500000004],[597295.0099999998,4088365.210000001],[597305.4800000004,4088356.9800000004],[597316.8099999996,4088353.4399999995],[597323.8799999999,4088352.8100000005],[597335.0899999999,4088353.460000001],[597346.29,4088354.0999999996],[597356.3399999999,4088356.0999999996],[597366.4000000004,4088358.09],[597378.1399999997,4088359.66],[597381.2800000003,4088361.8499999996],[597383.7699999996,4088364.8000000007],[597387.9000000004,4088367.8599999994],[597390.3899999997,4088370.59],[597392.0099999998,4088373.6400000006],[597394.25,4088383.4399999995],[597394.6699999999,4088387.1400000006],[597393.8899999997,4088392.25],[597390.8200000003,4088397.6799999997],[597387.21,4088402.67],[597377.9400000004,4088410.5199999996],[597368.6600000001,4088418.369999999],[597362.4400000004,4088424.33],[597361.3099999996,4088433.8900000006],[597359.2199999997,4088440.09],[597355.0800000001,4088442.9000000004],[597350.1699999999,4088444.619999999],[597345.2699999996,4088446.01],[597342.0,4088447.8499999996],[597340.0300000003,4088450.67],[597339.5800000001,4088454.4800000004],[597340.0099999998,4088457.630000001],[597341.8399999999,4088462.0999999996],[597347.25,4088469.41],[597350.1799999997,4088471.380000001],[597353.8700000001,4088471.6099999994],[597358.2300000004,4088470.9700000007],[597362.2699999996,4088468.0],[597374.21,4088456.6799999997],[597380.2599999998,4088451.3499999996],[597389.2400000002,4088445.74],[597399.9299999997,4088445.630000001],[597412.2800000003,4088446.8900000006],[597422.21,4088450.6099999994],[597424.6900000004,4088451.08],[597427.8899999997,4088450.6400000006],[597432.04,4088449.1500000004],[597443.6399999997,4088438.6500000004],[597449.8799999999,4088432.3100000005],[597452.9699999997,4088432.25],[597461.3899999997,4088435.5199999996],[597472.3600000003,4088441.59],[597483.3300000001,4088447.6500000004],[597485.21,4088450.5999999996],[597484.96,4088454.8100000005],[597482.71,4088462.2200000007],[597479.6299999999,4088471.130000001],[597480.8200000003,4088472.76],[597487.1299999999,4088472.6799999997],[597494.8499999996,4088471.1899999995],[597504.5300000003,4088473.4000000004],[597510.9400000004,4088475.5999999996],[597512.2300000004,4088478.0],[597512.0,4088482.5700000003],[597509.0300000003,4088489.41],[597504.1100000003,4088496.8900000006],[597502.6799999997,4088501.67],[597503.0999999996,4088504.6099999994],[597504.7199999997,4088507.01],[597507.5499999998,4088507.130000001],[597513.6500000004,4088504.4399999995],[597518.0199999996,4088501.1899999995],[597522.71,4088498.0500000007],[597528.7999999998,4088497.0999999996],[597529.7699999996,4088498.630000001],[597529.5,4088512.9800000004],[597530.5800000001,4088515.8200000003],[597532.9699999997,4088514.8499999996],[597539.2000000002,4088508.8900000006],[597549.5700000003,4088500.119999999],[597558.7300000004,4088494.0600000005],[597569.8399999999,4088488.7799999993],[597573.9800000004,4088487.49],[597577.5700000003,4088487.5],[597581.5899999999,4088488.5999999996],[597583.9800000004,4088490.5700000003],[597585.0599999996,4088492.8599999994],[597585.9000000004,4088500.1500000004],[597588.7999999998,4088507.7799999993],[597594.1100000003,4088515.41],[597597.46,4088519.4499999993],[597601.3600000003,4088523.49],[597605.9100000001,4088528.84],[597610.1200000001,4088537.2300000004],[597610.1100000003,4088540.2799999993],[597608.2400000002,4088544.7300000004],[597600.4900000002,4088551.5500000007],[597590.8399999999,4088557.5500000007],[597581.1900000004,4088563.5500000007],[597574.3200000003,4088567.01],[597566.04,4088569.91],[597561.6900000004,4088570.2200000007],[597557.5599999996,4088569.4399999995],[597553.2199999997,4088567.1400000006],[597550.7199999997,4088566.91],[597548.7599999998,4088567.99],[597545.1299999999,4088576.9000000004],[597545.1100000003,4088581.9000000004],[597548.6600000001,4088591.710000001],[597548.3200000003,4088595.1899999995],[597545.5899999999,4088599.09],[597538.3799999999,4088606.6799999997],[597532.3600000003,4088614.59],[597529.2000000002,4088616.3200000003],[597527.2400000002,4088616.5299999993],[597523.2000000002,4088620.9800000004],[597520.4400000004,4088632.8200000003],[597520.71,4088645.880000001],[597523.29,4088654.369999999],[597527.71,4088665.0999999996],[597532.1200000001,4088675.84],[597533.0899999999,4088679.210000001],[597532.5099999998,4088687.91],[597530.2000000002,4088695.9499999993],[597529.5199999996,4088701.6099999994],[597530.3799999999,4088704.33],[597534.8099999996,4088711.74],[597542.3799999999,4088722.1099999994],[597546.9299999997,4088727.24],[597549.6399999997,4088729.210000001],[597553.2300000004,4088730.5299999993],[597556.2599999998,4088734.3499999996],[597562.6399999997,4088744.16],[597563.8300000001,4088746.8900000006],[597565.7400000002,4088756.6799999997],[597568.3399999999,4088760.17],[597571.3799999999,4088762.58],[597578.7400000002,4088771.42],[597583.1799999997,4088775.6799999997],[597585.0199999996,4088778.51],[597586.7400000002,4088783.3100000005],[597589.7199999997,4088800.1799999997],[597595.3300000001,4088813.3599999994],[597597.0499999998,4088818.380000001],[597600.6100000003,4088826.2200000007],[597606.3300000001,4088836.3599999994],[597613.6399999997,4088846.6099999994],[597620.9400000004,4088856.869999999],[597623.1900000004,4088863.7300000004],[597626.2199999997,4088868.42],[597628.0700000003,4088868.8599999994],[597629.9199999999,4088868.33],[597633.1799999997,4088868.34],[597635.0300000003,4088869.0],[597642.3899999997,4088877.84],[597646.2999999998,4088879.6999999993],[597649.6699999999,4088880.26],[597651.6299999999,4088881.460000001],[597652.3799999999,4088884.3000000007],[597651.6900000004,4088893.3200000003],[597650.0300000003,4088898.6400000006],[597645.5300000003,4088910.4800000004],[597645.7199999997,4088917.2300000004],[597648.2000000002,4088921.92],[597653.96,4088924.9800000004],[597657.21,4088928.26],[597658.0599999996,4088931.6400000006],[597658.25,4088940.01],[597656.7000000002,4088947.7300000004],[597652.3099999996,4088955.33],[597646.1900000004,4088964.66],[597641.5999999996,4088968.119999999],[597627.6600000001,4088973.4000000004],[597624.4299999997,4088976.41],[597624.0,4088983.09],[597624.0,4088989.76],[597624.8600000003,4088995.3599999994],[597624.6500000004,4089005.0500000007],[597620.5599999996,4089013.0199999996],[597615.3899999997,4089017.76],[597612.7000000002,4089021.5700000003],[597604.5,4089027.74],[597600.9699999997,4089032.3100000005],[597594.4699999997,4089038.84],[597590.1900000004,4089044.0500000007],[597586.54,4089056.960000001],[597582.8799999999,4089069.880000001],[597582.2400000002,4089073.9700000007],[597582.4500000002,4089079.5700000003],[597587.4100000001,4089083.880000001],[597598.7300000004,4089091.3000000007],[597607.0199999996,4089098.24],[597617.7699999996,4089110.789999999],[597623.5899999999,4089119.4000000004],[597627.25,4089126.9399999995],[597630.0499999998,4089135.34],[597634.5800000001,4089142.66],[597639.75,4089149.119999999],[597644.2699999996,4089155.3599999994],[597652.6699999999,4089170.4299999997],[597664.04,4089184.34],[597674.54,4089195.869999999],[597675.4100000001,4089198.25],[597676.2300000004,4089199.5299999993],[597672.8700000001,4089217.76],[597670.1100000003,4089222.76],[597667.3600000003,4089228.0299999993],[597664.7400000002,4089232.24],[597661.25,4089237.74],[597655.5800000001,4089243.0700000003],[597650.2400000002,4089247.8599999994],[597648.1100000003,4089249.6099999994],[597647.1600000001,4089253.960000001],[597648.1600000001,4089255.9299999997],[597649.8799999999,4089257.2200000007],[597663.2400000002,4089265.9399999995],[597676.5899999999,4089274.66],[597678.5300000003,4089277.24],[597679.6100000003,4089286.7200000007],[597681.5499999998,4089290.59],[597683.2699999996,4089292.5299999993],[597685.4199999999,4089293.6099999994],[597691.8799999999,4089294.4700000007],[597702.5999999996,4089295.1099999994],[597713.3099999996,4089295.76],[597724.0199999996,4089296.4000000004],[597734.7400000002,4089297.0500000007],[597738.8300000001,4089298.34],[597742.0599999996,4089301.1400000006],[597757.9699999997,4089303.2300000004],[597760.4000000004,4089306.49],[597761.8499999996,4089313.9800000004],[597762.3099999996,4089320.5600000005],[597762.1500000004,4089328.41],[597759.5599999996,4089340.4700000007],[597757.7199999997,4089350.960000001],[597756.1399999997,4089360.99],[597756.1399999997,4089362.4399999995],[597756.8499999996,4089365.380000001],[597766.1900000004,4089374.7799999993],[597772.0,4089375.210000001],[597784.8200000003,4089370.039999999],[597797.6299999999,4089364.869999999],[597808.1799999997,4089364.01],[597815.8099999996,4089360.2300000004],[597818.5700000003,4089359.710000001],[597820.4400000004,4089359.7200000007],[597830.5499999998,4089362.119999999],[597837.2199999997,4089372.0700000003],[597841.25,4089377.0999999996],[597846.9400000004,4089380.58],[597854.2699999996,4089388.119999999],[597860.0800000001,4089395.4399999995],[597866.9800000004,4089403.76],[597873.8399999999,4089411.3499999996],[597874.7800000003,4089413.5500000007],[597873.2999999998,4089418.6099999994],[597872.04,4089421.09],[597867.1900000004,4089429.34],[597869.5599999996,4089431.1799999997],[597882.4900000002,4089433.5500000007],[597887.2199999997,4089436.7799999993],[597897.0499999998,4089445.0199999996],[597899.6699999999,4089448.5600000005],[597902.0199999996,4089456.33],[597902.6399999997,4089465.2699999996],[597901.9800000004,4089480.6899999995],[597903.3799999999,4089484.59],[597913.0700000003,4089491.91],[597922.9800000004,4089494.49],[597929.1900000004,4089496.460000001],[597935.8499999996,4089499.99],[597940.6399999997,4089510.119999999],[597941.9199999999,4089521.7699999996],[597943.5499999998,4089532.9399999995],[597945.8099999996,4089536.91],[597948.8300000001,4089538.8499999996],[597960.8899999997,4089540.3499999996],[597978.6799999997,4089543.4399999995],[597996.6399999997,4089550.25],[598003.7400000002,4089551.76],[598011.5800000001,4089553.5999999996],[598018.3499999996,4089558.33],[598020.9400000004,4089561.8499999996],[598022.3600000003,4089567.3000000007],[598022.8600000003,4089572.9399999995],[598023.2400000002,4089579.0700000003],[598025.2800000003,4089587.7200000007],[598031.5300000003,4089596.5500000007],[598037.5599999996,4089600.6400000006],[598046.1799999997,4089607.3599999994],[598054.79,4089614.09],[598063.4100000001,4089620.8200000003],[598072.0199999996,4089627.5500000007],[598079.7699999996,4089632.289999999],[598084.5099999998,4089636.16],[598099.7999999998,4089642.619999999],[598115.0899999999,4089649.08],[598124.6200000001,4089653.33],[598134.1500000004,4089657.58],[598143.6799999997,4089661.83],[598153.21,4089666.08],[598163.4400000004,4089672.380000001],[598173.6699999999,4089678.6799999997],[598183.9000000004,4089684.9700000007],[598194.1299999999,4089691.2699999996],[598199.5199999996,4089693.210000001],[598201.8799999999,4089692.3499999996],[598209.21,4089692.99],[598212.6500000004,4089694.0700000003],[598215.0199999996,4089695.789999999],[598227.5300000003,4089700.17],[598233.71,4089702.0],[598243.8499999996,4089704.710000001],[598258.7400000002,4089710.0],[598271.4400000004,4089712.3599999994],[598277.21,4089713.4000000004],[598291.9199999999,4089719.0999999996],[598306.7599999998,4089727.6500000004],[598319.6900000004,4089739.789999999],[598320.7699999996,4089739.539999999],[598322.4299999997,4089738.1999999993],[598323.2199999997,4089737.8100000005],[598323.8099999996,4089738.2200000007],[598330.2999999998,4089746.9499999993],[598331.0800000001,4089749.6400000006],[598330.6699999999,4089761.380000001],[598329.7800000003,4089763.1899999995],[598325.8300000001,4089767.6400000006],[598324.4100000001,4089768.4399999995],[598323.9800000004,4089769.0600000005],[598323.7800000003,4089770.2799999993],[598324.6399999997,4089772.4399999995],[598324.8200000003,4089780.210000001],[598324.2800000003,4089782.539999999],[598323.5499999998,4089784.1799999997],[598316.8899999997,4089788.59],[598301.1699999999,4089792.6799999997],[598286.0700000003,4089795.99],[598281.3600000003,4089799.3599999994],[598276.2000000002,4089807.76],[598272.54,4089810.5600000005],[598266.0800000001,4089810.5600000005],[598254.8799999999,4089812.9299999997],[598243.6799999997,4089816.17],[598232.4800000004,4089819.4000000004],[598227.96,4089820.26],[598219.7800000003,4089824.5700000003],[598213.75,4089829.5199999996],[598205.0300000003,4089835.4399999995],[598196.3099999996,4089841.369999999],[598193.3700000001,4089845.8100000005],[598180.4500000002,4089859.49],[598167.5300000003,4089873.16],[598162.7199999997,4089882.9399999995],[598160.1399999997,4089888.9700000007],[598159.9199999999,4089898.66],[598165.96,4089912.4399999995],[598167.0300000003,4089918.039999999],[598165.3099999996,4089928.59],[598160.79,4089934.83],[598154.1200000001,4089942.59],[598147.4400000004,4089950.34],[598137.3200000003,4089962.83],[598131.9400000004,4089968.4299999997],[598128.2800000003,4089974.6799999997],[598122.4699999997,4089991.4800000004],[598121.1500000004,4090000.1999999993]]}},{"type":"Feature","properties":{"source":"DERA/IECA","id_dera":10125300000388.0},"geometry":{"type":"LineString","coordinates":[[596734.9900000002,4088390.0600000005],[596740.9800000004,4088396.0999999996],[596746.8399999999,4088400.039999999],[596757.3799999999,4088404.2200000007],[596767.9100000001,4088408.3900000006],[596774.54,4088409.1799999997],[596780.4199999999,4088409.1999999993],[596787.3799999999,4088408.0299999993],[596790.2199999997,4088406.8499999996],[596800.1500000004,4088398.9499999993],[596804.46,4088394.67]]}},{"type":"Feature","properties":{"source":"DERA/IECA","id_dera":10125300000840.0},"geometry":{"type":"LineString","coordinates":[[598121.1500000004,4090000.1999999993],[598120.75,4090002.8900000006],[598118.5999999996,4090014.630000001],[598116.4400000004,4090026.3599999994],[598114.29,4090038.0999999996],[598112.1399999997,4090049.84],[598109.9900000002,4090061.5700000003],[598107.8399999999,4090073.3100000005],[598105.6900000004,4090085.0500000007],[598103.5300000003,4090096.7799999993],[598101.25,4090107.9299999997],[598098.96,4090119.0700000003],[598096.6799999997,4090130.2200000007],[598094.3899999997,4090141.3599999994],[598092.0999999996,4090152.51],[598089.8200000003,4090163.6500000004],[598087.5300000003,4090174.789999999],[598085.2400000002,4090185.9399999995],[598082.0199999996,4090205.4800000004],[598078.79,4090225.0299999993],[598076.7400000002,4090237.460000001],[598074.6799999997,4090249.8900000006]]}},{"type":"Feature","properties":{"source":"DERA/IECA","id_dera":10125300001568.0},"geometry":{"type":"LineString","coordinates":[[598074.6799999997,4090249.8900000006],[598071.9000000004,4090266.7699999996],[598069.1100000003,4090283.6500000004],[598065.8799999999,4090303.1999999993],[598062.6500000004,4090322.74],[598061.8300000001,4090327.6999999993]]}},{"type":"Feature","properties":{"source":"DERA/IECA","id_dera":10125300000485.0},"geometry":{"type":"LineString","coordinates":[[598061.8300000001,4090327.6999999993],[598059.4299999997,4090342.2799999993],[598055.9800000004,4090349.1799999997],[598051.46,4090361.24],[598049.96,4090369.630000001],[598050.5999999996,4090376.09],[598051.25,4090392.6799999997],[598049.96,4090401.51],[598046.7300000004,4090417.9299999997],[598043.5099999998,4090434.3499999996],[598040.2800000003,4090450.7699999996],[598037.0499999998,4090467.1899999995],[598033.8200000003,4090483.6099999994],[598030.5899999999,4090500.0299999993],[598027.3700000001,4090516.4499999993],[598024.1399999997,4090532.869999999],[598021.8499999996,4090550.75],[598019.5700000003,4090568.619999999],[598017.2800000003,4090586.49],[598015.0,4090604.369999999],[598012.71,4090622.24],[598010.4299999997,4090640.119999999],[598008.1399999997,4090657.99],[598005.8600000003,4090675.8599999994],[598004.4100000001,4090688.7799999993],[598002.9500000002,4090701.710000001],[598001.5,4090714.630000001],[598000.0499999998,4090727.5500000007],[597999.4100000001,4090736.8100000005],[597999.6200000001,4090744.5600000005],[598000.9199999999,4090749.7300000004],[598006.7300000004,4090762.4299999997],[598006.7300000004,4090769.539999999],[598004.1500000004,4090774.710000001],[598000.9199999999,4090779.66],[597989.29,4090792.58],[597987.5700000003,4090797.1099999994],[597986.2800000003,4090804.4299999997],[597986.1500000004,4090816.119999999]]}},{"type":"Feature","properties":{"source":"DERA/IECA","id_dera":10125300001276.0},"geometry":{"type":"LineString","coordinates":[[597949.5199999996,4091234.66],[597950.9199999999,4091225.9399999995],[597950.1100000003,4091214.42],[597953.7599999998,4091200.91],[597953.9800000004,4091196.17],[597953.1200000001,4091193.3200000003],[597952.04,4091191.4299999997],[597951.7199999997,4091189.66],[597953.71,4091184.6500000004],[597954.2999999998,4091181.42],[597950.96,4091169.5700000003],[597949.5,4091159.4499999993],[597946.7000000002,4091150.1400000006],[597949.3399999999,4091144.0600000005],[597951.3899999997,4091142.2799999993],[597954.4000000004,4091141.1500000004],[597958.9800000004,4091140.8200000003],[597965.8099999996,4091142.0600000005],[597968.1299999999,4091141.9499999993],[597969.4199999999,4091140.880000001],[597971.6799999997,4091137.2699999996],[597976.5300000003,4091133.7699999996],[597980.6200000001,4091132.26],[597983.1500000004,4091132.0500000007],[597984.5999999996,4091130.539999999],[597985.8399999999,4091123.2699999996],[597988.9100000001,4091119.34],[597990.4100000001,4091118.210000001],[597996.9299999997,4091108.8900000006],[597999.5099999998,4091107.17],[598005.3799999999,4091106.630000001],[598009.3099999996,4091102.2699999996],[598009.9500000002,4091099.789999999],[598008.3399999999,4091098.34],[598004.79,4091097.59],[597993.96,4091097.8000000007],[597993.0,4091097.3200000003],[597992.46,4091095.92],[597993.1600000001,4091094.1999999993],[597996.0099999998,4091091.24],[598008.6600000001,4091084.83],[598012.75,4091080.41],[598014.5300000003,4091074.33],[598015.6600000001,4091072.66],[598023.46,4091067.0],[598024.8600000003,4091063.5600000005],[598024.6500000004,4091061.619999999],[598022.8700000001,4091056.7799999993],[598022.71,4091055.0],[598024.8099999996,4091052.58],[598028.8399999999,4091049.880000001],[598034.2300000004,4091044.34],[598035.2999999998,4091042.51],[598036.5899999999,4091037.8200000003],[598041.9800000004,4091032.8200000003],[598042.0800000001,4091030.66],[598043.1600000001,4091027.8100000005],[598044.5599999996,4091026.0299999993],[598047.9000000004,4091024.9499999993],[598054.1399999997,4091020.0500000007],[598055.4299999997,4091017.09],[598055.1100000003,4091015.4800000004],[598054.1900000004,4091014.67],[598052.6299999999,4091014.08],[598051.5599999996,4091013.2699999996],[598051.1799999997,4091012.09],[598050.3700000001,4091005.630000001],[598049.4000000004,4091003.4700000007],[598048.4900000002,4091002.67],[598046.4900000002,4091001.9700000007],[598041.1100000003,4091002.0700000003],[598037.6100000003,4091000.0299999993],[598035.8899999997,4090997.880000001],[598028.2999999998,4090997.4499999993],[598025.5499999998,4090997.880000001],[598016.5599999996,4090997.289999999],[598011.1799999997,4090999.119999999],[598007.79,4091002.24],[598006.3300000001,4091002.460000001],[598005.6299999999,4091001.76],[598004.9800000004,4090995.8900000006],[598002.5099999998,4090993.5700000003],[598000.9500000002,4090993.09],[597998.3600000003,4090994.1099999994],[597997.7699999996,4090995.7300000004],[597997.0199999996,4090996.3200000003],[597995.0300000003,4090996.380000001],[597992.1699999999,4090995.1899999995],[597991.0899999999,4090993.039999999],[597984.2599999998,4090990.4499999993],[597982.4299999997,4090988.5700000003],[597982.4299999997,4090983.7300000004],[597981.8300000001,4090982.2699999996],[597980.4900000002,4090981.84],[597978.9299999997,4090982.380000001],[597977.2599999998,4090983.83],[597976.0199999996,4090987.9800000004],[597974.7300000004,4090989.2699999996],[597973.7599999998,4090989.0],[597972.6799999997,4090988.0299999993],[597972.1399999997,4090986.0999999996],[597972.8399999999,4090983.3000000007],[597976.5599999996,4090979.6899999995],[597979.1900000004,4090978.67],[597980.1600000001,4090977.4299999997],[597973.3799999999,4090971.5600000005],[597970.4199999999,4090970.8100000005],[597966.9199999999,4090969.1899999995],[597964.3899999997,4090966.9299999997],[597961.96,4090963.2699999996],[597960.6699999999,4090958.91],[597959.8600000003,4090940.4399999995],[597959.7000000002,4090928.5999999996],[597959.5300000003,4090916.76],[597960.29,4090906.7699999996],[597961.04,4090896.7799999993],[597965.3399999999,4090880.869999999],[597969.6500000004,4090864.960000001],[597970.9900000002,4090850.0],[597971.3399999999,4090838.4800000004],[597971.6900000004,4090826.960000001],[597972.5700000003,4090824.7799999993],[597974.7599999998,4090822.4700000007],[597985.1299999999,4090817.7699999996],[597985.9100000001,4090816.8200000003],[597986.1500000004,4090816.119999999]]}},{"type":"Feature","properties":{"source":"DERA/IECA","id_dera":10125300000483.0},"geometry":{"type":"LineString","coordinates":[[597985.3799999999,4091366.539999999],[597980.5499999998,4091357.8900000006],[597974.8399999999,4091349.119999999],[597973.3799999999,4091341.8499999996],[597970.8499999996,4091326.0199999996],[597967.2999999998,4091313.8000000007],[597965.5700000003,4091299.6899999995],[597965.9500000002,4091288.34],[597966.8099999996,4091279.99],[597966.0999999996,4091275.5199999996],[597962.4400000004,4091270.3499999996],[597960.1799999997,4091268.5199999996],[597958.7300000004,4091266.59],[597958.2999999998,4091264.49],[597962.4400000004,4091260.34],[597962.5499999998,4091257.4299999997],[597958.5599999996,4091255.0700000003],[597955.9299999997,4091247.039999999],[597954.3099999996,4091244.6799999997],[597951.7800000003,4091242.630000001],[597949.1399999997,4091238.2699999996],[597949.5199999996,4091234.66]]}},{"type":"Feature","properties":{"source":"DERA/IECA","id_dera":10125300000841.0},"geometry":{"type":"LineString","coordinates":[[597990.7199999997,4091376.6799999997],[597988.5199999996,4091372.16],[597985.3799999999,4091366.539999999]]}},{"type":"Feature","properties":{"source":"DERA/IECA","id_dera":10125300000484.0},"geometry":{"type":"LineString","coordinates":[[598015.5999999996,4091383.51],[598013.7699999996,4091384.0],[598009.6200000001,4091386.1500000004],[598002.4100000001,4091387.2799999993],[597996.8099999996,4091385.51],[597990.7199999997,4091376.6799999997]]}},{"type":"Feature","properties":{"source":"DERA/IECA","id_dera":10125300000717.0},"geometry":{"type":"LineString","coordinates":[[597963.8200000003,4091834.51],[597953.4900000002,4091824.17],[597942.9299999997,4091812.5199999996],[597932.3799999999,4091800.8599999994],[597927.29,4091791.6899999995],[597922.2000000002,4091782.51],[597915.5199999996,4091766.9000000004],[597910.3499999996,4091751.2300000004],[597908.8399999999,4091741.2200000007],[597908.6500000004,4091727.6799999997],[597908.46,4091714.1400000006],[597907.6500000004,4091702.619999999],[597906.8399999999,4091691.0999999996],[597908.29,4091674.6799999997],[597911.8399999999,4091666.869999999],[597914.5300000003,4091648.08],[597917.3600000003,4091637.039999999],[597920.1799999997,4091626.0],[597919.75,4091612.49],[597920.7699999996,4091599.25],[597922.9800000004,4091586.6500000004],[597925.0700000003,4091575.6899999995],[597927.1699999999,4091564.74],[597928.0800000001,4091546.380000001],[597929.9100000001,4091526.6799999997],[597930.8200000003,4091510.5199999996],[597930.8200000003,4091501.3200000003],[597932.3799999999,4091489.3100000005],[597933.6699999999,4091472.51],[597936.9500000002,4091452.92],[597940.2400000002,4091446.24],[597946.1299999999,4091436.09],[597952.0199999996,4091425.9399999995],[597957.9400000004,4091414.91],[597963.8600000003,4091403.869999999],[597966.0,4091402.619999999]]}},{"type":"Feature","properties":{"source":"DERA/IECA","id_dera":10125300000874.0},"geometry":{"type":"LineString","coordinates":[[597840.3200000003,4092385.1999999993],[597840.2000000002,4092382.8499999996],[597841.5199999996,4092378.91],[597842.75,4092368.0199999996],[597841.7000000002,4092360.5600000005],[597840.3899999997,4092347.3200000003],[597843.1399999997,4092336.76],[597843.8399999999,4092331.76],[597846.1399999997,4092319.91],[597846.4000000004,4092316.9299999997],[597845.9400000004,4092305.3200000003],[597845.4900000002,4092293.6999999993],[597844.7199999997,4092276.9800000004],[597845.4800000004,4092262.84],[597846.25,4092248.6899999995],[597848.54,4092237.0600000005],[597848.7199999997,4092217.8200000003],[597849.9699999997,4092210.4000000004],[597848.4500000002,4092200.1999999993],[597848.9900000002,4092196.26],[597851.04,4092191.710000001],[597853.71,4092176.880000001],[597853.4900000002,4092167.2799999993],[597854.8099999996,4092151.789999999],[597856.2999999998,4092147.2300000004],[597858.8700000001,4092135.66],[597859.5300000003,4092122.5500000007],[597860.1900000004,4092109.4499999993],[597862.7199999997,4092100.4000000004],[597867.6699999999,4092088.3100000005],[597872.6299999999,4092076.210000001],[597878.2199999997,4092062.5500000007],[597879.3200000003,4092057.1500000004],[597879.46,4092052.0500000007],[597882.7400000002,4092046.8100000005],[597890.5700000003,4092042.0],[597900.7800000003,4092041.0999999996],[597904.5300000003,4092040.119999999],[597914.3799999999,4092036.0299999993],[597921.3399999999,4092034.9800000004],[597925.8799999999,4092035.3499999996],[597936.4500000002,4092038.3200000003],[597939.8300000001,4092039.869999999]]}},{"type":"Feature","properties":{"source":"DERA/IECA","id_dera":10125300000827.0},"geometry":{"type":"LineString","coordinates":[[597832.9699999997,4093068.91],[597828.7400000002,4093064.9499999993],[597827.3799999999,4093062.4399999995],[597823.1600000001,4093050.3900000006],[597821.1299999999,4093039.3499999996],[597821.3300000001,4093033.789999999],[597822.5499999998,4093030.9800000004],[597824.7300000004,4093029.789999999],[597835.5999999996,4093027.6500000004],[597838.6900000004,4093027.92],[597839.0300000003,4093027.8000000007]]}},{"type":"Feature","properties":{"source":"DERA/IECA","id_dera":10125300000299.0},"geometry":{"type":"LineString","coordinates":[[597785.2699999996,4093181.91],[597786.0300000003,4093186.74],[597784.8099999996,4093188.9299999997],[597782.0599999996,4093190.130000001],[597776.0599999996,4093191.34],[597764.2999999998,4093194.210000001],[597760.8799999999,4093195.1799999997],[597759.7800000003,4093199.17],[597758.46,4093215.1099999994],[597758.8600000003,4093216.460000001],[597761.1699999999,4093217.0600000005],[597774.3799999999,4093221.99],[597780.3600000003,4093227.119999999],[597783.8899999997,4093236.4700000007],[597783.9100000001,4093236.9700000007]]}},{"type":"Feature","properties":{"source":"DERA/IECA","id_dera":10125300001272.0},"geometry":{"type":"LineString","coordinates":[[597745.0199999996,4093587.6899999995],[597742.4000000004,4093569.8100000005],[597742.5599999996,4093558.41],[597740.8499999996,4093554.49],[597740.2199999997,4093551.8000000007],[597740.1900000004,4093546.75],[597743.5099999998,4093537.3100000005],[597744.0,4093535.4499999993],[597744.1500000004,4093531.5199999996],[597742.2000000002,4093522.7200000007],[597744.8399999999,4093514.289999999],[597744.1100000003,4093504.1400000006],[597746.8600000003,4093494.1400000006],[597746.8499999996,4093481.2799999993],[597745.7000000002,4093476.6899999995],[597744.1699999999,4093473.5],[597743.8700000001,4093469.8499999996],[597746.46,4093462.039999999],[597747.9500000002,4093446.09],[597748.0800000001,4093429.0299999993],[597747.8200000003,4093422.6899999995],[597749.0199999996,4093411.210000001],[597750.2199999997,4093399.7300000004],[597748.75,4093387.76],[597747.2800000003,4093375.7799999993],[597750.2599999998,4093356.3499999996],[597752.3899999997,4093345.4000000004],[597752.9800000004,4093340.4000000004],[597756.4100000001,4093322.369999999],[597752.7800000003,4093314.4700000007],[597753.1600000001,4093311.6099999994],[597756.1299999999,4093301.2699999996],[597755.3499999996,4093291.5600000005],[597754.3700000001,4093288.26],[597755.6500000004,4093284.5999999996],[597759.2800000003,4093282.2300000004],[597762.7300000004,4093277.380000001],[597766.3700000001,4093265.0700000003],[597768.1699999999,4093256.08],[597769.5,4093252.99],[597775.2400000002,4093245.0500000007],[597783.6900000004,4093240.4499999993],[597784.0099999998,4093238.8200000003],[597783.9100000001,4093236.9700000007]]}},{"type":"Feature","properties":{"source":"DERA/IECA","id_dera":10125300001455.0},"geometry":{"type":"LineString","coordinates":[[597741.0899999999,4093616.34],[597741.9699999997,4093614.59],[597743.5,4093601.1400000006],[597745.0199999996,4093587.6899999995]]}},{"type":"Feature","properties":{"source":"DERA/IECA","id_dera":10125300000844.0},"geometry":{"type":"LineString","coordinates":[[597741.9400000004,4093640.5700000003],[597746.46,4093635.380000001],[597746.9000000004,4093633.8100000005],[597746.21,4093629.5500000007],[597743.9400000004,4093625.58],[597742.4800000004,4093624.8599999994],[597740.0,4093624.3599999994],[597738.5899999999,4093623.1400000006],[597738.2999999998,4093621.460000001],[597741.0899999999,4093616.34]]}},{"type":"Feature","properties":{"source":"DERA/IECA","id_dera":10125300000167.0},"geometry":{"type":"LineString","coordinates":[[597901.0700000003,4094198.0],[597892.8399999999,4094191.3100000005],[597890.75,4094188.0700000003],[597889.5999999996,4094184.7699999996],[597882.1100000003,4094178.3499999996],[597877.8700000001,4094173.6099999994],[597873.5,4094164.880000001],[597866.1600000001,4094155.7699999996],[597863.79,4094153.4299999997],[597862.0199999996,4094147.83],[597857.7699999996,4094141.0],[597854.8399999999,4094138.6099999994],[597853.3099999996,4094135.8599999994],[597851.3700000001,4094129.42],[597842.1699999999,4094120.9399999995],[597841.0199999996,4094115.7300000004],[597837.7000000002,4094113.7300000004],[597835.3399999999,4094112.9000000004],[597833.5899999999,4094111.1099999994],[597831.7199999997,4094108.26],[597831.8799999999,4094106.130000001],[597830.8899999997,4094100.130000001],[597826.9000000004,4094089.539999999],[597824.0199999996,4094085.0700000003],[597819.7300000004,4094081.7799999993],[597815.2000000002,4094073.9499999993],[597812.6699999999,4094063.33],[597810.1500000004,4094052.710000001],[597808.7699999996,4094036.84],[597806.5499999998,4094025.9399999995],[597804.3300000001,4094015.0299999993],[597801.6600000001,4094005.2300000004],[597799.0,4093995.42],[597797.4500000002,4093979.039999999],[597796.7699999996,4093977.76],[597797.0899999999,4093973.5999999996],[597794.8399999999,4093963.74],[597794.3099999996,4093959.4800000004],[597790.3399999999,4093950.1799999997],[597787.6699999999,4093945.539999999],[597787.4400000004,4093943.9700000007],[597787.5899999999,4093941.5600000005],[597787.1299999999,4093938.92],[597782.5599999996,4093934.960000001],[597781.3700000001,4093932.1099999994],[597780.9500000002,4093927.7300000004],[597777.3499999996,4093914.960000001],[597774.1699999999,4093908.630000001],[597768.4199999999,4093894.3000000007],[597766.6699999999,4093891.2799999993],[597761.3499999996,4093873.91],[597760.2999999998,4093866.34],[597756.6100000003,4093858.2799999993],[597755.8399999999,4093850.99],[597750.6100000003,4093838.7799999993],[597749.7999999998,4093834.0199999996],[597750.2400000002,4093822.460000001],[597750.0800000001,4093803.039999999],[597748.4100000001,4093796.369999999],[597745.5599999996,4093787.9700000007],[597745.4299999997,4093784.4399999995],[597747.2300000004,4093775.3900000006],[597747.6799999997,4093765.01],[597744.4100000001,4093763.17],[597744.1299999999,4093762.5],[597744.1699999999,4093760.42],[597746.2400000002,4093758.0600000005],[597747.1200000001,4093755.6400000006],[597746.8899999997,4093754.3499999996],[597746.04,4093753.0600000005],[597747.9400000004,4093741.4399999995],[597747.9299999997,4093738.5199999996],[597744.54,4093724.2799999993],[597743.4800000004,4093716.5500000007],[597745.04,4093713.2799999993],[597745.7999999998,4093698.3499999996],[597746.8300000001,4093691.67],[597746.7800000003,4093683.4700000007],[597745.9699999997,4093678.26],[597742.9900000002,4093667.84],[597742.1699999999,4093660.7699999996],[597743.3700000001,4093654.1999999993],[597743.1799999997,4093651.2300000004],[597741.9400000004,4093640.5700000003]]}},{"type":"Feature","properties":{"source":"DERA/IECA","id_dera":10125300000250.0},"geometry":{"type":"LineString","coordinates":[[598010.29,4094251.9499999993],[598016.0,4094249.1099999994],[598025.46,4094245.2200000007],[598034.9199999999,4094241.3200000003],[598042.0,4094242.5199999996],[598044.4299999997,4094245.76],[598044.8300000001,4094247.7699999996],[598044.8399999999,4094249.6799999997],[598041.2300000004,4094255.4299999997],[598035.1299999999,4094259.6099999994],[598027.79,4094261.0],[598027.79,4094261.34],[598028.25,4094263.0700000003],[598028.7000000002,4094263.58],[598030.1100000003,4094264.0199999996],[598031.4100000001,4094265.5299999993],[598032.1500000004,4094267.6500000004],[598032.04,4094268.2699999996],[598026.3600000003,4094270.9000000004],[598013.2199999997,4094276.9700000007],[598000.0800000001,4094283.039999999],[597983.1399999997,4094290.7300000004],[597966.21,4094298.4299999997],[597955.1299999999,4094303.99],[597955.4199999999,4094304.9399999995],[597960.2400000002,4094315.0199999996],[597965.0700000003,4094325.09],[597969.8899999997,4094335.17],[597974.7199999997,4094345.24],[597979.9000000004,4094356.3000000007],[597985.0800000001,4094367.3499999996],[597990.2599999998,4094378.41],[597995.4400000004,4094389.460000001],[598000.54,4094400.1400000006],[598005.6299999999,4094410.8100000005],[598010.7300000004,4094421.49],[598015.8200000003,4094432.17],[598021.8700000001,4094445.26],[598027.9199999999,4094458.3599999994],[598034.3799999999,4094472.2200000007],[598040.8399999999,4094486.0700000003],[598047.2999999998,4094499.92],[598053.7599999998,4094513.7799999993],[598058.6100000003,4094523.9299999997],[598063.4699999997,4094534.09],[598081.2699999996,4094525.91],[598099.0700000003,4094517.74],[598099.9100000001,4094518.460000001],[598100.8200000003,4094519.8599999994],[598101.2699999996,4094520.4700000007],[598112.6600000001,4094515.6099999994],[598124.0599999996,4094510.75],[598125.54,4094514.4499999993],[598114.2699999996,4094519.7300000004],[598103.0,4094525.01],[598105.8799999999,4094531.3599999994],[598117.4900000002,4094526.2300000004],[598129.1100000003,4094521.1099999994],[598130.8899999997,4094525.7200000007],[598131.7199999997,4094525.3000000007],[598134.2400000002,4094524.0199999996],[598143.3399999999,4094519.42],[598154.9100000001,4094513.5600000005],[598160.0499999998,4094524.9399999995],[598164.1699999999,4094534.1899999995],[598165.7599999998,4094533.1400000006],[598169.3399999999,4094531.4299999997],[598183.6799999997,4094521.369999999],[598198.0199999996,4094511.3000000007],[598207.1299999999,4094505.17],[598216.25,4094499.0500000007],[598225.3600000003,4094492.9299999997],[598234.4800000004,4094486.8000000007],[598239.3799999999,4094480.99],[598240.8799999999,4094477.51],[598240.5199999996,4094472.960000001],[598235.5599999996,4094460.08],[598232.4100000001,4094457.9700000007],[598230.3899999997,4094457.3599999994],[598221.6399999997,4094459.6500000004],[598220.2999999998,4094459.5500000007],[598219.3899999997,4094458.9399999995],[598219.0999999996,4094458.289999999],[598212.71,4094444.3599999994],[598206.3300000001,4094430.4299999997],[598199.9400000004,4094416.5],[598193.5499999998,4094402.5700000003],[598187.1399999997,4094388.880000001],[598180.7199999997,4094375.1999999993],[598174.2999999998,4094361.51],[598167.8899999997,4094347.83],[598161.4699999997,4094334.1400000006],[598155.0499999998,4094320.460000001],[598148.6399999997,4094306.7699999996],[598142.2199999997,4094293.09],[598138.2999999998,4094285.08],[598139.2000000002,4094283.84],[598145.1699999999,4094279.039999999],[598147.8499999996,4094275.7200000007],[598147.9000000004,4094274.26],[598146.9800000004,4094270.4499999993],[598138.8099999996,4094254.16],[598130.6399999997,4094237.880000001],[598125.2400000002,4094226.3200000003],[598119.8499999996,4094214.76],[598111.8700000001,4094197.1799999997],[598103.8899999997,4094179.5999999996],[598100.1500000004,4094173.51],[598094.8399999999,4094166.4700000007],[598089.25,4094161.3900000006],[598073.8099999996,4094150.1999999993],[598065.0800000001,4094144.0199999996],[598056.3499999996,4094137.83],[598054.3499999996,4094140.539999999],[598051.5499999998,4094141.8499999996],[598048.8499999996,4094141.8000000007],[598044.0099999998,4094139.25],[598038.2599999998,4094133.67],[598035.6500000004,4094128.5199999996],[598035.71,4094118.76],[598038.0899999999,4094113.9700000007],[598041.9400000004,4094109.289999999],[598048.9500000002,4094108.9800000004],[598062.1100000003,4094113.0600000005],[598070.9199999999,4094119.49],[598079.7400000002,4094125.92],[598092.1399999997,4094134.75],[598104.5300000003,4094143.5700000003],[598112.0,4094154.42],[598119.2699999996,4094161.2799999993],[598122.7300000004,4094167.210000001],[598127.6100000003,4094177.710000001],[598132.5,4094188.1999999993],[598137.2699999996,4094199.0299999993],[598142.04,4094209.869999999],[598147.2400000002,4094221.119999999],[598152.4400000004,4094232.369999999],[598156.6399999997,4094242.3599999994],[598160.8499999996,4094252.3599999994],[598165.0599999996,4094262.3499999996],[598169.2699999996,4094272.34],[598177.0099999998,4094288.0999999996],[598184.7599999998,4094303.8499999996],[598193.04,4094320.1099999994],[598201.3300000001,4094336.3599999994],[598207.7400000002,4094349.710000001],[598214.1500000004,4094363.0600000005],[598222.0700000003,4094379.3499999996],[598229.9900000002,4094395.6400000006],[598238.1900000004,4094411.92],[598246.3899999997,4094428.210000001],[598253.0,4094441.6899999995],[598259.6100000003,4094455.1799999997],[598261.9500000002,4094462.24],[598263.0199999996,4094473.2300000004],[598261.0700000003,4094485.76],[598255.96,4094496.0],[598247.7000000002,4094504.5700000003],[598243.46,4094508.24],[598238.5899999999,4094510.8499999996],[598227.6399999997,4094520.17],[598218.3099999996,4094527.2699999996],[598208.9800000004,4094534.3599999994],[598197.7400000002,4094541.460000001],[598186.5,4094548.5700000003],[598174.8200000003,4094557.41],[598163.1399999997,4094566.26],[598156.4800000004,4094570.34]]}},{"type":"Feature","properties":{"source":"DERA/IECA","id_dera":10125300000842.0},"geometry":{"type":"LineString","coordinates":[[598010.29,4094251.9499999993],[598007.7599999998,4094251.74],[598002.9800000004,4094250.1400000006],[597984.1600000001,4094245.6999999993],[597969.04,4094240.619999999],[597956.71,4094233.92],[597944.3799999999,4094227.2300000004],[597931.2599999998,4094218.74],[597918.1399999997,4094210.26],[597909.5999999996,4094204.130000001],[597901.0700000003,4094198.0]]}},{"type":"Feature","properties":{"source":"DERA/IECA","id_dera":10125300001283.0},"geometry":{"type":"LineString","coordinates":[[598829.8799999999,4095449.0299999993],[598821.9400000004,4095433.8900000006],[598814.0099999998,4095418.75],[598812.3499999996,4095413.76],[598810.8600000003,4095408.0500000007],[598808.4699999997,4095390.49],[598809.9800000004,4095380.67],[598810.7300000004,4095373.1400000006],[598809.7999999998,4095367.1999999993],[598808.2000000002,4095362.16],[598808.5099999998,4095357.7799999993],[598811.6900000004,4095353.7799999993],[598813.7199999997,4095346.08],[598813.8099999996,4095342.09],[598811.5099999998,4095332.119999999],[598812.6900000004,4095321.5600000005],[598810.4299999997,4095309.1099999994],[598810.46,4095304.74],[598811.6799999997,4095300.6899999995],[598811.7800000003,4095298.33],[598810.0099999998,4095294.3599999994],[598809.9900000002,4095290.4299999997],[598812.3300000001,4095286.7699999996],[598812.9299999997,4095283.960000001],[598813.0300000003,4095270.5999999996],[598812.3099999996,4095262.3599999994],[598811.8600000003,4095252.3200000003],[598814.1200000001,4095244.9000000004],[598814.7400000002,4095235.5199999996],[598814.8099999996,4095227.2699999996],[598813.6799999997,4095216.5],[598813.8399999999,4095203.880000001],[598812.4100000001,4095198.5500000007],[598811.3700000001,4095188.49],[598810.3300000001,4095178.42],[598808.8399999999,4095173.039999999],[598808.8200000003,4095168.16],[598810.3099999996,4095165.2300000004],[598811.1900000004,4095161.58],[598811.1799999997,4095158.83],[598810.54,4095156.0299999993],[598812.0899999999,4095150.9700000007],[598811.8799999999,4095143.7300000004],[598809.1600000001,4095139.09],[598809.3099999996,4095136.4499999993],[598812.7999999998,4095127.5600000005],[598812.6200000001,4095124.4800000004],[598812.4299999997,4095110.2300000004],[598810.8399999999,4095098.34],[598810.2699999996,4095096.1500000004],[598808.8600000003,4095094.59],[598807.8399999999,4095092.8000000007],[598807.21,4095090.6099999994],[598807.4299999997,4095089.0999999996],[598807.9299999997,4095087.9700000007],[598808.1900000004,4095084.210000001],[598806.5300000003,4095078.66],[598806.5099999998,4095075.91],[598809.5099999998,4095069.5],[598809.7199999997,4095066.4700000007],[598807.7800000003,4095061.1500000004],[598808.0499999998,4095059.24],[598810.1100000003,4095055.8000000007],[598810.3200000003,4095053.9499999993],[598810.0300000003,4095051.4800000004],[598808.7300000004,4095050.26],[598808.2000000002,4095046.2200000007],[598808.46,4095041.84],[598807.54,4095038.42],[598804.7199999997,4095025.1899999995],[598803.3799999999,4095015.6099999994],[598799.2199999997,4095005.130000001],[598797.6600000001,4094996.7799999993],[598795.8399999999,4094992.4700000007],[598791.8899999997,4094988.119999999],[598784.4400000004,4094981.42],[598779.4000000004,4094972.0199999996],[598772.4299999997,4094960.84],[598766.5,4094953.74],[598758.8899999997,4094946.210000001],[598748.6900000004,4094938.75],[598738.4900000002,4094931.2799999993],[598726.4500000002,4094925.460000001],[598712.4000000004,4094921.66],[598703.0800000001,4094921.039999999],[598696.0800000001,4094923.0999999996],[598677.6900000004,4094927.24],[598662.8399999999,4094929.7300000004],[598647.9800000004,4094932.2300000004],[598629.1799999997,4094933.0600000005],[598618.6699999999,4094933.9299999997],[598608.1500000004,4094934.8000000007],[598593.5599999996,4094935.42],[598578.9800000004,4094936.0299999993],[598565.8200000003,4094936.380000001],[598552.6600000001,4094936.74],[598541.9100000001,4094935.76],[598531.1600000001,4094934.7799999993],[598513.1900000004,4094933.3100000005],[598494.2599999998,4094929.369999999],[598477.5,4094923.460000001],[598461.3600000003,4094916.08],[598449.7599999998,4094909.6400000006],[598438.1699999999,4094903.1899999995],[598429.5199999996,4094897.289999999],[598420.8700000001,4094891.3900000006],[598412.1600000001,4094888.5199999996],[598410.1900000004,4094887.0700000003],[598409.4500000002,4094884.66],[598401.1699999999,4094879.3200000003],[598394.1799999997,4094873.5199999996],[598385.21,4094866.3900000006],[598376.25,4094859.25],[598367.29,4094851.5],[598358.3200000003,4094843.75],[598355.2699999996,4094839.7799999993],[598349.2999999998,4094835.380000001],[598344.9500000002,4094831.369999999],[598339.1600000001,4094828.59],[598337.5199999996,4094827.09],[598335.0800000001,4094821.9399999995],[598333.7800000003,4094820.539999999],[598325.0499999998,4094814.59],[598318.8899999997,4094805.25],[598314.3200000003,4094801.51],[598313.2999999998,4094800.2799999993],[598312.8899999997,4094796.5299999993],[598312.0899999999,4094794.619999999],[598310.1699999999,4094792.1099999994],[598304.1500000004,4094788.7799999993],[598298.3099999996,4094787.8000000007],[598297.4000000004,4094786.619999999],[598297.3300000001,4094784.5500000007],[598296.5899999999,4094782.59],[598293.7800000003,4094781.0299999993],[598283.3200000003,4094777.2699999996],[598276.4500000002,4094772.3200000003],[598264.2400000002,4094767.1099999994],[598258.0599999996,4094755.9800000004],[598251.6900000004,4094749.7300000004],[598248.9100000001,4094744.130000001],[598243.8700000001,4094736.6400000006],[598238.1200000001,4094731.9000000004],[598235.29,4094726.9800000004],[598231.6699999999,4094722.17],[598224.4000000004,4094715.869999999],[598217.5099999998,4094708.6099999994],[598209.8499999996,4094703.7200000007],[598207.6500000004,4094701.0299999993],[598206.96,4094698.6799999997],[598205.6600000001,4094696.0500000007],[598202.3799999999,4094691.6899999995],[598190.4100000001,4094678.119999999],[598188.5899999999,4094674.3100000005],[598185.0,4094664.01],[598183.0700000003,4094659.92],[598180.5899999999,4094657.6400000006],[598178.21,4094653.4399999995],[598176.6100000003,4094648.4000000004],[598168.5599999996,4094633.2300000004],[598166.5899999999,4094632.119999999],[598164.8399999999,4094631.74],[598160.1900000004,4094632.16],[598158.8399999999,4094631.7699999996],[598157.4900000002,4094630.710000001],[598157.5300000003,4094627.91],[598158.6399999997,4094625.3200000003],[598160.1399999997,4094623.0700000003],[598155.7300000004,4094616.41],[598152.04,4094609.08],[598149.5700000003,4094599.16],[598147.0199999996,4094594.1799999997],[598146.1600000001,4094590.8200000003],[598147.2000000002,4094587.2799999993],[598151.8600000003,4094577.039999999],[598156.4800000004,4094570.34]]}},{"type":"Feature","properties":{"source":"DERA/IECA","id_dera":10125300001233.0},"geometry":{"type":"LineString","coordinates":[[598880.1100000003,4096087.460000001],[598877.0599999996,4096071.710000001],[598874.0099999998,4096055.960000001],[598871.8200000003,4096043.0600000005],[598869.6399999997,4096030.16],[598869.4199999999,4096012.09],[598868.0700000003,4095996.8900000006],[598866.7199999997,4095981.6799999997],[598865.3700000001,4095966.4800000004],[598864.0199999996,4095951.2799999993],[598862.0099999998,4095933.7799999993],[598860.0,4095916.2799999993],[598858.0,4095898.7799999993],[598855.9900000002,4095881.2799999993],[598853.8700000001,4095864.7799999993],[598851.75,4095848.2799999993],[598849.6299999999,4095831.7799999993],[598847.5199999996,4095815.289999999],[598846.6500000004,4095795.5299999993],[598845.7800000003,4095775.7799999993],[598844.9100000001,4095756.0199999996],[598844.0499999998,4095736.2699999996],[598843.2800000003,4095720.6899999995],[598842.5099999998,4095705.119999999],[598841.75,4095689.5500000007],[598840.9800000004,4095673.9800000004],[598840.2199999997,4095658.41],[598839.4500000002,4095642.84],[598838.6799999997,4095627.26],[598837.9199999999,4095611.6899999995],[598837.6399999997,4095593.210000001],[598837.3600000003,4095574.7300000004],[598833.4199999999,4095555.6999999993],[598833.0999999996,4095549.0299999993],[598833.21,4095543.8900000006],[598834.2300000004,4095537.91],[598835.1600000001,4095526.5],[598834.9500000002,4095515.0999999996],[598833.5700000003,4095501.0600000005],[598830.54,4095486.5299999993],[598830.1200000001,4095474.3100000005],[598829.9299999997,4095463.8900000006],[598829.7400000002,4095453.4700000007],[598829.8799999999,4095449.0299999993]]}},{"type":"Feature","properties":{"source":"DERA/IECA","id_dera":10125300000200.0},"geometry":{"type":"LineString","coordinates":[[598952.7699999996,4096335.6500000004],[598949.8600000003,4096329.130000001],[598943.9299999997,4096319.0700000003],[598941.8200000003,4096316.130000001],[598939.79,4096311.4399999995],[598935.9299999997,4096302.119999999],[598932.0599999996,4096292.789999999],[598927.7000000002,4096284.5500000007],[598924.1900000004,4096274.8499999996],[598920.6799999997,4096265.16],[598918.8499999996,4096260.3599999994],[598915.04,4096248.5700000003],[598911.2400000002,4096236.7799999993],[598906.8300000001,4096219.91],[598902.4199999999,4096203.039999999],[598898.5599999996,4096188.2200000007],[598896.0999999996,4096174.1400000006],[598893.6399999997,4096160.0600000005],[598891.1799999997,4096145.9800000004],[598888.7199999997,4096131.91],[598885.04,4096112.92],[598881.3600000003,4096093.9299999997],[598880.1100000003,4096087.460000001]]}},{"type":"Feature","properties":{"source":"DERA/IECA","id_dera":10125300001013.0},"geometry":{"type":"LineString","coordinates":[[599759.7300000004,4097433.9299999997],[599760.9699999997,4097431.26],[599762.7199999997,4097429.1099999994],[599763.8499999996,4097428.1899999995],[599768.6799999997,4097427.789999999],[599770.2199999997,4097428.3000000007],[599771.4400000004,4097430.0500000007],[599772.8799999999,4097431.289999999],[599775.54,4097432.630000001],[599786.8399999999,4097432.1400000006],[599790.9500000002,4097430.3000000007],[599794.8600000003,4097424.7699999996],[599797.3399999999,4097418.7200000007],[599797.46,4097411.630000001],[599802.7300000004,4097397.0700000003],[599803.1600000001,4097390.6999999993],[599798.9699999997,4097381.9700000007],[599796.9299999997,4097376.210000001],[599796.5300000003,4097372.5199999996],[599797.8799999999,4097365.2300000004],[599800.3300000001,4097347.99],[599802.79,4097330.74],[599804.1299999999,4097325.0999999996],[599805.79,4097319.5600000005],[599807.6900000004,4097307.5299999993],[599809.5899999999,4097295.49],[599811.5,4097283.460000001],[599813.4000000004,4097271.4299999997],[599816.1900000004,4097252.619999999],[599818.9800000004,4097233.8100000005],[599821.7699999996,4097215.0],[599824.5599999996,4097196.1999999993],[599827.0999999996,4097185.3200000003],[599829.6399999997,4097174.4399999995],[599832.1200000001,4097158.0700000003],[599834.5999999996,4097141.6999999993],[599837.0700000003,4097125.33],[599839.5499999998,4097108.960000001],[599841.0099999998,4097100.960000001],[599842.1399999997,4097098.1899999995],[599844.0999999996,4097095.5199999996],[599845.54,4097092.24],[599845.96,4097090.5],[599845.9699999997,4097086.9000000004],[599844.75,4097079.92],[599838.4100000001,4097069.119999999],[599831.1399999997,4097061.7200000007],[599822.2699999996,4097055.74],[599813.4100000001,4097049.76],[599804.1799999997,4097045.119999999],[599794.9500000002,4097040.4800000004],[599778.3300000001,4097033.25],[599761.3099999996,4097023.92],[599744.29,4097014.59],[599733.9900000002,4097008.3000000007],[599723.6799999997,4097002.0199999996],[599710.4100000001,4096993.880000001],[599697.1299999999,4096985.7300000004],[599686.3700000001,4096978.83],[599682.3700000001,4096975.0199999996],[599674.79,4096965.8599999994],[599667.2000000002,4096956.710000001],[599663.7400000002,4096952.59],[599657.2400000002,4096944.880000001],[599650.7400000002,4096937.16],[599642.6500000004,4096927.289999999],[599633.8399999999,4096919.67],[599630.1500000004,4096914.3200000003],[599628.0199999996,4096904.5600000005],[599622.4000000004,4096893.869999999],[599615.29,4096882.1999999993],[599608.1799999997,4096870.5299999993],[599603.79,4096860.0500000007],[599597.6799999997,4096841.869999999],[599591.5599999996,4096823.6799999997],[599588.6799999997,4096812.5600000005],[599585.8099999996,4096801.4399999995],[599582.9400000004,4096790.3200000003],[599580.0599999996,4096779.1999999993],[599575.7800000003,4096766.76],[599571.5,4096754.33],[599570.9900000002,4096752.2799999993],[599571.0999999996,4096749.8100000005],[599572.2300000004,4096746.2200000007],[599574.9400000004,4096732.5199999996],[599577.6399999997,4096718.8200000003],[599578.1500000004,4096716.9700000007],[599579.7000000002,4096715.4399999995],[599587.4100000001,4096710.7300000004],[599587.8200000003,4096709.710000001],[599588.0300000003,4096707.4499999993],[599587.0300000003,4096698.619999999],[599586.5199999996,4096697.1799999997],[599586.7300000004,4096695.9499999993],[599587.5499999998,4096694.8200000003],[599587.5499999998,4096693.59],[599586.8399999999,4096691.0199999996],[599583.9699999997,4096687.3200000003],[599582.2300000004,4096685.869999999],[599580.0800000001,4096684.74],[599578.0300000003,4096684.3200000003],[599576.6900000004,4096683.1899999995],[599576.4900000002,4096682.7799999993],[599575.6799999997,4096677.4399999995],[599574.04,4096675.08],[599572.0999999996,4096673.4299999997],[599571.8899999997,4096673.5299999993],[599570.7599999998,4096673.42],[599570.1500000004,4096673.7300000004],[599569.5300000003,4096674.3499999996],[599570.04,4096676.5],[599569.9299999997,4096677.2200000007],[599569.5199999996,4096677.4299999997],[599565.9299999997,4096677.210000001],[599564.7999999998,4096677.41],[599557.4900000002,4096687.1500000004],[599555.6299999999,4096688.2799999993],[599554.5099999998,4096688.380000001],[599553.1699999999,4096688.0700000003],[599551.5300000003,4096686.7300000004],[599543.96,4096677.26],[599543.5499999998,4096675.619999999],[599543.96,4096673.880000001],[599545.4100000001,4096670.6999999993],[599548.5099999998,4096660.6400000006],[599548.1100000003,4096655.3000000007],[599548.5300000003,4096653.9700000007],[599552.0300000003,4096650.789999999],[599552.4400000004,4096649.67],[599551.5300000003,4096645.25],[599548.6600000001,4096642.0600000005],[599547.8399999999,4096641.75],[599545.79,4096641.8499999996],[599537.8700000001,4096644.8100000005],[599532.3200000003,4096648.1799999997],[599525.6399999997,4096652.8900000006],[599525.2300000004,4096652.99],[599523.3799999999,4096652.9800000004],[599522.8600000003,4096652.7799999993],[599522.3499999996,4096652.0600000005],[599521.4400000004,4096646.92],[599520.1100000003,4096645.2799999993],[599518.3700000001,4096644.039999999],[599516.8300000001,4096643.42],[599512.9299999997,4096642.9000000004],[599511.4900000002,4096642.380000001],[599510.4699999997,4096641.76],[599506.9900000002,4096637.1400000006],[599503.71,4096635.0700000003],[599500.7300000004,4096634.1400000006],[599491.6900000004,4096635.25],[599490.46,4096634.84],[599488.7199999997,4096633.5999999996],[599481.04,4096625.99],[599473.9699999997,4096620.630000001],[599468.5300000003,4096617.2300000004],[599458.5099999998,4096601.8100000005],[599457.7999999998,4096598.3100000005],[599459.2400000002,4096596.26],[599463.0499999998,4096593.4000000004],[599463.7699999996,4096591.6500000004],[599463.4699999997,4096586.619999999],[599460.0,4096577.8900000006],[599455.7000000002,4096572.6400000006],[599453.3399999999,4096571.92],[599448.9299999997,4096571.91],[599433.4199999999,4096573.1999999993],[599430.4500000002,4096572.6799999997],[599428.4000000004,4096571.34],[599425.9400000004,4096566.51],[599423.5099999998,4096554.5500000007],[599421.0700000003,4096542.58],[599420.5700000003,4096538.58],[599418.8300000001,4096534.0500000007],[599414.8399999999,4096527.4700000007],[599411.9800000004,4096524.49],[599402.1399999997,4096516.869999999],[599401.3200000003,4096515.84],[599400.71,4096514.710000001],[599400.3099999996,4096509.880000001],[599399.6900000004,4096508.6500000004],[599394.3700000001,4096503.6099999994],[599392.9299999997,4096501.5500000007],[599392.3200000003,4096499.8000000007],[599392.3200000003,4096498.4700000007],[599393.7699999996,4096495.289999999],[599393.6699999999,4096494.67],[599388.0300000003,4096489.9399999995],[599384.3499999996,4096484.380000001],[599384.46,4096482.74],[599387.5499999998,4096476.2799999993],[599387.5499999998,4096475.66],[599387.04,4096474.0199999996],[599384.6900000004,4096472.8900000006],[599374.6399999997,4096465.7799999993],[599368.7999999998,4096462.380000001],[599367.7699999996,4096461.039999999],[599366.1399999997,4096457.130000001],[599365.0099999998,4096455.49],[599355.6799999997,4096450.74],[599353.5300000003,4096448.789999999],[599352.71,4096447.039999999],[599352.5199999996,4096443.75],[599354.3700000001,4096439.8599999994],[599354.3799999999,4096438.9299999997],[599353.9699999997,4096438.42],[599353.3499999996,4096438.1099999994],[599346.8799999999,4096437.789999999],[599342.8799999999,4096436.24],[599340.1100000003,4096436.2300000004],[599335.2800000003,4096437.960000001],[599329.4100000001,4096444.3200000003],[599318.2199999997,4096447.5700000003],[599309.0800000001,4096446.83],[599302.9199999999,4096447.9499999993],[599301.3799999999,4096447.74],[599297.0700000003,4096445.99],[599289.0599999996,4096445.76],[599279.21,4096444.3000000007],[599272.2300000004,4096444.2799999993],[599264.5300000003,4096445.09],[599258.2599999998,4096446.1999999993],[599253.5300000003,4096447.9399999995],[599247.4699999997,4096451.7200000007],[599241.4900000002,4096459.0999999996],[599240.2599999998,4096459.6099999994],[599229.79,4096458.76],[599224.4500000002,4096457.83],[599216.2400000002,4096457.09],[599211.1100000003,4096457.380000001],[599200.3799999999,4096458.3900000006],[599189.6500000004,4096459.3900000006],[599175.4000000004,4096461.1799999997],[599170.0499999998,4096460.460000001],[599160.2300000004,4096457.1400000006],[599147.2699999996,4096453.3200000003],[599134.3200000003,4096449.49],[599128.8300000001,4096447.2300000004],[599122.6200000001,4096444.26],[599116.5999999996,4096440.9700000007],[599111.7199999997,4096437.67],[599101.4000000004,4096429.2300000004],[599092.1900000004,4096421.26],[599082.9800000004,4096413.2799999993],[599073.7800000003,4096405.3100000005],[599064.5700000003,4096397.33],[599054.6799999997,4096390.0600000005],[599044.7999999998,4096382.789999999],[599034.9100000001,4096375.5199999996],[599025.0199999996,4096368.26],[599019.0199999996,4096365.8000000007],[599007.2699999996,4096363.4399999995],[599002.9400000004,4096362.1799999997],[598995.9699999997,4096357.4800000004],[598988.0499999998,4096356.59],[598981.3899999997,4096352.09],[598977.1799999997,4096346.0],[598975.5099999998,4096344.59],[598973.75,4096344.01],[598961.5099999998,4096342.8900000006],[598956.5300000003,4096340.42],[598954.4400000004,4096338.3000000007],[598952.7699999996,4096335.6500000004]]}},{"type":"Feature","properties":{"source":"DERA/IECA","id_dera":10125300000481.0},"geometry":{"type":"LineString","coordinates":[[599695.7000000002,4098111.3000000007],[599695.9400000004,4098096.4700000007],[599696.1900000004,4098081.6400000006],[599696.3300000001,4098068.5299999993],[599696.46,4098055.41],[599696.5899999999,4098042.3000000007],[599697.3200000003,4098028.75],[599698.04,4098015.1999999993],[599698.7699999996,4098001.6400000006],[599699.4900000002,4097988.09],[599699.9100000001,4097974.7699999996],[599700.3300000001,4097961.4499999993],[599700.7400000002,4097948.130000001],[599701.1600000001,4097934.8100000005],[599703.2999999998,4097919.83],[599705.4400000004,4097904.84],[599705.6600000001,4097899.710000001],[599706.7999999998,4097895.1999999993],[599709.6799999997,4097890.17],[599711.96,4097880.630000001],[599713.5999999996,4097862.0],[599715.2300000004,4097843.369999999],[599715.25,4097838.539999999],[599716.1100000003,4097821.5999999996],[599716.1100000003,4097820.0600000005],[599716.6299999999,4097818.5299999993],[599718.3799999999,4097816.7799999993],[599719.2000000002,4097814.9399999995],[599723.46,4097796.4700000007],[599725.3099999996,4097791.75],[599724.8099999996,4097788.7699999996],[599723.3799999999,4097786.8200000003],[599723.0800000001,4097782.5],[599723.21,4097768.2300000004],[599722.9199999999,4097761.5600000005],[599726.5899999999,4097751.25],[599730.2599999998,4097740.9399999995],[599732.5300000003,4097736.33],[599733.3700000001,4097729.24],[599731.1399999997,4097716.6099999994],[599731.4500000002,4097714.76],[599734.8499999996,4097710.0500000007],[599737.7400000002,4097704.0999999996],[599738.9800000004,4097698.25],[599740.1600000001,4097679.26],[599743.2800000003,4097663.25],[599743.2999999998,4097653.09],[599744.2400000002,4097646.83],[599753.0,4097633.1899999995],[599756.7400000002,4097615.49],[599760.4699999997,4097597.789999999],[599762.5300000003,4097586.01],[599764.5800000001,4097574.24],[599766.6399999997,4097562.460000001],[599768.7000000002,4097550.6799999997],[599770.7000000002,4097539.880000001],[599772.7000000002,4097529.08],[599774.7000000002,4097518.2799999993],[599776.7000000002,4097507.4800000004],[599778.7300000004,4097497.34],[599780.75,4097487.210000001],[599782.7800000003,4097477.08],[599784.8099999996,4097466.9399999995],[599784.9100000001,4097466.119999999],[599784.4000000004,4097465.09],[599782.3499999996,4097463.75],[599776.4000000004,4097462.1999999993],[599768.0800000001,4097461.67],[599757.7300000004,4097456.1999999993],[599756.8099999996,4097454.76],[599755.5800000001,4097450.34],[599755.5899999999,4097446.130000001],[599757.04,4097441.0],[599759.7300000004,4097433.9299999997]]}},{"type":"Feature","properties":{"source":"DERA/IECA","id_dera":10125300001248.0},"geometry":{"type":"LineString","coordinates":[[599849.9900000002,4098956.119999999],[599849.9100000001,4098943.2699999996],[599847.8799999999,4098932.380000001],[599845.3300000001,4098921.3100000005],[599842.7800000003,4098910.24],[599840.2199999997,4098899.17],[599837.6699999999,4098888.1099999994],[599835.1200000001,4098877.039999999],[599832.5599999996,4098865.9700000007],[599830.0099999998,4098854.9000000004],[599827.46,4098843.83],[599824.6100000003,4098831.6099999994],[599821.7699999996,4098819.380000001],[599818.9199999999,4098807.16],[599815.5599999996,4098793.289999999],[599812.21,4098779.42],[599808.8300000001,4098766.4499999993],[599805.4400000004,4098753.4800000004],[599802.0599999996,4098740.51],[599798.6799999997,4098727.539999999],[599794.9000000004,4098716.7799999993],[599791.1299999999,4098706.0199999996],[599787.3600000003,4098695.25],[599783.5800000001,4098684.49],[599779.9100000001,4098674.4700000007],[599776.2400000002,4098664.4499999993],[599772.5599999996,4098654.4299999997],[599768.8899999997,4098644.41],[599766.54,4098638.5600000005],[599763.8499999996,4098627.6899999995],[599761.1500000004,4098616.83],[599758.46,4098605.9700000007],[599755.7599999998,4098595.0999999996],[599753.6900000004,4098581.710000001],[599751.6200000001,4098568.3200000003],[599749.54,4098554.9299999997],[599747.4699999997,4098541.539999999],[599745.4000000004,4098528.1500000004],[599743.3200000003,4098514.76],[599741.25,4098501.369999999],[599739.1799999997,4098487.9800000004],[599737.2300000004,4098477.2799999993],[599735.2800000003,4098466.59],[599733.3200000003,4098455.8900000006],[599731.3700000001,4098445.1999999993],[599729.4199999999,4098434.5],[599727.4699999997,4098423.8100000005],[599725.5199999996,4098413.1099999994],[599723.5700000003,4098402.42],[599721.7300000004,4098389.1999999993],[599719.8799999999,4098375.9700000007],[599718.04,4098362.75],[599716.2000000002,4098349.5299999993],[599713.8200000003,4098333.25],[599711.4500000002,4098316.9700000007],[599707.8899999997,4098300.6400000006],[599705.7999999998,4098284.539999999],[599703.71,4098268.4399999995],[599701.6200000001,4098252.34],[599699.5199999996,4098236.24],[599698.3799999999,4098222.789999999],[599697.2300000004,4098209.34],[599696.0800000001,4098195.8900000006],[599695.3099999996,4098185.5199999996],[599694.54,4098175.1400000006],[599694.4500000002,4098168.0600000005],[599694.8499999996,4098149.74],[599695.25,4098131.41],[599695.4800000004,4098121.3499999996],[599695.7000000002,4098111.3000000007]]}},{"type":"Feature","properties":{"source":"DERA/IECA","id_dera":10125300001255.0},"geometry":{"type":"LineString","coordinates":[[599910.2699999996,4099234.3100000005],[599906.29,4099222.1999999993],[599902.5899999999,4099210.9700000007],[599898.9000000004,4099199.75],[599895.0499999998,4099186.9800000004],[599891.21,4099174.2200000007],[599887.3600000003,4099161.4499999993],[599881.5800000001,4099142.3100000005],[599879.0,4099124.5700000003],[599876.4299999997,4099106.83],[599874.0,4099089.42],[599871.5700000003,4099077.92],[599869.1299999999,4099066.41],[599866.0899999999,4099048.0299999993],[599863.0599999996,4099029.6400000006],[599859.8600000003,4099015.08],[599856.6600000001,4099000.5199999996],[599853.46,4098985.960000001],[599850.2599999998,4098971.4000000004],[599849.5599999996,4098963.1799999997],[599849.9900000002,4098956.119999999]]}},{"type":"Feature","properties":{"source":"DERA/IECA","id_dera":10125300001249.0},"geometry":{"type":"LineString","coordinates":[[600141.1900000004,4099696.1799999997],[600133.8600000003,4099686.6799999997],[600126.5199999996,4099677.1799999997],[600117.1600000001,4099660.6799999997],[600107.8099999996,4099644.1799999997],[600105.9800000004,4099637.8100000005],[600106.9100000001,4099632.880000001],[600106.6100000003,4099629.289999999],[600104.46,4099627.6400000006],[600096.4699999997,4099620.74],[600087.25,4099610.1999999993],[600078.04,4099599.6500000004],[600070.6600000001,4099591.7799999993],[600063.29,4099583.91],[600056.9500000002,4099574.3499999996],[600053.1699999999,4099565.41],[600046.1200000001,4099551.0199999996],[600044.8899999997,4099549.2699999996],[600036.3899999997,4099542.5700000003],[600029.21,4099539.17],[600021.6200000001,4099534.630000001],[600019.2599999998,4099532.16],[600016.2000000002,4099525.380000001],[600008.7300000004,4099516.33],[600005.04,4099512.9299999997],[600002.2800000003,4099507.789999999],[599998.9000000004,4099502.5500000007],[599995.7199999997,4099492.58],[599992.5300000003,4099482.619999999],[599989.3499999996,4099472.6500000004],[599986.1600000001,4099462.6799999997],[599982.9800000004,4099452.7200000007],[599979.79,4099442.75],[599976.6100000003,4099432.7799999993],[599973.4199999999,4099422.8200000003],[599969.5599999996,4099406.6899999995],[599965.0700000003,4099394.49],[599960.5800000001,4099382.2799999993],[599956.0899999999,4099370.08],[599951.6100000003,4099357.880000001],[599947.6399999997,4099343.34],[599943.6699999999,4099328.8000000007],[599938.7199999997,4099313.75],[599933.7800000003,4099298.6999999993],[599930.0,4099288.17],[599926.2300000004,4099277.630000001],[599924.5,4099271.0600000005],[599918.4800000004,4099253.9000000004],[599913.6799999997,4099244.6500000004],[599910.2699999996,4099234.3100000005]]}},{"type":"Feature","properties":{"source":"DERA/IECA","id_dera":10125300000482.0},"geometry":{"type":"LineString","coordinates":[[600201.0478925615,4099750.0],[600192.79,4099744.0700000003],[600179.1100000003,4099732.59],[600165.4299999997,4099721.1099999994],[600155.9000000004,4099712.0],[600146.3799999999,4099702.8900000006],[600141.1900000004,4099696.1799999997]]}},{"type":"Feature","properties":{"source":"DERA/IECA","id_dera":10125300001424.0},"geometry":{"type":"LineString","coordinates":[[597832.9699999997,4093068.91],[597849.3499999996,4093069.16],[597860.9100000001,4093068.869999999],[597872.8399999999,4093068.92],[597884.7599999998,4093068.9700000007],[597896.4900000002,4093069.0999999996],[597908.2199999997,4093069.2300000004],[597918.8300000001,4093069.34],[597929.4400000004,4093069.4499999993],[597947.5599999996,4093069.630000001],[597960.0800000001,4093069.8100000005],[597972.5899999999,4093070.0],[597989.96,4093070.5500000007],[598007.3300000001,4093071.0999999996],[598018.8899999997,4093071.0600000005],[598030.4500000002,4093071.0299999993],[598039.6500000004,4093069.01],[598048.6600000001,4093064.5299999993],[598060.8300000001,4093054.3100000005],[598063.8200000003,4093050.8599999994],[598068.3099999996,4093045.6799999997],[598069.6500000004,4093045.5],[598077.04,4093051.8599999994],[598077.6600000001,4093051.91],[598079.5,4093050.33],[598087.0899999999,4093043.16],[598094.6799999997,4093035.99],[598101.3799999999,4093028.5199999996],[598108.0700000003,4093021.0500000007],[598108.1200000001,4093020.66],[598108.0599999996,4093019.869999999],[598107.8399999999,4093019.6500000004],[598113.4299999997,4093010.7799999993],[598119.0199999996,4093001.91],[598123.75,4093004.130000001],[598124.7000000002,4093004.01],[598134.7699999996,4092988.4700000007],[598134.71,4092988.0700000003],[598131.0499999998,4092985.51],[598130.7699999996,4092984.789999999],[598130.9900000002,4092983.83],[598142.0099999998,4092967.5],[598142.2300000004,4092967.49],[598146.0599999996,4092969.7699999996],[598156.7999999998,4092953.0500000007],[598153.3099999996,4092950.539999999],[598152.9699999997,4092949.9299999997],[598158.5800000001,4092941.1400000006],[598164.2000000002,4092932.3599999994],[598168.4299999997,4092934.8599999994],[598174.0499999998,4092926.49],[598179.6699999999,4092918.130000001],[598175.0499999998,4092915.130000001],[598183.2000000002,4092902.460000001],[598191.3600000003,4092889.789999999],[598199.5099999998,4092877.119999999],[598207.6600000001,4092864.460000001],[598215.8099999996,4092851.789999999],[598223.96,4092839.119999999],[598232.1100000003,4092826.4499999993],[598240.2599999998,4092813.789999999],[598248.4199999999,4092801.119999999],[598256.5700000003,4092788.4499999993],[598264.7199999997,4092775.7799999993],[598272.8700000001,4092763.1099999994],[598281.0199999996,4092750.4499999993],[598289.1699999999,4092737.7799999993],[598297.3200000003,4092725.1099999994],[598305.4800000004,4092712.4399999995],[598314.3700000001,4092718.1999999993],[598323.2699999996,4092723.960000001],[598315.6900000004,4092735.960000001],[598308.1100000003,4092747.9499999993],[598300.5300000003,4092759.9499999993],[598292.9500000002,4092771.9399999995],[598286.4299999997,4092782.119999999],[598279.9100000001,4092792.3000000007],[598273.3799999999,4092802.4800000004],[598266.8600000003,4092812.66],[598260.3300000001,4092822.84],[598253.8099999996,4092833.01],[598247.29,4092843.1899999995],[598240.7599999998,4092853.369999999],[598234.8799999999,4092862.49],[598228.9900000002,4092871.6099999994],[598223.1100000003,4092880.7200000007],[598217.2300000004,4092889.84],[598211.3399999999,4092898.9499999993],[598205.46,4092908.0700000003],[598199.5700000003,4092917.1899999995],[598193.6900000004,4092926.3000000007],[598189.5199999996,4092924.1899999995],[598188.7699999996,4092923.5999999996],[598183.0199999996,4092933.34],[598177.2699999996,4092943.08],[598166.9100000001,4092959.0199999996],[598161.3799999999,4092967.5299999993],[598155.8600000003,4092976.039999999],[598150.1500000004,4092984.960000001],[598144.4500000002,4092993.880000001],[598139.1900000004,4093002.51],[598133.9400000004,4093011.1400000006],[598135.1799999997,4093012.09],[598125.4500000002,4093028.1400000006],[598123.6600000001,4093039.539999999],[598119.6699999999,4093048.0299999993],[598113.1600000001,4093059.2699999996],[598106.6600000001,4093070.5],[598106.1699999999,4093073.08],[598106.7300000004,4093074.26],[598107.5199999996,4093074.6999999993],[598107.9199999999,4093074.75],[598110.7599999998,4093071.539999999],[598112.0800000001,4093072.49],[598115.5899999999,4093074.8000000007],[598116.4199999999,4093075.3499999996],[598114.1200000001,4093078.83],[598114.6799999997,4093079.369999999],[598116.5300000003,4093079.42],[598121.5199999996,4093078.66],[598137.2400000002,4093070.0999999996],[598146.4900000002,4093063.8499999996],[598155.75,4093057.5999999996],[598169.9000000004,4093043.8000000007],[598184.0499999998,4093030.0],[598194.2300000004,4093014.49],[598204.4100000001,4092998.9700000007],[598212.4199999999,4092985.99],[598220.4299999997,4092973.01],[598230.3899999997,4092957.5],[598240.3499999996,4092941.9800000004],[598249.9800000004,4092926.5500000007],[598259.5999999996,4092911.130000001],[598265.3799999999,4092901.76],[598271.1699999999,4092892.4000000004],[598276.9500000002,4092883.039999999],[598282.7400000002,4092873.6799999997],[598289.3899999997,4092863.74],[598296.04,4092853.8000000007],[598304.5300000003,4092840.84],[598313.0099999998,4092827.8900000006],[598322.4500000002,4092814.789999999],[598331.8899999997,4092801.6899999995],[598341.8700000001,4092784.7200000007],[598351.8499999996,4092767.75],[598363.2699999996,4092751.5999999996],[598374.6799999997,4092735.460000001],[598381.79,4092721.9299999997],[598388.9000000004,4092708.3900000006],[598396.1500000004,4092690.2799999993],[598398.8200000003,4092680.1400000006],[598401.4800000004,4092670.0],[598403.2599999998,4092656.1799999997],[598405.04,4092642.369999999],[598404.9500000002,4092631.4000000004],[598404.8600000003,4092620.4299999997],[598404.8200000003,4092602.5500000007],[598404.7699999996,4092584.6799999997],[598404.3799999999,4092569.1400000006],[598403.9900000002,4092553.5999999996],[598404.2400000002,4092542.789999999],[598404.4800000004,4092531.99],[598403.0,4092521.3599999994],[598401.5099999998,4092510.74],[598401.2400000002,4092503.8900000006],[598402.79,4092499.960000001],[598407.54,4092495.0500000007],[598414.5800000001,4092490.6899999995],[598426.6500000004,4092490.34],[598434.8499999996,4092492.3200000003],[598439.4100000001,4092495.0999999996],[598442.6799999997,4092498.1099999994],[598444.5499999998,4092501.75],[598447.1399999997,4092513.3499999996],[598447.96,4092518.9000000004],[598449.6900000004,4092538.1400000006],[598448.4699999997,4092549.76],[598447.2400000002,4092561.380000001],[598447.0599999996,4092569.24],[598447.5099999998,4092580.6899999995],[598446.9199999999,4092594.9399999995],[598447.5499999998,4092607.4499999993],[598448.1799999997,4092619.9700000007],[598447.8600000003,4092632.710000001],[598447.5300000003,4092645.4499999993],[598445.8899999997,4092658.5299999993],[598444.25,4092671.6099999994],[598441.1399999997,4092682.8499999996],[598438.04,4092694.0999999996],[598435.7800000003,4092702.6899999995],[598431.7800000003,4092713.880000001],[598427.7699999996,4092725.0700000003],[598420.4299999997,4092737.8499999996],[598413.0899999999,4092750.630000001],[598407.54,4092760.6500000004],[598401.9800000004,4092770.67],[598394.71,4092781.0299999993],[598387.4500000002,4092791.4000000004],[598381.1600000001,4092800.4399999995],[598374.8700000001,4092809.4800000004],[598367.9000000004,4092823.130000001],[598360.9299999997,4092836.7799999993],[598355.0,4092845.49],[598349.0700000003,4092854.210000001],[598343.1399999997,4092862.9299999997],[598337.2199999997,4092871.6400000006],[598331.6299999999,4092880.74],[598326.04,4092889.83],[598320.4500000002,4092898.92],[598314.8600000003,4092908.0199999996],[598305.5199999996,4092924.4000000004],[598297.5700000003,4092937.880000001],[598289.6200000001,4092951.3599999994],[598280.6399999997,4092960.9499999993],[598277.5300000003,4092967.869999999],[598271.5800000001,4092978.34],[598264.4199999999,4092992.75],[598257.7599999998,4093000.75],[598251.0999999996,4093008.76],[598243.9900000002,4093021.76],[598233.6200000001,4093035.2300000004],[598226.0199999996,4093045.1999999993],[598218.4100000001,4093055.1799999997],[598211.5599999996,4093063.3499999996],[598204.7000000002,4093071.5299999993],[598196.3799999999,4093079.039999999],[598188.0599999996,4093086.5500000007],[598177.46,4093093.6799999997],[598166.8700000001,4093100.8100000005],[598154.1699999999,4093108.3900000006],[598141.4800000004,4093115.9800000004],[598125.6600000001,4093122.2200000007],[598109.8399999999,4093128.4499999993],[598092.1799999997,4093132.58],[598080.54,4093133.210000001],[598068.9000000004,4093133.84],[598060.3099999996,4093133.3200000003],[598047.0599999996,4093131.3200000003],[598035.9800000004,4093129.8499999996],[598024.9100000001,4093128.380000001],[598013.8300000001,4093126.91],[598002.75,4093125.4399999995],[597987.5899999999,4093123.83],[597972.4299999997,4093122.2200000007],[597957.2699999996,4093120.5999999996],[597942.1100000003,4093118.99],[597931.0300000003,4093119.0999999996],[597919.9400000004,4093119.2200000007],[597909.0800000001,4093117.460000001],[597898.21,4093115.6899999995],[597883.5800000001,4093114.76],[597868.96,4093113.83],[597864.3300000001,4093116.6099999994]]}},{"type":"Feature","properties":{"source":"DERA/IECA","id_dera":10125300001425.0},"geometry":{"type":"LineString","coordinates":[[597840.3200000003,4092385.1999999993],[597841.4500000002,4092386.8200000003],[597842.9699999997,4092387.26],[597855.6600000001,4092388.26],[597863.1299999999,4092390.58],[597865.6200000001,4092393.4800000004],[597866.7000000002,4092395.9399999995],[597868.3700000001,4092404.130000001],[597867.5499999998,4092417.710000001],[597867.0300000003,4092436.210000001],[597866.5199999996,4092454.6999999993],[597866.6699999999,4092461.49],[597866.9000000004,4092473.83],[597867.1399999997,4092486.1799999997],[597866.8899999997,4092496.2200000007],[597866.6299999999,4092506.2699999996],[597866.8899999997,4092516.789999999],[597867.1399999997,4092527.3100000005],[597867.9500000002,4092531.5199999996],[597871.2199999997,4092545.4700000007],[597873.1600000001,4092550.5700000003],[597877.7599999998,4092561.0299999993],[597880.1399999997,4092564.5],[597885.0999999996,4092567.67],[597901.8399999999,4092575.6899999995],[597914.9500000002,4092575.99],[597928.0499999998,4092576.2799999993],[597927.7999999998,4092584.9299999997],[597944.0,4092585.08],[597944.4000000004,4092585.58],[597944.5700000003,4092586.26],[597944.2699999996,4092603.7699999996],[597943.9800000004,4092621.2799999993],[597943.75,4092641.1999999993],[597943.5199999996,4092661.119999999],[597943.3200000003,4092673.2200000007],[597943.1200000001,4092685.3100000005],[597942.9199999999,4092697.41],[597942.7199999997,4092709.5],[597942.5499999998,4092722.42],[597942.3899999997,4092735.34],[597942.2199999997,4092748.2699999996],[597942.0499999998,4092761.1899999995],[597941.8799999999,4092771.1999999993],[597941.71,4092781.2200000007],[597941.54,4092791.24],[597941.3700000001,4092801.26],[597940.9800000004,4092816.16],[597940.5800000001,4092831.0600000005],[597940.3600000003,4092831.289999999],[597925.6799999997,4092830.84],[597924.7000000002,4092830.8100000005],[597924.25,4092830.6500000004],[597924.0800000001,4092829.8000000007],[597923.7400000002,4092829.25],[597919.4199999999,4092829.039999999],[597919.0800000001,4092828.6500000004],[597919.3499999996,4092816.1899999995],[597923.4400000004,4092816.51],[597923.7199999997,4092815.5],[597923.75,4092810.5600000005],[597922.5099999998,4092809.5],[597905.8399999999,4092810.039999999],[597904.8399999999,4092810.7699999996],[597903.2199999997,4092812.75],[597902.6200000001,4092815.67],[597897.7599999998,4092829.84],[597895.2699999996,4092839.42],[597893.3600000003,4092846.75],[597888.9400000004,4092859.0700000003],[597888.7300000004,4092861.26],[597890.2599999998,4092863.49],[597904.9100000001,4092875.76],[597914.2400000002,4092883.1400000006],[597923.5700000003,4092890.5299999993],[597935.0599999996,4092898.8200000003],[597936.8099999996,4092899.880000001],[597937.5999999996,4092900.16],[597940.2300000004,4092899.6400000006],[597948.1900000004,4092888.1500000004],[597949.8099999996,4092886.34],[597950.75,4092884.1999999993],[597940.5499999998,4092875.9499999993],[597940.3099999996,4092873.710000001],[597940.3600000003,4092873.619999999],[597941.5300000003,4092871.5199999996],[597942.4800000004,4092870.3900000006],[597943.3799999999,4092870.380000001],[597945.4100000001,4092871.210000001],[597959.6699999999,4092882.6999999993],[597967.8499999996,4092888.8900000006],[597976.04,4092895.09],[597984.2199999997,4092901.289999999],[597992.4100000001,4092907.49],[598004.1900000004,4092917.33],[598015.9699999997,4092927.17],[598025.4400000004,4092934.42],[598034.9100000001,4092941.6799999997],[598044.3700000001,4092948.9399999995],[598053.8399999999,4092956.1999999993],[598058.0700000003,4092959.09],[598058.2400000002,4092960.7200000007],[598056.3499999996,4092963.9800000004],[598055.0700000003,4092965.3900000006],[598054.0099999998,4092965.9000000004],[598051.9299999997,4092966.08],[598048.3300000001,4092964.1899999995],[598040.3499999996,4092957.9499999993],[598032.3799999999,4092951.710000001],[598031.0899999999,4092951.7799999993],[598029.0300000003,4092954.26],[598020.6200000001,4092965.5299999993],[598012.2000000002,4092976.8000000007],[598005.71,4092984.8000000007],[597999.2199999997,4092992.8000000007],[597995.3300000001,4092997.25],[597991.5800000001,4093001.539999999],[597989.5,4093001.67],[597982.0099999998,4092997.16],[597966.8600000003,4092986.4700000007],[597951.7000000002,4092975.7799999993],[597938.3799999999,4092966.17],[597925.0599999996,4092956.5700000003],[597911.7300000004,4092946.960000001],[597898.4100000001,4092937.3499999996],[597895.6600000001,4092937.3100000005],[597893.1900000004,4092937.83],[597892.0199999996,4092938.9000000004],[597888.96,4092943.4700000007],[597885.2699999996,4092946.460000001],[597882.4100000001,4092947.49],[597876.0099999998,4092947.41],[597866.6799999997,4092944.26],[597852.96,4092938.1099999994],[597839.2300000004,4092931.9499999993],[597829.75,4092928.4399999995],[597820.2800000003,4092924.9299999997],[597813.5899999999,4092923.4499999993],[597811.1799999997,4092923.41],[597810.1799999997,4092924.710000001],[597809.1799999997,4092927.130000001],[597809.2000000002,4092930.5999999996],[597808.5899999999,4092932.3499999996],[597806.25,4092935.4499999993],[597799.2999999998,4092947.16],[597792.3499999996,4092958.869999999],[597792.54,4092961.7300000004],[597791.9800000004,4092962.01],[597789.2300000004,4092962.3100000005],[597787.6100000003,4092963.16],[597786.6600000001,4092964.9000000004],[597786.2800000003,4092966.4800000004],[597786.6200000001,4092968.4399999995],[597797.7300000004,4092977.6400000006],[597811.0700000003,4092989.91],[597824.4100000001,4093002.1799999997],[597833.3700000001,4093008.9800000004],[597833.9800000004,4093008.92],[597834.3700000001,4093007.4000000004],[597835.6500000004,4093005.7699999996],[597836.8799999999,4093005.26],[597837.9500000002,4093005.6400000006],[597839.9800000004,4093007.1999999993],[597844.0999999996,4093011.7799999993],[597843.9900000002,4093012.74],[597843.2199999997,4093014.0299999993],[597841.0899999999,4093015.67],[597841.71,4093016.2799999993],[597843.2300000004,4093017.289999999],[597845.3799999999,4093019.630000001],[597845.3899999997,4093020.75],[597839.0300000003,4093027.8000000007]]}},{"type":"Feature","properties":{"source":"DERA/IECA","id_dera":10125300001426.0},"geometry":{"type":"LineString","coordinates":[[597963.8200000003,4091834.51],[597974.75,4091839.51],[597981.5899999999,4091838.49],[597990.5800000001,4091835.630000001],[598000.5899999999,4091836.0600000005],[598010.6100000003,4091836.49],[598024.6900000004,4091836.6799999997],[598038.7599999998,4091836.8599999994],[598056.1699999999,4091836.1899999995],[598073.5700000003,4091835.5199999996],[598083.9299999997,4091836.0999999996],[598088.5099999998,4091835.08],[598092.0099999998,4091830.7200000007],[598097.5,4091825.3900000006],[598100.8700000001,4091823.5700000003],[598100.8300000001,4091820.2799999993],[598109.5199999996,4091819.49],[598112.6900000004,4091819.1999999993],[598113.4400000004,4091823.42],[598118.6600000001,4091825.380000001],[598123.29,4091829.369999999],[598128.8300000001,4091831.25],[598137.0700000003,4091832.1099999994],[598143.04,4091832.130000001],[598158.2300000004,4091832.16],[598176.7999999998,4091832.0199999996],[598195.3700000001,4091831.8900000006],[598206.4400000004,4091830.66],[598217.5,4091829.4299999997],[598228.5599999996,4091828.210000001],[598239.6299999999,4091826.9800000004],[598248.5599999996,4091824.2300000004],[598253.5199999996,4091821.0600000005],[598262.29,4091811.630000001],[598265.1399999997,4091805.710000001],[598268.4800000004,4091794.6999999993],[598271.8099999996,4091783.6899999995],[598274.8300000001,4091772.1400000006],[598277.8399999999,4091760.59],[598280.3099999996,4091749.0199999996],[598281.7699999996,4091744.0700000003],[598281.1200000001,4091736.91],[598278.5899999999,4091728.99],[598276.9699999997,4091726.9499999993],[598272.9400000004,4091723.6099999994],[598269.2699999996,4091721.83],[598267.3899999997,4091721.8900000006],[598266.4199999999,4091722.6999999993],[598265.1299999999,4091726.5199999996],[598264.8099999996,4091726.789999999],[598249.3499999996,4091722.539999999],[598251.7199999997,4091713.01],[598254.7300000004,4091701.6999999993],[598257.7300000004,4091690.3900000006],[598260.7400000002,4091679.09],[598263.75,4091667.7799999993],[598266.75,4091656.4800000004],[598269.7599999998,4091645.17],[598272.7699999996,4091633.8599999994],[598275.7699999996,4091622.5600000005],[598280.5099999998,4091604.25],[598281.0499999998,4091604.1999999993],[598281.6900000004,4091604.25],[598296.6600000001,4091608.4499999993],[598296.0700000003,4091610.33],[598296.0099999998,4091612.59],[598296.8200000003,4091613.7300000004],[598299.0800000001,4091614.6400000006],[598302.3700000001,4091615.1799999997],[598306.7300000004,4091614.6899999995],[598313.29,4091611.1899999995],[598319.0,4091603.49],[598325.46,4091585.3499999996],[598330.2999999998,4091568.8200000003],[598334.8099999996,4091553.0700000003],[598339.3099999996,4091537.3200000003],[598343.8700000001,4091521.09],[598348.4299999997,4091504.8599999994],[598352.79,4091487.1500000004],[598356.5,4091475.92],[598360.2199999997,4091464.6999999993],[598362.4800000004,4091453.869999999],[598362.0499999998,4091449.7799999993],[598360.2699999996,4091444.4000000004],[598357.6299999999,4091438.4800000004],[598355.5300000003,4091432.66],[598355.4699999997,4091427.5999999996],[598358.3300000001,4091417.6400000006],[598361.6100000003,4091415.0600000005],[598369.2000000002,4091411.9299999997],[598375.8799999999,4091410.6999999993],[598383.04,4091411.0199999996],[598390.1399999997,4091412.3100000005],[598396.1699999999,4091416.6099999994],[598401.5,4091423.880000001],[598404.0899999999,4091428.8900000006],[598405.1699999999,4091434.92],[598403.4500000002,4091443.960000001],[598399.3600000003,4091455.8599999994],[598394.8399999999,4091469.9700000007],[598390.3200000003,4091484.0700000003],[598386.3300000001,4091501.6999999993],[598382.3499999996,4091519.34],[598377.5599999996,4091533.119999999],[598372.7699999996,4091546.9000000004],[598369.2000000002,4091558.369999999],[598365.6200000001,4091569.84],[598362.5199999996,4091581.9499999993],[598359.4299999997,4091594.0700000003],[598356.4699999997,4091608.84],[598353.5099999998,4091623.619999999],[598349.8300000001,4091635.6799999997],[598346.1399999997,4091647.74],[598343.6100000003,4091658.51],[598341.0800000001,4091669.2799999993],[598336.7800000003,4091686.880000001],[598333.9800000004,4091703.09],[598329.7300000004,4091713.7200000007],[598325.4800000004,4091724.3499999996],[598321.6600000001,4091736.2300000004],[598317.8399999999,4091748.0999999996],[598314.4000000004,4091760.3499999996],[598310.9500000002,4091772.59],[598309.3899999997,4091779.6999999993],[598305.0899999999,4091793.0500000007],[598304.0599999996,4091799.0299999993],[598303.7400000002,4091807.4800000004],[598300.0300000003,4091824.869999999],[598296.96,4091842.210000001],[598292.6600000001,4091851.3599999994],[598284.0499999998,4091859.01],[598280.2800000003,4091860.8900000006],[598271.7199999997,4091863.1500000004],[598260.79,4091863.0500000007],[598249.8600000003,4091862.9399999995],[598241.1399999997,4091863.0500000007],[598234.6299999999,4091862.3499999996],[598228.3300000001,4091860.3599999994],[598219.8700000001,4091856.6999999993],[598212.9299999997,4091855.8900000006],[598199.25,4091855.84],[598183.7199999997,4091857.0500000007],[598173.5599999996,4091857.3000000007],[598163.4000000004,4091857.5600000005],[598144.4100000001,4091857.6899999995],[598125.4100000001,4091857.8200000003],[598113.1900000004,4091859.4000000004],[598096.9800000004,4091860.1099999994],[598080.7599999998,4091860.8200000003],[598069.8899999997,4091863.2300000004],[598068.4900000002,4091864.5299999993],[598066.6100000003,4091868.3599999994],[598065.96,4091873.6400000006],[598066.1399999997,4091886.3200000003],[598066.3300000001,4091899.0],[598064.3700000001,4091915.1999999993],[598062.4100000001,4091931.4000000004],[598060.8600000003,4091941.3100000005],[598059.3200000003,4091951.2300000004],[598059.0999999996,4091962.34],[598058.8799999999,4091973.4499999993],[598058.96,4091978.7200000007],[598057.1900000004,4091982.7699999996],[598050.1600000001,4091990.4499999993],[598042.3300000001,4091994.1400000006],[598038.0599999996,4091994.7200000007],[598025.0700000003,4091990.0199999996],[598022.0,4091991.33],[598015.8600000003,4091997.6500000004],[598008.71,4092008.9399999995],[598001.5599999996,4092020.2300000004],[597995.0599999996,4092032.41],[597988.5599999996,4092044.5999999996],[597980.8799999999,4092055.58],[597976.5700000003,4092057.460000001],[597972.4199999999,4092057.710000001],[597967.0800000001,4092056.67],[597959.9400000004,4092054.8000000007],[597949.4800000004,4092050.8200000003],[597946.1600000001,4092048.76],[597941.8600000003,4092041.9399999995],[597939.8300000001,4092039.869999999]]}},{"type":"Feature","properties":{"source":"DERA/IECA","id_dera":10125300001427.0},"geometry":{"type":"LineString","coordinates":[[598015.5999999996,4091383.51],[598019.6900000004,4091385.66],[598026.9000000004,4091386.3100000005],[598032.0199999996,4091388.08],[598035.46,4091390.880000001],[598035.6799999997,4091393.9000000004],[598034.3899999997,4091397.9399999995],[598030.3499999996,4091400.09],[598024.6399999997,4091401.49],[598005.96,4091400.039999999],[597989.4100000001,4091400.369999999],[597972.8499999996,4091400.6899999995],[597967.3600000003,4091401.8200000003],[597966.0,4091402.619999999]]}},{"type":"Feature","properties":{"source":"DERA/IECA","id_dera":10125300001432.0},"geometry":{"type":"LineString","coordinates":[[597785.2699999996,4093181.91],[597791.29,4093173.6899999995],[597798.3200000003,4093167.4800000004],[597806.3399999999,4093160.08],[597814.3499999996,4093152.6899999995],[597822.0499999998,4093145.1799999997],[597829.75,4093137.67],[597843.5,4093129.2699999996],[597857.2400000002,4093120.8599999994],[597864.3300000001,4093116.6099999994]]}}]}
