{"type":"FeatureCollection","name":"carboneras-puntica-coastline","crs":{"type":"name","properties":{"name":"EPSG:25830"}},"features":[{"type":"Feature","properties":{"source":"DERA/IECA","id_dera":10125300001283.0},"geometry":{"type":"LineString","coordinates":[[598811.6294831014,4095191.0],[598811.3700000001,4095188.49],[598810.3300000001,4095178.42],[598808.8399999999,4095173.039999999],[598808.8200000003,4095168.16],[598810.3099999996,4095165.2300000004],[598811.1900000004,4095161.58],[598811.1799999997,4095158.83],[598810.54,4095156.0299999993],[598812.0899999999,4095150.9700000007],[598811.8799999999,4095143.7300000004],[598809.1600000001,4095139.09],[598809.3099999996,4095136.4499999993],[598812.7999999998,4095127.5600000005],[598812.6200000001,4095124.4800000004],[598812.4299999997,4095110.2300000004],[598810.8399999999,4095098.34],[598810.2699999996,4095096.1500000004],[598808.8600000003,4095094.59],[598807.8399999999,4095092.8000000007],[598807.21,4095090.6099999994],[598807.4299999997,4095089.0999999996],[598807.9299999997,4095087.9700000007],[598808.1900000004,4095084.210000001],[598806.5300000003,4095078.66],[598806.5099999998,4095075.91],[598809.5099999998,4095069.5],[598809.7199999997,4095066.4700000007],[598807.7800000003,4095061.1500000004],[598808.0499999998,4095059.24],[598810.1100000003,4095055.8000000007],[598810.3200000003,4095053.9499999993],[598810.0300000003,4095051.4800000004],[598808.7300000004,4095050.26],[598808.2000000002,4095046.2200000007],[598808.46,4095041.84],[598807.54,4095038.42],[598804.7199999997,4095025.1899999995],[598803.3799999999,4095015.6099999994],[598799.2199999997,4095005.130000001],[598797.6600000001,4094996.7799999993],[598795.8399999999,4094992.4700000007],[598791.8899999997,4094988.119999999],[598784.4400000004,4094981.42],[598779.4000000004,4094972.0199999996],[598772.4299999997,4094960.84],[598766.5,4094953.74],[598758.8899999997,4094946.210000001],[598748.6900000004,4094938.75],[598738.4900000002,4094931.2799999993],[598726.4500000002,4094925.460000001],[598712.4000000004,4094921.66],[598703.0800000001,4094921.039999999],[598696.0800000001,4094923.0999999996],[598677.6900000004,4094927.24],[598662.8399999999,4094929.7300000004],[598647.9800000004,4094932.2300000004],[598629.1799999997,4094933.0600000005],[598618.6699999999,4094933.9299999997],[598608.1500000004,4094934.8000000007],[598593.5599999996,4094935.42],[598578.9800000004,4094936.0299999993],[598565.8200000003,4094936.380000001],[598552.6600000001,4094936.74],[598541.9100000001,4094935.76],[598531.1600000001,4094934.7799999993],[598513.1900000004,4094933.3100000005],[598494.2599999998,4094929.369999999],[598477.5,4094923.460000001],[598461.3600000003,4094916.08],[598449.7599999998,4094909.6400000006],[598438.1699999999,4094903.1899999995],[598429.5199999996,4094897.289999999],[598420.8700000001,4094891.3900000006],[598412.1600000001,4094888.5199999996],[598410.1900000004,4094887.0700000003],[598409.4500000002,4094884.66],[598401.1699999999,4094879.3200000003],[598394.1799999997,4094873.5199999996],[598385.21,4094866.3900000006],[598376.25,4094859.25],[598367.29,4094851.5],[598358.3200000003,4094843.75],[598355.2699999996,4094839.7799999993],[598349.2999999998,4094835.380000001],[598344.9500000002,4094831.369999999],[598339.1600000001,4094828.59],[598337.5199999996,4094827.09],[598335.0800000001,4094821.9399999995],[598333.7800000003,4094820.539999999],[598329.0,4094817.2821534933]]}}]}
