{"type":"FeatureCollection","name":"carboneras-los-muertos-roads","crs":{"type":"name","properties":{"name":"EPSG:25830"}},"source":"\u00a9 OpenStreetMap contributors, ODbL 1.0","features":[{"type":"Feature","properties":{"class":"path","widthMeters":1.5},"geometry":{"type":"MultiPolygon","coordinates":[[[[597671.5849542059,4090173.2448723894],[597659.5513911918,4090164.2412316296],[597659.5021846951,4090164.2073846646],[597659.4504410696,4090164.177560285],[597651.3713350603,4090159.940118111],[597651.0,4090159.409619719],[597651.0,4090161.439155956],[597658.7007010333,4090165.478127012],[597670.6540024063,4090174.421715152],[597677.61983038,4090180.9099866813],[597677.672911847,4090180.955014778],[597677.7299392435,4090180.9949277793],[597677.790421356,4090181.0293818894],[597677.8538372132,4090181.058080333],[597677.9196405743,4090181.080775912],[597677.9872646326,4090181.097273135],[597685.6094120626,4090182.5857785367],[597693.2302716273,4090185.078413031],[597693.3041173535,4090185.0984596647],[597693.3796213344,4090185.1108777034],[597693.4559976493,4090185.1155378874],[597693.5324512979,4090185.11239171],[597693.6081864744,4090185.1014719186],[597693.6824148521,4090185.082892178],[597693.7543637881,4090185.056845885],[597693.8232843664,4090185.0236041537],[597693.8884591933,4090184.983512998],[597699.7586627923,4090180.945853216],[597698.908598693,4090179.7099765935],[597693.3440206182,4090183.5374201764],[597686.0317377191,4090181.1457150895],[597685.9423319221,4090181.1224583187],[597678.4852596455,4090179.666189929],[597671.6468261499,4090173.2965790913],[597671.5849542059,4090173.2448723894]]],[[[597800.5285714362,4090290.625984644],[597800.5783545269,4090290.682039504],[597802.0657761664,4090292.1970487637],[597802.1121207856,4090292.2404191596],[597802.1619666119,4090292.279715579],[597802.2149566323,4090292.3146565678],[597804.9475837859,4090293.954973308],[597805.0187071821,4090293.9926307034],[597809.7662802753,4090296.188750727],[597809.865989173,4090296.22652313],[597811.21618866,4090296.6308798534],[597812.2679615483,4090297.359313705],[597813.0096120085,4090298.380263619],[597813.4287027266,4090299.8365121293],[597813.2624018206,4090301.3382778964],[597812.4771983153,4090302.785964651],[597813.7957394309,4090303.501121506],[597814.6509535704,4090301.9243555167],[597814.6823895472,4090301.85905176],[597814.70737549,4090301.7910186504],[597814.7256780722,4090301.720891503],[597814.7371263783,4090301.649325187],[597814.9359151018,4090299.8541810294],[597814.9404116169,4090299.781128987],[597814.9377662785,4090299.7079865118],[597814.9280042788,4090299.6354501564],[597814.9112185836,4090299.5642107013],[597814.4146422944,4090297.838716793],[597814.39389133,4090297.7768700803],[597814.367844516,4090297.717060534],[597814.3366989108,4090297.659740645],[597814.300690148,4090297.60534407],[597813.4066060145,4090296.374555217],[597813.3533994114,4090296.3093460025],[597813.2932218456,4090296.2505085585],[597813.226831093,4090296.1987837846],[597811.9723876982,4090295.3299849746],[597811.9054706417,4090295.28865621],[597811.8345934416,4090295.2545624897],[597811.760535553,4090295.228078752],[597810.3475247733,4090294.80491135],[597805.6850335917,4090292.648148296],[597803.0690542612,4090291.077851857],[597801.7014355602,4090289.684867554],[597800.6407376904,4090288.052422414],[597798.3571168369,4090281.0952513027],[597798.3302355786,4090281.025346746],[597795.6571441559,4090274.9919870463],[597794.2857189752,4090275.599599566],[597796.9436224239,4090281.5986789158],[597799.2460163435,4090288.613043161],[597799.2688434026,4090288.6736270706],[597799.2968102786,4090288.732016612],[597799.3297085753,4090288.787776694],[597800.4846333043,4090290.5652397345],[597800.5285714362,4090290.625984644]]],[[[597785.0414957121,4090289.106345597],[597784.9759780706,4090289.1313707726],[597784.913084496,4090289.1624065433],[597784.8533649654,4090289.1991815134],[597781.0731483434,4090291.778300853],[597778.1860337361,4090287.574428791],[597778.1372884313,4090287.510989149],[597778.0820628343,4090287.4531028266],[597778.0209853575,4090287.4014285123],[597777.9547510021,4090287.3565542093],[597772.3392735478,4090283.9743513204],[597772.2764275608,4090283.9404665353],[597772.2106442292,4090283.9127113554],[597772.1425197306,4090283.8913373193],[597772.0726714605,4090283.876538134],[597772.001732436,4090283.8684479217],[597771.93034556,4090283.8671400007],[597771.8591577937,4090283.8726262255],[597771.788814294,4090283.8848568755],[597771.7199525667,4090283.9037211067],[597771.6531966882,4090283.9290479585],[597771.5891516502,4090283.960607899],[597771.528397877,4090283.9981149086],[597768.0922434191,4090286.352469956],[597761.5505844031,4090286.9125834736],[597761.4793722801,4090286.9221350285],[597761.4094009218,4090286.9384570285],[597761.341312497,4090286.9613996763],[597761.2757318941,4090286.9907524134],[597761.2132609853,4090287.0262458525],[597761.1544731036,4090287.067554249],[597761.0999077803,4090287.114298491],[597761.0500657943,4090287.1660495787],[597761.005404575,4090287.2223325614],[597760.9663340052,4090287.2826308967],[597760.933212659,4090287.346391191],[597753.4382558297,4090303.637955927],[597723.4299281344,4090314.4421750205],[597695.6473731078,4090314.343068953],[597695.5781503057,4090314.346022388],[597695.5094954363,4090314.3553512683],[597695.4419944178,4090314.37097598],[597679.6005507493,4090318.8179576],[597651.0,4090318.397949851],[597651.0,4090319.8981115855],[597679.6874035595,4090320.3193947948],[597679.7594253832,4090320.3169901334],[597679.8308839797,4090320.3076845175],[597679.9011196524,4090320.291563855],[597695.7466584119,4090315.843432668],[597723.556857692,4090315.942637348],[597723.6222516297,4090315.940015108],[597723.6871679873,4090315.9317018804],[597723.7511124492,4090315.9177609687],[597723.8135981003,4090315.8982985266],[597754.242250165,4090304.942745556],[597754.3109233174,4090304.914097326],[597754.3764197376,4090304.878785261],[597754.4380947402,4090304.8371569407],[597754.4953412543,4090304.789622116],[597754.5475957987,4090304.7366486737],[597754.5943440289,4090304.678758036],[597754.6351257989,4090304.6165200234],[597754.6695396912,4090304.5505472487],[597762.1134801498,4090288.3698752797],[597768.4171147532,4090287.8301420193],[597768.4936507791,4090287.819594913],[597768.5686956805,4090287.8012300692],[597768.6414531136,4090287.7752423678],[597768.7111510083,4090287.741907578],[597768.7770497608,4090287.701579435],[597771.978435124,4090285.508081476],[597777.041581995,4090288.557615574],[597780.2599581884,4090293.243831261],[597780.3006601635,4090293.2977253282],[597780.3460453054,4090293.3477394274],[597792.9864123473,4090306.0754785277],[597793.0413339873,4090306.125553766],[597793.1009421846,4090306.16994722],[597793.1646515692,4090306.2082229345],[597800.1561766493,4090309.950256663],[597800.2215556557,4090309.981288827],[597800.2896211996,4090310.005875234],[597800.359739526,4090310.023786962],[597800.4312577664,4090310.0348572354],[597800.5035100185,4090310.038982979],[597800.5758235448,4090310.036125778],[597800.6475250378,4090310.026312237],[597816.5010996909,4090307.0711770635],[597826.8880256095,4090307.0255833524],[597826.8814413797,4090305.525597803],[597816.4268720762,4090305.5714884363],[597816.3595154582,4090305.5748161213],[597816.2927300571,4090305.5841808254],[597800.6316911989,4090308.5034269765],[597793.9715431036,4090304.9387542447],[597782.0457847669,4090292.930563329],[597785.5201695906,4090290.560103118],[597791.1926521604,4090290.3475888525],[597791.136495456,4090288.8486404126],[597785.2479792865,4090289.0692481752],[597785.1780935648,4090289.0751478933],[597785.1090644968,4090289.0875498503],[597785.0414957121,4090289.106345597]]],[[[597751.9379750032,4090473.757022745],[597752.0008326537,4090473.7233158406],[597752.0602041669,4090473.6837903666],[597752.1155525878,4090473.6388037917],[597752.1663773461,4090473.5887629725],[597752.212218784,4090473.5341204777],[597757.3220102667,4090466.8190233945],[597768.6446222812,4090458.895992916],[597768.6901804368,4090458.8614539783],[597768.7329753262,4090458.823545125],[597777.4870719425,4090450.4521982307],[597788.5918619774,4090454.8890786995],[597810.6484196227,4090470.757146718],[597811.086418112,4090470.148330388],[597811.7776634401,4090470.4393284917],[597814.1568359821,4090464.7877730937],[597817.1775265065,4090460.321791157],[597820.4515962121,4090458.8192709107],[597822.707600986,4090459.227580624],[597822.7815266426,4090459.2371951253],[597822.8560415884,4090459.2394231744],[597822.9304096233,4090459.234242758],[597823.003895999,4090459.221705058],[597823.0757746779,4090459.201933946],[597823.145335506,4090459.1751247584],[597823.2118912295,4090459.141542367],[597823.2747842849,4090459.1015185625],[597823.3333932953,4090459.055448776],[597823.3871392099,4090459.0037881723],[597823.4354910247,4090458.947047152],[597825.9589875094,4090455.6687104935],[597828.2142378143,4090452.933752508],[597830.4815909578,4090453.305541469],[597830.5571995692,4090453.314028714],[597830.6332790131,4090453.3148120726],[597830.709046355,4090453.307883484],[597830.783721872,4090453.2933142493],[597830.8565370773,4090453.2712543015],[597830.9267426289,4090453.24193066],[597830.9936160401,4090453.2056450937],[597831.0564691158,4090453.1627710187],[597831.1146550342,4090453.1137496526],[597831.1675750031,4090453.059085475],[597831.2146844225,4090452.9993410353],[597833.4390960678,4090449.863371054],[597835.1655702419,4090448.936484321],[597835.2240254608,4090448.9015950505],[597835.279076339,4090448.8615491437],[597835.3302693281,4090448.8166765273],[597835.377182664,4090448.7673468934],[597835.4194298412,4090448.713966655],[597836.7077778969,4090446.9248825316],[597837.702031087,4090446.98342609],[597837.7374676171,4090446.9846730083],[597837.9422436045,4090446.9870345243],[597838.0084660522,4090446.9848712916],[597838.0742391584,4090446.976871875],[597838.1390495896,4090446.9630987067],[597847.1783442298,4090444.620430955],[597863.9998134531,4090446.8643607595],[597873.2602288622,4090449.639797611],[597873.3280371805,4090449.6567210746],[597873.3971263876,4090449.667259249],[597873.4668965593,4090449.671320627],[597877.5031805354,4090449.717885802],[597884.2263676189,4090452.042680346],[597884.2945772149,4090452.0627017156],[597884.3643759738,4090452.0761753004],[597884.4351368353,4090452.0829800563],[597892.2400022923,4090452.4615114126],[597892.3126659953,4090450.9632724514],[597884.6150705009,4090450.5899436246],[597877.8784914588,4090448.2605183083],[597877.8012977971,4090448.238374945],[597877.722179039,4090448.2246122393],[597877.6420422989,4090448.219387984],[597873.5897525876,4090448.172638156],[597864.3733701222,4090445.4103984074],[597864.3157904528,4090445.3956010235],[597864.257219649,4090445.385410741],[597847.2313180136,4090443.1142103113],[597847.1591910081,4090443.108112733],[597847.0868121148,4090443.108996592],[597847.0148555172,4090443.1168536567],[597846.9439914653,4090443.131610741],[597837.8595419424,4090445.4859810523],[597837.7724977577,4090445.484977242],[597836.4798701326,4090445.4088648176],[597825.6859829866,4090441.9170310684],[597828.8626497305,4090437.634211465],[597854.2637718472,4090412.963124762],[597862.3079052193,4090409.650669242],[597862.3752301087,4090409.6189526552],[597862.4390802202,4090409.5807198696],[597862.4988268617,4090409.53634734],[597862.5538817461,4090409.4862719732],[597862.6037027825,4090409.4309868314],[597862.6477994147,4090409.371036271],[597862.6857374507,4090409.3070105887],[597862.7171433389,4090409.239540204],[597862.7417078452,4090409.1692894557],[597862.7591890984,4090409.0969500584],[597862.7694149717,4090409.023234293],[597862.7722847773,4090408.948867991],[597862.767770258,4090408.8745833915],[597862.7559158655,4090408.8011119277],[597862.7368383226,4090408.729177027],[597862.7107254736,4090408.6594869867],[597862.6778344355,4090408.5927280006],[597862.6384890655,4090408.5295574022],[597862.5930767725,4090408.470597193],[597862.5420447029,4090408.416427917],[597862.4858953372,4090408.3675829447],[597862.4251815428,4090408.3245432214],[597845.7448398697,4090397.7025839677],[597845.680978981,4090397.6661878987],[597845.6138620486,4090397.636217842],[597845.5441337397,4090397.6129616625],[597845.472463804,4090397.5966427396],[597845.3995406404,4090397.587417819],[597827.31547296,4090396.1956239063],[597841.7407958223,4090381.218698831],[597856.0023738041,4090376.8370081536],[597878.6787951412,4090378.6422077506],[597878.7679492396,4090378.6439871816],[597878.85668438,4090378.635172734],[597893.94211944,4090376.224020891],[597893.9869724982,4090376.215444002],[597918.846105287,4090370.672390079],[597935.299687983,4090379.037700794],[597943.642746745,4090397.1723099845],[597943.6751917874,4090397.2349043544],[597943.7133711287,4090397.294175543],[597943.7569473833,4090397.349599779],[597943.8055354736,4090397.400687286],[597943.8587060334,4090397.446986611],[597943.9159892019,4090397.4880886124],[597952.0958400177,4090402.793306386],[597955.1708270662,4090407.3520356934],[597955.2163466294,4090407.4126665844],[597955.2677548712,4090407.468392057],[597955.3245264554,4090407.518642657],[597955.3860812384,4090407.5629048785],[597955.4517901976,4090407.6007264103],[597958.6563566695,4090409.2354487483],[597958.7174939557,4090409.263260068],[597958.7808742082,4090409.2854902474],[597958.8459891186,4090409.3019610015],[597958.9123164666,4090409.3125402345],[597958.9793243086,4090409.317143102],[597965.6301163629,4090409.475405934],[597969.00456822,4090425.7396187196],[597971.7417160223,4090445.4715074305],[597971.9912939044,4090451.4520106628],[597972.0000678423,4090451.5392733254],[597976.0530247355,4090476.8611564757],[597976.0747555386,4090476.9565489497],[597979.5206232908,4090488.5354504194],[597979.5445268345,4090488.603585811],[597979.5748717703,4090488.6691067684],[597979.6113768313,4090488.731405978],[597979.6537036521,4090488.7899059886],[597979.7014599055,4090488.8440645635],[597979.7542029389,4090488.8933797074],[597979.8114438772,4090488.9373943186],[597979.8726521544,4090488.975700425],[597979.9372604311,4090489.0079429676],[597980.0046698534,4090489.033823091],[597980.0742556035,4090489.053100912],[597980.1453726912,4090489.065597744],[597985.6491888358,4090489.7615955905],[597985.7188267214,4090489.7671225797],[597985.7886767735,4090489.766146385],[597985.8581330061,4090489.758675476],[598000.1843242154,4090487.538663603],[597999.9546231306,4090486.0563554666],[597985.7326986039,4090488.2602099907],[597980.8187993986,4090487.63881146],[597977.5264245861,4090476.5756812715],[597973.4881579014,4090451.345578951],[597973.238907333,4090445.372918963],[597973.2324461606,4090445.3011397067],[597970.4869014659,4090425.508718442],[597970.4783754825,4090425.459406402],[597966.9778257369,4090408.587425902],[597966.9575152666,4090408.510371412],[597966.9291440784,4090408.4359067543],[597962.48578944,4090398.409932502],[597962.4546975631,4090398.3477330413],[597962.4179785906,4090398.2886805665],[597962.3759481737,4090398.2332827165],[597962.3289676231,4090398.1820157133],[597952.7943266642,4090388.700118665],[597952.1262402376,4090383.1907124342],[597952.2889108846,4090380.2464238913],[597954.5448534202,4090377.561075244],[597957.4296818159,4090375.259183692],[597960.6594826477,4090373.6005936516],[597960.683236552,4090373.5878508217],[597960.729729848,4090373.5618227855],[597963.468613674,4090372.723045056],[597976.023763205,4090375.436326904],[597976.0823756347,4090375.446578749],[597976.1416163071,4090375.452151895],[597987.5946311412,4090376.0726144644],[597987.6659304774,4090376.0730828983],[597996.7439862568,4090375.7008378697],[597996.6825305083,4090374.2020973344],[597987.6401355424,4090374.572880094],[597976.2823150167,4090373.9575746385],[597963.5943622875,4090371.215592813],[597963.5188923916,4090371.203271425],[597963.4425601326,4090371.198698894],[597963.3661590298,4090371.201922755],[597963.2904833179,4090371.212909494],[597963.216319691,4090371.2315448974],[597960.2715566977,4090372.1333727124],[597945.4880364903,4090367.506924976],[597941.3495057031,4090361.0198527845],[597941.3326394209,4090360.9945607195],[597936.6832986892,4090354.3197218184],[597934.5222840478,4090351.1575466334],[597934.4795356733,4090351.1009391025],[597934.4316305182,4090351.048623405],[597934.3789971173,4090351.0010675304],[597934.3221063021,4090350.958696889],[597934.2614669888,4090350.921890507],[597929.8806079252,4090348.538717629],[597928.1533549656,4090346.270953288],[597928.1062782049,4090346.215024772],[597924.5441882488,4090342.3793216404],[597924.4920274595,4090342.328363701],[597924.4351645405,4090342.2827121075],[597924.3741370316,4090342.242798417],[597919.2618936228,4090339.243543153],[597919.1951218745,4090339.2087511453],[597919.1251982297,4090339.1808292167],[597919.0528273884,4090339.1600587685],[597913.0026609508,4090337.7480970435],[597909.2437097005,4090334.11404596],[597901.8541527295,4090311.4047331535],[597900.4277684474,4090311.868875244],[597907.8750648857,4090334.755630843],[597907.9010551684,4090334.8239821764],[597907.9335783272,4090334.8894775487],[597907.9723251815,4090334.9514943277],[597908.0169273845,4090335.009442952],[597908.0669609259,4090335.0627725343],[597910.1657904988,4090337.091863463],[597909.726716183,4090336.9903647597],[597901.351450634,4090334.8332487387],[597895.5449032419,4090331.5811258387],[597891.3171830395,4090326.661338244],[597891.2628254968,4090326.6044188677],[597891.2028023314,4090326.553509365],[597891.1377745513,4090326.5091703786],[597891.0684582778,4090326.471890195],[597890.9956168599,4090326.442079363],[597890.920052467,4090326.420066176],[597890.8425972556,4090326.4060930554],[597885.4715241143,4090325.725796786],[597878.9218188811,4090324.423818452],[597873.645854881,4090322.428047786],[597873.9166268783,4090319.5618540794],[597873.9199190459,4090319.484345821],[597873.9151870686,4090319.406912128],[597873.9024815754,4090319.330381488],[597873.8819385065,4090319.2555727265],[597870.8616414877,4090310.133692019],[597869.4376673262,4090310.60517647],[597872.4084645833,4090319.5775583303],[597872.0986932588,4090322.8565703025],[597872.0953825107,4090322.931659017],[597872.0996039921,4090323.0067020394],[597872.111315306,4090323.080945701],[597872.130398834,4090323.15364436],[597872.1566629171,4090323.2240678933],[597872.189843781,4090323.291509026],[597872.229608185,4090323.355290436],[597872.275556769,4090323.4147715573],[597872.3272280641,4090323.4693550104],[597872.3841031273,4090323.518492606],[597872.4456107534,4090323.5616908474],[597872.5111332117,4090323.5985158873],[597872.5800124498,4090323.6285978863],[597878.4492568019,4090325.848792283],[597878.5081155259,4090325.8683161475],[597878.5683859703,4090325.8829108123],[597885.2049142988,4090327.2021482117],[597885.2568998609,4090327.2105966904],[597890.367693593,4090327.8579261564],[597894.4937658611,4090332.6594263003],[597894.5387069986,4090332.707312655],[597894.5876648844,4090332.751084041],[597894.6402641479,4090332.790404853],[597894.6961014991,4090332.8249736107],[597900.7035067799,4090336.1895927144],[597900.7611734614,4090336.218702115],[597900.821131105,4090336.2427413412],[597900.8829349254,4090336.2615320617],[597909.3616336172,4090338.445288108],[597909.3797778119,4090338.4497211236],[597912.4606883703,4090339.1619204376],[597918.6010547876,4090340.594932645],[597923.5200452658,4090343.4808101165],[597926.9822373389,4090347.208941955],[597928.7845697383,4090349.5752804372],[597928.8356970511,4090349.63553622],[597928.8928805997,4090349.690077977],[597928.9554855438,4090349.7383001964],[597929.0228168557,4090349.779667525],[597933.38585846,4090352.153147764],[597935.4467526164,4090355.1688183825],[597935.4505477607,4090355.174318983],[597940.0931088253,4090361.839424636],[597943.9382748449,4090367.8666528584],[597940.9523988093,4090369.4922804893],[597940.8891559476,4090369.530879299],[597940.8300301472,4090369.575529802],[597940.7755984261,4090369.6257962463],[597940.7263919924,4090369.681188074],[597940.6828910597,4090369.741164707],[597935.6118043264,4090377.5136502185],[597919.2857506563,4090369.213177657],[597919.2183320317,4090369.1829819945],[597919.1482698986,4090369.1595651954],[597919.0762439591,4090369.143154436],[597919.0029529673,4090369.1339089232],[597918.9291079497,4090369.1319183526],[597918.8554253081,4090369.1372020356],[597918.7826198686,4090369.1497087125],[597893.6828175847,4090374.746426775],[597878.7084638443,4090377.139824147],[597855.9785826515,4090375.3303687763],[597855.9078602022,4090375.3280872544],[597855.8372374949,4090375.332480815],[597855.7673431494,4090375.3435103493],[597855.6987993023,4090375.3610776826],[597841.1148809212,4090379.8418033984],[597841.0435686519,4090379.8677286464],[597840.9752408831,4090379.9007267407],[597840.9105969945,4090379.9404599248],[597840.850298659,4090379.9865215025],[597840.7949630697,4090380.038440004],[597825.1313271765,4090396.301029301],[597825.0828783946,4090396.356548634],[597825.0401115505,4090396.4165542824],[597825.003439462,4090396.4804670257],[597824.9732161164,4090396.547669929],[597824.9497332528,4090396.6175142983],[597824.9332175454,4090396.689325942],[597824.9238284166,4090396.76241168],[597824.9216564975,4090396.8360660323],[597824.9267227532,4090396.9095780305],[597824.9389782802,4090396.982238081],[597824.9583047788,4090397.0533448122],[597824.9845156948,4090397.1222118484],[597825.0173580204,4090397.188174432],[597825.0565147363,4090397.250595842],[597825.1016078719,4090397.308873539],[597825.1522021538,4090397.3624449815],[597825.2078092071,4090397.4107930576],[597825.26789227,4090397.4534510737],[597825.3318713749,4090397.490007263],[597825.3991289461,4090397.5201087566],[597825.4690157624,4090397.543464992],[597825.5408572225,4090397.5598505167],[597825.6139598577,4090397.5691071656],[597845.0973837946,4090399.068598945],[597860.4008479826,4090408.8137694118],[597853.5591781839,4090411.6310681617],[597853.4946497633,4090411.6613010964],[597853.4332818838,4090411.6975216814],[597853.3756285418,4090411.739402937],[597853.3222102005,4090411.7865667813],[597827.7739465362,4090436.6005661422],[597827.732179945,4090436.644551622],[597827.6941043572,4090436.6917683585],[597823.8589780298,4090441.862330945],[597818.3098963927,4090449.349608274],[597787.4502264662,4090447.701468958],[597787.3885627472,4090447.700714586],[597787.3270455026,4090447.7050287416],[597777.2341895368,4090448.831373805],[597777.1652333399,4090448.842339508],[597777.0975957318,4090448.859670339],[597777.0318629296,4090448.8832160914],[597776.9686046415,4090448.912772693],[597776.9083691287,4090448.9480839763],[597776.8516784543,4090448.9888438974],[597776.7990239578,4090449.0346991885],[597767.7376887844,4090457.6998514463],[597756.3660761378,4090465.6571702585],[597756.3050284084,4090465.7047641315],[597756.2492114844,4090465.7583968914],[597756.1992199529,4090465.8174972194],[597751.1517777882,4090472.450657158],[597748.2640749443,4090473.503165559],[597739.9638876328,4090472.887812605],[597723.4140120748,4090469.659994136],[597718.9668738598,4090466.5896539204],[597699.7968677034,4090453.343095469],[597699.7341491816,4090453.304171988],[597699.6679082146,4090453.2716022986],[597695.9997023375,4090451.6871162797],[597680.2409602649,4090444.8835947625],[597661.334198384,4090432.6718817675],[597661.2803021941,4090432.6401739456],[597651.0,4090427.1557002407],[597651.0,4090428.855813265],[597660.5466453035,4090433.948885837],[597679.479508033,4090446.177457143],[597679.533114862,4090446.2090105116],[597679.5891520496,4090446.236013119],[597695.4049565328,4090453.064170176],[597699.005089023,4090454.6192518123],[597715.5110086671,4090466.0249147825],[597714.870152439,4090465.935116465],[597710.6038696632,4090465.082955509],[597706.1279216036,4090463.1960894163],[597706.070398286,4090463.1745690904],[597706.0113070314,4090463.1578275217],[597705.9510440982,4090463.145976978],[597702.1471060294,4090462.5585583146],[597698.6809809026,4090462.0194131],[597698.583818868,4090462.0107201478],[597694.1951388731,4090461.9047055454],[597694.1227754495,4090461.9064515354],[597694.0509173613,4090461.9151652427],[597693.9802339441,4090461.930765502],[597693.9113835923,4090461.9531070013],[597693.8450076255,4090461.981981637],[597693.7817243153,4090462.01712045],[597693.7221231263,4090462.058196134],[597693.6667592248,4090462.104826081],[597693.6161483089,4090462.156575948],[597693.5707618033,4090462.2129637003],[597693.5310224693,4090462.2734641046],[597693.4973004666,4090462.3375136172],[597693.4699099052,4090462.404515637],[597693.4491059197,4090462.4738460616],[597693.4350822928,4090462.5448590987],[597693.4279696501,4090462.616893284],[597693.427834244,4090462.6892776415],[597693.4346773354,4090462.761337933],[597693.4484351833,4090462.83240294],[597693.4689796374,4090462.9018107126],[597698.35554897,4090476.8912471826],[597692.8282847889,4090496.1029749946],[597692.8113054767,4090496.1752996873],[597692.8015647734,4090496.248949378],[597692.7991582534,4090496.3232014272],[597692.8041095289,4090496.397327287],[597695.1780383042,4090516.727192434],[597689.6072340853,4090536.736320304],[597689.5912261999,4090536.8068015906],[597689.5820769259,4090536.8784964643],[597689.5798712315,4090536.9507391043],[597689.5846296005,4090537.0228586025],[597691.957930235,4090557.7351996806],[597688.1992634928,4090576.076899791],[597681.4223251956,4090595.559221087],[597673.5444193146,4090616.507473407],[597673.5250589633,4090616.5661956077],[597669.5440485827,4090630.555894391],[597669.5269827143,4090630.6299238694],[597669.5174935762,4090630.7053000177],[597669.5156785327,4090630.781249429],[597669.5215562074,4090630.8569928147],[597671.2678536492,4090644.413175106],[597672.2862475406,4090659.38333884],[597668.6883714169,4090673.4937272016],[597668.6733430815,4090673.5682679852],[597668.6659397758,4090673.643947378],[597668.6662376017,4090673.719987437],[597668.6742334976,4090673.795606515],[597668.6898452701,4090673.870027291],[597668.7129124395,4090673.9424847616],[597668.743197888,4090674.012234105],[597668.7803902987,4090674.0785583383],[597668.8241073549,4090674.1407756857],[597679.817208687,4090688.2115051793],[597683.9315503729,4090698.1988906846],[597688.5223630765,4090723.504198497],[597688.5343914635,4090723.558818503],[597688.5504566799,4090723.6123902854],[597696.4012840642,4090746.634706582],[597703.4115929257,4090770.002236792],[597703.4354983451,4090770.069955702],[597703.4657710041,4090770.135077787],[597712.6341527741,4090787.6160615557],[597716.3888955835,4090812.3774360237],[597716.4039530295,4090812.451400316],[597716.4263686935,4090812.523476534],[597716.4559155318,4090812.5929346336],[597716.4922942709,4090812.659071088],[597719.7906157093,4090818.0],[597721.553594446,4090818.0],[597717.8489885547,4090812.001179969],[597714.0983288352,4090787.2667322233],[597714.0813391671,4090787.185393542],[597714.0554559237,4090787.106433504],[597714.0209968193,4090787.0308213355],[597704.8276243728,4090769.502188852],[597697.8340153471,4090746.1903243656],[597697.8255069351,4090746.163767417],[597689.9882676998,4090723.1812979607],[597685.3932620788,4090697.852878103],[597685.3750291732,4090697.7758033373],[597685.3487699858,4090697.7010810957],[597681.16497502,4090687.545100774],[597681.1362089708,4090687.483386756],[597681.1019645173,4090687.424535902],[597681.062523901,4090687.369033259],[597670.2328554079,4090673.5074912547],[597673.7694170247,4090659.6375701786],[597673.7849288225,4090659.559741903],[597673.7921301483,4090659.4807102815],[597673.7909403744,4090659.4013601667],[597672.7628623612,4090644.288841995],[597672.7584452935,4090644.243922864],[597671.0289545406,4090630.818207773],[597674.9593123428,4090617.0065076],[597682.8296196556,4090596.078460742],[597682.8359860864,4090596.0608687736],[597689.6323625994,4090576.522666555],[597689.6587268522,4090576.4268251546],[597693.4513987082,4090557.919185458],[597693.463161807,4090557.841049376],[597693.4666389918,4090557.762109354],[597693.4617916666,4090557.6832416086],[597691.091547595,4090536.997575858],[597696.6625771591,4090516.9876385964],[597696.6786554295,4090516.916758902],[597696.6877975184,4090516.844655753],[597696.6899175727,4090516.772006271],[597696.6849956827,4090516.699492708],[597694.3114557187,4090496.3729572655],[597699.8630651047,4090477.0766101135],[597699.8805262289,4090477.0016261865],[597699.8902081355,4090476.925247257],[597699.8920087988,4090476.848278187],[597699.8859092442,4090476.7715300564],[597699.8719737469,4090476.6958116167],[597699.850349156,4090476.62192077],[597695.2425104628,4090463.4304438313],[597698.4987305899,4090463.5091023077],[597701.9169642372,4090464.040798148],[597701.9177771223,4090464.0409241333],[597705.6305888431,4090464.6142707174],[597710.0911628263,4090466.4946557647],[597710.1622592153,4090466.52048719],[597710.2355959902,4090466.5390257044],[597714.5976513264,4090467.4103165776],[597714.640481763,4090467.4175885925],[597718.2606744819,4090467.924858712],[597722.6906386397,4090470.9833418196],[597722.7562965029,4090471.0238507614],[597722.8257684334,4090471.057400429],[597722.8983193343,4090471.083635827],[597722.9731815294,4090471.1022793534],[597739.2485764425,4090474.276564266],[597741.4899387273,4090483.511575448],[597742.947620892,4090483.1577920294],[597740.8358109725,4090474.456571191],[597748.3139684218,4090475.0109811216],[597748.3933232233,4090475.0126527552],[597748.4724103004,4090475.005928684],[597748.5503438807,4090474.9908842184],[597748.626251111,4090474.967687855],[597751.8721996987,4090473.784606236],[597751.9379750032,4090473.757022745]],[[597941.8357870544,4090370.7192320074],[597944.8898952302,4090369.056456132],[597948.2183681041,4090372.1215032088],[597950.7972544091,4090380.0540030743],[597950.6248768192,4090383.1739842896],[597950.6241366729,4090383.239909063],[597950.6291889189,4090383.305644125],[597951.3365388244,4090389.138838488],[597952.081084646,4090389.048552723],[597951.5522275078,4090389.5803516773],[597961.1714572927,4090399.1463696216],[597965.0783405509,4090407.9618511978],[597959.1857964045,4090407.8216317],[597956.3060166697,4090406.352590473],[597953.2539314703,4090401.8278136114],[597953.2087148875,4090401.767546665],[597953.157679808,4090401.712120454],[597953.101341268,4090401.6620943295],[597953.0402678257,4090401.617973146],[597944.9145927028,4090396.3478921806],[597936.7265398314,4090378.5502063334],[597941.8357870544,4090370.7192320074]],[[597958.3458712648,4090373.1024727826],[597956.6778344288,4090373.959054791],[597956.6132338095,4090373.9964018255],[597956.5526640685,4090374.0399833294],[597953.5508840516,4090376.4351941063],[597953.4950689296,4090376.484457568],[597953.4444127108,4090376.539011798],[597951.8491424689,4090378.437932856],[597949.5841511767,4090371.470955256],[597949.5566965006,4090371.3992258767],[597949.5220499401,4090371.3306804253],[597949.4805748289,4090371.2660377286],[597949.4327061113,4090371.2059756857],[597949.3789457801,4090371.1511241603],[597947.9727892859,4090369.8562553073],[597958.3458712648,4090373.1024727826]],[[597818.632430439,4090450.8689717785],[597818.706376102,4090450.869270473],[597818.779991767,4090450.8622859055],[597818.8525618176,4090450.848085974],[597818.9233808019,4090450.8268087143],[597818.9917602901,4090450.798660963],[597819.0570355667,4090450.7639163435],[597819.118572092,4090450.7229126077],[597819.175771671,4090450.676048352],[597819.2280782678,4090450.6237791427],[597819.2749834108,4090450.5666130874],[597824.7431214483,4090443.188551431],[597835.1301687772,4090446.548772075],[597834.303426817,4090447.696839873],[597832.5744640821,4090448.6250626324],[597832.5151149158,4090448.6605429924],[597832.4592856057,4090448.701338429],[597832.4074506941,4090448.7471021856],[597832.3600507713,4090448.7974452768],[597832.3174887304,4090448.851939792],[597830.2621656287,4090451.749529166],[597828.0313459851,4090451.3837307817],[597827.9606776704,4090451.375561838],[597827.8895532852,4090451.37412512],[597827.8186127265,4090451.3794335546],[597827.7484942378,4090451.3914393815],[597827.6798286663,4090451.410034586],[597827.6132337877,4090451.43505187],[597827.5493087478,4090451.4662661552],[597827.4886286721,4090451.503396611],[597827.4317394918,4090451.5461091795],[597827.3791530316,4090451.594019581],[597827.3313424054,4090451.646696771],[597824.7936982433,4090454.7241157833],[597824.7780222906,4090454.743789204],[597822.5253943164,4090457.6702338853],[597820.486682201,4090457.301251528],[597820.411178805,4090457.29151283],[597820.335077122,4090457.28947841],[597820.25916125,4090457.2951692296],[597820.1842133731,4090457.308526654],[597820.1110057015,4090457.3294130573],[597820.0402925157,4090457.3576132413],[597816.3610861324,4090459.046056854],[597816.3004514578,4090459.0772956554],[597816.2429056094,4090459.113913981],[597816.1889245474,4090459.1556089614],[597816.1389547483,4090459.2020357386],[597816.0934095113,4090459.252810317],[597816.0526655401,4090459.307512742],[597812.8729956859,4090464.0085398806],[597812.8348210497,4090464.071418438],[597812.8029897016,4090464.1377342064],[597810.7603678703,4090468.989837294],[597789.3933579543,4090453.6178480587],[597789.3161655496,4090453.569154716],[597789.2336301944,4090453.530198021],[597780.3738528232,4090449.9903046004],[597787.4319663558,4090449.202631482],[597818.632430439,4090450.8689717785]]],[[[597812.7538548189,4090522.3715443774],[597812.821536676,4090522.349794832],[597812.8868552154,4090522.3217348084],[597834.3618438656,4090511.8642734215],[597837.199924665,4090511.8970027138],[597850.1134409087,4090517.6118727326],[597856.8494571697,4090521.8117280924],[597856.9112994863,4090521.846340478],[597856.9761326772,4090521.874961217],[597857.0433778552,4090521.8973347587],[597857.112434597,4090521.913261333],[597857.1826863037,4090521.9225987336],[597867.8489226602,4090522.8300764095],[597870.2026483279,4090530.1632809024],[597868.499267253,4090537.4075548667],[597868.4859741229,4090537.479809325],[597868.479814042,4090537.5530177094],[597868.4808461186,4090537.6264775554],[597868.4890604495,4090537.6994839855],[597868.504378215,4090537.7713364745],[597869.7843150393,4090542.601458176],[597869.8073404036,4090542.673472218],[597869.8374990895,4090542.742802178],[597869.8744846212,4090542.808743517],[597869.9179211473,4090542.8706261306],[597869.967367261,4090542.927821161],[597870.0223204849,4090542.979747386],[597870.0822223783,4090543.0258771256],[597870.1464642113,4090543.0657416033],[597870.2143931508,4090543.098935712],[597870.2853188952,4090543.1251221295],[597877.4275673197,4090545.360007365],[597877.5263108346,4090545.383702084],[597883.631063662,4090546.4175506737],[597887.5888543796,4090550.1273566056],[597887.6419156499,4090550.172646293],[597887.6989554532,4090550.212809896],[597887.759480291,4090550.247499926],[597899.9645829819,4090556.507603718],[597905.3712318015,4090560.5170274135],[597905.4312305088,4090560.5571939996],[597905.4948135394,4090560.591405076],[597905.5613916112,4090560.619343578],[597905.6303476847,4090560.6407505735],[597905.7010426811,4090560.655427665],[597905.7728214057,4090560.6632388257],[597905.8450186194,4090560.6641116636],[597905.9169652053,4090560.658038088],[597905.9879943687,4090560.6450743894],[597906.0574478176,4090560.6253407137],[597906.1246818638,4090560.5990199507],[597906.1890733881,4090560.566356039],[597906.2500256158,4090560.527651705],[597906.306973647,4090560.4832656565],[597906.3593896923,4090560.4336092602],[597906.4067879647,4090560.3791427263],[597906.4487291813,4090560.3203708464],[597906.4848246346,4090560.2578383125],[597906.5147397951,4090560.192124671],[597906.5381974119,4090560.1238389495],[597906.5549800819,4090560.0536140143],[597906.5649322646,4090559.9821007038],[597907.4937002654,4090549.7045427836],[597912.4054222739,4090546.161511695],[597924.1645267968,4090538.7365571223],[597931.1384275408,4090539.703448118],[597931.2162917353,4090539.710132912],[597931.2944288275,4090539.7086789203],[597931.3719904193,4090539.699101931],[597931.4481343618,4090539.6815059287],[597942.5709238446,4090536.492417017],[597942.6294579606,4090536.47299655],[597942.686198611,4090536.4488326125],[597942.7407621384,4090536.420088591],[597946.2638037051,4090534.3748471634],[597946.3254243654,4090534.3349182964],[597946.3828452978,4090534.2891552467],[597946.4355161373,4090534.237996642],[597946.4829320472,4090534.1819328237],[597946.5246385582,4090534.1215011505],[597946.5602359237,4090534.057280844],[597946.5893829521,4090533.98988744],[597946.6118002764,4090533.9199668868],[597946.6272730323,4090533.8481893553],[597946.6356529174,4090533.7752428153],[597946.6368596125,4090533.70182644],[597946.6308815518,4090533.6286439085],[597946.6177760335,4090533.5563966553],[597945.9815426408,4090530.8196090776],[597945.9576018847,4090530.7379477085],[597945.9245644908,4090530.6595240533],[597945.882855789,4090530.585347755],[597935.2383302002,4090513.941570933],[597935.1919164086,4090513.8768473454],[597922.8079902143,4090498.412689943],[597918.4169420347,4090491.3432188947],[597918.4033605609,4090491.322147164],[597911.2249655057,4090480.5833157925],[597905.9771238778,4090468.983019098],[597902.1034396876,4090457.687805314],[597900.6845608331,4090458.1744086393],[597904.5002433364,4090469.300496232],[597902.1858442111,4090479.3608728074],[597902.1739428773,4090479.425414336],[597902.167729485,4090479.4907492],[597902.1672516121,4090479.5563771077],[597902.172512918,4090479.621795525],[597903.0853114743,4090486.9441257734],[597903.1000568711,4090487.0255280714],[597903.1236777941,4090487.104811189],[597903.1558868551,4090487.181010515],[597903.1962921765,4090487.2531989547],[597906.5341509365,4090492.5131960264],[597899.5684387553,4090502.6648287144],[597895.2845846799,4090502.768154195],[597895.2114720034,4090502.7735014004],[597895.139230614,4090502.785960844],[597895.0685506971,4090502.8054134897],[597895.00010752,4090502.8316734894],[597894.9345549805,4090502.864489958],[597894.8725193593,4090502.9035493718],[597894.8145933374,4090502.948478561],[597884.8769231843,4090511.465947666],[597884.8285182819,4090511.511298036],[597875.4242880932,4090521.1375518166],[597868.4295292527,4090521.37405501],[597857.48981058,4090520.443309605],[597850.862156609,4090516.3110173163],[597850.7688657781,4090516.2616067384],[597837.6661094213,4090510.462988604],[597837.5952127974,4090510.435815982],[597837.5219321919,4090510.415950547],[597837.4470186085,4090510.4035958853],[597837.3712397857,4090510.398878612],[597834.2016878963,4090510.362326732],[597834.1320515506,4090510.364760651],[597834.0629416127,4090510.373646657],[597833.9949545962,4090510.3889080524],[597833.9286773219,4090510.4104131106],[597833.8646818533,4090510.437976213],[597812.3595741669,4090520.910104367],[597806.6657789625,4090521.3314675153],[597806.593427523,4090521.340374199],[597802.0788044856,4090522.120473705],[597802.0071838985,4090522.1364932773],[597801.9374719049,4090522.1594361006],[597801.8703360216,4090522.1890824893],[597801.8064190985,4090522.2251485693],[597801.7463331624,4090522.267288995],[597801.6906535574,4090522.315100257],[597801.6399134351,4090522.3681245456],[597801.5945986501,4090522.425854135],[597801.5551431075,4090522.4877362433],[597801.5219246079,4090522.553178328],[597801.49526123,4090522.621553758],[597801.4754082852,4090522.692207815],[597801.4625558723,4090522.7644639616],[597800.5523218791,4090529.8882401823],[597800.5468831206,4090529.953064708],[597800.5470821748,4090530.0181166846],[597800.5529175443,4090530.082906713],[597800.5643453284,4090530.146947364],[597806.1107350414,4090554.9533804217],[597806.1291715325,4090555.020879439],[597806.1538182824,4090555.086366531],[597806.184460765,4090555.1492716963],[597806.2208322671,4090555.209047405],[597806.2626162095,4090555.2651733677],[597806.3094489033,4090555.3171610613],[597806.3609227149,4090555.364557984],[597818.0071956794,4090565.1248535],[597809.0085976034,4090561.905606429],[597808.9415759484,4090561.8851074344],[597808.872933421,4090561.870954185],[597808.8032694522,4090561.863270275],[597799.2004878118,4090561.2563919956],[597772.3456451916,4090555.140064525],[597752.955267612,4090518.9234372973],[597752.909842935,4090518.8492770432],[597729.8115922345,4090485.630169052],[597728.5800486035,4090486.4864985947],[597751.6534335287,4090519.669845485],[597771.1228754215,4090556.0341461007],[597776.785646806,4090594.4598082085],[597776.7940255699,4090594.5064115087],[597785.3839537709,4090634.914601571],[597785.3985067509,4090634.971867481],[597785.4175225643,4090635.027810063],[597790.8466437134,4090649.148123001],[597790.877792909,4090649.218209814],[597790.9159371223,4090649.2847489207],[597790.960677454,4090649.3470444777],[597791.0115460249,4090649.4044450196],[597791.0680108691,4090649.4563502707],[597806.4900531721,4090662.2417331683],[597819.6232380273,4090694.573097631],[597819.6494044065,4090694.6304704035],[597819.680297788,4090694.6854423364],[597832.0492187947,4090714.677554611],[597832.0899845967,4090714.736879839],[597852.6298539381,4090741.7523290436],[597857.0116359493,4090754.3724063635],[597857.051265439,4090754.46567219],[597863.7238288299,4090767.6209827014],[597862.4352641281,4090788.7799203745],[597854.7517368892,4090810.8614796232],[597854.729907646,4090810.93664098],[597854.7160301333,4090811.013667989],[597854.7102554807,4090811.0917218095],[597854.5606912408,4090818.0],[597856.0610427415,4090818.0],[597856.2073407882,4090811.242585221],[597862.7474923971,4090792.4469538974],[597865.093867602,4090818.0],[597866.6001780218,4090818.0],[597863.9296848157,4090788.917167949],[597865.2334328826,4090767.508911113],[597865.2340530719,4090767.4294167925],[597865.2262555667,4090767.350303389],[597865.2101279724,4090767.272459749],[597865.185851484,4090767.196760451],[597865.1536988494,4090767.1240559826],[597858.4119958996,4090753.8324331855],[597854.3368588834,4090742.0955315996],[597874.2745913377,4090741.158161183],[597883.0329626799,4090742.9576309836],[597885.1258194952,4090747.2448676946],[597885.9159117588,4090750.2917947583],[597880.8561366844,4090754.4519300614],[597880.8019314576,4090754.5011218446],[597880.7527797016,4090754.5553633696],[597880.7091496069,4090754.6141379643],[597880.6714567675,4090754.676885777],[597880.6400602227,4090754.74300911],[597880.6152590375,4090754.811878111],[597880.597289453,4090754.882836777],[597880.5863226366,4090754.955209196],[597880.5824630518,4090755.028305993],[597880.5857474625,4090755.1014308915],[597880.5961445834,4090755.173887348],[597880.6135553779,4090755.2449851846],[597880.6378140012,4090755.3140471666],[597880.6686893799,4090755.3804154503],[597880.705887414,4090755.443457852],[597880.7490537771,4090755.5025738673],[597880.7977772923,4090755.5572003922],[597882.7075786468,4090757.498722761],[597882.7666375778,4090757.5526790638],[597882.8311073764,4090757.600038171],[597882.9002546069,4090757.640261304],[597899.03089912,4090765.9052608483],[597899.3485391864,4090767.233971039],[597894.1323412443,4090770.315110736],[597894.0719975294,4090770.354793723],[597894.0157505127,4090770.4000968854],[597893.9641217771,4090770.4506001235],[597893.9175900795,4090770.505835117],[597893.8765869116,4090770.565289668],[597893.8414924989,4090770.6284124497],[597893.8126322742,4090770.6946181203],[597893.7902738608,4090770.76329275],[597893.7746245897,4090770.8337995135],[597893.7658295778,4090770.9054845967],[597893.7639703818,4090770.9776832587],[597893.7690642423,4090771.049725996],[597893.7810639234,4090771.1209447505],[597893.7998581512,4090771.1906791064],[597894.5992842865,4090773.674155444],[597894.6224648452,4090773.7365329172],[597894.6510832871,4090773.796610137],[597894.6849143133,4090773.8539141435],[597894.7236915884,4090773.9079938107],[597894.7671098378,4090773.9584233966],[597904.2305210795,4090784.01126672],[597907.823139094,4090790.950325379],[597907.8598966206,4090791.013563885],[597907.9026394603,4090791.0729210586],[597907.9509610641,4090791.1278323233],[597908.0044018205,4090791.1777753904],[597913.5539261356,4090795.8786640246],[597915.7013128772,4090798.3032457074],[597914.7955367372,4090801.6057457295],[597914.779933512,4090801.6755202394],[597914.7710452633,4090801.7464634697],[597914.7689527667,4090801.817930695],[597914.7736750386,4090801.8892724295],[597914.7851691635,4090801.9598403256],[597914.8033306838,4090802.02899307],[597914.8279945498,4090802.0961022093],[597914.8589366184,4090802.160557863],[597914.8958756914,4090802.2217742642],[597914.9384760704,4090802.2791950842],[597914.9863506072,4090802.3322984893],[597915.0390642231,4090802.38060188],[597915.0961378618,4090802.423666281],[597917.5609756642,4090804.1053167065],[597917.6265003782,4090804.14526816],[597917.6957647367,4090804.178314422],[597923.7817794585,4090806.7083499967],[597925.3692135827,4090814.2968096696],[597924.8065774766,4090818.0],[597926.3237913874,4090818.0],[597926.8725203382,4090814.388344576],[597926.8796103355,4090814.321806619],[597926.8807415401,4090814.2549015507],[597926.8759049478,4090814.1881619436],[597926.8651390582,4090814.122119053],[597925.1690112229,4090806.0140675236],[597925.1506740256,4090805.943649387],[597925.1255990681,4090805.875339701],[597925.0940223879,4090805.8097814824],[597925.0562412249,4090805.7475918494],[597925.0126112235,4090805.6893562097],[597924.9635430849,4090805.6356227514],[597924.9094987011,4090805.5868972824],[597924.8509868066,4090805.5436384687],[597924.7885581898,4090805.506253518],[597924.7228005085,4090805.4750943445],[597918.3427061634,4090802.8228060408],[597916.3837021268,4090801.4862637464],[597917.2553040881,4090798.308364297],[597917.2714015334,4090798.2357171727],[597917.2802211399,4090798.1618324863],[597917.2816760957,4090798.08743749],[597917.2757520793,4090798.01326446],[597917.2625074014,4090797.940043487],[597917.2420724303,4090797.8684952916],[597917.2146483093,4090797.7993241274],[597917.180504976,4090797.7332108524],[597917.139978506,4090797.6708062245],[597917.0934678045,4090797.6127244974],[597914.6411770526,4090794.8438803377],[597914.564489774,4090794.7688654084],[597909.0870411806,4090790.129030645],[597905.5144285306,4090783.228611885],[597905.4797344082,4090783.1685730685],[597905.4396435405,4090783.111995123],[597905.3944986308,4090783.0593616855],[597895.9752851583,4090773.053469006],[597895.4114023827,4090771.301725513],[597900.5881663676,4090768.243878937],[597900.6494217392,4090768.2035303675],[597900.7064427903,4090768.1573911505],[597900.7586841233,4090768.105902601],[597900.8056460578,4090768.0495571992],[597900.8468794099,4090767.98889388],[597900.8819897887,4090767.9244928793],[597900.910641369,4090767.8569701826],[597900.9325601024,4090767.7869716347],[597900.9475363399,4090767.715166761],[597900.9554268358,4090767.642242364],[597900.9561561188,4090767.5688959546],[597900.9497172133,4090767.4958290807],[597900.9361717065,4090767.423740615],[597900.409537691,4090765.2207943965],[597900.3895009416,4090765.151785235],[597900.3629518335,4090765.0850103847],[597900.330134087,4090765.021082838],[597900.2913489682,4090764.9605894475],[597900.2469525234,4090764.9040855416],[597900.1973523109,4090764.8520898237],[597900.1430036593,4090764.8050796143],[597900.0844054881,4090764.763486465],[597900.0220957267,4090764.727692201],[597883.6920261125,4090756.3605114715],[597882.4421226307,4090755.0898476075],[597887.2384073437,4090751.146353467],[597887.2910526783,4090751.098718148],[597887.3389578625,4090751.0463182614],[597887.3816936103,4090750.98962337],[597887.4188769596,4090750.929141527],[597887.4501747043,4090750.8654147196],[597887.4753063802,4090750.7990140137],[597887.4940467782,4090750.730534438],[597887.5062279624,4090750.6605896484],[597887.5117407753,4090750.5898064324],[597887.5105358158,4090750.518819089],[597887.5026238816,4090750.448263748],[597887.4880758728,4090750.3787726676],[597886.5588701296,4090746.795365695],[597886.536395692,4090746.723683626],[597886.5068630708,4090746.6546094366],[597884.2191403726,4090741.968188146],[597884.1823110569,4090741.9015522855],[597884.1389156854,4090741.8389936876],[597884.0894014607,4090741.781157038],[597884.0342786424,4090741.728638362],[597883.9741152881,4090741.6819788804],[597883.9095313997,4090741.6416594335],[597883.8411925343,4090741.6080955253],[597883.769802945,4090741.581633043],[597883.6960983234,4090741.5625446904],[597878.0754190336,4090740.40773608],[597897.7859398376,4090736.39282171],[597919.2538156084,4090740.926278515],[597919.2933456308,4090740.933525717],[597928.4481926413,4090742.3595444956],[597928.5309385789,4090742.3677682756],[597928.6140863205,4090742.366781454],[597928.696613774,4090742.356596162],[597939.055918277,4090740.490132186],[597939.1236154075,4090740.474668566],[597939.189592165,4090740.453010023],[597939.2532829646,4090740.425342224],[597939.3141418173,4090740.3919023518],[597948.3802716573,4090734.8490714757],[597948.443927912,4090734.8055039914],[597948.5027724762,4090734.7556285295],[597948.5561828795,4090734.6999726826],[597948.6035941354,4090734.639125191],[597948.6445047176,4090734.5737297116],[597948.6784818651,4090734.504478012],[597948.7051661607,4090734.4321026513],[597948.7242753321,4090734.357369232],[597948.7356072384,4090734.281068299],[597950.0609927921,4090720.516013082],[597950.064445351,4090720.4445044785],[597950.0610640433,4090720.372992471],[597950.0508796792,4090720.302128663],[597950.0339850563,4090720.232558754],[597950.010534116,4090720.1649166523],[597939.6417332086,4090694.3152096914],[597939.6140878932,4090694.254301135],[597939.5811257904,4090694.196097909],[597939.5431090803,4090694.1410629614],[597939.5003401471,4090694.089634039],[597939.453159174,4090694.0422202065],[597929.395413195,4090684.798432848],[597921.2873655723,4090677.119471162],[597921.286326333,4090677.118488798],[597913.7023534188,4090669.9632491423],[597913.6558086188,4090669.9228193713],[597913.6061004441,4090669.88634908],[597907.6636676645,4090665.891476189],[597903.3187339117,4090658.7578118877],[597903.2869411359,4090658.709856173],[597903.2515656396,4090658.664478806],[597891.270957224,4090644.456048878],[597882.9972847358,4090632.0491906456],[597875.1948403417,4090619.125165861],[597875.1741476541,4090619.092794377],[597868.2056682485,4090608.7831395166],[597855.9687133728,4090590.6030866355],[597852.9314692622,4090581.948578816],[597852.9040219795,4090581.881062679],[597852.8701510947,4090581.816529391],[597852.8301764565,4090581.755588351],[597852.7844755518,4090581.6988150347],[597852.7334799422,4090581.646745563],[597852.6776711877,4090581.599871636],[597852.6175762997,4090581.558635893],[597852.5537627646,4090581.5234277286],[597822.1147880454,4090566.6101588514],[597807.519148775,4090554.3781123445],[597802.0568878215,4090529.947948274],[597802.880229185,4090523.5042209793],[597806.8128745189,4090522.824683694],[597812.6138493173,4090522.395388836],[597812.6844177429,4090522.386788032],[597812.7538548189,4090522.3715443774]],[[597875.7757849601,4090522.6265243525],[597875.8470765469,4090522.620700994],[597875.917489152,4090522.6081126314],[597875.9863823148,4090522.588873765],[597876.053129395,4090522.563159389],[597876.1171232727,4090522.531203396],[597876.1777818709,4090522.4932964537],[597876.2345534497,4090522.4497833555],[597876.2869216243,4090522.4010598897],[597885.8782811026,4090512.5832589017],[597895.5878705705,4090504.2612752737],[597899.9879744219,4090504.1551458775],[597900.058665045,4090504.150091389],[597900.1285629708,4090504.1383870314],[597900.1970440624,4090504.1201373152],[597900.2634968339,4090504.095505198],[597900.3273279106,4090504.064710626],[597900.3879673281,4090504.028028572],[597900.4448736209,4090503.98578658],[597900.4975386574,4090503.93836184],[597900.5454921777,4090503.88617782],[597900.588305992,4090503.8297004853],[597907.6592383862,4090493.5247228234],[597919.150972371,4090500.1316064848],[597919.2139291884,4090500.1639495497],[597919.2796545286,4090500.190213867],[597919.3475630407,4090500.2101655263],[597919.4170499301,4090500.223626837],[597919.4874963457,4090500.2304779137],[597919.5582748902,4090500.2306577396],[597919.6287552089,4090500.224164713],[597919.6983096027,4090500.211056662],[597921.9060049315,4090499.686037696],[597933.9961510722,4090514.783343672],[597944.549706042,4090531.284878863],[597945.0311844104,4090533.3559804945],[597942.0681023027,4090535.076147051],[597931.1872488655,4090538.1958688707],[597924.0989369053,4090537.2131154216],[597924.0241528627,4090537.2065402437],[597923.9490861351,4090537.207474261],[597923.8744888426,4090537.215908116],[597923.8011084014,4090537.231757307],[597923.7296800364,4090537.2548630345],[597923.6609194134,4090537.2849937947],[597923.5955154696,4090537.321847697],[597911.5850044471,4090544.905545806],[597911.5466619856,4090544.931444017],[597906.338762875,4090548.688120072],[597906.2829951564,4090548.732524997],[597906.2316952404,4090548.782024032],[597906.1853265896,4090548.8361699833],[597906.1443081157,4090548.8944736766],[597906.109010395,4090548.956408374],[597906.0797523204,4090549.0214145347],[597906.0567982203,4090549.0889048683],[597906.0403554705,4090549.158269642],[597906.0305726212,4090549.228882188],[597905.191295803,4090558.5161488717],[597900.8085114518,4090555.265995215],[597900.7576141342,4090555.2313948614],[597900.7040512912,4090555.2010840834],[597888.5378007113,4090548.960907879],[597884.4920106668,4090545.1686164266],[597884.4362770655,4090545.1212622733],[597884.3761963056,4090545.0795615246],[597884.3123396778,4090545.043910701],[597884.2453143763,4090545.0146487956],[597884.1757577254,4090544.9920540517],[597884.1043311191,4090544.9763413155],[597877.8269474013,4090543.9132574387],[597871.1282565901,4090541.817166082],[597870.0023639356,4090537.5683637657],[597871.7104773547,4090530.3039637133],[597871.7229785568,4090530.2374613923],[597871.729434959,4090530.1701029954],[597871.7297940053,4090530.1024368308],[597871.724052773,4090530.0350137115],[597871.7122579966,4090529.968382472],[597871.6945056876,4090529.9030855023],[597869.4278511328,4090522.841157431],[597875.7757849601,4090522.6265243525]],[[597904.5529740286,4090486.59158549],[597903.6774022473,4090479.5678827297],[597905.5118515084,4090471.5937825963],[597909.8837752995,4090481.2578724637],[597909.9114643269,4090481.312934831],[597909.9435808723,4090481.3655378157],[597917.149346885,4090492.145315958],[597921.0080633225,4090498.357747027],[597919.6406945202,4090498.6829253007],[597907.9668167742,4090491.9713226613],[597904.5529740286,4090486.59158549]],[[597820.9891648599,4090693.950007442],[597807.8087905068,4090661.5024715504],[597807.7776471331,4090661.435472484],[597807.7400627111,4090661.37186277],[597807.6964019788,4090661.3122597076],[597807.6470886423,4090661.257241716],[597807.5926012631,4090661.2073427173],[597792.1763372973,4090648.4267502525],[597786.8388538918,4090634.544773056],[597778.2661656203,4090594.2176819663],[597772.747519572,4090556.7700059176],[597798.9263144641,4090562.732360068],[597798.9855913284,4090562.7433752306],[597799.0455614389,4090562.749593454],[597808.6030089782,4090563.3536067004],[597821.4107088227,4090567.9355593408],[597851.6178555853,4090582.7352464474],[597854.5851718062,4090591.1904974915],[597854.6088042407,4090591.2496649404],[597854.63737314,4090591.3066131356],[597854.6706723366,4090591.360931111],[597866.9617045429,4090609.621324954],[597866.9625173954,4090609.6225300604],[597873.9206427623,4090619.9168664333],[597881.7218767646,4090632.838886316],[597881.739960149,4090632.8673713272],[597890.0464042046,4090645.323372451],[597890.0970126156,4090645.390732961],[597902.0676478692,4090659.5873351945],[597906.4681629594,4090666.8122548806],[597906.513932466,4090666.87900571],[597906.566628308,4090666.940435908],[597906.6256368229,4090666.9958300963],[597906.6902708344,4090667.0445431904],[597912.7179388003,4090671.096716475],[597920.2564339256,4090678.2090492686],[597928.3680390668,4090685.8913802058],[597928.3762498536,4090685.8990406846],[597938.3128844845,4090695.0315180584],[597948.5504040093,4090720.5539369076],[597947.278398296,4090733.7646051776],[597938.6516264096,4090739.0388223366],[597928.5546003075,4090740.858030902],[597919.5440735758,4090739.454492393],[597897.9436492826,4090734.8930447893],[597897.8679264461,4090734.8810589192],[597897.7913756233,4090734.8768659984],[597897.7147967002,4090734.8805098394],[597897.6389898561,4090734.8919523675],[597874.240351428,4090739.658114083],[597853.6576693786,4090740.6258067386],[597833.3058627808,4090713.8577105924],[597820.9891648599,4090693.950007442]]],[[[597978.5722555354,4090232.9625831256],[597983.0637437529,4090218.779195181],[597983.074676305,4090218.741224163],[597986.4948678646,4090205.566232877],[597986.5103553035,4090205.4908666024],[597986.5180397355,4090205.414310182],[597986.5178402871,4090205.3373693195],[597986.5097590572,4090205.260853767],[597984.9166725815,4090195.1673847344],[597986.992311459,4090190.223772283],[597993.1964086227,4090183.2755626137],[598000.4633889813,4090176.7412668676],[598000.5200462397,4090176.6845612177],[598000.5703278772,4090176.622132598],[598000.6136595143,4090176.5546941455],[598001.9486194869,4090174.210351726],[598014.0421533894,4090163.8660310935],[598022.8535116649,4090161.1894950108],[598033.1805307766,4090160.4874332235],[598043.9177392811,4090161.196012275],[598052.1298067152,4090162.066183578],[598052.2878656149,4090160.574534362],[598044.0610023296,4090159.702795253],[598044.0313600963,4090159.7002476924],[598033.2291733571,4090158.987380542],[598033.1289163039,4090158.9874798595],[598022.6664673549,4090159.698748574],[598022.582039079,4090159.709326081],[598022.4993522445,4090159.7293985696],[598014.897701573,4090162.03847416],[598015.3524512581,4090160.801151488],[598015.3825893571,4090160.696043503],[598017.8331184336,4090148.9855358084],[598017.8450678512,4090148.908803514],[598017.849018786,4090148.8312469306],[598017.8449288792,4090148.7536975513],[598016.7941515465,4090138.733607792],[598016.7845034089,4090138.6689348742],[598016.769258802,4090138.605348124],[598016.7485336032,4090138.543330877],[598013.0701175964,4090128.9493597616],[598013.9350510039,4090123.8024800248],[598013.943802341,4090123.7274509207],[598013.9449621727,4090123.651922071],[598013.938518734,4090123.5766596333],[598013.9245373864,4090123.5024270643],[598013.9031599556,4090123.4299773728],[598013.8746032927,4090123.360045482],[598009.1045160493,4090113.1766213714],[598010.0460460053,4090108.5604679803],[598010.057557874,4090108.484161954],[598010.061167871,4090108.4070769306],[598010.0568377775,4090108.3300290033],[598010.0446134359,4090108.2538338704],[598007.6418771151,4090097.0111493417],[598008.3172486535,4090086.9766171714],[598013.8412809575,4090068.2989113457],[598021.8991203286,4090053.2545814994],[598035.018307029,4090033.0843099887],[598035.0522064012,4090033.0267323283],[598035.0808468764,4090032.9663661327],[598035.1040011455,4090032.903690506],[598039.4072433383,4090019.4382970966],[598047.2224445611,4090012.9579449412],[598047.2716003138,4090012.913371839],[598047.316623981,4090012.8646284407],[598047.3571631332,4090012.8120962926],[598047.3929004446,4090012.756186597],[598056.7380327344,4089996.6032770667],[598071.6905850327,4089988.3922087285],[598087.0979567809,4089984.3564309874],[598086.7178724183,4089982.905384511],[598071.2208080426,4089986.964656169],[598071.1620200342,4089986.9826601236],[598071.1049042409,4089987.0054188245],[598071.0498444984,4089987.032779326],[598055.8326214829,4089995.389189363],[598055.7745691442,4089995.424584348],[598055.719960814,4089995.4650912522],[598055.669245288,4089995.510377171],[598055.6228393695,4089995.560069924],[598055.5811244431,4089995.613761115],[598055.5444433411,4089995.6710094837],[598046.1617156117,4090011.888902121],[598038.2808972906,4090018.423663868],[598038.2283633031,4090018.4716056124],[598038.1806066412,4090018.524307907],[598038.1380567523,4090018.5812968328],[598038.1010962622,4090018.6420599204],[598038.0700575352,4090018.7060507643],[598038.0452196841,4090018.772693932],[598033.7058923645,4090032.351002303],[598020.6243184569,4090052.4634455154],[598020.5918902655,4090052.518262602],[598012.48272664,4090067.6584170205],[598012.4500823992,4090067.727634885],[598012.4246618478,4090067.7998190573],[598006.8553087723,4090086.6307622273],[598006.8362812999,4090086.711131801],[598006.8262062029,4090086.79310622],[598006.1382233233,4090097.015015118],[598006.1367718999,4090097.08441302],[598006.1417426413,4090097.15364789],[598006.1530929701,4090097.2221266855],[598008.5450044086,4090108.4141603224],[598007.5851660358,4090113.1200766135],[598007.5745590692,4090113.1877192017],[598007.5701651095,4090113.256047238],[598007.5720207767,4090113.324491259],[598007.5801106055,4090113.3924808325],[598007.5943671729,4090113.459449316],[598007.6146716609,4090113.524838575],[598007.6408548465,4090113.588103639],[598012.4170338826,4090123.7845328175],[598011.556953815,4090128.9025322306],[598011.5479309553,4090128.981875619],[598011.547395191,4090129.0617285976],[598011.5553525959,4090129.1411859132],[598011.5717129607,4090129.219346797],[598011.5962908163,4090129.2953251773],[598015.3126235562,4090138.9881899585],[598016.3408561915,4090148.793296121],[598013.925618537,4090160.3351543294],[598013.0375700819,4090162.7514341488],[598000.8741397515,4090173.1555413636],[598000.826782336,4090173.1997294417],[598000.783414119,4090173.2478387835],[598000.7443585552,4090173.2995105744],[598000.7099069336,4090173.3543594284],[597999.3702219968,4090175.706999426],[597992.1628894226,4090182.187661304],[597992.1049193831,4090182.245833311],[597985.7899020505,4090189.318266791],[597985.7382473244,4090189.3829793446],[597985.6940408077,4090189.452991552],[597985.6578213031,4090189.5274500833],[597983.451075961,4090194.7833228023],[597983.4272492969,4090194.8483256423],[597983.4095181266,4090194.9152486185],[597983.3980335381,4090194.9835214783],[597983.392893392,4090195.052562466],[597983.3941414873,4090195.121783282],[597983.4017671894,4090195.190594094],[597985.0037564317,4090205.3404692295],[597981.627766223,4090218.3451915695],[597977.1925061367,4090232.3510202374],[597966.3303651875,4090244.162326124],[597966.2869712425,4090244.2139958367],[597966.2483967142,4090244.269356467],[597966.2149538193,4090244.3279599347],[597966.1869132395,4090244.3893319117],[597966.1645019316,4090244.4529756615],[597966.1479012892,4090244.5183760617],[597963.1201492068,4090259.184674311],[597963.1158693905,4090259.2071284647],[597959.082879966,4090282.2720507095],[597960.560462331,4090282.5304116085],[597964.5914829554,4090259.476749057],[597967.5749597603,4090245.024918309],[597978.4092975245,4090233.2438451294],[597978.4613470817,4090233.180645441],[597978.5061975669,4090233.1121487916],[597978.5433144933,4090233.039171461],[597978.5722555354,4090232.9625831256]]],[[[597990.8971223789,4090273.7424468994],[597990.9558570625,4090273.7870598007],[597991.0186897634,4090273.825687844],[597991.0850128114,4090273.8579574474],[597991.1541847803,4090273.8835565243],[597991.2255366911,4090273.9022374996],[597991.2983784822,4090273.913819705],[597994.9447085743,4090274.310983564],[597995.0236088341,4090274.315389768],[597995.1025347451,4090274.311469791],[597995.1806101011,4090274.2992671505],[597995.2569681385,4090274.2789173163],[597999.6902691472,4090272.8433543923],[597999.7163509367,4090272.8343755715],[598011.8869292153,4090268.392606186],[598011.3726681691,4090266.98351585],[597999.2150482195,4090271.4205559683],[597994.9475692639,4090272.8024234655],[597991.7281872047,4090272.4517634404],[597989.5047567309,4090270.1753643556],[597988.4316856059,4090271.2234666217],[597990.8430537503,4090273.6922806017],[597990.8971223789,4090273.7424468994]]]]}},{"type":"Feature","properties":{"class":"track","widthMeters":2.5},"geometry":{"type":"MultiPolygon","coordinates":[[[[597959.1417159609,4090281.352345587],[597953.2821994561,4090285.150861603],[597940.3702656693,4090288.742972203],[597940.2604119566,4090288.779085531],[597940.1543655781,4090288.8251960096],[597940.0530340881,4090288.8809090224],[597939.9572846902,4090288.9457477718],[597939.8679368162,4090289.0191573626],[597939.7857551128,4090289.1005095495],[597939.7114428981,4090289.189108113],[597939.6456361427,4090289.284194818],[597932.4548821998,4090300.776257057],[597918.257739902,4090306.6574317017],[597918.2484937757,4090306.661305426],[597908.7176143202,4090310.699331423],[597901.1926537915,4090310.3878735313],[597870.200805784,4090309.1204812657],[597845.065352473,4090308.089526908],[597827.1282044372,4090305.049029939],[597813.4141225324,4090301.924769742],[597801.699088646,4090299.256669473],[597793.5034064946,4090292.421394767],[597792.4803958264,4090289.5648315507],[597793.2240103044,4090287.1027725646],[597795.4858114739,4090284.350150551],[597795.5640358517,4090284.2439957107],[597795.6306422335,4090284.1301910826],[597795.6848894062,4090284.010003114],[597795.7261736933,4090283.8847692884],[597795.7540356726,4090283.7558832397],[597795.768165289,4090283.624779245],[597796.2195694889,4090275.3639968582],[597796.219793225,4090275.231815442],[597796.2060576999,4090275.10034943],[597796.1785165047,4090274.9710688847],[597796.137477607,4090274.845419429],[597796.0833999064,4090274.724806083],[597796.0168881032,4090274.6105775535],[597794.8005306652,4090272.754740424],[597794.7162638062,4090272.640822645],[597794.6196456358,4090272.5371737513],[597782.1432781403,4090260.588877503],[597778.0499972311,4090255.740333043],[597761.590974558,4090229.8690517866],[597761.5182342533,4090229.766495054],[597761.4355590955,4090229.671764628],[597746.5288428091,4090214.2329139533],[597746.4490411746,4090214.1572295683],[597746.3628956458,4090214.088852856],[597746.2710731365,4090214.0283131683],[597746.1742845104,4090213.976079187],[597731.7909992638,4090207.012711042],[597726.6594486609,4090201.3374429126],[597721.3903737667,4090189.094994572],[597721.3352783069,4090188.982792192],[597721.2692521601,4090188.8766534547],[597721.1929555828,4090188.7776397383],[597721.107151535,4090188.6867411737],[597721.012698051,4090188.604866739],[597720.9105396585,4090188.5328351725],[597720.8016979338,4090188.471366785],[597710.1152619336,4090183.1224182886],[597710.0025693116,4090183.072793754],[597700.4552186711,4090179.4187550307],[597699.4309729334,4090172.951733193],[597699.4041335317,4090172.825110772],[597699.3643440396,4090172.7019426464],[597690.7897446032,4090150.212945783],[597690.7397255955,4090150.0991157056],[597690.6786455917,4090149.9908178714],[597690.6071089103,4090149.889123767],[597690.5258233265,4090149.795039541],[597682.5453990513,4090141.4371795403],[597682.4697271445,4090141.364320213],[597682.3882049705,4090141.298071785],[597682.301408257,4090141.238902117],[597662.9727891985,4090129.2199597866],[597651.0,4090118.707956097],[597651.0,4090122.0348057393],[597661.4006452967,4090131.1664809003],[597661.4804611647,4090131.230954808],[597661.565295885,4090131.2886655335],[597680.846704837,4090143.278251626],[597688.5435970847,4090151.339169896],[597696.9820797737,4090173.4711670973],[597698.099019435,4090180.5234524184],[597698.1232251005,4090180.640033763],[597698.1584132113,4090180.7537831403],[597698.2042644932,4090180.8636684627],[597698.2603629209,4090180.9686927],[597698.3261994934,4090181.0679029305],[597698.4011768516,4090181.1603989834],[597698.4846146991,4090181.245341609],[597698.5757559744,4090181.321960093],[597698.6737737198,4090181.389559247],[597698.7777785851,4090181.4475257206],[597698.8868268968,4090181.495333563],[597709.0513917219,4090185.3855974567],[597719.2744949935,4090190.502631131],[597724.4450589353,4090202.5161938947],[597724.5059792765,4090202.6387796775],[597724.5799386823,4090202.75396895],[597724.6660501811,4090202.860380283],[597730.0999554432,4090208.8700393],[597730.1847670685,4090208.9552198686],[597730.2773682475,4090209.0318603455],[597730.3769026793,4090209.099252021],[597730.4824499495,4090209.1567717115],[597744.8847904248,4090216.129365049],[597759.5494015592,4090231.3174679927],[597775.9858768665,4090257.153307944],[597776.0853982623,4090257.2887005196],[597780.2757291863,4090262.2522019837],[597780.366296592,4090262.348628622],[597792.7876688588,4090274.244257354],[597793.7008895627,4090275.637588654],[597793.2942357124,4090283.079431165],[597791.1338433387,4090285.708638226],[597791.0603954258,4090285.807593184],[597790.9970483026,4090285.913299483],[597790.9444176697,4090286.0247297124],[597790.9030150693,4090286.14080083],[597789.9679614305,4090289.236702378],[597789.936392649,4090289.3655828284],[597789.9186634122,4090289.497083523],[597789.9149734993,4090289.6297226683],[597789.9253644893,4090289.762005645],[597789.9497192932,4090289.8924418436],[597789.9877634731,4090290.0195614677],[597791.2645581824,4090293.5847684736],[597791.3159448449,4090293.7073083636],[597791.3800490568,4090293.8237010767],[597791.4561464258,4090293.9326313483],[597791.5433770337,4090294.0328682414],[597791.6407551543,4090294.1232790556],[597800.3283108851,4090301.3687808756],[597800.4221973392,4090301.439860352],[597800.5223558908,4090301.5017895275],[597800.6278976477,4090301.554018789],[597800.7378859421,4090301.5960846106],[597800.8513446441,4090301.627613663],[597812.8588480093,4090304.3623238862],[597826.6070798354,4090307.4943639142],[597826.6758280109,4090307.5080103516],[597844.7258556149,4090310.567641354],[597844.8835342395,4090310.584171463],[597870.0984275478,4090311.618384127],[597901.089576873,4090312.8857476762],[597908.8949014385,4090313.2088098265],[597909.0053942142,4090313.208495437],[597909.1154275534,4090313.1984248576],[597909.2241416996,4090313.1786767757],[597909.3306872038,4090313.149405495],[597909.4342315616,4090313.110839729],[597919.2191523284,4090308.965181963],[597933.7809221423,4090302.9329601536],[597933.8972990166,4090302.8775581764],[597934.0073521474,4090302.810466714],[597934.1099114178,4090302.7323991028],[597934.2038863878,4090302.6441853796],[597934.2882778879,4090302.5467634588],[597934.3621886433,4090302.441169159],[597941.5076496123,4090291.021492887],[597954.13661203,4090287.5081051546],[597954.2566449885,4090287.4680641894],[597954.3720148663,4090287.4160932237],[597954.4815394494,4090287.352724811],[597960.391549421,4090283.5214756774],[597974.347312791,4090278.172245395],[597974.3824685292,4090278.1581557523],[597989.4507619914,4090271.852521882],[597988.4856803453,4090269.5463090953],[597973.4348580154,4090275.844631815],[597959.3742860636,4090281.234035123],[597959.2549054439,4090281.2871052073],[597959.1417159609,4090281.352345587]]],[[[597692.9425465344,4090460.309888272],[597692.8510962332,4090460.2535781986],[597692.7551499315,4090460.20532585],[597651.0,4090441.4081194936],[597651.0,4090444.149765091],[597691.6307001493,4090462.4407700654],[597693.4692907637,4090463.684868061],[597724.9359904882,4090485.6227005622],[597725.0517233335,4090485.6943521816],[597725.1745608746,4090485.752995038],[597728.7195075036,4090487.2140266923],[597729.195820419,4090486.0583338235],[597729.364729461,4090487.296869142],[597733.1907456958,4090486.7750844765],[597733.3128777876,4090486.7521951008],[597742.4980894524,4090484.55313835],[597747.9228366057,4090483.3645893307],[597747.9577625188,4090483.3564102524],[597773.8402355042,4090476.9020592337],[597811.1997184302,4090471.395136428],[597841.4708453191,4090470.338325155],[597841.5944118138,4090470.3278562017],[597841.7163329131,4090470.3051951528],[597871.8484907289,4090463.1420047223],[597890.2647571823,4090458.8616328286],[597890.3817375802,4090458.8283698056],[597890.494931838,4090458.783896193],[597890.6032684431,4090458.7286329847],[597890.7057218662,4090458.66310331],[597890.801322269,4090458.5879274816],[597890.8891646847,4090458.5038171243],[597890.9684175847,4090458.411568438],[597891.0383307502,4090458.312054663],[597891.0982423734,4090458.206217809],[597891.1475853225,4090458.0950597436],[597892.8736924324,4090453.6328857536],[597900.6896649766,4090458.9637791454],[597902.0983355442,4090456.898434808],[597892.9806694277,4090450.6797197633],[597892.8740389172,4090450.6145535996],[597892.7614345362,4090450.560359984],[597892.6439817296,4090450.517680564],[597892.5228544015,4090450.4869419076],[597892.3992631811,4090450.4684512373],[597892.2744433238,4090450.462393362],[597892.1496423646,4090450.468828828],[597892.0261076499,4090450.4876933154],[597891.90507387,4090450.5187982786],[597891.7877507193,4090450.5618328345],[597891.6753108059,4090450.616366865],[597891.5688779312,4090450.6818553205],[597891.4695158582,4090450.7576436647],[597891.3782176794,4090450.8429744164],[597891.2958958915,4090450.936994722],[597891.2233732746,4090451.038764878],[597891.1613746694,4090451.147267724],[597891.1105197326,4090451.2614188083],[597889.0545703156,4090456.5762709165],[597871.2794593144,4090460.7076232582],[597871.2733451523,4090460.709060533],[597841.2592263791,4090467.844190041],[597811.0428052729,4090468.899091452],[597810.9041332791,4090468.911692915],[597773.4149989333,4090474.4377268087],[597773.2948317329,4090474.4615070075],[597747.3702627135,4090480.926355577],[597741.9512536894,4090482.113647386],[597742.2187798097,4090483.3346837386],[597741.9277386758,4090482.119037796],[597732.7912920214,4090484.3064195816],[597729.3606849866,4090484.7742791083],[597726.2535977811,4090483.49370898],[597694.891910177,4090461.629088424],[597694.8775470536,4090461.619222851],[597692.9425465344,4090460.309888272]]]]}}]}
