{"type":"FeatureCollection","name":"carboneras-algarrobico-coastline","crs":{"type":"name","properties":{"name":"EPSG:25830"}},"features":[{"type":"Feature","properties":{"source":"DERA/IECA","id_dera":10125300000481.0},"geometry":{"type":"LineString","coordinates":[[599695.7000000002,4098111.3000000007],[599695.9400000004,4098096.4700000007],[599696.1900000004,4098081.6400000006],[599696.3300000001,4098068.5299999993],[599696.46,4098055.41],[599696.5899999999,4098042.3000000007],[599697.3200000003,4098028.75],[599698.04,4098015.1999999993],[599698.7699999996,4098001.6400000006],[599699.4900000002,4097988.09],[599699.9100000001,4097974.7699999996],[599700.3300000001,4097961.4499999993],[599700.7400000002,4097948.130000001],[599701.1600000001,4097934.8100000005],[599703.2999999998,4097919.83],[599705.4400000004,4097904.84],[599705.6600000001,4097899.710000001],[599706.7999999998,4097895.1999999993],[599709.6799999997,4097890.17],[599711.96,4097880.630000001],[599713.5999999996,4097862.0],[599715.2300000004,4097843.369999999],[599715.25,4097838.539999999],[599716.1100000003,4097821.5999999996],[599716.1100000003,4097820.0600000005],[599716.6299999999,4097818.5299999993],[599718.3799999999,4097816.7799999993],[599719.2000000002,4097814.9399999995],[599723.46,4097796.4700000007],[599725.3099999996,4097791.75],[599724.8099999996,4097788.7699999996],[599723.3799999999,4097786.8200000003],[599723.0800000001,4097782.5],[599723.21,4097768.2300000004],[599722.9199999999,4097761.5600000005],[599725.2551309408,4097755.0]]}},{"type":"Feature","properties":{"source":"DERA/IECA","id_dera":10125300001248.0},"geometry":{"type":"LineString","coordinates":[[599849.9900000002,4098956.119999999],[599849.9100000001,4098943.2699999996],[599847.8799999999,4098932.380000001],[599845.3300000001,4098921.3100000005],[599842.7800000003,4098910.24],[599840.2199999997,4098899.17],[599837.6699999999,4098888.1099999994],[599835.1200000001,4098877.039999999],[599832.5599999996,4098865.9700000007],[599830.0099999998,4098854.9000000004],[599827.46,4098843.83],[599824.6100000003,4098831.6099999994],[599821.7699999996,4098819.380000001],[599818.9199999999,4098807.16],[599815.5599999996,4098793.289999999],[599812.21,4098779.42],[599808.8300000001,4098766.4499999993],[599805.4400000004,4098753.4800000004],[599802.0599999996,4098740.51],[599798.6799999997,4098727.539999999],[599794.9000000004,4098716.7799999993],[599791.1299999999,4098706.0199999996],[599787.3600000003,4098695.25],[599783.5800000001,4098684.49],[599779.9100000001,4098674.4700000007],[599776.2400000002,4098664.4499999993],[599772.5599999996,4098654.4299999997],[599768.8899999997,4098644.41],[599766.54,4098638.5600000005],[599763.8499999996,4098627.6899999995],[599761.1500000004,4098616.83],[599758.46,4098605.9700000007],[599755.7599999998,4098595.0999999996],[599753.6900000004,4098581.710000001],[599751.6200000001,4098568.3200000003],[599749.54,4098554.9299999997],[599747.4699999997,4098541.539999999],[599745.4000000004,4098528.1500000004],[599743.3200000003,4098514.76],[599741.25,4098501.369999999],[599739.1799999997,4098487.9800000004],[599737.2300000004,4098477.2799999993],[599735.2800000003,4098466.59],[599733.3200000003,4098455.8900000006],[599731.3700000001,4098445.1999999993],[599729.4199999999,4098434.5],[599727.4699999997,4098423.8100000005],[599725.5199999996,4098413.1099999994],[599723.5700000003,4098402.42],[599721.7300000004,4098389.1999999993],[599719.8799999999,4098375.9700000007],[599718.04,4098362.75],[599716.2000000002,4098349.5299999993],[599713.8200000003,4098333.25],[599711.4500000002,4098316.9700000007],[599707.8899999997,4098300.6400000006],[599705.7999999998,4098284.539999999],[599703.71,4098268.4399999995],[599701.6200000001,4098252.34],[599699.5199999996,4098236.24],[599698.3799999999,4098222.789999999],[599697.2300000004,4098209.34],[599696.0800000001,4098195.8900000006],[599695.3099999996,4098185.5199999996],[599694.54,4098175.1400000006],[599694.4500000002,4098168.0600000005],[599694.8499999996,4098149.74],[599695.25,4098131.41],[599695.4800000004,4098121.3499999996],[599695.7000000002,4098111.3000000007]]}},{"type":"Feature","properties":{"source":"DERA/IECA","id_dera":10125300001255.0},"geometry":{"type":"LineString","coordinates":[[599910.2699999996,4099234.3100000005],[599906.29,4099222.1999999993],[599902.5899999999,4099210.9700000007],[599898.9000000004,4099199.75],[599895.0499999998,4099186.9800000004],[599891.21,4099174.2200000007],[599887.3600000003,4099161.4499999993],[599881.5800000001,4099142.3100000005],[599879.0,4099124.5700000003],[599876.4299999997,4099106.83],[599874.0,4099089.42],[599871.5700000003,4099077.92],[599869.1299999999,4099066.41],[599866.0899999999,4099048.0299999993],[599863.0599999996,4099029.6400000006],[599859.8600000003,4099015.08],[599856.6600000001,4099000.5199999996],[599853.46,4098985.960000001],[599850.2599999998,4098971.4000000004],[599849.5599999996,4098963.1799999997],[599849.9900000002,4098956.119999999]]}},{"type":"Feature","properties":{"source":"DERA/IECA","id_dera":10125300001249.0},"geometry":{"type":"LineString","coordinates":[[600125.2833454544,4099675.0],[600117.1600000001,4099660.6799999997],[600107.8099999996,4099644.1799999997],[600105.9800000004,4099637.8100000005],[600106.9100000001,4099632.880000001],[600106.6100000003,4099629.289999999],[600104.46,4099627.6400000006],[600096.4699999997,4099620.74],[600087.25,4099610.1999999993],[600078.04,4099599.6500000004],[600070.6600000001,4099591.7799999993],[600063.29,4099583.91],[600056.9500000002,4099574.3499999996],[600053.1699999999,4099565.41],[600046.1200000001,4099551.0199999996],[600044.8899999997,4099549.2699999996],[600036.3899999997,4099542.5700000003],[600029.21,4099539.17],[600021.6200000001,4099534.630000001],[600019.2599999998,4099532.16],[600016.2000000002,4099525.380000001],[600008.7300000004,4099516.33],[600005.04,4099512.9299999997],[600002.2800000003,4099507.789999999],[599998.9000000004,4099502.5500000007],[599995.7199999997,4099492.58],[599992.5300000003,4099482.619999999],[599989.3499999996,4099472.6500000004],[599986.1600000001,4099462.6799999997],[599982.9800000004,4099452.7200000007],[599979.79,4099442.75],[599976.6100000003,4099432.7799999993],[599973.4199999999,4099422.8200000003],[599969.5599999996,4099406.6899999995],[599965.0700000003,4099394.49],[599960.5800000001,4099382.2799999993],[599956.0899999999,4099370.08],[599951.6100000003,4099357.880000001],[599947.6399999997,4099343.34],[599943.6699999999,4099328.8000000007],[599938.7199999997,4099313.75],[599933.7800000003,4099298.6999999993],[599930.0,4099288.17],[599926.2300000004,4099277.630000001],[599924.5,4099271.0600000005],[599918.4800000004,4099253.9000000004],[599913.6799999997,4099244.6500000004],[599910.2699999996,4099234.3100000005]]}}]}
