{"type":"FeatureCollection","name":"carboneras-ancon-coastline","crs":{"type":"name","properties":{"name":"EPSG:25830"}},"features":[{"type":"Feature","properties":{"source":"DERA/IECA","id_dera":10125300001283.0},"geometry":{"type":"LineString","coordinates":[[598829.8799999999,4095449.0299999993],[598821.9400000004,4095433.8900000006],[598814.0099999998,4095418.75],[598812.3499999996,4095413.76],[598810.8600000003,4095408.0500000007],[598808.4699999997,4095390.49],[598809.9800000004,4095380.67],[598810.7300000004,4095373.1400000006],[598809.7999999998,4095367.1999999993],[598808.2000000002,4095362.16],[598808.5099999998,4095357.7799999993],[598811.6900000004,4095353.7799999993],[598813.7199999997,4095346.08],[598813.8099999996,4095342.09],[598811.5099999998,4095332.119999999],[598812.6900000004,4095321.5600000005],[598810.4299999997,4095309.1099999994],[598810.46,4095304.74],[598811.6799999997,4095300.6899999995],[598811.7800000003,4095298.33],[598810.0099999998,4095294.3599999994],[598809.9900000002,4095290.4299999997],[598812.3300000001,4095286.7699999996],[598812.9299999997,4095283.960000001],[598813.0300000003,4095270.5999999996],[598812.3099999996,4095262.3599999994],[598811.8600000003,4095252.3200000003],[598814.1200000001,4095244.9000000004],[598814.7400000002,4095235.5199999996],[598814.8099999996,4095227.2699999996],[598813.6799999997,4095216.5],[598813.8399999999,4095203.880000001],[598812.4100000001,4095198.5500000007],[598811.3700000001,4095188.49],[598810.3300000001,4095178.42],[598808.8399999999,4095173.039999999],[598808.8200000003,4095168.16],[598810.3099999996,4095165.2300000004],[598811.1900000004,4095161.58],[598811.1799999997,4095158.83],[598810.54,4095156.0299999993],[598812.0899999999,4095150.9700000007],[598811.8799999999,4095143.7300000004],[598809.1600000001,4095139.09],[598809.3099999996,4095136.4499999993],[598812.7999999998,4095127.5600000005],[598812.6200000001,4095124.4800000004],[598812.4299999997,4095110.2300000004],[598810.8399999999,4095098.34],[598810.2699999996,4095096.1500000004],[598808.8600000003,4095094.59],[598807.8399999999,4095092.8000000007],[598807.21,4095090.6099999994],[598807.4299999997,4095089.0999999996],[598807.9299999997,4095087.9700000007],[598808.1900000004,4095084.210000001],[598806.5300000003,4095078.66],[598806.5099999998,4095075.91],[598809.5099999998,4095069.5],[598809.7199999997,4095066.4700000007],[598807.7800000003,4095061.1500000004],[598808.0499999998,4095059.24],[598810.1100000003,4095055.8000000007],[598810.3200000003,4095053.9499999993],[598810.0300000003,4095051.4800000004],[598808.7300000004,4095050.26],[598808.2000000002,4095046.2200000007],[598808.46,4095041.84],[598807.54,4095038.42],[598804.7199999997,4095025.1899999995],[598803.3799999999,4095015.6099999994],[598799.2199999997,4095005.130000001],[598797.6600000001,4094996.7799999993],[598795.8399999999,4094992.4700000007],[598791.8899999997,4094988.119999999],[598784.4400000004,4094981.42],[598779.4000000004,4094972.0199999996],[598772.4299999997,4094960.84],[598766.5,4094953.74],[598758.8899999997,4094946.210000001],[598748.6900000004,4094938.75],[598738.4900000002,4094931.2799999993],[598726.4500000002,4094925.460000001],[598712.4000000004,4094921.66],[598703.0800000001,4094921.039999999],[598696.0800000001,4094923.0999999996],[598677.6900000004,4094927.24],[598662.8399999999,4094929.7300000004],[598647.9800000004,4094932.2300000004],[598629.1799999997,4094933.0600000005],[598618.6699999999,4094933.9299999997],[598608.1500000004,4094934.8000000007],[598593.5599999996,4094935.42],[598578.9800000004,4094936.0299999993],[598565.8200000003,4094936.380000001],[598552.6600000001,4094936.74],[598541.9100000001,4094935.76],[598531.1600000001,4094934.7799999993],[598513.1900000004,4094933.3100000005],[598494.2599999998,4094929.369999999],[598477.5,4094923.460000001],[598474.0,4094921.8596282536]]}},{"type":"Feature","properties":{"source":"DERA/IECA","id_dera":10125300001233.0},"geometry":{"type":"LineString","coordinates":[[598880.1100000003,4096087.460000001],[598877.0599999996,4096071.710000001],[598874.0099999998,4096055.960000001],[598871.8200000003,4096043.0600000005],[598869.6399999997,4096030.16],[598869.4199999999,4096012.09],[598868.0700000003,4095996.8900000006],[598866.7199999997,4095981.6799999997],[598865.3700000001,4095966.4800000004],[598864.0199999996,4095951.2799999993],[598862.0099999998,4095933.7799999993],[598860.0,4095916.2799999993],[598858.0,4095898.7799999993],[598855.9900000002,4095881.2799999993],[598853.8700000001,4095864.7799999993],[598851.75,4095848.2799999993],[598849.6299999999,4095831.7799999993],[598847.5199999996,4095815.289999999],[598846.6500000004,4095795.5299999993],[598845.7800000003,4095775.7799999993],[598844.9100000001,4095756.0199999996],[598844.0499999998,4095736.2699999996],[598843.2800000003,4095720.6899999995],[598842.5099999998,4095705.119999999],[598841.75,4095689.5500000007],[598840.9800000004,4095673.9800000004],[598840.2199999997,4095658.41],[598839.4500000002,4095642.84],[598838.6799999997,4095627.26],[598837.9199999999,4095611.6899999995],[598837.6399999997,4095593.210000001],[598837.3600000003,4095574.7300000004],[598833.4199999999,4095555.6999999993],[598833.0999999996,4095549.0299999993],[598833.21,4095543.8900000006],[598834.2300000004,4095537.91],[598835.1600000001,4095526.5],[598834.9500000002,4095515.0999999996],[598833.5700000003,4095501.0600000005],[598830.54,4095486.5299999993],[598830.1200000001,4095474.3100000005],[598829.9299999997,4095463.8900000006],[598829.7400000002,4095453.4700000007],[598829.8799999999,4095449.0299999993]]}},{"type":"Feature","properties":{"source":"DERA/IECA","id_dera":10125300000200.0},"geometry":{"type":"LineString","coordinates":[[598952.7699999996,4096335.6500000004],[598949.8600000003,4096329.130000001],[598943.9299999997,4096319.0700000003],[598941.8200000003,4096316.130000001],[598939.79,4096311.4399999995],[598935.9299999997,4096302.119999999],[598932.0599999996,4096292.789999999],[598927.7000000002,4096284.5500000007],[598924.1900000004,4096274.8499999996],[598920.6799999997,4096265.16],[598918.8499999996,4096260.3599999994],[598915.04,4096248.5700000003],[598911.2400000002,4096236.7799999993],[598906.8300000001,4096219.91],[598902.4199999999,4096203.039999999],[598898.5599999996,4096188.2200000007],[598896.0999999996,4096174.1400000006],[598893.6399999997,4096160.0600000005],[598891.1799999997,4096145.9800000004],[598888.7199999997,4096131.91],[598885.04,4096112.92],[598881.3600000003,4096093.9299999997],[598880.1100000003,4096087.460000001]]}},{"type":"Feature","properties":{"source":"DERA/IECA","id_dera":10125300001013.0},"geometry":{"type":"LineString","coordinates":[[599224.0,4096457.7894397075],[599216.2400000002,4096457.09],[599211.1100000003,4096457.380000001],[599200.3799999999,4096458.3900000006],[599189.6500000004,4096459.3900000006],[599175.4000000004,4096461.1799999997],[599170.0499999998,4096460.460000001],[599160.2300000004,4096457.1400000006],[599147.2699999996,4096453.3200000003],[599134.3200000003,4096449.49],[599128.8300000001,4096447.2300000004],[599122.6200000001,4096444.26],[599116.5999999996,4096440.9700000007],[599111.7199999997,4096437.67],[599101.4000000004,4096429.2300000004],[599092.1900000004,4096421.26],[599082.9800000004,4096413.2799999993],[599073.7800000003,4096405.3100000005],[599064.5700000003,4096397.33],[599054.6799999997,4096390.0600000005],[599044.7999999998,4096382.789999999],[599034.9100000001,4096375.5199999996],[599025.0199999996,4096368.26],[599019.0199999996,4096365.8000000007],[599007.2699999996,4096363.4399999995],[599002.9400000004,4096362.1799999997],[598995.9699999997,4096357.4800000004],[598988.0499999998,4096356.59],[598981.3899999997,4096352.09],[598977.1799999997,4096346.0],[598975.5099999998,4096344.59],[598973.75,4096344.01],[598961.5099999998,4096342.8900000006],[598956.5300000003,4096340.42],[598954.4400000004,4096338.3000000007],[598952.7699999996,4096335.6500000004]]}}]}
