{"type":"FeatureCollection","name":"carboneras-marinicas-roads","crs":{"type":"name","properties":{"name":"EPSG:25830"}},"source":"\u00a9 OpenStreetMap contributors, ODbL 1.0","features":[{"type":"Feature","properties":{"class":"cycleway","widthMeters":2.5},"geometry":{"type":"Polygon","coordinates":[[[597672.0747210508,4093540.0689491336],[597671.4546367315,4093550.109856303],[597671.4522798483,4093550.193963395],[597671.8533274375,4093621.2087284615],[597671.8543621039,4093621.253005349],[597675.6222653354,4093712.921718641],[597675.6250581039,4093712.96838068],[597678.4974545285,4093749.494052662],[597678.4982131164,4093749.503263172],[597682.0777774891,4093791.085469349],[597682.0818161473,4093791.1250150288],[597691.238167209,4093868.576175957],[597691.2402088752,4093868.592521396],[597698.0901807699,4093920.6420690864],[597698.1078316083,4093920.7436197563],[597702.7310786133,4093942.0851726346],[597700.6165243664,4093951.420733139],[597703.0547602172,4093951.973006564],[597704.7202878783,4093944.61985671],[597706.2976676205,4093946.248488483],[597708.093465047,4093944.5092036864],[597705.157501292,4093941.477844954],[597700.5620780035,4093920.264730232],[597693.7199110001,4093868.2744880496],[597684.5668606878,4093790.8512472906],[597680.9893975232,4093749.2934499136],[597678.119196078,4093712.795689502],[597674.3531624962,4093621.172462617],[597673.9524776996,4093550.2219383935],[597674.5736575514,4093540.1632914743],[597674.5753103512,4093540.0437050923],[597670.6402048233,4093424.4767797994],[597675.1598601614,4093348.7285822835],[597672.6642984783,4093348.5796800116],[597668.1411550321,4093424.3863372733],[597668.1396598897,4093424.5033268156],[597672.0747210508,4093540.0689491336]]]}},{"type":"Feature","properties":{"class":"footway","widthMeters":2},"geometry":{"type":"MultiPolygon","coordinates":[[[[597673.9120793198,4093348.6541311475],[597673.8272951883,4093349.6505304906],[597676.6236765153,4093349.8884760127],[597672.4479375398,4093416.8448199225],[597672.0008365251,4093423.9737914777],[597671.9990854063,4093424.0568652186],[597673.6852740244,4093506.370380742],[597673.6854132888,4093506.3703778894],[597673.6853372289,4093506.3732632175],[597674.4715737934,4093540.0169509095],[597674.1488607695,4093549.537687926],[597674.1482884325,4093549.573370459],[597674.2773303546,4093621.0177194444],[597674.2805021773,4093621.0955175124],[597675.7727573861,4093639.781951257],[597679.3099829907,4093711.9936342794],[597679.3116592743,4093712.0204679314],[597679.5048478519,4093714.563177147],[597685.2323108618,4093790.654101947],[597685.2372712995,4093790.7035505376],[597694.9137408212,4093867.8167283013],[597701.4431738056,4093919.8736527823],[597701.4442730637,4093919.8735149037],[597701.4522130899,4093919.931805344],[597706.212380184,4093945.5614522044],[597706.2137281504,4093945.568566357],[597706.2978104113,4093946.0037079123],[597707.5588555089,4093958.168495809],[597707.570572448,4093958.2492422606],[597707.5888331758,4093958.3287647218],[597735.9075466649,4094062.052851142],[597735.9186356675,4094062.0905376007],[597770.7212162341,4094172.3248710274],[597770.7329342965,4094172.359739783],[597796.8994264201,4094245.724586257],[597796.9138999332,4094245.7626935067],[597812.5993099859,4094284.6535571],[597809.5553564887,4094285.7990821362],[597804.9010937894,4094287.5195670435],[597805.5945470182,4094289.3954995098],[597810.2515559088,4094287.673999451],[597809.9048292944,4094286.736033218],[597810.2570421936,4094287.671953126],[597814.2618448075,4094286.1648336304],[597814.3531978816,4094286.125155446],[597814.4401508955,4094286.0765867755],[597814.5218412977,4094286.019609406],[597814.5974587405,4094285.954788539],[597814.6662531182,4094285.882767181],[597814.7275420084,4094285.804259765],[597814.780717441,4094285.720045064],[597814.8252519296,4094285.6309584673],[597814.8607037034,4094285.53788369],[597814.88672109,4094285.4417440104],[597814.9030460034,4094285.3434931086],[597814.9095165051,4094285.244105609],[597814.906068409,4094285.1445674105],[597814.8927359194,4094285.045865905],[597814.8696512913,4094284.948980187],[597814.8370435182,4094284.8548713373],[597799.1378610204,4094245.9298599414],[597800.2130687289,4094245.479619776],[597800.3045319766,4094245.4357414753],[597800.3910791588,4094245.3828225164],[597800.471819633,4094245.3214074792],[597800.5459225128,4094245.2521283757],[597800.6126252176,4094245.1756981458],[597800.6712413216,4094245.092903319],[597800.7211676162,4094245.0045959237],[597800.7618903182,4094244.911684716],[597800.7929903574,4094244.81512583],[597800.8141476883,4094244.7159129363],[597800.8251445846,4094244.6150670177],[597800.825867879,4094244.5136258635],[597800.1402436249,4094228.803161969],[597802.3447995591,4094228.0285476455],[597801.6817966246,4094226.141638239],[597798.7773490794,4094227.1621733205],[597798.6864536537,4094227.199217044],[597798.599627691,4094227.244993326],[597798.5177076911,4094227.2990611484],[597798.441482889,4094227.3608996104],[597798.371687651,4094227.4299129467],[597798.3089943995,4094227.505436268],[597798.2540071347,4094227.586741966],[597798.2072556159,4094227.6730467244],[597798.1691902571,4094227.763519064],[597798.1401777884,4094227.8572873557],[597798.1204977222,4094227.953448215],[597798.1103396603,4094228.051075207],[597798.1098014679,4094228.149227773],[597798.7973668324,4094243.904170471],[597798.4286255459,4094244.058579834],[597772.9542600448,4094172.6342977732],[597773.3824849807,4094172.4838846885],[597773.472442689,4094172.447288971],[597773.5584263135,4094172.402139751],[597773.6396248882,4094172.3488628585],[597773.7152725776,4094172.287960782],[597773.7846559003,4094172.2200079286],[597773.8471204581,4094172.145645204],[597773.9020771082,4094172.065573971],[597773.949007519,4094171.980549431],[597773.9874690605,4094171.891373506],[597774.0170989771,4094171.79888727],[597774.0376178104,4094171.70396302],[597774.0488320341,4094171.6074960465],[597774.0506358799,4094171.510396191],[597773.6649043625,4094158.6575311595],[597773.6598976803,4094158.583204195],[597773.6493717157,4094158.509456187],[597769.8979671545,4094137.779467029],[597771.0648143988,4094137.4047564664],[597770.4533100252,4094135.50053421],[597768.4521581365,4094136.1431656717],[597768.3623589996,4094136.1768329255],[597768.2761978941,4094136.2189474464],[597768.1944672755,4094136.269121892],[597768.1179188506,4094136.326894789],[597768.0472566634,4094136.391734779],[597767.9831306201,4094136.463045504],[597767.9261305117,4094136.540171094],[597767.876780589,4094136.622402196],[597767.8355347416,4094136.7089825],[597767.8027723228,4094136.799115695],[597767.7787946607,4094136.8919727933],[597767.7638222865,4094136.9866997534],[597767.7579929068,4094137.082425337],[597767.7613601366,4094137.17826912],[597767.773893006,4094137.273349592],[597771.6680437969,4094158.792144048],[597771.9959900258,4094169.7195596932],[597738.1414349145,4094062.48801952],[597738.2002668709,4094062.4724504463],[597745.5543564807,4094066.2992486986],[597745.639147349,4094066.338452169],[597745.7272264617,4094066.3695724746],[597745.8178252048,4094066.3923380454],[597745.9101529771,4094066.406550221],[597746.0034040894,4094066.4120849795],[597746.0967647946,4094066.4088940234],[597746.1894203895,4094066.397005197],[597746.2805623242,4094066.3765222477],[597751.3254176412,4094064.992321161],[597750.7962187381,4094063.0636043544],[597746.1296211423,4094064.344019561],[597738.7801716283,4094060.519635844],[597738.6964321602,4094060.4808607805],[597738.6094748513,4094060.4499701583],[597738.5200402131,4094060.4272270366],[597738.4288898534,4094060.412825091],[597738.336799991,4094060.4068869655],[597738.2445548449,4094060.409463228],[597738.1529399569,4094060.42053194],[597738.0627355012,4094060.4399988423],[597737.5756022842,4094060.568911995],[597709.7917298327,4093958.80380927],[597710.1337651599,4093958.724162504],[597717.8681034268,4093972.6593847885],[597717.920404005,4093972.7435071087],[597717.9807705182,4093972.8220424466],[597718.0486106556,4093972.8942202204],[597718.1232587752,4093972.9593322277],[597718.2039824362,4093973.0167395948],[597718.2899895849,4093973.0658790455],[597718.3804363264,4093973.106268428],[597718.4744352048,4093973.1375114447],[597718.5710639112,4093973.159301542],[597718.6693743329,4093973.171424918],[597718.7684018563,4093973.1737626176],[597718.8671748319,4093973.1662917044],[597718.9647241075,4093973.1490854826],[597722.1149820791,4093972.4309297097],[597721.6704521117,4093970.4809571183],[597719.2523797952,4093971.0321985115],[597711.5162749083,4093957.0937932474],[597711.4637707272,4093957.0093770972],[597711.4031443722,4093956.930591182],[597711.3349949999,4093956.858214124],[597711.2599961152,4093956.792961211],[597711.1788889153,4093956.735477322],[597711.0924749644,4093956.686330557],[597711.0016082722,4093956.646006623],[597710.9071868538,4093956.614904032],[597710.8101438549,4093956.5933301644],[597710.7114383295,4093956.5814982294],[597710.6120457625,4093956.57952516],[597710.5129484279,4093956.5874304553],[597710.4151256826,4093956.6051359884],[597709.4312592652,4093956.834240329],[597708.2826318652,4093945.7539001266],[597707.2879620105,4093945.8570111347],[597708.2698001938,4093945.6672908626],[597708.1780913786,4093945.1926804506],[597703.5963900869,4093920.5239274832],[597711.620464876,4093918.811315377],[597711.7153266758,4093918.7861439656],[597711.8072641424,4093918.751794828],[597711.8953917011,4093918.7085988284],[597711.9788604754,4093918.656972045],[597712.0568664637,4093918.5974117666],[597712.1286582844,4093918.5304916985],[597712.1935444128,4093918.45685644],[597712.2508998421,4093918.3772152713],[597712.3001721042,4093918.2923353254],[597712.3408865909,4093918.2030341965],[597712.3726511254,4093918.110172066],[597712.3951597405,4093918.0146434144],[597712.408195625,4093917.9173684088],[597712.4116332124,4093917.8192840368],[597712.083978353,4093894.515287814],[597710.084176008,4093894.543405093],[597710.400291716,4093917.026695218],[597703.292047778,4093918.5438376856],[597697.0216487893,4093868.5521022016],[597701.4673656949,4093867.9582648547],[597701.5667779958,4093867.939829102],[597701.6638205609,4093867.911449125],[597701.7575013551,4093867.873415044],[597701.8468627093,4093867.8261156688],[597701.9309911106,4093867.7700345255],[597702.0090265414,4093867.7057449142],[597702.08017127,4093867.633904048],[597702.1436980063,4093867.5552463317],[597702.198957337,4093867.470575859],[597702.2453843633,4093867.3807581896],[597702.2825044765,4093867.2867115005],[597702.3099382094,4093867.189397201],[597702.3274051157,4093867.089810105],[597702.3347266368,4093866.988968259],[597702.7857040311,4093846.4012151044],[597702.7856754696,4093846.356148156],[597702.5738802329,4093837.2165216375],[597705.3608623332,4093820.443542609],[597703.3879123173,4093820.1157191275],[597700.5854915341,4093836.98161325],[597700.5744677699,4093837.0748411897],[597700.5722349347,4093837.1686920635],[597700.7856900875,4093846.37994915],[597700.3539558451,4093866.089225315],[597696.772679302,4093866.567594902],[597687.2248033851,4093790.4791980637],[597681.5765070323,4093715.440024125],[597683.4413150664,4093715.3553774115],[597695.4031133531,4093736.6073620254],[597697.1459995452,4093735.6263687937],[597684.882293841,4093713.8379989606],[597684.8287894331,4093713.7531901775],[597684.7670604461,4093713.6741662347],[597684.6977275804,4093713.6017217375],[597684.6214879955,4093713.5365851345],[597684.5391082994,4093713.4794113897],[597684.451416841,4093713.4307754003],[597684.3592953796,4093713.3911662125],[597684.2636702199,4093713.3609821075],[597684.1655028968,4093713.3405265934],[597684.0657805074,4093713.3300053556],[597683.9655057854,4093713.3295241883],[597681.4256414898,4093713.4448128194],[597681.306930093,4093711.8823552732],[597677.7696101208,4093639.6687457585],[597677.767634234,4093639.6380669614],[597676.2772567215,4093620.975146251],[597676.148317404,4093549.5876044645],[597676.4713958001,4093540.0560881747],[597676.471696813,4093539.9988486934],[597675.7086322975,4093507.3467114028],[597681.5068021549,4093507.3286210205],[597681.601858561,4093507.323794915],[597681.696025586,4093507.309953562],[597681.7884501696,4093507.28722235],[597681.8782950364,4093507.2558072014],[597681.9647462807,4093507.2159927064],[597682.0470207398,4093507.1681395452],[597682.1243730881,4093507.1126812203],[597682.1961025903,4093507.050120129],[597682.2615594475,4093506.981023012],[597682.3201506856,4093506.906015823],[597682.3713455257,4093506.8257780513],[597682.4146801932,4093506.7410365725],[597682.4497621189,4093506.6525590606],[597682.4762734951,4093506.561147034],[597682.4939741552,4093506.467628596],[597688.7586065546,4093461.8367330474],[597686.7780225527,4093461.558727631],[597680.6338641144,4093505.3313348666],[597675.6647264005,4093505.3468386554],[597673.9995175316,4093424.0574771813],[597674.422581488,4093417.31177361],[597680.0764738976,4093410.901623197],[597680.1399701642,4093410.8217658233],[597680.1949991732,4093410.7358543333],[597680.2409881288,4093410.644782977],[597680.2774583333,4093410.5494997143],[597690.8248279776,4093378.1276552384],[597693.5900053759,4093377.503398728],[597693.1495765317,4093375.552495749],[597689.8296146115,4093376.301998419],[597689.739008281,4093376.326981361],[597689.6511476338,4093376.360360414],[597689.5668088002,4093376.4018407185],[597689.4867368005,4093376.4510558518],[597689.4116389632,4093376.507571065],[597689.3421786763,4093376.570887122],[597689.2789695282,4093376.64044471],[597689.2225698866,4093376.7156293825],[597689.1734779666,4093376.795776983],[597689.132127429,4093376.8801795156],[597689.0988835505,4093376.968091398],[597678.4396110958,4093409.7339169453],[597674.6256194419,4093414.0580636403],[597678.6806514319,4093349.037210047],[597678.6819961818,4093348.9404949695],[597678.6739908773,4093348.844102389],[597678.6567104129,4093348.748934117],[597678.630316458,4093348.655880511],[597678.595055944,4093348.5658121444],[597678.551258755,4093348.4795716624],[597678.4993346406,4093348.397965898],[597678.4397693826,4093348.3217583224],[597678.3731202508,4093348.251661905],[597678.3000107885,4093348.1883324413],[597678.2211249799,4093348.1323624165],[597678.1372008502,4093348.0842754645],[597678.0490235611,4093348.0445214687],[597677.9574180653,4093348.0134723526],[597677.8632413887,4093347.9914185987],[597677.7673746117,4093347.9785665344],[597673.9973620363,4093347.6577742295],[597666.2612876625,4093346.991708779],[597666.089725111,4093348.9843367646],[597673.8262980441,4093349.6504451404],[597673.9120793198,4093348.6541311475]]],[[[597721.6103699516,4094035.9351368537],[597715.5528211116,4094037.917921749],[597716.1749883317,4094039.818686845],[597722.2325371717,4094037.8359019496],[597721.6103699516,4094035.9351368537]]],[[[597761.9679151241,4094158.037549073],[597756.0894538484,4094159.9336063135],[597756.7033947132,4094161.837044417],[597762.581855989,4094159.9409871763],[597761.9679151241,4094158.037549073]]],[[[597787.6760903407,4094231.171876437],[597781.4513049296,4094233.7740204833],[597782.2226779817,4094235.619280252],[597788.4474633929,4094233.017136206],[597787.6760903407,4094231.171876437]]],[[[597854.2525409546,4094402.8026568647],[597855.0459585988,4094404.638545871],[597860.5471241587,4094402.2611026787],[597859.7537065145,4094400.4252136727],[597854.2525409546,4094402.8026568647]]]]}},{"type":"Feature","properties":{"class":"path","widthMeters":1.5},"geometry":{"type":"Polygon","coordinates":[[[597501.2389639944,4093849.627041041],[597501.1899701344,4093849.6559299375],[597481.3673791257,4093862.3810702716],[597455.4695158968,4093868.2148051853],[597424.2373971675,4093868.6857782286],[597424.1571846561,4093868.691297981],[597424.0780239478,4093868.7053726707],[597424.0008247944,4093868.7278405447],[597423.0,4093869.078316653],[597423.0,4093870.6676309826],[597424.3817134539,4093870.1837725122],[597455.5698314097,4093869.7134629907],[597455.6470559132,4093869.70830452],[597455.7233376015,4093869.695214913],[597481.8260472784,4093863.815336429],[597481.8892014284,4093863.79818372],[597481.9506199097,4093863.7755909725],[597482.0098351052,4093863.7477301983],[597482.0663961726,4093863.7148135197],[597501.9523306517,4093850.949009755],[597520.3574131683,4093842.7521225186],[597519.7471580601,4093841.38187119],[597501.2900062052,4093849.601948026],[597501.2389639944,4093849.627041041]]]}},{"type":"Feature","properties":{"class":"residential","widthMeters":5},"geometry":{"type":"MultiPolygon","coordinates":[[[[597656.544921649,4094039.9405149347],[597656.7363953611,4094039.9306878266],[597656.926552917,4094039.906216242],[597681.4153021736,4094035.7947125267],[597681.6958389283,4094035.730823955],[597710.5502673,4094027.3869252317],[597709.161313072,4094022.5837173294],[597680.4453118285,4094030.887586775],[597656.2881697327,4094034.9434157773],[597631.51899328,4094035.2635503467],[597631.5836114626,4094040.263132778],[597656.544921649,4094039.9405149347]]],[[[597715.2904761466,4094154.6092431895],[597627.4459566254,4094176.641720822],[597628.6623417082,4094181.491505078],[597714.2474198239,4094160.025722926],[597738.3358053305,4094233.612322081],[597731.7689895981,4094237.457296758],[597731.5571249255,4094237.596222953],[597731.3604089662,4094237.7558787027],[597731.1808619814,4094237.9346243525],[597731.0203279078,4094238.130624195],[597730.8804554208,4094238.341865324],[597730.7626810026,4094238.5661783055],[597730.6682141894,4094238.801259458],[597730.5980251497,4094239.0446945126],[597729.4371849678,4094244.0020215334],[597729.3950626666,4094244.2284226245],[597729.3739517602,4094244.457739157],[597729.3740313764,4094244.688025362],[597729.3953008397,4094244.917327242],[597729.4375796769,4094245.1436991533],[597729.5005091488,4094245.3652203125],[597729.583555294,4094245.580011095],[597754.7016754784,4094302.589191875],[597754.7074903077,4094302.6022876236],[597780.6152580999,4094360.502004108],[597767.7302939215,4094366.346440089],[597672.1634845184,4094402.885062211],[597671.9380510476,4094402.984241322],[597671.7234702081,4094403.105120639],[597671.5218245242,4094403.2465270176],[597671.3350709829,4094403.4070880986],[597671.1650220425,4094403.5852456233],[597671.0133280413,4094403.7792705595],[597670.8814611817,4094403.9872798794],[597670.7707012418,4094404.2072548363],[597670.6821231559,4094404.437060555],[597670.6165865812,4094404.674466754],[597670.5747275554,4094404.9171693865],[597670.5569523235,4094405.162813004],[597670.5634333958,4094405.4090136164],[597670.5941078729,4094405.6533818273],[597670.6486780564,4094405.893546023],[597670.7266143386,4094406.127175391],[597671.8450373092,4094409.0],[597677.2105830692,4094409.0],[597676.2984664056,4094406.657101737],[597767.3184638451,4094371.8568890607],[597782.7705195678,4094409.0],[597788.1859320252,4094409.0],[597771.932542101,4094369.930669943],[597784.9033968397,4094364.0472752284],[597792.6604819242,4094360.871679568],[597813.4091445477,4094408.878465795],[597813.1075026264,4094409.0],[597813.4616719593,4094409.0],[597818.9086875957,4094409.0],[597825.7446209005,4094409.0],[597851.4623507749,4094397.683289508],[597849.4485221313,4094393.106774],[597818.0173191016,4094406.9376147017],[597797.2712924209,4094358.936927333],[597819.9886795039,4094349.1752336994],[597825.532563313,4094349.549528666],[597825.8693712408,4094344.5608855216],[597819.7239889723,4094344.1459804247],[597819.4874956707,4094344.1412294004],[597819.2516119229,4094344.1588507355],[597819.0184494226,4094344.1986866784],[597818.790095502,4094344.260380608],[597818.5685944463,4094344.343380224],[597793.0153845845,4094355.3236309504],[597785.206341609,4094358.520497133],[597759.274353094,4094300.566651208],[597734.495975131,4094244.328564187],[597735.2216123801,4094241.2297559283],[597742.4260411311,4094237.0114487247],[597778.0764336162,4094223.3183053206],[597776.2836536427,4094218.6507642153],[597742.8970375365,4094231.474402056],[597719.1232247027,4094158.8487777733],[597753.2987360641,4094150.8730152017],[597752.1623884725,4094146.003855711],[597715.3304948922,4094154.599555572],[597715.2904761466,4094154.6092431895]]]]}},{"type":"Feature","properties":{"class":"service","widthMeters":3},"geometry":{"type":"MultiPolygon","coordinates":[[[[597465.973545794,4093414.5164123946],[597449.0022088405,4093420.401502942],[597448.8680515275,4093420.4553988827],[597448.7397061508,4093420.5219602925],[597431.9911452921,4093430.259721861],[597431.8737410677,4093430.3355112053],[597431.7638992829,4093430.421897309],[597423.0,4093438.000971238],[597423.0,4093442.639774782],[597423.8304769389,4093441.249003029],[597433.6202347653,4093432.78276033],[597450.1221678524,4093423.1883903313],[597466.9564279633,4093417.350833436],[597465.973545794,4093414.5164123946]]],[[[597658.1670425832,4093573.612560028],[597658.2169073536,4093573.47349182],[597658.252849794,4093573.3301928225],[597658.2745212391,4093573.184053128],[597659.7164730915,4093558.510446221],[597659.7236189136,4093558.375323969],[597659.956355524,4093528.2127109105],[597665.341786327,4093511.9453357374],[597662.4937976465,4093511.0024887323],[597657.0342260393,4093527.493815586],[597656.9929819907,4093527.6441838536],[597656.9675701279,4093527.798021185],[597656.9582650308,4093527.953665339],[597656.7242307665,4093558.284454028],[597655.3107427633,4093572.6684067887],[597652.6445233955,4093579.089786075],[597649.0876622888,4093582.6566848257],[597636.1413968183,4093586.762034837],[597619.1963901875,4093591.9663959714],[597592.7070246119,4093595.8272397844],[597488.2403980512,4093601.831722891],[597467.7626613687,4093598.333539678],[597442.3611105726,4093590.1181862634],[597424.723891208,4093579.034970618],[597423.0,4093577.52886673],[597423.0,4093581.49327728],[597423.0277641296,4093581.5122839073],[597440.9233619346,4093592.757864374],[597441.0310647556,4093592.819483275],[597441.1434919797,4093592.871989521],[597441.2598742655,4093592.915023811],[597466.942139674,4093601.221165767],[597467.1511440132,4093601.2725338605],[597487.9034812615,4093604.8176267054],[597488.0722730411,4093604.83670364],[597488.2421393932,4093604.836574215],[597592.9445946568,4093598.818536259],[597593.0748606849,4093598.8053248655],[597619.645362825,4093594.9326553405],[597636.9689432371,4093594.701944729],[597637.1044705915,4093594.6939956513],[597637.2387241516,4093594.673825544],[597644.9327883929,4093593.159028549],[597650.6929644245,4093596.5393464835],[597655.3234499409,4093600.724993565],[597658.0744936832,4093609.5032902006],[597659.6671139606,4093620.9497399707],[597661.475170761,4093635.4064253015],[597661.5054571801,4093635.5722572026],[597661.5541596219,4093635.7336435677],[597661.6206629749,4093635.888546088],[597666.257584809,4093645.2065865523],[597668.9434093934,4093643.8700438845],[597664.4202817844,4093634.780676499],[597662.6426359154,4093620.5671479465],[597662.6399196254,4093620.546584864],[597661.0287308424,4093608.966679889],[597661.0065696144,4093608.8446249748],[597660.9743988231,4093608.7248186218],[597658.0639172745,4093599.4377724025],[597658.0081705287,4093599.2882681754],[597657.9368584786,4093599.1455313372],[597657.8507880347,4093599.011176984],[597657.7509331017,4093598.886725363],[597657.638423559,4093598.7735846704],[597652.5906266595,4093594.210716201],[597652.4719154213,4093594.113948892],[597652.3439556235,4093594.029790943],[597649.3380785143,4093592.26581355],[597659.5796613286,4093590.18040834],[597659.7069437302,4093590.1486364477],[597663.1635165708,4093589.123315057],[597663.3064795298,4093589.0729187625],[597663.4436260861,4093589.008350843],[597666.6768538293,4093587.281450978],[597665.9701713738,4093585.9583485983],[597666.8963546958,4093584.778439935],[597663.9411882587,4093582.4587469343],[597663.8200878907,4093582.373016851],[597663.6911102525,4093582.2996703098],[597663.5555173155,4093582.2394249635],[597663.414635778,4093582.192870278],[597663.2698440845,4093582.1604617643],[597663.1225589374,4093582.1425165213],[597659.8140576603,4093581.904675966],[597659.7096939096,4093581.900818435],[597656.167107887,4093581.893283928],[597656.025266866,4093581.899702294],[597653.8806638769,4093582.0987885217],[597654.9782681826,4093580.9980867202],[597655.0764332253,4093580.889532747],[597655.1635518587,4093580.7719288166],[597655.2387947001,4093580.6463945364],[597655.3014454262,4093580.5141250114],[597658.1670425832,4093573.612560028]],[[597637.0417181426,4093589.623759489],[597650.1902336369,4093585.454274601],[597656.231799953,4093584.893428303],[597659.6510643561,4093584.900700525],[597662.4497672783,4093585.1018928476],[597663.2353124982,4093585.7185159],[597662.1644846039,4093586.2904559835],[597658.9167437039,4093587.2538316655],[597644.9067496678,4093590.1065659625],[597636.7928267447,4093591.704024168],[597629.9730278858,4093591.794848347],[597637.0287038876,4093589.6278214017],[597637.0417181426,4093589.623759489]]],[[[597690.4778069193,4093347.368463905],[597690.3918513732,4093347.2410081946],[597690.2933017928,4093347.1230196604],[597690.1831933128,4093347.015737618],[597681.51202687,4093339.3931672336],[597681.4053446723,4093339.307680548],[597681.2913224926,4093339.2322616694],[597681.1709074283,4093339.167537045],[597681.0450996766,4093339.114044295],[597680.9149442286,4093339.0722277425],[597667.0542811239,4093335.3065188276],[597666.2677427456,4093338.201576233],[597679.7926425752,4093341.8760639164],[597687.7126649952,4093348.8383254227],[597688.550477511,4093377.3215521965],[597691.5491805561,4093377.233347621],[597690.6921930048,4093348.0982245416],[597690.6798046427,4093347.944993205],[597690.651797673,4093347.7938346006],[597690.6084662721,4093347.6463364526],[597690.5502655802,4093347.504048036],[597690.4778069193,4093347.368463905]]],[[[598025.3366461685,4094265.2374747456],[598024.0753757115,4094262.515490757],[597897.9656529614,4094320.9502458135],[597897.8350503306,4094321.018753022],[597897.7118064287,4094321.0997544136],[597897.5971126292,4094321.192466965],[597897.4920776533,4094321.2959944424],[597897.3977168523,4094321.4093360677],[597893.4101294355,4094326.70859182],[597862.6694893652,4094340.3839901523],[597855.3356600323,4094340.4144802527],[597849.3072675848,4094339.4591167523],[597844.4758816033,4094337.306938449],[597843.2551478271,4094340.04734153],[597848.2669943373,4094342.2799073737],[597848.3887854288,4094342.327906697],[597848.5142977319,4094342.3651043694],[597848.6425752888,4094342.391217076],[597854.9858524121,4094343.396482657],[597855.105990664,4094343.4105836325],[597855.2268744844,4094343.414958451],[597857.1756271248,4094343.4068565904],[597853.7901241573,4094345.2939032568],[597846.4856078833,4094349.182424161],[597844.3696611965,4094349.688165571],[597845.0670601629,4094352.6059789103],[597847.3697166247,4094352.0556112034],[597847.4921135898,4094352.020807106],[597847.6111202638,4094351.9757543174],[597847.7258802038,4094351.9207770634],[597853.7949872226,4094348.689919793],[597880.7967730488,4094409.0],[597884.0837239575,4094409.0],[597856.4383260712,4094347.25237432],[597863.6624120281,4094343.225738557],[597893.6530542965,4094329.8839871064],[597931.6131731878,4094409.0],[597934.9406196733,4094409.0],[597896.1218333562,4094328.0943629625],[597899.5685022058,4094323.513954355],[598025.3366461685,4094265.2374747456]]],[[[597994.1501987751,4094409.0],[597999.1469682287,4094409.0],[597998.2251717092,4094407.0618834225],[597994.1501987751,4094409.0]]]]}},{"type":"Feature","properties":{"class":"tertiary","widthMeters":8},"geometry":{"type":"Polygon","coordinates":[[[597665.9701713738,4093585.9583485983],[597661.9712999049,4093586.053358992],[597662.6845802921,4093616.0744595323],[597662.6855123625,4093616.1078257933],[597663.6025577027,4093644.666691873],[597667.6004971012,4093644.5383152184],[597663.6053658755,4093644.7356131896],[597664.7789654355,4093668.5000960003],[597663.1753574184,4093681.3052486465],[597667.1443557537,4093681.80229212],[597663.1444747247,4093681.7714416115],[597662.9644533771,4093705.11186634],[597662.2178072358,4093757.305704317],[597660.6770395291,4093758.246487316],[597660.3355258704,4093758.480087339],[597660.0199707878,4093758.747716821],[597659.7337507317,4093759.046512117],[597659.4799282663,4093759.3732761084],[597659.2612193008,4093759.724512408],[597659.0799640286,4093760.0964627755],[597658.9381018875,4093760.4851473295],[597658.837150807,4093760.8864071323],[597658.7781909674,4093761.2959486893],[597657.3783114908,4093776.5962662906],[597655.0557216718,4093783.091119858],[597650.6684634915,4093789.5006566346],[597645.3814145871,4093794.703588116],[597638.0559810689,4093798.772710654],[597632.2777764016,4093800.1633733544],[597627.6029772302,4093800.045663903],[597621.8871597002,4093798.4826600146],[597621.4274808057,4093798.385564262],[597607.9895382898,4093796.362811507],[597560.2257592825,4093772.9662761437],[597558.4661662743,4093776.558466623],[597560.0033420664,4093772.865623466],[597543.473308998,4093765.9848636836],[597541.9361332058,4093769.6777068404],[597542.7238085103,4093765.756027658],[597533.8167077465,4093763.9670227496],[597533.0290324418,4093767.8887019325],[597529.7696818691,4093770.2074588933],[597535.5157690978,4093778.2844212553],[597538.7751196706,4093775.9656642945],[597537.1173962805,4093779.6059875167],[597565.3901930938,4093792.4807993723],[597585.5366652958,4093803.364060414],[597596.482389724,4093810.3894661264],[597614.3553128886,4093825.9534291285],[597623.6017015663,4093834.993844518],[597627.4197820382,4093838.8253072933],[597627.4230372997,4093838.8285702025],[597639.3082606312,4093850.7279968215],[597653.8704045084,4093870.8052210985],[597666.7579152011,4093892.3477873406],[597675.2286801252,4093908.91391654],[597681.7699421258,4093925.3888957007],[597695.4303159121,4093966.1722402074],[597702.983747337,4093994.16041905],[597703.0929602337,4094003.751423532],[597703.1138712784,4094004.116870641],[597703.1681022512,4094004.478875976],[597705.8699551478,4094018.1964982045],[597705.9543962976,4094021.226166361],[597705.6959261145,4094022.442078098],[597705.637855509,4094022.790097009],[597705.6106788656,4094023.14187931],[597705.6146076345,4094023.4946879297],[597705.6496112477,4094023.8457778106],[597705.8968981127,4094025.5573121477],[597705.962314051,4094025.902296518],[597706.0577324984,4094026.240214823],[597706.1824181757,4094026.568463117],[597706.3354102747,4094026.8845119714],[597707.1545702657,4094028.402924204],[597707.3347831827,4094028.704479852],[597707.5407597482,4094028.989060525],[597707.7709112068,4094029.2544711703],[597708.0234623357,4094029.4986646017],[597708.6871260536,4094030.086222788],[597709.9477610121,4094032.831274048],[597712.0222744017,4094039.9826994175],[597712.1205517191,4094040.2780235237],[597713.7614418118,4094044.635225113],[597713.9449661984,4094045.049682474],[597714.1742023675,4094045.4407155723],[597717.9229739322,4094051.077035392],[597719.4910210621,4094054.087316399],[597742.3421810037,4094129.003353018],[597742.3568372343,4094129.050363621],[597748.890534726,4094149.5623287307],[597751.4769691821,4094159.2427776596],[597751.6203500322,4094159.677815274],[597752.6440154305,4094162.273391363],[597773.3960854092,4094222.281370641],[597778.0494653451,4094235.982980793],[597778.1696230827,4094236.2936504357],[597801.5804520309,4094290.0545333447],[597801.5948251132,4094290.0871422505],[597817.9528673163,4094326.755970231],[597822.3738679243,4094341.2116079465],[597821.8659844459,4094342.918974241],[597821.7739448063,4094343.2936437307],[597821.7184289502,4094343.675437538],[597821.6999533431,4094344.060803823],[597821.7009675062,4094347.056561226],[597821.7193778993,4094347.438542493],[597821.7741821673,4094347.8170198677],[597821.8648793694,4094348.1885338626],[597822.6871820259,4094350.9718664046],[597822.8102602813,4094351.3263431587],[597822.9660134919,4094351.6677270536],[597823.1530710097,4094351.993013867],[597824.7179775698,4094354.4409644287],[597824.929796145,4094354.7410030966],[597825.1682419019,4094355.020348639],[597825.4313045891,4094355.2766459933],[597827.6073760624,4094357.2101717205],[597827.9001459755,4094357.446627425],[597828.2138419623,4094357.6545224707],[597828.5456873128,4094357.8320166552],[597829.708865437,4094358.385447373],[597830.2571312246,4094359.8613103195],[597830.3528667063,4094360.0959636676],[597846.8015439279,4094397.0226279614],[597846.8830690776,4094397.194529277],[597851.0590279007,4094405.4846540876],[597852.7432007523,4094409.0],[597859.4031780254,4094409.0],[597861.6139303388,4094409.0],[597868.2854929671,4094409.0],[597863.7696097615,4094399.6393744564],[597850.5724259389,4094370.899650989],[597849.2778806078,4094365.428678874],[597848.644214085,4094359.6737523736],[597848.6363279403,4094359.6072524986],[597847.8748271363,4094353.615243032],[597848.0083906321,4094353.4220893644],[597848.191802538,4094353.1308065113],[597848.3494923854,4094352.8248334085],[597849.828315611,4094349.6242575427],[597849.9640882784,4094349.292019115],[597850.0695334597,4094348.9489478343],[597850.1438022121,4094348.59780578],[597850.1862965948,4094348.241420009],[597850.4288992621,4094344.959996393],[597850.4375852026,4094344.5323847258],[597850.4005645153,4094344.1062900736],[597850.3182604559,4094343.686583956],[597849.5097310914,4094340.4817848667],[597849.3843296918,4094340.076638265],[597849.2167368893,4094339.687046257],[597849.0088367338,4094339.3173885704],[597847.2430942408,4094336.5342548904],[597847.0233601829,4094336.221938979],[597846.7748454652,4094335.9319998133],[597846.4998150554,4094335.667079904],[597844.5084482466,4094333.9243046395],[597844.2439167334,4094333.711912909],[597843.9623395961,4094333.5227001067],[597843.6657422045,4094333.358027231],[597841.2853030077,4094332.165527558],[597840.9754057949,4094332.026414373],[597840.6548228827,4094331.914096266],[597840.3258662502,4094331.829383253],[597838.6529134704,4094331.473557886],[597835.3259587346,4094328.8308570227],[597829.8992755739,4094322.478112242],[597825.4106212151,4094314.1627309155],[597821.453914912,4094305.6156519507],[597813.6380863572,4094285.2997910017],[597813.6225759111,4094285.2601063587],[597797.8294786244,4094245.4785049646],[597797.8164575073,4094245.446118537],[597791.8037090625,4094230.6775802793],[597771.2847550947,4094172.17199945],[597771.2726474697,4094172.137969792],[597766.0601683147,4094157.6946072984],[597755.9253341072,4094126.353724327],[597736.3436079557,4094061.806882238],[597732.8446251842,4094049.5701953773],[597732.7067403098,4094049.1695935493],[597730.5778477505,4094043.908038509],[597730.4161753913,4094043.5580086666],[597730.2215536627,4094043.22517053],[597727.0606953148,4094038.372487488],[597725.7199575902,4094035.5584096946],[597723.3280351285,4094025.2319861534],[597723.5003362847,4094024.395530322],[597723.5554824182,4094024.0534183322],[597723.5808115775,4094023.7078171987],[597723.5761336647,4094023.3613206954],[597723.5414837882,4094023.0165293156],[597723.2941988247,4094021.3049946576],[597723.2287831906,4094020.9600098734],[597723.1333649803,4094020.622091138],[597723.0086794728,4094020.2938424046],[597722.8556874767,4094019.9777931115],[597722.0365285269,4094018.4593800316],[597721.8581734867,4094018.1606462724],[597721.6545334315,4094017.878541492],[597721.427149056,4094017.615200031],[597721.1777406989,4094017.372614272],[597720.6282793814,4094016.882840214],[597719.5157903124,4094013.9174475227],[597717.5973707127,4094003.778203777],[597716.6633771809,4093992.3059588443],[597716.6205792126,4093991.9636238464],[597716.5484415181,4093991.626250063],[597711.903986248,4093973.720289775],[597711.8682542919,4093973.59143312],[597707.3365094477,4093958.249691241],[597705.7462129864,4093950.8557772036],[597704.689456237,4093945.958948948],[597704.6846489386,4093945.9369726544],[597702.5599199528,4093936.3530690335],[597695.8481403703,4093899.7884546476],[597695.8406075127,4093899.7485582666],[597692.3685405809,4093881.857922502],[597692.1448907407,4093871.3456016416],[597692.1210914835,4093870.9868093724],[597683.9932704859,4093798.1946243197],[597679.4259816697,4093747.4499444193],[597675.4444421193,4093680.8697670405],[597675.4151485872,4093680.569946591],[597675.36337406,4093680.2731810072],[597672.7705077123,4093668.131415531],[597671.5973295548,4093644.3754657973],[597670.6819268044,4093615.8677536747],[597669.9701972211,4093585.911924584],[597669.9767862457,4093573.80011431],[597669.9746057446,4093573.6658625575],[597667.916522303,4093511.3694241336],[597666.4048513402,4093432.7438129517],[597667.46212986,4093387.9279329753],[597670.1662446558,4093348.2600670103],[597670.4879010883,4093343.5251275636],[597670.4958276808,4093343.3548602373],[597670.6563505228,4093336.9893228956],[597688.0368075304,4093149.4797367966],[597688.0433357307,4093149.4008132685],[597691.8558260647,4093097.0],[597683.8346800834,4093097.0],[597680.067299409,4093148.7808030816],[597662.6780852523,4093336.3848659466],[597662.6622831716,4093336.653209648],[597662.5005191412,4093343.0679663476],[597662.1847361162,4093347.7164479783],[597659.4746025541,4093387.472605908],[597659.4664534864,4093387.6503099776],[597658.4050569573,4093432.6407439746],[597658.404683382,4093432.811974695],[597659.9185310747,4093511.5508027864],[597663.9177919867,4093511.473912235],[597659.9199730797,4093511.605987922],[597661.9767509019,4093573.8629063563],[597661.9701719657,4093585.956172533],[597665.9701713738,4093585.9583485983]],[[597673.8202328243,4093888.5872893613],[597673.6914527696,4093888.3548270287],[597660.6448755286,4093866.5463675717],[597660.4502032375,4093866.2513722153],[597645.5991170458,4093845.7757753017],[597645.4045972223,4093845.5286438647],[597645.1912628079,4093845.2975587365],[597635.8837546256,4093835.978927733],[597640.335004289,4093837.2751761363],[597640.6649634781,4093837.3562337025],[597641.0006113163,4093837.4089966076],[597641.3395260335,4093837.4330841554],[597648.5380123291,4093837.6380754313],[597648.8697503316,4093837.633758163],[597649.1999894993,4093837.6019645603],[597649.5264580192,4093837.5429133405],[597655.4101080523,4093836.224578919],[597665.1627759659,4093846.9048912204],[597670.562214523,4093855.370817928],[597671.81002287,4093862.848098644],[597671.8174135813,4093862.8909502937],[597676.9670346597,4093891.8092861483],[597677.0019842073,4093891.9831306646],[597678.130643435,4093897.01708522],[597673.8202328243,4093888.5872893613]],[[597663.3902111681,4093833.0997463968],[597667.3270633221,4093830.5881014313],[597668.3539352091,4093838.5356049133],[597663.3902111681,4093833.0997463968]],[[597664.5837556901,4093822.848847285],[597658.0950904874,4093826.9885057355],[597657.6326417301,4093827.1733517265],[597650.3308020569,4093820.5655024513],[597649.9240895158,4093820.242879106],[597641.4026756345,4093814.341833945],[597641.05928405,4093814.128861927],[597630.1665364711,4093808.1127488744],[597632.6019454988,4093808.1740714363],[597632.9502514715,4093808.1676670657],[597633.2966792794,4093808.1309813685],[597633.6386013096,4093808.0642926004],[597640.457840328,4093806.423080166],[597640.8046690752,4093806.322850328],[597641.1410481324,4093806.1917574974],[597641.4642373516,4093806.030869558],[597649.741701537,4093801.43291423],[597650.0484970254,4093801.2439302388],[597650.3370407866,4093801.0281041088],[597650.6049913167,4093800.7871872475],[597656.556010718,4093794.9308490995],[597656.817880672,4093794.6469876156],[597657.0511549141,4093794.339194921],[597661.9490369332,4093787.183665513],[597662.1301207998,4093786.893181838],[597662.2857059283,4093786.588279559],[597662.414652929,4093786.2711915537],[597663.257044998,4093783.9155396475],[597663.2638799427,4093784.0270719873],[597666.1530268523,4093820.851065332],[597664.5837556901,4093822.848847285]],[[597670.5627052891,4093733.2530367216],[597671.4438338554,4093747.9874618095],[597675.4367007399,4093747.7486856747],[597671.4528048603,4093748.107257315],[597675.9412506671,4093797.9759551086],[597673.3315754062,4093804.2899353835],[597673.2968654069,4093804.376776664],[597672.9546004692,4093805.2630161983],[597671.2447184358,4093783.4694949314],[597670.187093941,4093759.5099163363],[597670.5627052891,4093733.2530367216]],[[597666.9642327289,4093705.1558996565],[597668.8833626945,4093705.170701631],[597668.8841199207,4093705.1833641315],[597666.9642327289,4093705.1558996565]],[[597601.0495019674,4093803.8147524055],[597589.73103947,4093796.5501084244],[597589.4715910698,4093796.3970613773],[597585.5636041686,4093794.285940325],[597604.972079668,4093803.7929578354],[597622.6593579552,4093813.1055692486],[597637.0144689565,4093821.033961056],[597645.1557262396,4093826.6717492873],[597648.3904993484,4093829.5990791246],[597648.2655610231,4093829.627073736],[597642.0796282542,4093829.450916944],[597637.2579146993,4093828.046785752],[597633.4155103399,4093826.1940601114],[597625.3815611798,4093819.7674264037],[597625.0593401294,4093819.534942217],[597624.7156437503,4093819.335572959],[597624.3538633655,4093819.1712858463],[597623.977568737,4093819.0437019337],[597623.5904728413,4093818.9540801183],[597623.1963952336,4093818.903304717],[597622.7992243591,4093818.891876741],[597618.530590639,4093818.9811974317],[597601.5157509766,4093804.164464178],[597598.8888944817,4093807.1810226403],[597601.0495019674,4093803.8147524055]],[[597568.5195002509,4093785.93708292],[597568.71803705,4093786.0343338777],[597567.171691499,4093788.8968405784],[597568.5195002509,4093785.93708292]],[[597687.9832688328,4093901.2527660304],[597694.7046114705,4093937.8694782876],[597694.7336982762,4093938.013075855],[597695.3179325088,4093940.648350572],[597689.5706025754,4093923.48957144],[597690.1255566115,4093914.949807541],[597690.1323306102,4093914.575697773],[597690.1041180049,4093914.2025918174],[597690.0411656629,4093913.833754444],[597687.4535500931,4093902.031769705],[597687.4494592912,4093902.013320199],[597684.8275838828,4093890.3194436664],[597682.9804698844,4093879.946745917],[597684.5350278238,4093883.4848988974],[597687.9832688328,4093901.2527660304]],[[597683.0085089484,4093861.46784759],[597678.2452165056,4093852.6585408375],[597674.3900619686,4093822.8214652543],[597675.7095166212,4093820.2699132846],[597675.8878667207,4093819.8736291397],[597677.8088050977,4093814.8996708267],[597683.0085089484,4093861.46784759]],[[597715.3296352396,4094022.876624595],[597715.4779127325,4094023.151475385],[597715.5235579378,4094023.4673997737],[597715.4609803951,4094023.771189671],[597715.3027362295,4094024.024333616],[597715.0497887658,4094024.22083543],[597714.733599318,4094024.323893082],[597714.4065600539,4094024.3138154345],[597714.0969339412,4094024.1909418493],[597713.8581517744,4094023.9795419895],[597713.7131822497,4094023.710823422],[597713.6693971155,4094023.4077755404],[597713.7319854812,4094023.113343403],[597713.9061200474,4094022.834779053],[597714.1547756419,4094022.638309443],[597714.4630087957,4094022.5384051036],[597714.7934350083,4094022.548587112],[597715.0965857999,4094022.668891009],[597715.3296352396,4094022.876624595]],[[597828.1515089854,4094332.749026177],[597828.5709132124,4094333.2400015914],[597828.3505771128,4094333.399932382],[597828.1515089854,4094332.749026177]],[[597841.1452970966,4094364.6636695266],[597838.8680525413,4094359.551340792],[597839.9699741973,4094359.369831179],[597840.3518064227,4094359.2876088815],[597840.5243424684,4094359.2323822207],[597840.6959378208,4094360.582611887],[597841.1452970966,4094364.6636695266]],[[597838.160300076,4094339.5477342457],[597839.6249740012,4094340.2814741284],[597840.7970325765,4094341.3072192017],[597841.9098037702,4094343.0611504796],[597842.4029388604,4094345.015809095],[597842.2615906897,4094346.927672762],[597841.2320099949,4094349.155965547],[597840.7008552883,4094349.9240981806],[597839.7694250206,4094350.746430749],[597838.0872366359,4094351.5721519273],[597836.0795972442,4094351.902852251],[597834.0738908509,4094351.6029351596],[597832.4961531484,4094350.852260357],[597831.1596474863,4094349.664722119],[597830.1987628242,4094348.1616303637],[597829.7007714347,4094346.4760275884],[597829.7001502544,4094344.64111017],[597830.2136970909,4094342.914705205],[597831.2955034227,4094341.2945121806],[597832.8146749899,4094340.070350113],[597834.6225603815,4094339.35699967],[597836.6171423174,4094339.219515373],[597838.160300076,4094339.5477342457]]]}},{"type":"Feature","properties":{"class":"track","widthMeters":2.5},"geometry":{"type":"MultiPolygon","coordinates":[[[[597576.8199053069,4093840.227693675],[597576.723011798,4093840.2307845815],[597528.316859727,4093843.6576487846],[597520.468299378,4093840.8882549168],[597514.1529012477,4093838.658880316],[597499.7755999414,4093823.6822248404],[597499.6900506769,4093823.6011345484],[597499.5972435257,4093823.5284630633],[597499.4980037624,4093823.4648566055],[597499.3932138628,4093823.4108807864],[597499.2838056561,4093823.3670155792],[597499.1707520398,4093823.333651048],[597439.016298245,4093808.6251050914],[597423.0,4093803.7582704164],[597423.0,4093806.371141849],[597438.3224596783,4093811.0271414393],[597438.3889911297,4093811.0453687874],[597498.2238541922,4093825.6757706553],[597512.555056181,4093840.604405047],[597512.6396196935,4093840.6846446227],[597512.7312903791,4093840.756657556],[597512.8292709592,4093840.8198175365],[597512.932709277,4093840.8735752483],[597513.0407057087,4093840.9174631503],[597519.6361923291,4093843.2457107203],[597527.7300165504,4093846.1016468746],[597527.8527789493,4093846.138010643],[597527.9786171456,4093846.161625862],[597528.1062109108,4093846.1722447746],[597528.2342215982,4093846.1697559715],[597576.8026353876,4093842.7314046156],[597614.6223377336,4093845.9337044354],[597614.7460810861,4093845.9380277433],[597614.8696450794,4093845.930087476],[597614.9918173146,4093845.909961543],[597615.1113990492,4093845.8778474177],[597615.2272169577,4093845.8340602014],[597615.3381346457,4093845.7790295305],[597630.8634862545,4093837.0927007315],[597629.6428196431,4093834.9109644904],[597614.4516729253,4093843.4103079224],[597576.9167469578,4093840.232120914],[597576.8199053069,4093840.227693675]]],[[[597423.0,4094144.813180497],[597423.0,4094148.5921724294],[597428.6969237,4094155.0498931557],[597447.097436401,4094183.565104001],[597449.1980571189,4094182.2095994456],[597430.7466749786,4094153.615556406],[597430.6930022426,4094153.5388463265],[597430.6337386413,4094153.466368575],[597423.0,4094144.813180497]]],[[[597453.5454287592,4094243.729894142],[597633.9480005347,4094277.073341671],[597634.402374695,4094274.61497959],[597453.9998029196,4094241.271532061],[597453.5454287592,4094243.729894142]]]]}},{"type":"Feature","properties":{"class":"unclassified","widthMeters":4},"geometry":{"type":"Polygon","coordinates":[[[597465.7022297971,4093968.0672288216],[597457.5826013947,4093952.6688091895],[597454.0443687618,4093954.534528846],[597461.7832527887,4093969.2108881352],[597423.0,4093981.3542449847],[597423.0,4093985.5457349983],[597463.7664438309,4093972.78142465],[597485.9237916447,4094009.763864487],[597478.2382754886,4094049.265463],[597461.0360578347,4094117.461282782],[597461.0265277262,4094117.5007484304],[597449.7293610933,4094166.4565816615],[597449.7252317066,4094166.474866899],[597446.1948320746,4094182.4559305464],[597446.1649388502,4094182.625678658],[597446.1497719531,4094182.7973702173],[597446.149444028,4094182.9697300694],[597447.4577591284,4094214.7063424713],[597447.4794013215,4094214.9286165736],[597448.4318867447,4094221.108577909],[597451.7961922102,4094242.8068988337],[597459.3327523264,4094291.4962553633],[597466.4151038328,4094343.0613915934],[597463.6044210412,4094365.599960887],[597448.9453453303,4094376.1296328097],[597423.0,4094387.016147854],[597423.0,4094391.35399847],[597450.7019395317,4094379.7304267804],[597450.9046295129,4094379.631592635],[597451.094905155,4094379.51056951],[597466.6477109805,4094368.3389277193],[597466.8085095438,4094368.2103802585],[597466.9552420524,4094368.065984281],[597467.0863538525,4094367.907269683],[597467.200455794,4094367.7359180725],[597467.2963389489,4094367.553744945],[597467.3729874201,4094367.362680455],[597467.429589105,4094367.1647489597],[597467.4655442998,4094366.9620475746],[597470.416786064,4094343.296350683],[597470.43077387,4094343.123263798],[597470.4296947498,4094342.949615983],[597470.4135568383,4094342.776716312],[597463.2932254762,4094290.935056609],[597463.2882896845,4094290.9012630773],[597455.7490784352,4094242.1947791106],[597452.6666632635,4094222.3145336295],[597582.8936636691,4094190.7516172985],[597632.4417776263,4094276.8418027563],[597635.9085976034,4094274.8465185044],[597586.983985594,4094189.839671927],[597628.4699114154,4094181.022921145],[597628.0541491668,4094179.06661295],[597629.6208382751,4094177.8234374844],[597613.0236433714,4094156.9071266293],[597597.4547230656,4094131.8104228713],[597674.7284271367,4094114.323393319],[597673.8455521235,4094110.422043333],[597593.8670827035,4094128.521160945],[597559.0098148107,4094135.173669958],[597530.4798065306,4094085.02296415],[597490.8899835676,4094010.507475311],[597504.5961909294,4094005.678240215],[597533.31859662,4094013.8323589684],[597566.3535417253,4094026.102447323],[597580.4122105513,4094036.773056913],[597580.5827933525,4094036.8891662788],[597580.7644317996,4094036.9870812995],[597580.9551923571,4094037.0657596737],[597581.1530443846,4094037.124363872],[597581.3558817533,4094037.162270055],[597597.7612877837,4094039.3594588125],[597598.003741491,4094039.377025819],[597631.5282650602,4094039.7632088787],[597631.5743396825,4094035.763474246],[597598.1715777471,4094035.3786938097],[597582.4100629477,4094033.2677419046],[597568.5363024208,4094022.7374787647],[597568.3748522814,4094022.626952304],[597568.2033749492,4094022.5327303824],[597568.0235115583,4094022.4557147566],[597534.6372263113,4094010.055128998],[597534.4870585769,4094010.0060099037],[597505.0772015438,4094001.656727836],[597504.8773504335,4094001.6109164087],[597504.6738592316,4094001.58580697],[597504.4688665876,4094001.581663415],[597504.2645269308,4094001.5985292913],[597504.0629878276,4094001.6362273423],[597503.8663674113,4094001.694361369],[597488.9094432988,4094006.9642730923],[597467.7603725165,4093971.664730729],[597606.4279262432,4093935.562319105],[597605.4201136326,4093931.6913613756],[597465.7022297971,4093968.0672288216]],[[597526.9609519115,4094086.9251983603],[597526.988761812,4094086.9757671594],[597556.2170378515,4094138.353904121],[597571.2778083152,4094168.042940387],[597580.9522277777,4094187.106351626],[597452.0535395319,4094218.347326997],[597451.4497581163,4094214.429843629],[597450.1567616219,4094183.064824173],[597453.6290392322,4094167.3468615417],[597464.9195335673,4094118.4199424544],[597482.1302246761,4094050.190530829],[597482.1541569557,4094050.083320752],[597488.91766904,4094015.3205886893],[597526.9609519115,4094086.9251983603]],[[597575.9946748229,4094168.498635017],[597610.6087705236,4094160.29896079],[597624.4810957786,4094177.781304584],[597584.9671935802,4094186.178953213],[597575.9946748229,4094168.498635017]],[[597560.9654246015,4094138.872637763],[597593.3003464579,4094132.7015184504],[597608.2213584419,4094156.753810464],[597574.1326795252,4094164.829019603],[597560.9654246015,4094138.872637763]]]}}]}
