{"type":"FeatureCollection","name":"carboneras-algarrobico-buildings","crs":{"type":"name","properties":{"name":"EPSG:25830"}},"source":"Direcci\u00f3n General del Catastro, INSPIRE BU","features":[{"type":"Feature","properties":{"id":"009010300WF99H_part1","floors":1,"height":3.1,"heightSource":"Catastro:numberOfFloorsAboveGround"},"geometry":{"type":"Polygon","coordinates":[[[599765.8525,4099034.9838],[599767.0525,4099037.2338],[599769.3025,4099036.0338],[599768.1025,4099033.7838],[599765.8525,4099034.9838]]]}},{"type":"Feature","properties":{"id":"009010400WF99H_part1","floors":1,"height":3.1,"heightSource":"Catastro:numberOfFloorsAboveGround"},"geometry":{"type":"Polygon","coordinates":[[[599816.525,4099113.66285],[599816.31615,4099106.813],[599814.9434,4099106.85485],[599814.81975,4099102.7998],[599804.3246,4099103.11975],[599790.07135,4099103.55345],[599787.61475,4099102.48145],[599786.22535,4099104.99305],[599787.7216,4099107.71835],[599790.1884,4099107.40005],[599790.33875,4099112.3411],[599790.83475,4099113.3677],[599792.2104,4099116.21495],[599792.9854,4099115.8919],[599792.90665,4099113.3047],[599798.68,4099113.129],[599798.5657,4099109.3718],[599804.5097,4099109.1909],[599804.5311,4099109.89285],[599804.6904,4099115.1185],[599796.00445,4099115.3065],[599798.8357,4099120.9935],[599808.4126,4099120.70175],[599808.3333,4099118.10455],[599815.2799,4099117.89275],[599815.1522,4099113.7047],[599816.525,4099113.66285]]]}},{"type":"Feature","properties":{"id":"009010400WF99H_part2","floors":1,"height":3.1,"heightSource":"Catastro:numberOfFloorsAboveGround"},"geometry":{"type":"Polygon","coordinates":[[[599809.2525,4099127.7053],[599808.6766,4099125.5937],[599807.01265,4099126.0475],[599807.58855,4099128.1591],[599809.2525,4099127.7053]]]}},{"type":"Feature","properties":{"id":"009010500WF99H_part1","floors":1,"height":3.1,"heightSource":"Catastro:numberOfFloorsAboveGround"},"geometry":{"type":"Polygon","coordinates":[[[599776.24,4098863.95735],[599781.35595,4098872.7566],[599781.79925,4098873.51915],[599784.388,4098872.016],[599784.0182,4098871.3791],[599778.9074,4098862.57715],[599778.8211,4098862.4285],[599776.24,4098863.95735]]]}},{"type":"Feature","properties":{"id":"009010500WF99H_part2","floors":1,"height":3.1,"heightSource":"Catastro:numberOfFloorsAboveGround"},"geometry":{"type":"Polygon","coordinates":[[[599779.61915,4098873.85995],[599780.02085,4098874.5518],[599781.79925,4098873.51915],[599781.35595,4098872.7566],[599776.24,4098863.95735],[599771.81445,4098866.59695],[599776.94575,4098875.4122],[599779.61915,4098873.85995]]]}},{"type":"Feature","properties":{"id":"009010600WF99H_part1","floors":1,"height":3.1,"heightSource":"Catastro:numberOfFloorsAboveGround"},"geometry":{"type":"Polygon","coordinates":[[[599765.494,4099011.726],[599765.6335,4099011.5755],[599765.192,4099011.167],[599763.7345,4099009.817],[599764.1055,4099009.416],[599764.6975,4099008.777],[599762.977,4099003.187],[599761.22,4099001.59],[599756.702,4098997.4835],[599751.23,4098992.51],[599744.77,4098999.63],[599736.33,4099008.93],[599737.79,4099010.258],[599740.31,4099012.55],[599739.55,4099013.39],[599739.49,4099013.45],[599739.95,4099013.86],[599742.0785,4099015.794],[599746.3,4099019.63],[599749.31,4099016.31],[599756.09,4099022.46],[599757.63,4099020.76],[599756.06,4099019.33],[599760.36,4099014.6],[599759.9895,4099014.2635],[599757.97,4099012.43],[599759.18,4099011.098],[599762.8925,4099014.5355],[599764.65,4099012.6375],[599765.494,4099011.726]],[[599754.86,4099012.48],[599751.45,4099016.25],[599743.57,4099009.11],[599746.99,4099005.34],[599754.86,4099012.48]]]}},{"type":"Feature","properties":{"id":"009010700WF99H_part1","floors":1,"height":3.1,"heightSource":"Catastro:numberOfFloorsAboveGround"},"geometry":{"type":"Polygon","coordinates":[[[599782.6991,4099011.22665],[599787.5871,4099007.7471],[599787.02965,4099006.96395],[599786.48525,4099006.1992],[599786.9412,4099005.87465],[599788.44045,4099004.8074],[599782.9311,4098997.06805],[599781.5346,4098998.0622],[599779.19585,4098999.72705],[599778.1916,4099000.44195],[599776.94995,4099001.3258],[599774.26065,4098997.5479],[599773.2491,4098998.268],[599770.90095,4098999.93955],[599775.2243,4099006.01295],[599777.72195,4099004.235],[599782.6991,4099011.22665]]]}},{"type":"Feature","properties":{"id":"009010800WF99H_part1","floors":1,"height":3.1,"heightSource":"Catastro:numberOfFloorsAboveGround"},"geometry":{"type":"Polygon","coordinates":[[[599779.434,4099020.53455],[599782.51395,4099024.86115],[599784.98045,4099023.10535],[599781.8352,4099018.6871],[599785.93325,4099015.76985],[599784.0894,4099013.17965],[599785.8201,4099011.94765],[599784.4298,4099009.99465],[599782.6991,4099011.22665],[599780.7557,4099008.49665],[599776.29335,4099011.67325],[599776.1461,4099011.77805],[599774.1912,4099013.1697],[599779.434,4099020.53455]]]}},{"type":"Feature","properties":{"id":"04032A00900150_part1","floors":1,"height":3.1,"heightSource":"Catastro:numberOfFloorsAboveGround"},"geometry":{"type":"Polygon","coordinates":[[[599723.905,4099048.689],[599728.872,4099055.405],[599732.137,4099052.99],[599736.927,4099059.465],[599732.8325,4099062.4025],[599737.8175,4099069.351],[599747.346,4099062.5155],[599742.3615,4099055.567],[599741.1295,4099056.4505],[599736.2955,4099049.9145],[599737.79,4099048.809],[599732.823,4099042.0935],[599723.905,4099048.689]]]}},{"type":"Feature","properties":{"id":"04032A00900150_part2","floors":1,"height":3.1,"heightSource":"Catastro:numberOfFloorsAboveGround"},"geometry":{"type":"Polygon","coordinates":[[[599828.1325,4099138.4365],[599825.793,4099126.426],[599822.015,4099127.162],[599824.355,4099139.1725],[599828.1325,4099138.4365]]]}},{"type":"Feature","properties":{"id":"9788502WF9998N_part1","floors":2,"height":6.2,"heightSource":"Catastro:numberOfFloorsAboveGround"},"geometry":{"type":"Polygon","coordinates":[[[599684.68,4098666.03],[599684.68,4098684.97],[599691.7435,4098684.97],[599691.83,4098666.03],[599684.68,4098666.03]]]}},{"type":"Feature","properties":{"id":"9788502WF9998N_part2","floors":1,"height":3.1,"heightSource":"Catastro:numberOfFloorsAboveGround"},"geometry":{"type":"Polygon","coordinates":[[[599691.7435,4098684.97],[599699.51,4098684.97],[599699.51,4098681.4],[599699.34,4098669.25],[599699.34,4098666.03],[599691.83,4098666.03],[599691.7435,4098684.97]]]}},{"type":"Feature","properties":{"id":"9788502WF9998N_part3","floors":1,"height":3.1,"heightSource":"Catastro:numberOfFloorsAboveGround"},"geometry":{"type":"Polygon","coordinates":[[[599699.51,4098681.4],[599704.34,4098681.4],[599704.34,4098669.25],[599699.34,4098669.25],[599699.51,4098681.4]]]}},{"type":"Feature","properties":{"id":"9790401WF9999S_part1","floors":1,"height":3.1,"heightSource":"Catastro:numberOfFloorsAboveGround"},"geometry":{"type":"Polygon","coordinates":[[[599526.29,4098829.54],[599525.44,4098824.88],[599522.88,4098825.34],[599523.72,4098830.01],[599526.29,4098829.54]]]}},{"type":"Feature","properties":{"id":"9790401WF9999S_part2","floors":1,"height":3.1,"heightSource":"Catastro:numberOfFloorsAboveGround"},"geometry":{"type":"Polygon","coordinates":[[[599524.57,4098834.46],[599527.31,4098833.96],[599526.61,4098830.2],[599523.88,4098830.7],[599524.57,4098834.46]]]}},{"type":"Feature","properties":{"id":"9790401WF9999S_part3","floors":1,"height":3.1,"heightSource":"Catastro:numberOfFloorsAboveGround"},"geometry":{"type":"Polygon","coordinates":[[[599536.73,4098824.19],[599535.94,4098821.47],[599529.86,4098823.24],[599530.65,4098825.97],[599536.73,4098824.19]]]}},{"type":"Feature","properties":{"id":"9790401WF9999S_part4","floors":1,"height":3.1,"heightSource":"Catastro:numberOfFloorsAboveGround"},"geometry":{"type":"Polygon","coordinates":[[[599536.89,4098828.54],[599530.81,4098830.32],[599531.61,4098833.04],[599537.69,4098831.26],[599536.89,4098828.54]]]}},{"type":"Feature","properties":{"id":"9790401WF9999S_part5","floors":1,"height":3.1,"heightSource":"Catastro:numberOfFloorsAboveGround"},"geometry":{"type":"Polygon","coordinates":[[[599538.96,4098827.17],[599538.17,4098824.45],[599532.09,4098826.22],[599532.89,4098828.95],[599538.96,4098827.17]]]}}]}
