{"type":"FeatureCollection","name":"carboneras-ancon-roads","crs":{"type":"name","properties":{"name":"EPSG:25830"}},"source":"\u00a9 OpenStreetMap contributors, ODbL 1.0","features":[{"type":"Feature","properties":{"class":"footway","widthMeters":2},"geometry":{"type":"MultiPolygon","coordinates":[[[[598512.9168638382,4096057.0249610743],[598530.2963525886,4096055.731298077],[598530.3927104578,4096055.719399315],[598530.4874602864,4096055.6982123028],[598530.5797089227,4096055.667936758],[598530.6685867923,4096055.6288580713],[598530.7532560952,4096055.581344614],[598530.8329187031,4096055.5258442676],[598530.9068236827,4096055.4628802026],[598530.9742743748,4096055.393045944],[598531.0346349607,4096055.3169997795],[598531.0873364564,4096055.2354585514],[598531.1318820753,4096055.1491909022],[598531.1678519119,4096055.0590100265],[598531.1949068992,4096054.965766007],[598531.2127920059,4096054.870337801],[598531.221338639,4096054.773624955],[598531.2204662347,4096054.6765391254],[598531.2101830166,4096054.5799954827],[598530.5394443641,4096050.2782663647],[598528.5633218461,4096050.5863893814],[598529.0670900239,4096053.817266611],[598512.7448922182,4096055.0322288945],[598512.6979808899,4096055.0368348123],[598492.1129248621,4096057.549055026],[598492.0245325529,4096057.5638889326],[598474.0,4096061.426392486],[598474.0,4096063.471797907],[598492.3997380574,4096059.528891015],[598512.9168638382,4096057.0249610743]]],[[[598529.7257706738,4096065.8802788816],[598530.0510204423,4096073.1071776696],[598532.0489980243,4096073.0172578073],[598531.7237482559,4096065.7903590193],[598529.7257706738,4096065.8802788816]]],[[[598672.4334309486,4096258.876900102],[598672.4878056868,4096258.9575223704],[598672.5497541538,4096259.0324820247],[598672.6186905302,4096259.101070204],[598672.6939629149,4096259.1626382996],[598672.7748594899,4096259.21660409],[598672.8606152515,4096259.2624572427],[598672.9504192453,4096259.299764146],[598673.043422234,4096259.3281720043],[598673.1387447291,4096259.347412177],[598673.2354853075,4096259.357302718],[598673.332729136,4096259.357750097],[598673.429556622,4096259.348750083],[598673.5250521108,4096259.3303877856],[598673.6183125429,4096259.3028368484],[598673.7084559954,4096259.2663578093],[598673.7946300211,4096259.2212956348],[598673.87601971,4096259.168076457],[598673.9518553955,4096259.1072035474],[598685.298832442,4096249.0538360355],[598683.9725262922,4096247.556868435],[598673.724398679,4096256.6366605926],[598669.1575250757,4096244.131695185],[598669.120768047,4096244.0441799066],[598669.0758789289,4096243.9605439682],[598669.0232621725,4096243.88154093],[598668.963391855,4096243.8078826093],[598668.8968074082,4096243.7402326684],[598668.824108758,4096243.6792006325],[598668.7459509196,4096243.6253364016],[598668.6630380953,4096243.5791252917],[598668.5761173301,4096243.5409836653],[598668.4859717801,4096243.5112551786],[598668.3934136572,4096243.490207685],[598668.2992769101,4096243.4780308236],[598668.2044097115,4096243.4748343066],[598668.1096668149,4096243.4806469353],[598668.0159018543,4096243.495416338],[598661.9146835983,4096244.7557771276],[598662.3192913355,4096246.7144227256],[598667.5750424414,4096245.628714538],[598672.3493829677,4096258.7017636993],[598672.3871441375,4096258.7913776287],[598672.4334309486,4096258.876900102]]]]}},{"type":"Feature","properties":{"class":"path","widthMeters":1.5},"geometry":{"type":"MultiPolygon","coordinates":[[[[598474.134251991,4095884.8945210963],[598474.1365908787,4095884.8258043346],[598474.1326269226,4095884.75716214],[598474.122393437,4095884.6891714092],[598474.1059764283,4095884.622403561],[598474.083513871,4095884.557419738],[598474.0,4095884.347512196],[598474.0,4095885.4409172493],[598474.1107971178,4095885.029872463],[598474.1256299163,4095884.962734904],[598474.134251991,4095884.8945210963]]],[[[598528.2616432211,4096021.8816659157],[598517.3263280445,4096016.4286458283],[598517.2660190064,4096016.4018177595],[598517.2035847007,4096016.3803962087],[598517.1395087215,4096016.3645470995],[598517.0742873788,4096016.3543931935],[598474.2556945645,4096011.606833627],[598474.1845113125,4096011.6023533056],[598474.1132243522,4096011.6046550297],[598474.0424783875,4096011.6137179825],[598474.0,4096011.6212276057],[598474.0,4096013.1444874774],[598474.1974959986,4096013.1095727677],[598516.7763603841,4096017.830552175],[598527.5922606678,4096023.2240246595],[598528.2616432211,4096021.8816659157]]],[[[598480.2507769268,4096101.747930998],[598480.2989580027,4096101.6957959766],[598480.3419940763,4096101.6393391527],[598480.3794995844,4096101.579066328],[598480.4111385125,4096101.51551749],[598480.4366274055,4096101.4492619773],[598480.4557379063,4096101.3808933785],[598480.4682988027,4096101.311024212],[598480.4741975608,4096101.24028044],[598480.7112431539,4096094.630171435],[598480.710281211,4096094.556779283],[598480.7021499843,4096094.483832615],[598480.6869273507,4096094.412030075],[598480.6647591045,4096094.3420593515],[598480.6358575617,4096094.2745905877],[598478.7340657316,4096090.3742229273],[598479.8318536909,4096083.966394485],[598487.1361055127,4096077.6164093157],[598487.1922828349,4096077.5621862365],[598487.2425186267,4096077.502416687],[598487.2862684632,4096077.437748413],[598487.3230582101,4096077.36888225],[598487.3524891625,4096077.2965645283],[598487.3742423655,4096077.221578983],[598490.4222642881,4096064.219837689],[598501.0727675006,4096062.678681876],[598506.2593770338,4096063.7192342286],[598515.7244023924,4096070.071936855],[598516.5603372698,4096068.8264598856],[598506.9713040022,4096062.390526064],[598506.9081821527,4096062.352519055],[598506.8416355539,4096062.3208891507],[598506.7723064723,4096062.295941624],[598506.7008640291,4096062.2779172524],[598501.2409516689,4096061.18253411],[598501.1564207888,4096061.170531803],[598501.071073526,4096061.1682145153],[598500.9860159092,4096061.1756122783],[598489.7013660256,4096062.8085307814],[598489.6279923787,4096062.8229140053],[598489.5564154855,4096062.844531534],[598489.4873467336,4096062.873168515],[598489.4214725828,4096062.908540332],[598489.3594477427,4096062.9502954325],[598489.3018886648,4096062.99801882],[598489.2493674168,4096063.051236183],[598489.2024059964,4096063.1094186045],[598489.1614711432,4096063.171987822],[598489.1269697002,4096063.238321973],[598489.0992445698,4096063.3077617767],[598489.0785713063,4096063.379617085],[598485.9691336274,4096076.6433354244],[598478.6457486133,4096083.009954123],[598478.592765875,4096083.0607763464],[598478.5450059832,4096083.116535307],[598478.5029265896,4096083.176696703],[598478.4669309135,4096083.2406840473],[598478.4373638779,4096083.3078841916],[598478.4145088042,4096083.3776532],[598478.3985846977,4096083.4493225226],[598477.2148040778,4096090.359093269],[598477.2056562816,4096090.4364373153],[598477.2045787044,4096090.5143130017],[598477.2115829667,4096090.591880546],[598477.226593537,4096090.6683034906],[598477.2494485473,4096090.7427577195],[598477.2799015377,4096090.814440347],[598479.205493371,4096094.7636192185],[598478.988930997,4096100.802545654],[598474.2057508918,4096103.9918209678],[598474.1499472635,4096104.0328747556],[598474.0981698297,4096104.0789025268],[598474.0508603745,4096104.1295115566],[598474.0084225598,4096104.184270029],[598474.0,4096104.1975003053],[598474.0,4096110.229718729],[598475.2796427902,4096105.078643975],[598480.1407486256,4096101.837410215],[598480.1978825062,4096101.795277137],[598480.2507769268,4096101.747930998]]],[[[598849.6074826292,4096053.4343137834],[598849.5602892126,4096074.7590110116],[598840.4425604254,4096086.386330855],[598840.4021862493,4096086.4430551133],[598840.3672463156,4096086.503279],[598840.3380417421,4096086.566483497],[598840.3148242186,4096086.6321238973],[598840.2977938376,4096086.6996345017],[598840.2870973694,4096086.768433492],[598840.2828269982,4096086.8379279487],[598840.2014539086,4096092.284832953],[598840.204740275,4096092.367055294],[598840.2170144913,4096092.448422715],[598840.2381288018,4096092.527955724],[598840.2678290347,4096092.604696911],[598866.595316391,4096150.907944983],[598884.2895009421,4096216.984785361],[598884.3079136679,4096217.043720003],[598897.5875255695,4096254.113307485],[598897.5942813087,4096254.131426692],[598913.4714132475,4096295.093495048],[598901.6972463316,4096299.8368314286],[598900.1991700497,4096298.6011355924],[598899.2446953992,4096299.7582778228],[598901.08671334,4096301.2776756845],[598901.145311612,4096301.321391756],[598901.2078877755,4096301.3591948804],[598901.2738472343,4096301.3907258525],[598901.3425632443,4096301.415685067],[598901.4133828686,4096301.4338353625],[598901.4856331821,4096301.4450042755],[598901.5586276652,4096301.4490856794],[598901.6316727272,4096301.4460407933],[598901.7040742969,4096301.4358985485],[598901.7751444174,4096301.4187553176],[598901.8442077835,4096301.3947739936],[598914.034327366,4096296.483867081],[598927.3071684863,4096327.906577075],[598927.3374563381,4096327.969850774],[598927.3735233664,4096328.030017911],[598927.4150540464,4096328.086552127],[598931.2132110478,4096332.779914628],[598931.2604880737,4096332.8329815385],[598931.3125759339,4096332.8813351216],[598931.3690068827,4096332.9245411656],[598961.4951019026,4096353.803133208],[598962.3495271711,4096352.570267659],[598932.3116826707,4096331.752836766],[598928.6477270687,4096327.225306224],[598915.1334772424,4096295.231074603],[598898.9963883588,4096253.5983325895],[598885.7304578676,4096216.566936302],[598868.0284675221,4096150.4609461077],[598868.0103312127,4096150.402784405],[598867.9875340629,4096150.346286623],[598841.7037864585,4096092.139901938],[598841.7788842819,4096087.1130470927],[598850.8998991473,4096075.481536701],[598850.941010477,4096075.423665498],[598850.9764662886,4096075.3621666934],[598851.0059489473,4096075.297591231],[598851.0291943296,4096075.230517616],[598851.0459941891,4096075.1615467365],[598851.0561980226,4096075.091296474],[598851.0597144177,4096075.0203961744],[598851.1075957214,4096053.3848720226],[598851.1004412716,4096053.279852561],[598847.9149916744,4096030.386090762],[598847.9059847714,4096030.334584226],[598833.391406084,4095961.556935473],[598815.3820476548,4095825.2454928807],[598813.8949703318,4095825.4419643437],[598831.9080943129,4095961.7819081075],[598831.9177961638,4095961.838538562],[598846.4329094266,4096030.618720412],[598849.6074826292,4096053.4343137834]]],[[[598481.4483713204,4096149.5611399584],[598481.5166726487,4096149.570337538],[598481.5855298908,4096149.573226676],[598481.6543616266,4096149.569782975],[598498.6250655251,4096147.936421145],[598498.481360628,4096146.4433207125],[598481.6494742067,4096148.06332192],[598474.0,4096145.9319249247],[598474.0,4096147.4890639544],[598481.3812026323,4096149.5457115993],[598481.4483713204,4096149.5611399584]]]]}},{"type":"Feature","properties":{"class":"pedestrian","widthMeters":3},"geometry":{"type":"MultiPolygon","coordinates":[[[[598545.191323189,4095014.1011316786],[598549.5881463286,4095004.271138934],[598600.8670851941,4095015.7754306328],[598670.6747694043,4095060.7337573464],[598700.3480736637,4095081.6654594727],[598730.6257564818,4095106.8126384895],[598732.6257478142,4095127.1682880116],[598737.8704185619,4095182.904061378],[598739.0349150917,4095238.975892815],[598736.5126003417,4095238.2182540162],[598735.6495698175,4095241.091436627],[598739.1024901598,4095242.1286055287],[598740.3433540585,4095296.80852351],[598738.1501139855,4095298.6886174227],[598738.0382103598,4095298.795011396],[598737.9378372256,4095298.9123456753],[598737.8500581862,4095299.0393769285],[598737.7758033909,4095299.174759071],[598737.7158596799,4095299.3170575267],[598736.2445541755,4095303.3830174035],[598736.2032126099,4095303.5163563006],[598736.1744461202,4095303.6529611163],[598736.1585038677,4095303.791648647],[598736.1555239363,4095303.93121765],[598736.1655321366,4095304.0704592476],[598736.6231900644,4095307.9209009395],[598730.3922209016,4095310.507550028],[598731.5424332151,4095313.278292101],[598737.7806741236,4095310.688624308],[598739.4443250187,4095312.765606032],[598739.5487186132,4095312.8828019924],[598739.6647864742,4095312.9884484177],[598739.791257895,4095313.081388696],[598739.9267482711,4095313.1606053207],[598742.8566018494,4095314.673755109],[598750.5292625467,4095356.111942846],[598760.4398658334,4095422.8951741625],[598755.9004519922,4095423.9915665514],[598756.6047813967,4095426.907714711],[598761.1893794785,4095425.8004090944],[598765.4699339024,4095437.140246914],[598769.43784037,4095466.267440405],[598756.2746481041,4095468.3527599475],[598756.7440557401,4095471.315808457],[598769.842589915,4095469.2407320817],[598775.7751547729,4095512.851564047],[598775.776641259,4095512.8622058253],[598781.2737815445,4095551.213253788],[598775.7790993203,4095556.6475658007],[598766.3619659357,4095559.072792869],[598767.1101534416,4095561.9779977594],[598775.2046832053,4095559.893385395],[598778.635236715,4095599.3656762633],[598774.0143542959,4095599.3199581336],[598773.9846743207,4095602.3198113134],[598778.9150724058,4095602.368591732],[598782.7608323982,4095640.478803399],[598782.774707917,4095640.580994909],[598794.3127330454,4095708.0647647744],[598794.3274986906,4095708.139614071],[598807.0046895671,4095764.776245096],[598808.463869049,4095790.7776832837],[598808.4749929431,4095790.894284041],[598813.151989345,4095825.5443759025],[598816.1250286417,4095825.143081322],[598811.4558721683,4095790.551072516],[598809.993063266,4095764.484960893],[598809.9811320726,4095764.3624673192],[598809.9591990446,4095764.241364176],[598797.2633921944,4095707.5215644077],[598785.740493136,4095640.1262641214],[598781.7661366978,4095600.74170414],[598778.1010238695,4095558.570550354],[598783.9206049398,4095552.814909167],[598784.0154057003,4095552.7119686007],[598784.1002004936,4095552.600641212],[598784.1742512678,4095552.481895992],[598784.2369134868,4095552.3567664963],[598784.2876417402,4095552.2263418487],[598784.3259944905,4095552.091757262],[598784.3516379164,4095551.9541841573],[598784.364348818,4095551.814819968],[598784.36401656,4095551.6748777153],[598784.3506440344,4095551.535575454],[598778.7470520369,4095512.441862306],[598772.6085429438,4095467.3171152547],[598768.4195480174,4095436.5669784914],[598768.3873216251,4095436.4010059903],[598768.3366221195,4095436.2397144167],[598763.5850400989,4095423.6520530614],[598753.4928271584,4095355.6450335286],[598753.4840059661,4095355.592124759],[598745.6726862852,4095313.4050733335],[598745.6375412456,4095313.25743313],[598745.5876574143,4095313.1140999277],[598745.5235454421,4095312.976541],[598745.4458616308,4095312.8461645106],[598745.355401214,4095312.7243050975],[598745.253090217,4095312.612210212],[598745.1399759772,4095312.5110273464],[598745.0172164228,4095312.4217922897],[598744.8860682187,4095312.345418524],[598741.5865470723,4095310.641350525],[598739.6855722402,4095308.268082193],[598739.1865304245,4095304.0694628847],[598740.402455243,4095300.709248768],[598742.8353284142,4095298.623736062],[598742.9423964706,4095298.5224147323],[598743.0390023892,4095298.4110734686],[598743.1242131896,4095298.290787559],[598743.1972059406,4095298.162718676],[598743.257275708,4095298.028103656],[598743.3038423626,4095297.8882425562],[598743.3364561828,4095297.744486098],[598743.3548021974,4095297.5982226226],[598743.3587032282,4095297.4508646824],[598742.0770342876,4095240.9728314127],[598740.868633607,4095182.786965219],[598740.8623598206,4095182.6775829643],[598735.612264319,4095126.8841600576],[598735.611673333,4095126.878015168],[598733.5535658507,4095105.930867092],[598732.9445758298,4095096.495527972],[598729.9508051729,4095096.6887564748],[598730.3370537326,4095102.673068238],[598702.2193769717,4095079.319885787],[598702.125630361,4095079.248067454],[598672.3781857935,4095058.264066371],[598672.3257351755,4095058.2286998755],[598602.2675214055,4095013.1090243086],[598602.153719934,4095013.042615864],[598602.0345297895,4095012.9864503415],[598601.9108706354,4095012.9409611113],[598601.7836966179,4095012.9064991656],[598549.0565382246,4095001.0773033192],[598491.8457738427,4094987.543195782],[598491.8206106189,4094987.537471139],[598474.0,4094983.6441940693],[598474.0,4094986.7149535995],[598491.1676956329,4094990.465588029],[598546.6102352195,4095003.5813941364],[598542.4527848215,4095012.8762204126],[598545.191323189,4095014.1011316786]]],[[[598600.9152082732,4095053.0317794983],[598600.8660610166,4095053.1662809723],[598600.8299634466,4095053.304856096],[598600.8072445501,4095053.44624192],[598600.798111383,4095053.5891498784],[598600.8026471834,4095053.732277535],[598600.8208106129,4095053.874320448],[598600.8524361331,4095054.013984065],[598600.8972355147,4095054.149995516],[598600.9548004641,4095054.281115217],[598601.0246063446,4095054.406148167],[598601.1060169579,4095054.5239548367],[598601.198290342,4095054.633461558],[598601.3005855338,4095054.733670306],[598607.1225883594,4095059.916101118],[598616.1154881556,4095067.9314904846],[598616.2265630038,4095068.0213751756],[598616.3456864533,4095068.100283245],[598616.4717775576,4095068.1674986673],[598616.6036921451,4095068.2224115185],[598616.7402332004,4095068.2645235104],[598616.8801617268,4095068.293452511],[598617.0222079895,4095068.3089360143],[598617.1650830365,4095068.31083352],[598617.3074903957,4095068.29912781],[598617.4481378386,4095068.2739251037],[598617.5857491067,4095068.235454095],[598617.719075492,4095068.1840638765],[598617.8469071685,4095068.120220771],[598617.9680841699,4095068.0445041023],[598618.0815069156,4095067.957600936],[598618.1861461886,4095067.8602998457],[598636.4612523352,4095049.166508286],[598636.5599624786,4095049.0549569516],[598636.6471222215,4095048.934165512],[598636.7218720765,4095048.8053251],[598636.7834749304,4095048.669706219],[598636.8313233135,4095048.5286462144],[598636.86494539,4095048.3835360887],[598636.8840096103,4095048.235806782],[598636.888327981,4095048.086915062],[598636.8778579185,4095047.9383291593],[598636.8527026685,4095047.7915142896],[598636.8131102887,4095047.647918203],[598636.7594712019,4095047.50895691],[598636.6923143467,4095047.3760007164],[598636.612301961,4095047.250360712],[598636.5202230522,4095047.1332758404],[598636.416985616,4095047.0259006834],[598636.3036076834,4095046.929294074],[598636.1812072815,4095046.8444086555],[598619.0664948216,4095036.193281096],[598618.9404503661,4095036.1230148883],[598618.8082370862,4095036.0651858877],[598618.6710786624,4095036.0203293217],[598618.5302445445,4095035.9888603543],[598618.3870382018,4095035.9710702416],[598618.2427850596,4095035.967123637],[598618.0988202317,4095035.9770570686],[598617.9564761637,4095036.0007785982],[598617.8170702999,4095036.0380686754],[598617.6818928908,4095036.0885821665],[598617.5521950513,4095036.1518515516],[598617.4291771805,4095036.2272912506],[598617.3139778523,4095036.314203042],[598617.2076632773,4095036.411782527],[598601.231644799,4095052.558238214],[598601.1358998471,4095052.6647229716],[598601.0507453188,4095052.7798524885],[598600.9769572972,4095052.9025774957],[598600.9152082732,4095053.0317794983]],[[598618.4980062542,4095039.373005404],[598633.0105775439,4095048.4047229034],[598617.0422761607,4095064.738860458],[598609.1183360056,4095057.676236933],[598604.4763797271,4095053.5442190696],[598618.4980062542,4095039.373005404]]],[[[598653.0380596304,4095076.178346757],[598670.3659568421,4095092.499479869],[598642.0403289321,4095113.9826347623],[598643.853207034,4095116.372921981],[598673.5897324405,4095093.8196926815],[598690.8805636266,4095080.7856504535],[598689.0747238965,4095078.3900413727],[598672.7924868412,4095090.6637928807],[598655.0949905522,4095073.9945346806],[598653.0380596304,4095076.178346757]]]]}},{"type":"Feature","properties":{"class":"residential","widthMeters":5},"geometry":{"type":"MultiPolygon","coordinates":[[[[598485.6226648988,4094995.756177217],[598474.0,4095005.497689815],[598474.0,4095010.4182831207],[598474.0,4095012.0216685915],[598474.0,4095017.604634133],[598501.8776631071,4095046.384127656],[598490.2860586765,4095059.010845529],[598474.0,4095042.990535569],[598474.0,4095050.004149376],[598486.8246129496,4095062.619495952],[598475.0062455429,4095074.3992126277],[598474.0,4095073.408295466],[598474.0,4095075.40216735],[598474.0,4095080.4104700107],[598474.0,4095082.477906669],[598475.0513933566,4095081.42382516],[598487.5739344489,4095093.4933150588],[598475.5184675256,4095111.745191723],[598474.0,4095110.006387],[598474.0,4095114.044138929],[598474.0,4095117.5961736124],[598474.0,4095123.36045985],[598476.3250601451,4095119.6945514637],[598498.4989524949,4095139.5656525344],[598508.9754968702,4095151.548185882],[598498.9723111491,4095161.839935501],[598483.967359359,4095175.734600061],[598474.0,4095164.9856601316],[598474.0,4095172.3391912],[598480.4057045438,4095179.247192695],[598474.0,4095186.002088866],[598474.0,4095193.268444262],[598483.9064677561,4095182.8219491635],[598498.1004608937,4095196.600461163],[598514.2512005754,4095213.181301191],[598496.7977573631,4095230.4559583385],[598474.0,4095208.7434680536],[598474.0,4095215.6482814485],[598493.0732320113,4095233.8135491167],[598491.1413043464,4095235.4197823936],[598489.8399702817,4095235.154060429],[598474.0,4095226.8612157595],[598474.0,4095232.5050027138],[598487.8339842404,4095239.7476351447],[598488.046125167,4095239.846340135],[598488.2665648375,4095239.924779918],[598488.4933723256,4095239.982267406],[598491.3167068111,4095240.558769633],[598491.5623692286,4095240.596324964],[598491.8105465015,4095240.6093044626],[598492.0587862247,4095240.5975798694],[598492.3046353754,4095240.5612670435],[598492.5456645539,4095240.5007248153],[598492.7794919898,4095240.416551444],[598493.003807078,4095240.3095787023],[598493.2163932113,4095240.18086366],[598493.415149684,4095240.0316782356],[598496.6157758323,4095237.3706302475],[598519.1785735153,4095261.506606612],[598522.7689814969,4095268.296191493],[598523.3820256211,4095270.0238756198],[598496.7192613933,4095259.119495367],[598496.6644472666,4095259.097828478],[598474.0,4095250.446548149],[598474.0,4095255.7984255645],[598494.8538395747,4095263.7585761026],[598526.0221289438,4095276.505599487],[598539.2271212124,4095294.065752963],[598539.2655791736,4095294.1155765723],[598554.7369385893,4095313.645957219],[598554.8044589848,4095313.72757792],[598578.3027733458,4095340.938092127],[598578.8167063781,4095348.346802801],[598583.8047195611,4095348.0007905383],[598583.316695774,4095340.9655800853],[598591.1872851225,4095333.773442491],[598601.7408482267,4095326.0168657224],[598605.7612079429,4095323.5466188393],[598626.3238539203,4095355.770205185],[598628.4313255486,4095354.425376818],[598629.3894104204,4095356.7345050904],[598665.0200048422,4095341.9509463334],[598677.9945625647,4095371.7041119635],[598655.458150135,4095377.3990661493],[598655.4467999606,4095377.401962646],[598614.663324997,4095387.9114912944],[598615.9110187915,4095392.753315351],[598654.3504352047,4095382.847829161],[598671.7700483531,4095442.424863182],[598641.7138569102,4095449.9570319196],[598642.9292869148,4095454.8070556214],[598675.4787252083,4095446.6500719925],[598699.5348664364,4095441.208909831],[598710.9105850917,4095479.005713871],[598653.5935921065,4095494.287124443],[598611.784482797,4095505.449083767],[598581.9931631838,4095513.253639071],[598570.141143658,4095469.333512325],[598558.9183397592,4095423.0945877824],[598623.355406613,4095406.588130293],[598622.1146490326,4095401.744524134],[598555.2862530268,4095418.86355409],[598555.2296133891,4095418.8787732734],[598523.6145029993,4095427.77271309],[598509.1920780828,4095366.807935844],[598502.7744077098,4095323.0290358094],[598525.0018460301,4095319.651062198],[598524.2506060635,4095314.7078204975],[598501.9477734308,4095318.0972520197],[598497.7010071047,4095295.679499323],[598497.692719527,4095295.637702036],[598494.9878315815,4095282.5802517096],[598492.5398050862,4095283.0873673554],[598493.5984865716,4095280.8225950683],[598489.6065354107,4095278.956533386],[598489.4175918511,4095278.877472074],[598474.0,4095273.156390014],[598474.0,4095278.48953312],[598487.5820235437,4095283.5294817695],[598490.3459586333,4095284.821499922],[598492.7923446381,4095296.6310699964],[598496.9876883164,4095318.7773737567],[598474.0,4095321.622224976],[598474.0,4095326.6603680016],[598497.8211418721,4095323.7123723803],[598504.2606877027,4095367.6404984444],[598506.7342512251,4095367.2778919074],[598504.3014020163,4095367.853430548],[598518.7801027728,4095429.0560904015],[598488.7469569033,4095436.530274744],[598474.0,4095382.8614875693],[598474.0,4095401.7324949265],[598483.900116182,4095437.762113231],[598474.0,4095440.328756516],[598474.0,4095445.4940555426],[598485.171689966,4095442.597751852],[598507.7552238365,4095532.526412847],[598474.0,4095540.974733602],[598474.0,4095546.129070598],[598474.963987612,4095545.887689012],[598508.9332073999,4095537.3858089494],[598517.3214746475,4095573.2542381957],[598482.9320236405,4095582.3048058315],[598474.0,4095584.658685938],[598474.0,4095589.829395343],[598484.2049842862,4095587.140048469],[598518.5835536349,4095578.0923446533],[598529.8322542723,4095617.136246422],[598496.6669568034,4095625.8357508415],[598479.097954461,4095630.434682549],[598474.0,4095623.945510348],[598474.0,4095632.0391303697],[598476.1077565785,4095634.722087917],[598496.8537201894,4095666.8283811184],[598476.3347097408,4095673.298009494],[598474.0,4095669.8673867215],[598474.0,4095674.030533598],[598474.0,4095678.672839679],[598474.0,4095679.2637305623],[598474.3546395581,4095679.1541624228],[598505.3056058332,4095721.1613319023],[598491.3876260491,4095727.7265898655],[598474.0,4095702.31154819],[598474.0,4095711.1666187854],[598486.7126467603,4095729.74836458],[598474.0,4095734.915047579],[598474.0,4095740.3122176672],[598489.3512273397,4095734.0731608598],[598519.9382052468,4095793.461924387],[598543.092958457,4095840.109465203],[598529.3035924793,4095844.390386798],[598474.0,4095740.557215711],[598474.0,4095751.1933007087],[598524.3789842868,4095845.7804597],[598507.5393189403,4095850.229421914],[598474.0,4095784.3399030627],[598474.0,4095795.361970825],[598502.6088565848,4095851.5653719325],[598487.4528198189,4095855.739874567],[598474.0,4095829.8478120784],[598474.0,4095840.6925160657],[598482.5942829995,4095857.233562141],[598474.0,4095860.0698307655],[598474.0,4095865.335075113],[598484.3096401355,4095861.93270765],[598495.5274188379,4095913.9190000845],[598497.9711725222,4095913.391678617],[598497.8199150298,4095915.887098656],[598518.8285268453,4095917.160515513],[598539.8453517909,4095919.4139606333],[598550.5782846235,4095921.0185490213],[598550.8326530186,4095921.043368408],[598551.0882261837,4095921.0420878725],[598551.3423331014,4095921.014720798],[598551.592318079,4095920.9615532006],[598560.5958291946,4095918.5596929123],[598580.0873150922,4095913.4172937702],[598580.3180327439,4095913.344311871],[598603.5893720797,4095904.723268277],[598627.2321556465,4095899.523315771],[598626.1581343446,4095894.640030172],[598604.864454013,4095899.3233250175],[598592.0957575026,4095831.326687309],[598622.0620337285,4095822.241243948],[598653.1426232427,4095814.620258304],[598651.951892182,4095809.7641117307],[598623.211216243,4095816.811348677],[598610.1864308702,4095765.768268807],[598639.6250643233,4095757.8162746555],[598672.4430550849,4095751.180929867],[598671.9476147761,4095748.7305138004],[598672.547923806,4095751.157369599],[598721.4946765046,4095739.049860928],[598731.8405945788,4095768.2817887585],[598668.3274523234,4095783.6524388357],[598660.4614786986,4095783.1584730106],[598660.1481069998,4095788.1486431663],[598668.3913769888,4095788.6663023722],[598668.6413838957,4095788.6694749235],[598668.89045739,4095788.6476594945],[598669.1361061983,4095788.6010742877],[598733.7130869548,4095772.9729674263],[598746.4815019259,4095800.633234578],[598647.5796387113,4095826.823105749],[598648.85955667,4095831.6565113827],[598748.4749407574,4095805.277695139],[598759.4487447038,4095833.6430333387],[598641.641526231,4095864.2511499636],[598637.687492073,4095863.5131948753],[598636.7701642129,4095868.428325555],[598641.2720880706,4095869.268535195],[598641.5438408843,4095869.3039729106],[598641.8178397841,4095869.3094525384],[598642.0907921615,4095869.28490823],[598642.359417984,4095869.2306349315],[598761.0798660187,4095838.3852473036],[598779.8343264177,4095901.902285393],[598612.8578734295,4095939.69134572],[598613.9615313725,4095944.568018679],[598781.1928700573,4095906.7212742246],[598791.5394943423,4095945.443627006],[598600.4502021951,4095978.7320685894],[598601.3082972196,4095983.6578855705],[598792.6358375187,4095950.3279403024],[598796.291037695,4095970.8319695373],[598803.4928398248,4096023.1387379025],[598767.8446072448,4096022.692111133],[598767.8316099585,4096022.691982086],[598731.9782536735,4096022.429212108],[598648.8988410416,4096021.4721078095],[598648.893801037,4096021.4720548284],[598591.938359801,4096020.930749312],[598544.1093950532,4096019.165511606],[598543.8653401241,4096019.1684265714],[598543.6227325344,4096019.195126063],[598543.3838846763,4096019.2453555968],[598543.1510731062,4096019.3186364146],[598542.9265168465,4096019.414270047],[598542.7123562347,4096019.5313449707],[598542.5106325231,4096019.668745297],[598542.323268423,4096019.825161407],[598542.152049778,4096019.999102434],[598541.9986085433,4096020.188910477],[598541.8644072299,4096020.3927763957],[598541.7507249655,4096020.608757062],[598541.658645302,4096020.834793875],[598541.5890458886,4096021.0687323865],[598541.5425901057,4096021.308342832],[598541.5197207421,4096021.551341387],[598540.3118399127,4096048.3732877397],[598529.6542372907,4096047.934444566],[598529.440253029,4096047.9347990733],[598529.2270829397,4096047.9534512316],[598485.9227186659,4096053.6187644075],[598485.6900721904,4096053.6604684168],[598474.0,4096056.331902665],[598474.0,4096061.460796628],[598486.68862903,4096058.561170552],[598529.662921765,4096052.9390391354],[598542.5944174388,4096053.471513352],[598542.6768027025,4096053.473546248],[598555.3199018106,4096053.5770659614],[598569.1977768444,4096056.1915066126],[598577.4997618343,4096059.8171443017],[598579.5008533194,4096055.235045125],[598572.8091155576,4096052.3126335973],[598576.0004457056,4096052.0770360753],[598576.2115328345,4096052.052395157],[598576.4197644772,4096052.009915353],[598576.6236358704,4096051.9499036386],[598582.9132597175,4096049.8040369814],[598581.2987599551,4096045.0718714604],[598575.3125790154,4096047.114210779],[598555.4815439892,4096048.578221863],[598545.3114284624,4096048.494950551],[598546.4030978826,4096024.2535701846],[598591.7881612434,4096025.928610102],[598591.8566077322,4096025.9301981493],[598646.3676348072,4096026.4482719107],[598646.3344135983,4096060.6394554614],[598646.3418856305,4096060.835043054],[598647.0226337445,4096069.619449454],[598647.0465132726,4096069.820981585],[598647.0866603692,4096070.0199128357],[598653.4485216173,4096096.046211934],[598653.5504654573,4096096.3675412233],[598663.5698849349,4096121.845123038],[598669.1489735356,4096138.4603201686],[598629.8106557316,4096151.0160307907],[598631.3309586173,4096155.7792942873],[598670.783770338,4096143.1870403513],[598700.7099055196,4096227.129497872],[598682.7953576349,4096246.6132482425],[598686.4760010993,4096249.997456228],[598705.3755465968,4096229.442428607],[598791.4078534063,4096143.540282171],[598802.9594291406,4096136.4650097517],[598806.3176541701,4096158.0821283],[598678.8610239951,4096293.4681576076],[598682.501561125,4096296.895472796],[598807.0776396303,4096164.5692015584],[598811.4926768026,4096205.1065851017],[598727.9844519324,4096293.0004937253],[598727.8940852358,4096293.1009050435],[598706.0403637554,4096318.744519705],[598691.6198183834,4096328.9101709523],[598694.5006695129,4096332.9968195506],[598709.1789923821,4096322.6494500623],[598709.3447035458,4096322.521934942],[598709.4991793857,4096322.3810182624],[598709.6413393053,4096322.227685771],[598729.304070988,4096299.1550244438],[598753.8399390216,4096345.7892478323],[598753.864021475,4096345.8339141994],[598791.2404415485,4096413.503747245],[598795.1904738172,4096450.0128289647],[598761.2790669295,4096456.9359658426],[598762.2792056046,4096461.834917019],[598798.3918773596,4096454.462383924],[598826.5525477903,4096449.404856674],[598828.8262797616,4096461.47476693],[598830.9101319892,4096479.0],[598835.945354413,4096479.0],[598834.0046147953,4096462.6783464407],[598835.2696478381,4096462.152781421],[598851.7338907003,4096455.339277571],[598912.77053529,4096432.5231936313],[598912.7750557566,4096432.5214988613],[598915.4652478654,4096431.5099540176],[598915.6805892332,4096431.4172379337],[598915.8862981884,4096431.3047568123],[598916.0805655394,4096431.173499915],[598916.2616827231,4096431.0246216333],[598916.4280568302,4096430.859431339],[598922.9805816453,4096423.7128507365],[598923.1462265878,4096423.5121470774],[598923.290110714,4096423.2953117387],[598923.4106750059,4096423.0646941825],[598923.5066131214,4096422.8227932034],[598925.7372059096,4096416.213781749],[598925.8045866941,4096415.9759128005],[598925.8481436077,4096415.732551748],[598925.867450686,4096415.4860785375],[598925.8623191157,4096415.238903552],[598925.8327990806,4096414.9934440353],[598925.7791792719,4096414.752100457],[598923.473898574,4096406.360097336],[598928.4615074734,4096408.77206861],[598928.6650052934,4096408.8595775287],[598928.8754504999,4096408.928729453],[598929.0911908732,4096408.978981467],[598929.3105326211,4096409.0099390387],[598950.0558058193,4096411.0054228543],[598950.1178003409,4096411.010608481],[598985.6212116026,4096413.535941997],[598992.14441688,4096416.9657970485],[598996.4686516486,4096424.040103127],[599000.3644037787,4096434.1610213015],[599008.8639861728,4096459.7687870623],[599008.9572981306,4096460.008047202],[599009.0746632891,4096460.2364721475],[599009.2148431638,4096460.4516514647],[599009.3763585198,4096460.6513144956],[599009.5575049814,4096460.833354314],[599009.7563710177,4096460.995849962],[599009.9708581134,4096461.1370867197],[599020.4787002717,4096467.3069815743],[599020.7466697637,4096467.4433576195],[599043.73704505,4096477.4518122156],[599045.7106124504,4096479.0],[599053.8115573038,4096479.0],[599046.5713406717,4096473.320328283],[599046.3990523028,4096473.196610745],[599046.2168969392,4096473.0879427427],[599046.0261857881,4096472.9951064996],[599022.8805124472,4096462.919045633],[599013.3132611508,4096457.301437978],[599005.0913390698,4096432.5302145234],[599005.0517478049,4096432.419684467],[599001.0533057726,4096422.0319844075],[599000.9624734325,4096421.8245561984],[599000.8532446132,4096421.626197834],[598996.0510461379,4096413.769958827],[598995.8986641791,4096413.548396333],[598995.7233664577,4096413.344482358],[598995.527181104,4096413.1605761126],[598995.3123779101,4096412.9988053236],[598995.0814420703,4096412.86104162],[598987.4845185993,4096408.866633161],[598987.2502254902,4096408.7584898444],[598987.006032928,4096408.6750738365],[598986.7545425689,4096408.6172738606],[598986.4984338213,4096408.5857057245],[598950.5035801763,4096406.025416245],[598930.2350919348,4096404.0757942824],[598921.3044828027,4096399.757016864],[598915.6138501654,4096391.251098568],[598970.1930787979,4096383.541666274],[598983.9830971289,4096383.510383384],[598999.2261882877,4096387.7748052077],[599018.045370211,4096401.6595257916],[599023.6189156157,4096411.5821499615],[599025.4346903353,4096417.036425578],[599030.1787111028,4096415.4571007355],[599028.2875270299,4096409.7763083642],[599028.2017169178,4096409.5543936417],[599028.0951994939,4096409.3416413027],[599022.1416222081,4096398.742443559],[599022.0000804396,4096398.519022739],[599021.8357274913,4096398.3118053563],[599021.6504028257,4096398.1231106203],[599021.4461806244,4096397.9550504293],[599001.8256281137,4096383.479081685],[599001.6372831974,4096383.352895821],[599001.4382815179,4096383.24429098],[599001.2302595595,4096383.1541602714],[599001.0149279841,4096383.083244882],[598984.9969697021,4096378.6020454876],[598984.7737123435,4096378.5504903225],[598984.5466724728,4096378.5195924216],[598984.3177572897,4096378.509611336],[598970.0088929803,4096378.542071237],[598969.6649049354,4096378.5666379],[598912.1973340566,4096386.6840546886],[598907.2719021953,4096381.826062698],[598907.116331814,4096381.685010109],[598897.7397493138,4096373.8752589454],[598897.5357045362,4096373.722241404],[598871.2034720287,4096355.9989286344],[598900.6805334747,4096343.8193681175],[598898.7711632148,4096339.198296249],[598868.5260672029,4096351.695199236],[598858.4912369265,4096326.300880058],[598858.4556341161,4096326.2154450156],[598855.2524841868,4096318.912694056],[598900.6171755188,4096301.5139175677],[598898.8266899302,4096296.8454958475],[598853.0984185932,4096314.3837166275],[598838.6325800032,4096286.5773929833],[598836.4449903618,4096282.288778737],[598889.8724669076,4096260.4590477287],[598887.9813039196,4096255.830494764],[598834.1014268862,4096277.8450703803],[598834.0712669155,4096277.7901093476],[598818.0550968042,4096247.137592291],[598885.9679404645,4096219.1016175384],[598884.0600107262,4096214.479950727],[598817.0288692951,4096242.151938638],[598816.6033097093,4096205.95883312],[598816.5887856486,4096205.717545007],[598811.4609282925,4096158.635286741],[598811.4459932984,4096158.5221955557],[598807.3241036795,4096131.9893171],[598804.3745406542,4096113.0186232044],[598805.0143612227,4096099.194352692],[598813.937138719,4096100.931115729],[598814.1446662256,4096100.962533363],[598814.3540977282,4096100.976432266],[598814.5639569946,4096100.972714469],[598826.2114522596,4096100.2764780093],[598826.4542937226,4096100.250006156],[598826.6933923754,4096100.1999604823],[598826.9264653905,4096100.1268188055],[598841.8155561854,4096094.6419225186],[598840.0871842721,4096089.950149876],[598825.5445487358,4096095.307417741],[598814.5816545743,4096095.962731733],[598805.2951164255,4096094.1551649515],[598806.4979674298,4096076.501214263],[598806.5010372922,4096076.4477076423],[598808.8629041105,4096025.7913630665],[598808.863073192,4096025.5621744166],[598808.8422526672,4096025.3339333786],[598801.5411029618,4095972.305602475],[598833.277150419,4095964.104153305],[598832.0261155298,4095959.263191447],[598800.7484617163,4095967.3461793577],[598797.1212086021,4095946.9989205725],[598797.0752764525,4095946.792312176],[598785.4024449935,4095903.106614767],[598785.3848455045,4095903.0440237042],[598765.9698217522,4095837.28980967],[598815.1125979063,4095827.798364981],[598814.1644200804,4095822.8890922433],[598764.3701355392,4095832.50636938],[598753.4094063435,4095804.174827093],[598810.43612035,4095793.1481728526],[598809.4869048329,4095788.239100649],[598751.447645508,4095799.461540099],[598737.4400851497,4095769.1169074615],[598725.4736399346,4095735.3062528237],[598721.6523161959,4095722.3971944465],[598756.5023557277,4095716.5070975],[598796.1787939089,4095710.2817545016],[598795.4037621144,4095705.3421871406],[598758.1313001493,4095711.190339615],[598747.7039749728,4095652.759658807],[598784.9033224727,4095642.742203758],[598783.6031832937,4095637.9141981537],[598747.0652728948,4095647.753534045],[598743.7590417672,4095610.7346141357],[598774.5893548098,4095603.2493060916],[598773.4096738067,4095598.3904633555],[598743.497476733,4095605.652861537],[598742.5472971984,4095568.4958678326],[598767.2816009482,4095562.9651462715],[598766.190518429,4095558.085644357],[598741.7112110675,4095563.5593473725],[598730.1143306532,4095525.5204980816],[598777.7956378843,4095515.0916402624],[598776.7272931099,4095510.207109636],[598728.6609095564,4095520.720191367],[598717.1834424782,4095482.504023414],[598747.0753877183,4095474.4873367012],[598757.050659496,4095472.274977979],[598755.9680443482,4095467.3935904256],[598748.5306891005,4095469.043079093],[598742.41930857,4095430.7828976745],[598756.7457174921,4095427.9005285525],[598755.7595158968,4095422.99875271],[598739.078693782,4095426.354812617],[598739.0302667315,4095426.3650556253],[598731.9074282015,4095427.9454639023],[598713.0156042925,4095368.037508543],[598752.6065813943,4095358.292769172],[598751.411570787,4095353.437673947],[598711.4172925642,4095363.2816799837],[598698.6797659474,4095327.9861210976],[598703.416376238,4095326.019258545],[598725.8791742091,4095316.706157979],[598731.9239294766,4095314.202663867],[598730.01072464,4095309.583178262],[598725.96233118,4095311.2598597393],[598699.0636147838,4095266.15445698],[598723.283908223,4095250.0331156743],[598737.342937341,4095241.8130225316],[598736.0810850796,4095239.6548453216],[598738.5795957434,4095239.568564023],[598736.6300657241,4095183.1145973885],[598736.6252969916,4095183.0240986543],[598732.8380833851,4095129.5998900025],[598734.2578750176,4095129.5208195643],[598733.979847945,4095124.5285554538],[598732.4890629803,4095124.6115796226],[598731.7300371431,4095113.614294769],[598731.7024593406,4095113.3784716628],[598731.6526345697,4095113.146328249],[598731.5810122347,4095112.919958389],[598731.4882383469,4095112.701403869],[598731.3751496981,4095112.4926359835],[598726.3807997094,4095104.2349237166],[598726.2373805629,4095104.0230847],[598726.0730634716,4095103.827011464],[598725.8895690279,4095103.648757125],[598718.5775629833,4095097.239162514],[598718.3965953495,4095097.09478318],[598691.4485006722,4095077.5663111345],[598667.8995671017,4095060.3631878495],[598667.7939804143,4095060.290137006],[598619.3837104598,4095028.603825123],[598619.2255590601,4095028.5084616547],[598619.0607993576,4095028.4250332615],[598599.6566594708,4095019.484005181],[598603.1654107289,4095016.1937546013],[598603.1710462697,4095016.1884535905],[598606.7254776569,4095012.834634348],[598603.2940604276,4095009.197963371],[598599.7424427231,4095012.549127735],[598593.5276929474,4095018.3768660235],[598593.5079588713,4095018.3955739303],[598578.6037956887,4095032.6794232437],[598578.5171805895,4095032.766617802],[598572.4487812367,4095039.183662222],[598556.6969317527,4095024.148051545],[598556.5067551708,4095023.9839662],[598556.3010733317,4095023.8397922986],[598556.0819625079,4095023.7169852154],[598555.8516345313,4095023.616784637],[598555.6124144662,4095023.540202046],[598555.3667171393,4095023.4880105113],[598555.1170227618,4095023.4607368847],[598554.8658518943,4095023.458656483],[598554.6157400013,4095023.4817903056],[598554.3692118577,4095023.529904827],[598554.1287560618,4095023.6025143513],[598553.8967999142,4095023.698885916],[598553.6756849152,4095023.818046689],[598553.4676431279,4095023.9587937943],[598553.2747746472,4095024.1197064472],[598553.0990263995,4095024.2991603026],[598552.9421724901,4095024.495343849],[598544.9456703425,4095035.5975705152],[598544.8142239513,4095035.8000049116],[598544.7029117584,4095036.01417175],[598544.6127713334,4095036.238074725],[598544.5446428978,4095036.469626782],[598544.4991614941,4095036.706669564],[598544.476751066,4095036.946993536],[598544.477620507,4095037.1883585765],[598544.5017617126,4095037.4285148606],[598544.5489496565,4095037.665223831],[598544.6187444881,4095037.8962790626],[598544.7104956318,4095038.119526832],[598544.823347852,4095038.3328861883],[598544.9562492244,4095038.534368356],[598545.1079609415,4095038.7220952683],[598545.27706886,4095038.8943170747],[598560.054725656,4095052.55739371],[598539.3839007708,4095074.039887001],[598519.6944265447,4095056.12056176],[598519.6862970251,4095056.113195657],[598516.9824615732,4095053.6740499856],[598515.3078912076,4095055.530340397],[598513.1999163672,4095054.186300936],[598502.3577063943,4095071.191088747],[598493.8283689385,4095062.5457419213],[598507.1552846351,4095048.0287520066],[598505.3136430669,4095046.338084584],[598507.1093206791,4095044.5986760887],[598474.8571973314,4095011.3032104173],[598489.2629457982,4094999.22906207],[598489.4635875465,4094999.041177083],[598489.642389556,4094998.8324003574],[598489.7971902426,4094998.60525585],[598489.9261181804,4094998.3624895704],[598493.7695273551,4094990.052342816],[598489.2313851396,4094987.953470444],[598485.6226648988,4094995.756177217]],[[598558.6233142555,4095310.4997069626],[598543.2043928455,4095291.0355218058],[598529.8342529332,4095273.2557530575],[598527.4202162136,4095266.452502268],[598527.2741631264,4095266.119838389],[598523.4426730793,4095258.8743590373],[598523.3308243235,4095258.6837460087],[598523.202578465,4095258.503755812],[598523.0589377397,4095258.335795064],[598500.3167677354,4095234.0079397415],[598517.7360326523,4095216.7671107813],[598550.894858923,4095250.9633146157],[598569.591395612,4095270.815512169],[598561.465395382,4095277.292153526],[598561.2842996807,4095277.4513619826],[598561.1193843506,4095277.627276506],[598560.9721835788,4095277.8182605845],[598560.8440667561,4095278.022537518],[598560.7362257376,4095278.2382069416],[598560.6496637552,4095278.4632625096],[598560.5851860844,4095278.695610558],[598560.5433925531,4095278.9330895813],[598560.5246719613,4095279.1734903404],[598560.5291984646,4095279.4145764173],[598560.5569299533,4095279.654105017],[598560.6076084448,4095279.8898478346],[598560.6807624833,4095280.119611784],[598560.7757115257,4095280.341259398],[598560.8915722728,4095280.552728717],[598561.0272668861,4095280.752052468],[598570.5539028764,4095293.3896188447],[598570.6613322591,4095293.522434032],[598596.6797806354,4095323.5314021967],[598590.0308363411,4095328.418192216],[598567.8686441311,4095301.3418535925],[598563.9994757096,4095304.508797818],[598586.1652027812,4095331.5894551077],[598580.9507727447,4095336.354396669],[598558.6233142555,4095310.4997069626]],[[598574.4950972499,4095290.3115852727],[598566.4847444461,4095279.6854455355],[598572.9599188312,4095274.5245569027],[598608.8038426011,4095315.663327854],[598605.2070763877,4095318.018686133],[598600.8427664945,4095320.7002678006],[598574.4950972499,4095290.3115852727]],[[598575.1578229398,4095269.435859662],[598575.092868198,4095269.3641595077],[598556.2269912544,4095249.332154525],[598570.8265364573,4095235.432282528],[598586.6725400821,4095225.1234667716],[598618.2333476763,4095205.1106443596],[598664.3697657299,4095281.342306812],[598636.35031757,4095298.702281047],[598613.0699722451,4095312.94837343],[598575.1578229398,4095269.435859662]],[[598622.4268588574,4095202.3828547425],[598646.0073925002,4095186.625700305],[598692.2867562955,4095264.5440285113],[598670.2322662524,4095277.9982230347],[598668.6944089916,4095278.831188036],[598622.4268588574,4095202.3828547425]],[[598721.2943633936,4095313.1943229153],[598703.3407110554,4095320.6379266246],[598675.0718130535,4095280.902836232],[598694.8440873504,4095268.8408922],[598721.2943633936,4095313.1943229153]],[[598650.2031371148,4095183.8986994806],[598674.7889468034,4095168.3982683923],[598674.9779275057,4095168.2665791526],[598689.3029373843,4095157.270349871],[598727.9738137597,4095131.6915677995],[598731.6346084896,4095183.3324525757],[598733.5310754519,4095238.2498334576],[598720.6973927787,4095245.753485812],[598720.5740130803,4095245.8305257326],[598696.5034099505,4095261.852231228],[598650.2031371148,4095183.8986994806]],[[598686.4711933561,4095153.1485838476],[598686.3281266722,4095153.2506197034],[598672.024831408,4095164.230180314],[598647.5404524517,4095179.666663129],[598633.480381996,4095158.539166514],[598633.2980803786,4095158.2981897136],[598633.088037677,4095158.080966875],[598603.3309682437,4095130.8154616468],[598625.6474199864,4095107.8779856595],[598634.2495513358,4095099.035226418],[598643.013601992,4095090.0281464104],[598655.858127479,4095076.830046432],[598666.7031240233,4095065.681224176],[598688.5029215477,4095081.606556985],[598688.5106629259,4095081.6121895667],[598715.3688038148,4095101.075474813],[598722.302693705,4095107.153618485],[598726.7835769315,4095114.562359256],[598727.5704790535,4095125.9635347696],[598686.4711933561,4095153.1485838476]],[[598652.2747156239,4095073.3430477856],[598641.0985386089,4095084.826874243],[598618.7763220394,4095064.944859842],[598615.4507628871,4095068.678578675],[598637.6081141599,4095088.4137503915],[598630.6658992557,4095095.548474665],[598623.7103249133,4095102.6986176567],[598589.7795041872,4095073.255504689],[598567.1484062175,4095052.30827556],[598574.3692752763,4095044.4298596643],[598580.5012690197,4095037.945567193],[598600.6560295392,4095055.49851532],[598603.939805804,4095051.7279963316],[598584.0388334572,4095034.396074429],[598595.7381386388,4095023.1836963682],[598616.8002776145,4095032.888696287],[598662.5180942251,4095062.8126978897],[598652.2747156239,4095073.3430477856]],[[598536.2407630829,4095199.767458954],[598536.3455581155,4095199.666225309],[598547.0277804784,4095188.7275416693],[598581.3554606297,4095222.61759581],[598567.9065126041,4095231.3669770793],[598567.7196768858,4095231.501149605],[598567.5459639549,4095231.651926493],[598552.772607655,4095245.717279809],[598521.3625157722,4095213.324519712],[598536.2407630829,4095199.767458954]],[[598501.6082043196,4095193.0371817076],[598487.4661994322,4095179.309136178],[598502.4177780212,4095165.463895484],[598502.5119003486,4095165.3720221682],[598512.3975789131,4095155.201169458],[598526.0871864443,4095168.9281968833],[598526.1435800754,4095168.982993481],[598543.4279674082,4095185.2573267515],[598532.8192601785,4095196.1207302897],[598517.8761235242,4095209.736918226],[598501.6577276381,4095193.0866202833],[598501.6082043196,4095193.0371817076]],[[598571.1922982987,4095163.848328369],[598614.8593747385,4095201.329604235],[598585.6624142647,4095219.843502626],[598550.5160191748,4095185.145170924],[598571.1922982987,4095163.848328369]],[[598515.9542792458,4095151.686853241],[598534.8772540564,4095133.7238423373],[598567.3579768756,4095160.6197651937],[598546.9166667123,4095181.6745865936],[598529.5997766762,4095165.3696499923],[598515.9542792458,4095151.686853241]],[[598599.8426040242,4095134.4006800666],[598629.4861942462,4095161.562207716],[598643.3468092036,4095182.389990658],[598619.2389719103,4095198.4995037476],[598574.6840073261,4095160.2561163967],[598599.8426040242,4095134.4006800666]],[[598564.3586477357,4095102.740955831],[598596.1292187311,4095131.0472548557],[598570.8537604088,4095157.0227896282],[598538.4157100351,4095130.1622020323],[598564.3586477357,4095102.740955831]],[[598620.2180973224,4095106.2882659812],[598599.6193885917,4095127.460197454],[598567.8405631788,4095099.1465440756],[598588.2404042376,4095078.539958991],[598620.2180973224,4095106.2882659812]],[[598543.1136634753,4095077.374901896],[598563.7257929876,4095055.953408733],[598584.5151737771,4095075.195953811],[598564.0915625792,4095095.826549935],[598543.1136634753,4095077.374901896]],[[598512.3183736827,4095108.2097446183],[598539.6081148182,4095080.9504354945],[598560.6124313973,4095099.4253197],[598534.5697758364,4095126.9519659923],[598512.3183736827,4095108.2097446183]],[[598494.1167146006,4095092.677343283],[598504.8600447786,4095076.5657978426],[598504.8880309303,4095076.522881264],[598515.827314173,4095059.36584494],[598516.333083428,4095059.822102323],[598535.877684802,4095077.609579262],[598508.4918629545,4095104.9648619536],[598494.1167146006,4095092.677343283]],[[598478.588275212,4095077.888412299],[598490.3628199222,4095066.152375003],[598499.5707321314,4095075.485526024],[598490.3861485545,4095089.259452097],[598478.588275212,4095077.888412299]],[[598531.0155617878,4095130.4955872414],[598512.5424449807,4095148.0315614715],[598502.1628785119,4095136.1599464724],[598501.9492471325,4095135.9436842087],[598479.069954656,4095115.4404398506],[598491.3324543036,4095096.8751173625],[598506.999498726,4095110.266916606],[598507.0133312931,4095110.278653751],[598531.0155617878,4095130.4955872414]],[[598550.2957027237,4095036.7247996065],[598555.3213800527,4095029.7472226825],[598569.0411472723,4095042.843150161],[598563.4780221953,4095048.912864579],[598550.2957027237,4095036.7247996065]],[[598640.939963954,4095752.4492455795],[598624.7370999473,4095682.208497455],[598659.4979498661,4095670.276951077],[598699.0702920897,4095656.6911683953],[598697.4467326916,4095651.9621034893],[598660.5233435216,4095664.6384605896],[598651.0003468676,4095621.5309365587],[598648.5592041295,4095622.0702158296],[598647.7921184688,4095619.6908084266],[598608.1419101729,4095632.47344758],[598579.3012201823,4095641.487670309],[598571.3988488903,4095611.4144222],[598603.9164939325,4095602.8911784273],[598635.9617942553,4095594.499006244],[598661.9468627117,4095587.68939553],[598660.6793694472,4095582.8527168324],[598637.0780041545,4095589.037657658],[598626.5058492568,4095550.968894833],[598667.4989162063,4095541.0545317163],[598666.9112235191,4095538.6245898847],[598667.5161146382,4095541.0503076618],[598725.233765769,4095526.657497868],[598736.8561401515,4095564.7799697514],[598680.0378214144,4095580.5135012497],[598681.3721560084,4095585.3321682015],[598737.5781982895,4095569.768181863],[598738.5286467534,4095606.935692111],[598692.3439565017,4095619.9939213293],[598693.704323644,4095624.8053037953],[598738.8556588957,4095612.039244696],[598742.160203624,4095649.039282477],[598701.5754384501,4095659.2723754644],[598698.4641640945,4095658.005305615],[598696.5783005217,4095662.6360203098],[598699.3584200992,4095663.7682270175],[598704.1777828241,4095679.141244158],[598694.2392844643,4095675.479451322],[598692.5106575777,4095680.1711300286],[598706.0199878328,4095685.148579031],[598716.0465510604,4095721.074252654],[598716.0573516302,4095721.1118151103],[598719.9553609114,4095734.2799298284],[598671.3994868153,4095746.29075045],[598640.939963954,4095752.4492455795]],[[598623.4831972627,4095677.352549099],[598611.9585731196,4095636.496420935],[598646.7108386453,4095625.292805895],[598655.7637398547,4095666.27235998],[598623.4831972627,4095677.352549099]],[[598625.1929000502,4095546.1422816194],[598615.4817908821,4095509.637118866],[598654.8820677578,4095499.11825585],[598712.3509400078,4095483.7963524107],[598723.7843482909,4095521.8658191534],[598666.3149241225,4095536.1967296256],[598625.1929000502,4095546.1422816194]],[[598715.7432397187,4095477.713578566],[598704.4030561851,4095440.034841699],[598730.7916088452,4095433.3146379218],[598737.5217986682,4095431.8213501466],[598743.656503388,4095470.227552207],[598715.7432397187,4095477.713578566]],[[598554.4915318481,4095569.2344115516],[598565.2552457018,4095607.85549182],[598534.6702388629,4095615.8679922516],[598523.4320421354,4095576.860549239],[598554.4915318481,4095569.2344115516]],[[598543.6445737309,4095527.723265638],[598553.1912488093,4095564.405163379],[598522.1682871922,4095572.022332204],[598513.7685495127,4095536.104855119],[598543.6445737309,4095527.723265638]],[[598519.9671564791,4095433.913182855],[598542.4028470315,4095522.878588382],[598512.5881677391,4095531.2429678086],[598490.0177480117,4095441.3665279294],[598519.9671564791,4095433.913182855]],[[598565.2897237521,4095470.5437760865],[598565.3055267103,4095470.605448727],[598577.142075868,4095514.4682468013],[598547.2424867213,4095521.621959496],[598524.8008688272,4095432.6330499733],[598554.0885252864,4095424.3938678005],[598565.2897237521,4095470.5437760865]],[[598554.2629403586,4095701.1241956116],[598532.4227776572,4095708.6178616704],[598504.8065162426,4095669.6498609204],[598541.9540346026,4095658.8949174755],[598554.2629403586,4095701.1241956116]],[[598575.8362117694,4095647.8494888335],[598587.3899696796,4095689.7487334046],[598558.9973110572,4095699.499034951],[598546.7321035109,4095657.419676222],[598575.8362117694,4095647.8494888335]],[[598618.746811754,4095678.978792599],[598592.1278840947,4095688.121542047],[598580.6010506215,4095646.3199378788],[598607.1902452605,4095638.009425102],[598618.746811754,4095678.978792599]],[[598501.824268066,4095665.307942954],[598482.119067704,4095634.812326925],[598497.9337311569,4095630.6726179207],[598533.5773813355,4095621.323023345],[598566.5621507007,4095612.681845653],[598574.5327450067,4095643.014723125],[598542.9175100776,4095653.410634242],[598501.824268066,4095665.307942954]],[[598550.8046467467,4095915.996822588],[598542.3174926578,4095914.727981246],[598530.9088789173,4095849.1274318974],[598544.6743320773,4095844.853934059],[598557.0893378858,4095914.320259981],[598550.8046467467,4095915.996822588]],[[598563.1469515179,4095839.2077325257],[598576.5549676103,4095909.1781398794],[598561.9387374779,4095913.0343101933],[598549.4885697792,4095843.3712411243],[598563.1469515179,4095839.2077325257]],[[598524.3918002017,4095791.1890766686],[598493.9351062863,4095732.0532771703],[598507.933201004,4095725.450228128],[598535.6061992352,4095783.692144095],[598535.636973835,4095783.7546515707],[598561.4969539185,4095834.483557745],[598547.9346166465,4095838.6177889393],[598524.408557621,4095791.222215829],[598524.3918002017,4095791.1890766686]],[[598587.2648919913,4095832.6927659023],[598600.036935158,4095900.707225428],[598581.3493160116,4095907.6301952237],[598567.9725162827,4095837.8226920343],[598587.2648919913,4095832.6927659023]],[[598566.0940160485,4095777.172172608],[598585.8792945597,4095827.8874581773],[598566.3886084827,4095833.070115894],[598541.4714089031,4095784.1906397496],[598566.0940160485,4095777.172172608]],[[598530.6131644568,4095714.7552020703],[598559.65246114,4095756.78534476],[598564.457797224,4095772.4394075437],[598539.2141401451,4095779.634899747],[598512.4554994442,4095723.3173843813],[598530.6131644568,4095714.7552020703]],[[598479.4009168983,4095677.573883014],[598499.7474674406,4095671.158631115],[598527.6998701942,4095710.600945016],[598509.9145789066,4095718.9875358217],[598479.4009168983,4095677.573883014]],[[598521.1138603874,4095912.376892547],[598509.157744394,4095854.973396267],[598526.073296534,4095850.5043851105],[598537.1322577607,4095914.0944012334],[598521.1138603874,4095912.376892547]],[[598500.0149970513,4095911.0109747136],[598489.1090680445,4095860.469880112],[598504.3224948259,4095856.27957026],[598515.9228964257,4095911.9752167775],[598500.0149970513,4095911.0109747136]],[[598558.0497956105,4095563.2216672776],[598548.4839352532,4095526.466052516],[598578.3788433942,4095519.3134597894],[598587.2362134594,4095556.170584412],[598558.0497956105,4095563.2216672776]],[[598592.0820104307,4095554.9365591425],[598583.2292340421,4095518.0985496426],[598610.647985305,4095510.915545889],[598620.3473853657,4095547.3766927775],[598592.0820104307,4095554.9365591425]],[[598569.2861247775,4095771.1300079953],[598564.3189071519,4095754.9485931653],[598564.231536204,4095754.708469421],[598564.1201106436,4095754.4785184707],[598563.9857945218,4095754.2611425878],[598535.3972565003,4095712.883407258],[598558.1419299986,4095705.0793908616],[598588.611469834,4095694.6158691845],[598604.1709610763,4095762.182006087],[598569.2861247775,4095771.1300079953]],[[598605.3510271754,4095767.0411799415],[598618.3876190592,4095818.1305285734],[598590.7132621348,4095826.521087363],[598570.9510100838,4095775.864825148],[598605.3510271754,4095767.0411799415]],[[598609.0082828465,4095760.9073092756],[598593.3662858759,4095692.9828963056],[598619.9824007612,4095683.8411129145],[598636.0732987527,4095753.5964791537],[598609.0082828465,4095760.9073092756]],[[598588.5508203264,4095560.9968340225],[598600.1282827543,4095598.7152085486],[598570.0925269149,4095606.5879209656],[598559.3522287031,4095568.050857924],[598588.5508203264,4095560.9968340225]],[[598593.4012526198,4095559.759462998],[598621.6589695961,4095552.2016448327],[598632.2407000704,4095590.30488789],[598604.9692104431,4095597.4468723414],[598593.4012526198,4095559.759462998]],[[598609.9830672812,4095320.8678002516],[598613.9104553848,4095318.295932764],[598637.0346132511,4095304.1454171836],[598662.3846652771,4095337.6310819318],[598629.4105278107,4095351.312444999],[598609.9830672812,4095320.8678002516]],[[598753.1959075489,4095711.9950186657],[598720.2574012702,4095717.562042344],[598710.4921865663,4095682.5727934516],[598710.469732855,4095682.4969908185],[598704.5688527114,4095663.6741014095],[598742.8502177119,4095654.021790596],[598753.1959075489,4095711.9950186657]],[[598682.9081194694,4095370.4631151943],[598669.6390547985,4095340.0345882764],[598694.0565988347,4095329.904921134],[598706.5408659267,4095364.4987004097],[598682.9081194694,4095370.4631151943]],[[598694.5603946048,4095324.282737032],[598667.1569373041,4095335.6511162845],[598641.3111372653,4095301.5106027126],[598669.0442879109,4095284.328009468],[598670.7247898437,4095283.417782407],[598698.6031870238,4095322.6039803224],[598694.5603946048,4095324.282737032]],[[598684.621627537,4095375.1874415255],[598708.1546707238,4095369.248189777],[598727.0326729107,4095429.1123150056],[598702.9517210247,4095435.244856866],[598684.621627537,4095375.1874415255]],[[598679.7680222543,4095376.413131419],[598698.0801380745,4095436.4116440457],[598676.6391775777,4095441.2612889595],[598659.1981841895,4095381.611132117],[598679.7680222543,4095376.413131419]],[[598651.3675860513,4096026.500880413],[598729.387801574,4096027.3997009667],[598728.4811263616,4096061.3397218683],[598687.5191334337,4096059.6919120885],[598651.3367470836,4096058.240267478],[598651.3675860513,4096026.500880413]],[[598688.4349898485,4096115.735203679],[598667.5382973701,4096118.2741511646],[598658.2654071512,4096094.694858997],[598651.9919684641,4096069.03029555],[598651.5442266817,4096063.252614058],[598685.0716111115,4096064.597739446],[598688.4349898485,4096115.735203679]],[[598764.8633699587,4096076.410260261],[598800.0845407599,4096097.5623757765],[598799.3682614483,4096113.038650614],[598799.3692319812,4096113.289161792],[598799.395268643,4096113.538318137],[598802.1275033167,4096131.111221935],[598790.2334901256,4096138.396235289],[598773.0344234635,4096121.0241595344],[598772.8538515362,4096120.858811986],[598772.6579716033,4096120.7119205818],[598772.448662421,4096120.5848942106],[598772.2279315499,4096120.4789512297],[598771.9978961004,4096120.395107776],[598771.7607624267,4096120.334168023],[598771.5188049643,4096120.296716466],[598771.2743444156,4096120.283112317],[598751.8671626017,4096120.1549263564],[598727.8451877352,4096113.3829616504],[598727.5735802092,4096113.3224828076],[598727.2969340003,4096113.292562683],[598727.0186763499,4096113.2935719443],[598693.4164312595,4096115.2887844103],[598690.0956910944,4096064.799605316],[598730.5075324397,4096066.4252837226],[598764.8633699587,4096076.410260261]],[[598800.4344445029,4096091.9401406203],[598775.8726249698,4096077.189511035],[598801.3379532475,4096078.6795632383],[598800.4344445029,4096091.9401406203]],[[598770.2148469753,4096027.722199613],[598803.7478579648,4096028.142325361],[598801.6242885562,4096073.687765462],[598768.4677966941,4096071.7476803707],[598770.2148469753,4096027.722199613]],[[598734.3883215451,4096027.447009829],[598765.2128671383,4096027.672923551],[598763.5011715835,4096070.807468974],[598733.463203448,4096062.0774123445],[598734.3883215451,4096027.447009829]],[[598812.2559244678,4096283.628963884],[598796.3040771565,4096300.2555568055],[598756.6731070562,4096340.435769128],[598732.8439997983,4096295.1448542317],[598811.6760272438,4096212.172727502],[598812.0724928564,4096245.8914409913],[598812.2559244678,4096283.628963884]],[[598726.8942493126,4096118.3097665138],[598750.8350910536,4096125.0588592174],[598751.0526056191,4096125.109807404],[598751.2737999391,4096125.141134337],[598751.4969077043,4096125.15258986],[598770.2081516037,4096125.2761790957],[598786.3222987648,4096141.552421912],[598704.599861487,4096223.151219323],[598674.6893508444,4096139.2525884504],[598669.2659382671,4096123.1010132493],[598691.3099241034,4096120.422669656],[598726.8942493126,4096118.3097665138]],[[598795.9692074137,4096411.749050051],[598795.860242976,4096411.5263417605],[598759.1436852767,4096345.0511864456],[598799.8759945774,4096303.754371557],[598799.900097432,4096303.7295943564],[598812.2737460295,4096290.832554022],[598812.2918485543,4096299.5137474914],[598812.3011376954,4096299.723909598],[598812.3280627842,4096299.9325466957],[598815.9863823259,4096321.1897011693],[598816.0674586461,4096321.5224725395],[598820.7182000264,4096336.165150569],[598822.0896315456,4096349.7161445115],[598822.7094946495,4096362.593889676],[598823.1870660447,4096372.6675330517],[598825.3782278101,4096437.218450844],[598825.3832215638,4096437.3128659655],[598825.8956958449,4096444.4428279307],[598800.1179051973,4096449.0724009005],[598796.1573594975,4096412.4661463764],[598796.1184998617,4096412.221274655],[598796.055576204,4096411.9814562974],[598795.9692074137,4096411.749050051]],[[598838.3417178611,4096450.554725134],[598838.5335427979,4096450.691748481],[598838.7374211758,4096450.8100946294],[598838.9515401997,4096450.9087112993],[598844.2167796965,4096453.038892405],[598833.3561222935,4096457.5334283304],[598833.3529317523,4096457.534751275],[598833.185135524,4096457.604463152],[598831.0337415125,4096446.183973414],[598830.8343174249,4096443.4094221606],[598838.1636519872,4096450.400242939],[598838.3417178611,4096450.554725134]],[[598867.104305155,4096359.266979142],[598894.6379256545,4096377.798904517],[598903.8356436669,4096385.459679533],[598909.3858325164,4096390.9338742304],[598917.3011145841,4096402.7650267305],[598920.7552575092,4096415.339277769],[598918.9381245312,4096420.7232513614],[598913.1463573102,4096427.040103635],[598911.0175457587,4096427.840562584],[598850.8537854954,4096450.330353979],[598841.2692424092,4096446.452693219],[598830.3407295314,4096436.028926333],[598828.2439771566,4096374.2592786932],[598834.4674705381,4096371.8619329836],[598859.5057295129,4096362.2011051523],[598867.104305155,4096359.266979142]],[[598817.2440531969,4096281.1745266803],[598817.1224127795,4096256.14935243],[598828.2891816881,4096277.5208521117],[598817.2440531969,4096281.1745266803]],[[598849.6542391091,4096318.5971254515],[598853.8581443622,4096328.1814639303],[598864.431725915,4096354.939156627],[598857.7055440628,4096357.536415189],[598832.6695191248,4096367.196381442],[598828.0182467769,4096368.988093447],[598827.7038424046,4096362.3562106453],[598827.0806774785,4096349.409855991],[598827.070863007,4096349.2783257253],[598825.6666827591,4096335.4037444806],[598825.6274471136,4096335.148511778],[598825.562092378,4096334.898687986],[598820.88482928,4096320.172507362],[598817.2913978458,4096299.292393907],[598817.264585195,4096286.434198052],[598830.676741421,4096281.997522268],[598830.7727311428,4096282.1724459874],[598834.183122246,4096288.858275721],[598834.1922994595,4096288.876090242],[598849.6542391091,4096318.5971254515]]],[[[598569.9125035768,4096082.0270353593],[598570.147519876,4096081.9949792256],[598570.378440444,4096081.940794838],[598570.6031866169,4096081.864969945],[598570.81973531,4096081.768187095],[598571.02613723,4096081.651317492],[598571.2205344208,4096081.5154131553],[598577.8023815411,4096076.432659062],[598576.2743687194,4096074.4539784873],[598577.8106462323,4096076.4262491083],[598587.634818863,4096068.7738228473],[598584.5622638372,4096064.8292816053],[598582.3754756118,4096066.5326551385],[598583.3433893193,4096064.243369145],[598578.7380981408,4096062.2962448136],[598576.9011069565,4096066.6410517483],[598574.2321087309,4096072.872419244],[598568.743650613,4096077.110816529],[598563.0642619326,4096077.612507795],[598547.1746442374,4096074.386487541],[598531.6380258327,4096070.632354117],[598516.7312230684,4096067.0195375164],[598515.5535165938,4096071.8788592243],[598530.461155996,4096075.4918785924],[598546.0449812895,4096079.2574192886],[598546.1347422117,4096079.2773686727],[598562.4251991931,4096082.5847700955],[598562.6626706205,4096082.6212036535],[598562.9025427195,4096082.634674328],[598563.1426002204,4096082.625057713],[598569.9125035768,4096082.0270353593]]],[[[598555.5972281833,4096144.2661877386],[598542.6639556751,4096136.936942434],[598542.4247452578,4096136.817800023],[598542.1741839444,4096136.7248722776],[598541.9151348101,4096136.6592210494],[598530.0183856736,4096134.3128023907],[598529.7813138139,4096134.277751854],[598529.5419751197,4096134.2655618466],[598529.3025688882,4096134.276344382],[598529.0652950366,4096134.31000038],[598513.7435230309,4096137.2384563796],[598513.4997801482,4096137.2978587546],[598513.2632181104,4096137.3813910084],[598501.2551174324,4096142.3123070523],[598501.0040031736,4096142.4321621205],[598500.7677635321,4096142.579180623],[598497.1162239416,4096145.1441284656],[598496.9164041844,4096145.300199886],[598496.7334203091,4096145.4757080767],[598496.5691544507,4096145.6688477965],[598496.4252962141,4096145.8776324494],[598496.3033252958,4096146.0999145196],[598496.2044962636,4096146.333407659],[598496.129825653,4096146.5757102044],[598496.0800815106,4096146.8243298815],[598496.0557754943,4096147.0767094395],[598496.057157611,4096147.330252953],[598496.0842136444,4096147.582352526],[598496.1366653017,4096147.8304151134],[598496.2139730761,4096148.071889194],[598496.3153417952,4096148.304291015],[598498.8717966042,4096153.4379177964],[598498.9897782195,4096153.6486647953],[598499.127545684,4096153.847043436],[598499.2838131541,4096154.0312021635],[598499.4571221179,4096154.1994221453],[598499.6458550076,4096154.350133311],[598499.8482502974,4096154.4819290084],[598500.0624189443,4096154.5935791307],[598500.2863620197,4096154.6840415993],[598500.5179893655,4096154.752472088],[598500.7551391034,4096154.7982319067],[598518.5052092389,4096157.3410952003],[598524.1790893563,4096163.482447996],[598571.7514286613,4096226.755007271],[598571.3265531161,4096230.4314206736],[598568.0824375055,4096233.174424907],[598546.8959129341,4096236.042503582],[598543.6442258069,4096234.7271435545],[598496.7576012668,4096174.415330977],[598496.5941169825,4096174.2254891437],[598496.4124528144,4096174.052963311],[598496.2144331656,4096173.8994861087],[598496.002046693,4096173.7665988663],[598495.7774263357,4096173.6556361336],[598495.5428278943,4096173.567712279],[598495.3006073763,4096173.503710298],[598490.4095493332,4096172.4704255415],[598489.3760604667,4096177.36244974],[598493.3717759474,4096178.206584457],[598540.1095281341,4096238.326897613],[598540.2814190283,4096238.525522592],[598540.4732018459,4096238.7050155248],[598540.6827593548,4096238.8633948555],[598540.907778095,4096238.9989121184],[598541.1457739187,4096239.110071238],[598545.6361454164,4096240.9264991246],[598545.881298052,4096241.011155022],[598546.1339020856,4096241.069956705],[598546.3912388334,4096241.102271313],[598546.6505386756,4096241.107751055],[598546.9090108637,4096241.086336956],[598569.4754251989,4096238.0314587713],[598569.7078329683,4096237.9887273517],[598569.9351680174,4096237.924243858],[598570.1553992679,4096237.8385844054],[598570.3665591087,4096237.7325143004],[598570.5667609754,4096237.606981205],[598570.7542162054,4096237.4631066686],[598575.3105752603,4096233.6105583394],[598575.4830389296,4096233.450210478],[598575.6396501658,4096233.2743466822],[598575.7790193848,4096233.084527361],[598575.8999099878,4096232.882436748],[598576.0012493338,4096232.669867957],[598576.0821382566,4096232.4487070744],[598576.141859043,4096232.220916421],[598576.1798818008,4096231.9885171447],[598576.8329633047,4096226.3374562133],[598576.84898842,4096226.1006650897],[598576.8424873451,4096225.863421382],[598576.8135186697,4096225.6278632013],[598576.7623434679,4096225.396113467],[598576.6894229457,4096225.170260776],[598576.5954142844,4096224.952340579],[598576.4811647177,4096224.7443168373],[598576.3477038962,4096224.5480643217],[598528.0994555266,4096160.376526838],[598527.9375168825,4096160.1824116814],[598521.5751084698,4096153.2958025387],[598521.4012003506,4096153.12507078],[598521.2114948854,4096152.9720831867],[598521.0077948336,4096152.83829359],[598520.7920359443,4096152.7249733843],[598520.5662685611,4096152.6331994445],[598520.3326381376,4096152.5638438934],[598520.0933648493,4096152.5175658115],[598502.762767785,4096150.034795952],[598501.7494197016,4096147.99988775],[598503.412985823,4096146.831350417],[598514.9295351328,4096142.1022813255],[598529.5271383006,4096139.3122359863],[598540.550734671,4096141.4864410497],[598552.9346648643,4096148.504375773],[598563.2050392106,4096157.0953268106],[598624.8738431706,4096246.9397470606],[598625.0169700466,4096247.1284431447],[598625.1773106472,4096247.302748643],[598625.3534259729,4096247.461099225],[598625.5437354515,4096247.602073752],[598625.7465311236,4096247.724407027],[598625.9599929707,4096247.8270011535],[598626.1822052487,4096247.908935385],[598632.530137787,4096249.9134769873],[598632.7629956933,4096249.9748462406],[598633.0006777924,4096250.013527108],[598633.2409788131,4096250.0291607],[598633.4816691853,4096250.021601964],[598633.7205157263,4096249.990921031],[598633.9553023609,4096249.937402568],[598634.1838506829,4096249.86154313],[598634.4040401664,4096249.7640465605],[598659.734684224,4096237.05530101],[598657.492489402,4096232.586233727],[598633.0684816944,4096244.8401068845],[598628.5089001603,4096243.400288358],[598567.1332875716,4096153.983014527],[598566.996369069,4096153.801774124],[598566.8435655837,4096153.633709092],[598566.676138533,4096153.480206836],[598555.9686650035,4096144.5236315713],[598555.7887758806,4096144.3864992307],[598555.5972281833,4096144.2661877386]]],[[[598934.5981594782,4096466.630512273],[598934.4801132625,4096466.4152031518],[598934.3415146181,4096466.212512889],[598934.183700588,4096466.0243968116],[598934.008193583,4096465.85266965],[598933.8166866964,4096465.698988034],[598933.6110273696,4096465.5648345095],[598933.3931995714,4096465.451503238],[598933.1653046577,4096465.360087512],[598932.9295411006,4096465.2914692056],[598932.6881832804,4096465.246310272],[598932.4435595438,4096465.2250463525],[598926.4557008083,4096464.999928256],[598925.4042517671,4096464.9545746474],[598925.1341352037,4096464.957531246],[598924.8659145124,4096464.989614888],[598924.6027212965,4096465.050450983],[598924.347628461,4096465.13932924],[598890.562103288,4096479.0],[598903.7354243943,4096479.0],[598925.7373820398,4096469.9735932937],[598926.2471348132,4096469.9955811664],[598926.2609475544,4096469.9961387143],[598930.7567742195,4096470.165162732],[598932.1336506879,4096472.9982756376],[598932.0501156087,4096477.8313695174],[598931.0119665338,4096479.0],[598937.0226991648,4096479.0],[598937.0333763441,4096478.8430608297],[598937.1432402483,4096472.4866586025],[598937.1362731012,4096472.252017048],[598937.1073285938,4096472.0190633712],[598937.0566619252,4096471.789851485],[598936.9847198145,4096471.566402312],[598936.8921365634,4096471.350685966],[598934.5981594782,4096466.630512273]]],[[[599013.939553769,4096479.0],[599014.619886999,4096479.0],[599014.0653603435,4096478.735872949],[599013.939553769,4096479.0]]]]}},{"type":"Feature","properties":{"class":"tertiary","widthMeters":8},"geometry":{"type":"Polygon","coordinates":[[[598574.063075384,4095346.969644579],[598573.238598815,4095347.9071583627],[598563.5863843767,4095351.4391318182],[598563.2847514417,4095351.5636815657],[598562.9942751356,4095351.71240474],[598555.1333825003,4095356.150867732],[598506.1549263631,4095363.3200664055],[598506.1009713328,4095363.328340467],[598474.0,4095368.475481852],[598474.0,4095376.577667755],[598507.3405818527,4095371.231764453],[598556.454304113,4095364.0427662637],[598565.3137578765,4095365.323122151],[598565.6675945433,4095365.3582893005],[598566.0231562387,4095365.361894277],[598566.3776332007,4095365.3339085924],[598576.4849498979,4095364.081856426],[598576.9225915069,4095364.3196130674],[598577.2411729401,4095364.47482311],[598577.5722413845,4095364.601227113],[598577.9131982777,4095364.69783293],[598579.6438202808,4095365.1063135588],[598580.0056192235,4095365.174303743],[598580.3721366461,4095365.208743821],[598580.7402681201,4095365.2093420825],[598582.5210619355,4095365.130209238],[598582.8831832022,4095365.097576821],[598583.2408453642,4095365.032197433],[598583.5631278387,4095364.942403005],[598589.028599273,4095368.177582242],[598603.9700505018,4095385.92240914],[598604.2256064421,4095386.198451025],[598604.5059636114,4095386.449265336],[598604.8086424613,4095386.672633809],[598605.1309660252,4095386.8665809184],[598605.4700835934,4095387.0293913474],[598608.8224490838,4095388.448970766],[598609.5235219025,4095389.488795575],[598609.7083598046,4095389.74107499],[598611.9339342228,4095392.542053323],[598619.1567723374,4095405.9580207784],[598630.3771548226,4095430.1315341657],[598638.4956095819,4095453.557699699],[598650.3748033864,4095497.7413021694],[598650.408768874,4095497.860264992],[598663.0823664585,4095539.782110342],[598663.0920921706,4095539.813806325],[598676.8858573629,4095584.112051166],[598689.1946536674,4095623.5556487283],[598692.4578841103,4095634.740612421],[598694.1937326707,4095650.5289361267],[598694.2543669258,4095654.1152568264],[598693.5780847993,4095659.6133754305],[598689.4892298471,4095676.875645885],[598684.0797540167,4095698.3465903634],[598668.1426444696,4095747.496738713],[598668.132777517,4095747.5275937337],[598656.4988202499,4095784.4225254017],[598652.8466015377,4095795.436211812],[598652.7760990096,4095795.673075442],[598648.6800605985,4095811.170037042],[598648.6702318275,4095811.2079745275],[598644.3633116209,4095828.1738992925],[598633.4171895987,4095864.755639725],[598622.9064229933,4095895.7988691716],[598622.8585146539,4095895.950183855],[598609.5864252532,4095940.952915344],[598597.0703905704,4095979.9732602243],[598597.0388831923,4095980.0762344687],[598588.5668756604,4096009.158539646],[598588.459455161,4096009.6330946377],[598588.410447501,4096010.1171812555],[598587.8835877745,4096023.269816971],[598587.6217377423,4096029.774669781],[598584.9285569519,4096036.8936207206],[598582.1772718446,4096042.6158328312],[598579.9207747536,4096044.08761877],[598579.5665523907,4096044.3474597814],[598579.2429607783,4096044.644578111],[598578.953903055,4096044.9753899397],[598576.6775256936,4096047.889175611],[598576.4345224601,4096048.2367391856],[598576.2296825995,4096048.608076824],[598576.0653086528,4096048.999014435],[598574.8145777937,4096052.4795107488],[598574.690790292,4096052.8927734154],[598574.612228664,4096053.3169637597],[598574.5798067255,4096053.747147668],[598574.5012126866,4096057.4410061752],[598574.5127777903,4096057.841699214],[598574.5643898208,4096058.2392226243],[598574.6555304364,4096058.629584061],[598575.527811865,4096061.668786663],[598575.644089622,4096062.013845674],[598575.7912641107,4096062.346901087],[598575.9681157492,4096062.6651929906],[598577.6362704738,4096065.3697026544],[598577.8904398871,4096065.7346773],[598578.1835566214,4096066.0691786637],[598578.5119968641,4096066.369071293],[598581.5883964427,4096068.8791624],[598581.9243117638,4096069.125266499],[598582.2839927644,4096069.3351138434],[598584.2653908059,4096070.3567679836],[598584.588924126,4096070.5057465835],[598584.9244276193,4096070.6253536004],[598585.2692409857,4096070.7146406365],[598588.2606962575,4096071.3486193987],[598588.6061302247,4096071.4061573003],[598588.9552728838,4096071.433261534],[598589.3054481602,4096071.4297243534],[598591.4046514421,4096071.3164908327],[598594.2327860213,4096072.549879099],[598602.0227258401,4096080.3466727305],[598607.1552128601,4096093.7722188346],[598626.7635819463,4096154.6244616513],[598626.7888266254,4096154.700207405],[598654.8178749372,4096236.083442889],[598658.3083878211,4096246.9576254836],[598658.3356706892,4096247.039570481],[598665.6952514842,4096268.3730580364],[598669.4765682619,4096267.068587482],[598665.7608154946,4096268.5495268367],[598676.931393489,4096296.5770797296],[598689.2801836034,4096332.2616022006],[598689.3516493895,4096332.4522702177],[598696.8934854773,4096351.1139191673],[598697.1247418151,4096351.59204048],[598707.8497661623,4096370.45723714],[598707.8807692818,4096370.5108024757],[598724.7701880498,4096399.1774841403],[598734.5272825714,4096420.1965703033],[598743.5227626247,4096461.4974018564],[598746.6829309274,4096479.0],[598754.81228449,4096479.0],[598751.3827351548,4096460.005434497],[598751.3547532585,4096459.8649014775],[598742.2499424658,4096418.06210111],[598742.1327775832,4096417.6379140904],[598741.9697243661,4096417.229164919],[598731.944058317,4096395.6315122508],[598731.7622410643,4096395.2852449524],[598714.789148246,4096366.476541979],[598704.2109525019,4096347.869615173],[598696.8069986912,4096329.5491445023],[598684.4613529048,4096293.873708253],[598684.3970453274,4096293.700875847],[598673.227179929,4096265.6751108943],[598665.9123880395,4096244.4714545864],[598662.4221864588,4096233.5982418116],[598662.395567362,4096233.518222503],[598634.365788061,4096152.1328645684],[598614.7368846182,4096091.216895816],[598614.6659419228,4096091.0153417382],[598609.4148843075,4096077.2796389814],[598608.8774299042,4096067.369513557],[598608.8372920182,4096066.9811951793],[598608.7594918056,4096066.5986388572],[598608.644770324,4096066.2254884937],[598605.4279426053,4096057.33259961],[598605.501477086,4096054.606410643],[598605.491985999,4096054.2028478836],[598605.441868141,4096053.802296786],[598605.3516339402,4096053.4088367876],[598604.4028995321,4096050.0580698694],[598604.2735767759,4096049.675983083],[598604.1064291624,4096049.3088640794],[598603.9031565274,4096048.960446337],[598601.9972287437,4096046.0423514163],[598601.758630094,4096045.714609048],[598601.4880832996,4096045.4127004393],[598601.1883672882,4096045.1397266528],[598599.5246157048,4096043.7720450894],[598598.5825413137,4096039.876153327],[598598.5225563634,4096039.6558211087],[598595.6163505773,4096030.0694502913],[598595.8771297763,4096023.591199016],[598596.3844532943,4096010.92627121],[598604.7045556548,4095982.3654188924],[598617.2185615379,4095943.351399055],[598617.2463327427,4095943.2611713163],[598630.5093224843,4095898.2892947667],[598641.0175501453,4095867.253564015],[598641.0609511342,4095867.117422057],[598652.0517206818,4095830.3864704077],[598652.0966235754,4095830.2240190557],[598656.4194621327,4095813.1953883367],[598660.4789022794,4095797.836892699],[598664.1014874349,4095786.912569694],[598664.1196301084,4095786.856478155],[598675.7575810319,4095749.948881348],[598691.7308866269,4095700.6871041544],[598691.8047056195,4095700.430566793],[598697.25376032,4095678.8025284014],[598697.2672708066,4095678.7472464107],[598701.4135320937,4095661.2426186977],[598701.4913121816,4095660.8089925623],[598702.2285922641,4095654.8149655424],[598702.2579408137,4095654.259017237],[598702.189456539,4095650.2083931803],[598702.1660692655,4095649.8388657114],[598700.3717576043,4095633.5187938004],[598700.3185926069,4095633.1742477748],[598700.2356288339,4095632.835639604],[598696.8640524519,4095621.2793121915],[598696.842537225,4095621.208040832],[598684.5237533342,4095581.732440557],[598670.735283403,4095537.451201281],[598658.0843857045,4095495.6044428274],[598646.1843944608,4095451.343486136],[598646.1010473007,4095451.0722476835],[598637.8699279465,4095427.3209834057],[598637.7186623663,4095426.946708951],[598626.3632376308,4095402.482256672],[598626.2570376203,4095402.2701608213],[598618.8091816917,4095388.4362369305],[598615.2871718942,4095390.3324033227],[598618.4189246679,4095387.844005331],[598616.0692192838,4095384.8868029946],[598615.7795919054,4095384.457230309],[598616.586492361,4095381.1396980155],[598616.6580136265,4095380.771059887],[598616.6946508533,4095380.3973393026],[598616.6960811545,4095380.0218298947],[598616.6622919248,4095379.6478410587],[598616.5935809516,4095379.2786687906],[598616.4905537904,4095378.917566637],[598616.3541184284,4095378.567717022],[598616.185477282,4095378.232203199],[598615.9861166001,4095377.913982081],[598601.0368142192,4095356.37020235],[598600.7658193201,4095356.0223053196],[598600.4581750091,4095355.706353492],[598600.1176205219,4095355.426187076],[598599.7482950976,4095355.18521133],[598590.4334274791,4095349.8151765303],[598590.0669649304,4095349.0872554085],[598589.8582698619,4095348.721923734],[598589.6123551821,4095348.3805341707],[598589.3319416427,4095348.066863785],[598587.9157346494,4095346.6412643124],[598587.6113189586,4095346.3648201977],[598587.2801305281,4095346.1210898445],[598586.9256694046,4095345.91264903],[598585.138826526,4095344.9820292527],[598584.7725139044,4095344.8141316934],[598584.3911676137,4095344.683941318],[598583.9986577117,4095344.5927793523],[598582.0182387949,4095344.2368680183],[598581.578004532,4095344.1827372587],[598581.1344836464,4095344.177680652],[598580.6931296802,4095344.221760374],[598578.4464003798,4095344.572855953],[598577.999388432,4095344.669164434],[598577.5662890809,4095344.815861254],[598577.1527622583,4095345.0110293147],[598575.1555588648,4095346.0973260654],[598574.8547092228,4095346.2785111484],[598574.570911682,4095346.4853867083],[598574.3063539406,4095346.7163580116],[598574.063075384,4095346.969644579]],[[598594.7105533021,4095362.5051060338],[598594.4029560726,4095362.178819611],[598594.0607710105,4095361.889012316],[598593.6882985027,4095361.639326281],[598590.4360583288,4095359.71422613],[598590.4722905416,4095359.638533745],[598590.6638501032,4095359.18222646],[598594.9755779947,4095361.667943893],[598599.5196323514,4095368.216483996],[598594.7105533021,4095362.5051060338]],[[598583.5627495948,4095353.958543591],[598583.6830716442,4095354.6362198032],[598583.600389473,4095355.3402182767],[598583.3250926113,4095355.9959932356],[598582.8781121288,4095356.536070083],[598582.2646562757,4095356.950013671],[598581.6174796133,4095357.1624669433],[598580.94050741,4095357.1925494466],[598580.2715416801,4095357.0346527244],[598579.6820423155,4095356.714396637],[598579.1443474651,4095356.178744135],[598578.7977182579,4095355.5355915595],[598578.6594962057,4095354.828524364],[598578.7357501074,4095354.098655249],[598579.0022070638,4095353.4674743647],[598579.6016545156,4095352.7858415935],[598580.3663478069,4095352.3699180875],[598581.2644728873,4095352.2295684046],[598581.9838734316,4095352.3588556],[598582.6785955575,4095352.720679327],[598583.2077003343,4095353.2532931995],[598583.5627495948,4095353.958543591]],[[598589.402279042,4096063.4128710264],[598587.453818484,4096062.9999340107],[598586.3219224367,4096062.416302525],[598584.091518684,4096060.596475002],[598583.065692013,4096058.933345015],[598582.5122958893,4096057.005202464],[598582.5641029654,4096054.5703103053],[598583.3768924215,4096052.3085041903],[598584.8485131803,4096050.424814977],[598586.9406145812,4096049.060255086],[598589.2516042674,4096048.453583994],[598591.6450948147,4096048.604382536],[598593.8928928917,4096049.4986002417],[598595.6345671028,4096050.930337847],[598596.871673713,4096052.8244256224],[598597.4879260428,4096055.0009229667],[598597.4270373045,4096057.2582885595],[598596.6918800825,4096059.388415998],[598595.357071097,4096061.2127454],[598593.5397077501,4096062.552485067],[598591.3583959665,4096063.307355754],[598589.402279042,4096063.4128710264]],[[598600.4173564306,4096067.421204214],[598600.5378544274,4096067.3323744563],[598600.6566072818,4096067.660665565],[598600.4173564306,4096067.421204214]]]}},{"type":"Feature","properties":{"class":"track","widthMeters":2.5},"geometry":{"type":"Polygon","coordinates":[[[598527.0421205084,4096021.660423463],[598485.4632920602,4096055.1238482846],[598487.0307456024,4096057.0714338133],[598528.3974166218,4096023.7787572895],[598544.0861507145,4096022.911906954],[598543.9482284723,4096020.4157143617],[598530.6931440721,4096021.1480981405],[598544.7272421819,4096004.0122587113],[598544.7976342576,4096003.9175139167],[598544.8587761379,4096003.816552088],[598544.9101226673,4096003.710273425],[598544.9512160282,4096003.599625533],[598544.9816898222,4096003.4855949744],[598557.4210703151,4095946.2226866563],[598557.441833624,4095946.096098485],[598557.4495137569,4095945.968048902],[598557.4440298293,4095945.839886479],[598557.425439596,4095945.7129609757],[598557.3939388423,4095945.588609126],[598557.3498593231,4095945.468140557],[598557.2936652674,4095945.352824],[598541.257680096,4095916.3292409186],[598539.0694689152,4095917.5382619393],[598554.8783693428,4095946.150843585],[598542.6025235385,4096002.660943362],[598527.0421205084,4096021.660423463]]]}},{"type":"Feature","properties":{"class":"unclassified","widthMeters":4},"geometry":{"type":"MultiPolygon","coordinates":[[[[598657.7094588226,4095143.6757990452],[598671.7358442855,4095167.304391966],[598720.239876472,4095248.9333144925],[598723.6786136081,4095246.8900115513],[598675.1752411562,4095165.262199675],[598660.9804656197,4095141.3499399098],[598673.1662230695,4095132.6820384297],[598686.0979135603,4095156.197453238],[598686.1382275284,4095156.267381336],[598712.3663027696,4095199.7119252896],[598715.7906509747,4095197.6445986656],[598689.5834384066,4095154.2346119303],[598676.4478717042,4095130.348461858],[598718.088355154,4095100.7492557024],[598715.7708738737,4095097.4889979647],[598672.6779683908,4095128.1206258317],[598658.9229148177,4095137.9047898194],[598644.6667938875,4095114.157182391],[598634.1828899696,4095096.2801578874],[598630.7324576108,4095098.303649063],[598641.2215518036,4095116.1895239595],[598641.2320228979,4095116.207171053],[598655.6532546411,4095140.2298173085],[598630.2403787535,4095158.294090659],[598632.5578684728,4095161.554342398],[598657.7094588226,4095143.6757990452]]],[[[598501.7041559428,4095139.210493362],[598498.8574456369,4095136.400468374],[598474.0,4095161.582431869],[598474.0,4095167.276331413],[598501.7041559428,4095139.210493362]]],[[[598529.2561012835,4095168.592367126],[598526.4586277255,4095165.733321535],[598516.3458365158,4095175.628324992],[598502.0919536275,4095162.175093471],[598499.3464055215,4095165.084039259],[598513.4975102158,4095178.4402657147],[598498.4558946836,4095193.4135797326],[598501.2778781763,4095196.2484358433],[598516.3167744216,4095181.277828764],[598533.0937084184,4095199.28297557],[598533.1261243835,4095199.3169558644],[598567.8389881934,4095234.859953196],[598570.7006358643,4095232.0651414655],[598536.004179527,4095196.53894398],[598519.1645871764,4095178.4665517015],[598529.2561012835,4095168.592367126]]],[[[598497.6515972518,4095262.1194146336],[598493.8942243628,4095260.747500287],[598486.6691674809,4095280.5353484997],[598490.4265403699,4095281.9072628464],[598497.6515972518,4095262.1194146336]]],[[[598526.6220590922,4095317.3084779894],[598527.3277911906,4095306.392792162],[598530.9334892043,4095304.667167492],[598531.1088191844,4095304.5722401743],[598531.2738264827,4095304.4603277575],[598531.4268712653,4095304.3325424218],[598542.4366373143,4095294.166831969],[598564.0661916072,4095280.9539013584],[598561.9809810985,4095277.5404138262],[598540.1826094555,4095290.856470553],[598540.0196749952,4095290.967384129],[598539.8684491767,4095291.09379699],[598528.9348135669,4095301.1892134873],[598525.9835773484,4095302.6016240683],[598517.4586124959,4095291.847194867],[598517.3333882194,4095291.7038069353],[598517.1950982229,4095291.572974617],[598517.0449954564,4095291.4558832943],[598516.8844398962,4095291.3535938486],[598516.7148862248,4095291.267033055],[598516.5378706502,4095291.1969851796],[598516.3549969873,4095291.144084878],[598516.1679221272,4095291.1088114427],[598515.9783410251,4095291.091484462],[598515.7879713436,4095291.0922609237],[598515.5985378901,4095291.111133793],[598494.9519266406,4095294.166361759],[598494.9487195732,4095294.1668389887],[598474.0,4095297.3014859916],[598474.0,4095301.346018941],[598495.5390631834,4095298.123036285],[598515.0414919311,4095295.2371212556],[598523.3620528053,4095305.7336903773],[598522.6303930015,4095317.050404706],[598526.6220590922,4095317.3084779894]]],[[[598485.5015169187,4095584.202788745],[598476.308817221,4095543.0267482535],[598476.2950573548,4095542.9691399443],[598474.0,4095533.9534061113],[598474.0,4095551.0429905327],[598481.6163568593,4095585.158259034],[598481.6609562704,4095585.324165608],[598495.3933039058,4095628.855789679],[598499.2079987836,4095627.652418169],[598485.5015169187,4095584.202788745]]]]}}]}
