{"type":"FeatureCollection","name":"descargador-coastline","crs":{"type":"name","properties":{"name":"EPSG:25830"}},"features":[{"type":"Feature","properties":{"source":"DERA/IECA","id_dera":10125300001144.0},"geometry":{"type":"LineString","coordinates":[[604025.7504897818,4110500.0],[604029.1299999999,4110520.4499999993],[604032.54,4110541.6799999997],[604034.2699999996,4110562.83],[604035.9299999997,4110579.3499999996],[604038.3899999997,4110596.9800000004],[604042.2999999998,4110624.789999999],[604045.4100000001,4110641.6400000006],[604046.9699999997,4110656.2699999996],[604048.0099999998,4110660.6500000004],[604049.9199999999,4110664.08],[604050.6100000003,4110666.8200000003],[604050.5199999996,4110670.130000001],[604053.04,4110678.9000000004],[604057.3799999999,4110686.08],[604062.3600000003,4110692.2200000007],[604067.21,4110697.16],[604070.0499999998,4110698.3100000005],[604078.0800000001,4110700.0700000003],[604082.0199999996,4110701.4399999995],[604087.8399999999,4110705.710000001],[604093.1699999999,4110714.0600000005],[604097.54,4110727.1099999994],[604100.6600000001,4110756.09],[604104.0899999999,4110772.7300000004],[604103.7400000002,4110779.49],[604103.8600000003,4110789.0600000005],[604101.2699999996,4110808.01],[604101.25,4110830.2200000007],[604104.2199999997,4110861.58],[604105.5499999998,4110883.869999999],[604107.0499999998,4110917.3599999994],[604109.8700000001,4110940.6500000004],[604114.2599999998,4110973.92]]}},{"type":"Feature","properties":{"source":"DERA/IECA","id_dera":10125300001555.0},"geometry":{"type":"LineString","coordinates":[[604114.2599999998,4110973.92],[604115.2400000002,4110981.380000001],[604117.3200000003,4111004.5600000005],[604122.6600000001,4111050.0299999993],[604124.6699999999,4111066.16],[604125.5,4111086.59]]}},{"type":"Feature","properties":{"source":"DERA/IECA","id_dera":10125300001154.0},"geometry":{"type":"LineString","coordinates":[[604125.5,4111086.59],[604126.0800000001,4111101.1099999994],[604127.1200000001,4111125.8499999996],[604128.5700000003,4111154.6500000004],[604134.4800000004,4111180.34],[604144.7999999998,4111213.2699999996],[604152.2699999996,4111233.7699999996],[604169.0300000003,4111266.42],[604176.3099999996,4111275.539999999],[604183.6100000003,4111280.91],[604190.3200000003,4111284.4399999995],[604194.7199999997,4111285.92],[604200.5099999998,4111288.5500000007],[604204.8700000001,4111291.8100000005],[604207.9199999999,4111294.210000001],[604211.4299999997,4111295.869999999],[604216.7199999997,4111298.3200000003],[604220.6100000003,4111302.0],[604226.7199999997,4111304.24],[604234.04,4111306.0999999996],[604240.6600000001,4111312.6400000006],[604252.3300000001,4111326.6899999995],[604262.04,4111347.42],[604274.1200000001,4111369.869999999],[604291.0999999996,4111401.24],[604307.9500000002,4111437.9499999993],[604317.6600000001,4111464.6899999995],[604324.2400000002,4111491.66],[604327.0300000003,4111508.4399999995],[604326.7699999996,4111516.2300000004],[604325.4900000002,4111523.1899999995],[604325.8600000003,4111534.76],[604327.2599999998,4111545.1999999993],[604328.7208695648,4111550.0]]}}]}
