{"type":"FeatureCollection","name":"descargador-roads","crs":{"type":"name","properties":{"name":"EPSG:25830"}},"source":"\u00a9 OpenStreetMap contributors, ODbL 1.0","features":[{"type":"Feature","properties":{"classes":["pedestrian","residential","tertiary","track"]},"geometry":{"type":"MultiPolygon","coordinates":[[[[603939.58991932,4110500.0],[603949.224580066,4110506.560003391],[603949.5966505036,4110506.7847627895],[603949.9909128853,4110506.9678211743],[603956.4403572609,4110509.546235996],[603963.0343003775,4110518.7171394457],[603969.1068015522,4110527.4495180035],[603973.5291729863,4110537.692627959],[603978.2833350678,4110551.291295897],[603982.2822840763,4110564.6357175494],[603966.5412094924,4110568.11297481],[603950.7257230891,4110571.606739521],[603931.3237945656,4110531.5144177927],[603931.2032701354,4110531.294283527],[603931.0612821471,4110531.087342365],[603930.8992615037,4110530.8956797854],[603930.7188409907,4110530.7212272943],[603930.5218388205,4110530.5657429597],[603930.3102403096,4110530.4307936975],[603907.8765208509,4110517.6602192926],[603907.647391792,4110517.5449268995],[603907.4076552873,4110517.453719061],[603907.1598349933,4110517.387555903],[603906.9065396633,4110517.3471339117],[603881.9142892798,4110514.6645452343],[603881.7228777561,4110514.651404231],[603850.0199379268,4110513.694834478],[603850.0119090877,4110513.6946051335],[603830.0,4110513.155135447],[603830.0,4110518.1569518754],[603849.8731563189,4110518.6926811435],[603881.4761237898,4110519.6462344397],[603905.8553342116,4110522.2630213574],[603927.161514283,4110534.391734939],[603945.70808609,4110572.7165397615],[603888.319556441,4110585.4194814228],[603830.0,4110583.733503561],[603830.0,4110588.7355924943],[603888.4849385365,4110590.4263514373],[603888.6904808327,4110590.4238392026],[603888.8951219419,4110590.404449431],[603889.0974783612,4110590.3683132115],[603947.4396026282,4110577.4542935374],[603969.2213413051,4110675.045970577],[603972.1844057033,4110688.3308567866],[603972.5752205187,4110690.07744495],[603969.0168090983,4110689.9231252247],[603969.0137287672,4110689.9229935408],[603962.6842580016,4110689.6563197877],[603908.5426252328,4110687.3242911156],[603908.3314401434,4110687.3241228987],[603908.1209943511,4110687.3417790253],[603907.9127895691,4110687.377133502],[603861.1602464666,4110697.3641528008],[603860.9467789332,4110697.4197029322],[603855.0040905375,4110699.2496014354],[603850.5688117949,4110691.40248541],[603850.4329853395,4110691.188316785],[603850.2761597736,4110690.9890110707],[603850.0999489452,4110690.806619267],[603834.2981623877,4110676.0298666554],[603830.0,4110657.9097416718],[603830.0,4110678.78476014],[603830.0102363921,4110678.8005650337],[603830.1622618475,4110678.9915094925],[603830.3321823067,4110679.1667195465],[603846.4047096735,4110694.1966504897],[603850.1392435656,4110700.803973829],[603841.6429939998,4110703.5841017268],[603830.0,4110706.61203722],[603830.0,4110711.7783555803],[603842.9762545199,4110708.40368566],[603843.1245032597,4110708.3601987963],[603851.3387933971,4110705.6723331683],[603851.7138387454,4110765.936193759],[603851.6053703165,4110781.2194513446],[603851.6137191753,4110781.442104474],[603851.6418588664,4110781.6631299867],[603851.6895658744,4110781.880772264],[603852.5276521117,4110785.0266202944],[603830.0,4110790.8715357347],[603830.0,4110813.73872994],[603837.5637956124,4110848.0862384397],[603830.0,4110848.110240811],[603830.0,4110853.11026596],[603840.679792414,4110853.076375515],[603870.4999075142,4110852.9865979976],[603882.876408623,4110909.5988058685],[603830.0,4110902.3332747757],[603830.0,4110907.3802550226],[603885.7110806592,4110915.035286809],[603980.48502895,4110930.56846765],[603980.7680836787,4110930.598439664],[604035.8902690443,4110933.275973655],[604038.3049697048,4110933.3949418385],[604038.8348970202,4110937.2349057095],[604042.8136818036,4110965.871621848],[604045.6310551785,4110987.886414043],[604047.0584632291,4111002.3543614424],[604045.2868681728,4111016.8914083373],[604038.5089434895,4111047.4532490163],[604035.847210761,4111059.487624083],[604031.7272331543,4111057.7926550955],[604029.5730211701,4111056.9014856834],[604029.5704555539,4111056.900425989],[603998.2834619418,4111043.998070322],[603998.2596889812,4111043.988409115],[603991.7980530509,4111041.400993662],[603991.5815734486,4111041.325629145],[603991.3591009595,4111041.2704094],[603991.1325058913,4111041.235798655],[603969.1222792624,4111038.9003803143],[603968.8900977672,4111038.8866246794],[603968.6576427303,4111038.8945063013],[603968.4269261879,4111038.9239569595],[603968.1999451291,4111038.974721742],[603928.7771049046,4111049.7396871676],[603928.5396358105,4111049.8174772738],[603909.5992364081,4111057.0889368933],[603900.5983092717,4111058.7656071824],[603892.2368998214,4111058.0865031225],[603885.8135044648,4111051.151632773],[603881.1239133977,4111040.1088763126],[603878.822817611,4111041.08609593],[603878.6640440656,4111039.8462205487],[603830.0,4111046.077945869],[603830.0,4111048.5983604584],[603876.7543859101,4111042.6111784205],[603881.3818431923,4111053.507626121],[603881.4747334406,4111053.7025107224],[603881.58409111,4111053.888654501],[603881.7091006793,4111054.0646693124],[603881.8488299048,4111054.2292425474],[603889.2301665309,4111062.19833205],[603889.3955371386,4111062.361030838],[603889.5752771419,4111062.5077000735],[603889.7678388117,4111062.6370767974],[603889.9715640125,4111062.748046956],[603890.1846984798,4111062.8396549923],[603890.4054069273,4111062.911112075],[603890.631788849,4111062.961802893],[603890.8618948853,4111062.99129095],[603900.5259198205,4111063.7761919415],[603900.7467043602,4111063.784329256],[603900.9673451675,4111063.7729422883],[603901.1861190542,4111063.7421199693],[603910.7396348739,4111061.962514837],[603910.96155978,4111061.9106075023],[603911.1778351987,4111061.8387049395],[603930.2148852383,4111054.5301399142],[603969.0628774668,4111043.9221448833],[603990.260727348,4111046.1713651316],[603994.2277068603,4111047.759852041],[603990.5316458677,4111059.0933111976],[603962.0454881983,4111065.3418796305],[603961.8019238546,4111065.408358284],[603961.5663066347,4111065.499063998],[603961.3410395703,4111065.6130716754],[603961.128420133,4111065.749218566],[603960.9306168032,4111065.9061161233],[603960.7496469532,4111066.082164169],[603960.5873562729,4111066.275567209],[603960.4453999455,4111066.4843527493],[603960.3252257664,4111066.706391412],[603960.2280593779,4111066.93941865],[603960.1548917682,4111067.1810578476],[603960.106469165,4111067.428844555],[603960.0832854246,4111067.6802516254],[603960.0855769953,4111067.932714988],[603960.1133205055,4111068.1836598],[603963.6710309796,4111090.1419740724],[603968.6066683228,4111089.342296627],[603965.4272715611,4111069.7189479037],[603990.1553242205,4111064.2947369223],[603991.7562453265,4111089.393765113],[603996.7461052006,4111089.0754909576],[603994.9902874728,4111061.548014129],[603998.8708591826,4111049.648778412],[604027.6629634255,4111061.52227364],[604028.0854680109,4111061.6970582786],[604027.2866699914,4111069.0302346703],[604027.2822081855,4111069.0749198436],[604025.626956702,4111087.3072631094],[604025.6169076767,4111087.5024405015],[604025.5067656883,4111096.4246584545],[604023.0726068319,4111096.433235894],[604023.0091238461,4111096.434265829],[603939.3896021751,4111098.8532991377],[603939.5341869361,4111103.8512082254],[604023.1219736505,4111101.433092979],[604026.0851230186,4111101.422651493],[604032.4120694287,4111123.8786047944],[604032.4933062416,4111124.1193312053],[604042.6620800452,4111149.8547142837],[604047.2196344063,4111161.706579422],[604051.9595612331,4111175.586813789],[604049.0477457691,4111176.014225491],[604047.8521956325,4111176.1496659396],[604047.7680860033,4111176.1606426667],[604013.8581439082,4111181.172507757],[603975.5129095499,4111185.559450151],[603929.4193721053,4111182.6387164267],[603929.261275772,4111185.1337125287],[603929.1664741116,4111183.887312655],[603898.4114197188,4111186.226554084],[603898.3892391903,4111186.2284399294],[603871.6738379734,4111188.7396419244],[603871.5662678228,4111188.7544908575],[603871.4603923169,4111188.7786197904],[603871.3570104741,4111188.8118466274],[603871.2569024932,4111188.8539206134],[603849.006557945,4111199.364874998],[603839.4723752465,4111199.025173955],[603830.0,4111196.19509067],[603830.0,4111198.804287007],[603838.9100686735,4111201.466368667],[603839.2679043054,4111200.2686818712],[603839.2233952954,4111201.5178891993],[603849.2212139138,4111201.874109498],[603849.3403939181,4111201.8726698738],[603849.4588950283,4111201.8598857885],[603849.5756398552,4111201.8358734725],[603849.6895669779,4111201.800851241],[603849.7996405928,4111201.7551375097],[603872.1263020639,4111191.2081313822],[603898.6121216859,4111188.7185096643],[603929.1814555853,4111186.3933942085],[603929.1031794387,4111187.628708631],[603975.4183436665,4111190.5634858166],[603975.6397212804,4111190.567688682],[603975.8606025088,4111190.552287546],[604011.6949738747,4111186.4526040903],[604011.8037144579,4111212.0041791173],[604011.6155381319,4111227.249084802],[604016.6151572671,4111227.3107978734],[604016.8035896871,4111212.045145002],[604016.8037574808,4111212.00364924],[604016.6922756439,4111185.807941662],[604048.4571790437,4111181.1131117507],[604049.651496163,4111180.977810987],[604049.7331511462,4111180.9671958103],[604053.633145988,4111180.3947339035],[604062.0190877116,4111203.8323262315],[604062.0280302278,4111203.856913017],[604064.7881538686,4111211.3238027166],[604067.3702527935,4111220.412736514],[604068.186968368,4111229.6242636684],[604068.4779614592,4111235.7122427253],[604066.0115775153,4111236.8417749894],[604023.9843401917,4111245.1722350214],[604024.9565049674,4111250.0768140703],[604067.2717073911,4111241.6892748224],[604067.5543903422,4111241.6158505427],[604067.8265810886,4111241.5099592153],[604069.9296793262,4111240.546801261],[604068.903789255,4111244.323653718],[604066.8334251827,4111247.086876929],[604066.6236563758,4111247.3959305803],[604066.4436300904,4111247.7232036293],[604066.2949161234,4111248.0658423137],[604064.7983073338,4111252.008601536],[604064.6617973178,4111252.44050036],[604064.574992175,4111252.885063568],[604064.5390050272,4111253.3365904265],[604064.4825904084,4111255.8015365936],[604062.6476641322,4111259.323737859],[604057.3018328164,4111266.0241819145],[604054.9690461126,4111267.1055475506],[604054.9666338477,4111267.1066673175],[604044.6280874452,4111271.912478941],[604034.3775738182,4111274.679533931],[604017.8830596909,4111275.315828493],[603998.6737609456,4111269.201464104],[603973.5492728866,4111255.9656177284],[603973.3489938864,4111255.871191679],[603973.141145409,4111255.7948571052],[603948.4369223841,4111247.9448536886],[603946.92273131,4111252.710063589],[603971.4153062156,4111260.492813789],[603996.5392448843,4111273.72837074],[603996.7389555412,4111273.8225589124],[603996.9461980838,4111273.8987579066],[604016.7836903264,4111280.213077744],[604016.9927700127,4111280.2697784356],[604017.2059733949,4111280.3081659526],[604017.4216995958,4111280.3279520553],[604017.6383287953,4111280.328988177],[604034.8526724774,4111279.6649253746],[604035.1326375421,4111279.6382957245],[604035.4078403551,4111279.580390738],[604046.1386004497,4111276.683696548],[604046.342885351,4111276.619040019],[604046.5408833488,4111276.5371279893],[604057.0730670075,4111271.641305242],[604059.4560475283,4111270.5366722117],[604066.7504708769,4111270.4352806923],[604071.0042405503,4111271.0738764857],[604071.7721649782,4111271.870129156],[604072.383146679,4111271.2808843213],[604073.364095553,4111271.4281489532],[604072.7200684707,4111272.5962626026],[604075.437495174,4111274.0944870193],[604075.7983255462,4111274.270424176],[604076.174973491,4111274.4093081793],[604079.1304448489,4111275.333485966],[604079.4728472827,4111275.4241247536],[604079.8219254445,4111275.484118532],[604079.837811663,4111275.486129431],[604083.2307139057,4111280.9803547026],[604095.3530737625,4111300.6144402106],[604095.3711303103,4111300.6432456463],[604117.119927243,4111334.820281782],[604117.9704858962,4111336.1591648506],[604137.4340306326,4111375.6585121034],[604137.46136474,4111375.712335111],[604161.6548648616,4111421.959602678],[604164.353505182,4111427.113451604],[604157.8365994524,4111428.1128673735],[604075.181187878,4111440.7622410944],[604040.1908396574,4111432.9047019463],[604039.9759099085,4111432.86620943],[604039.7584412069,4111432.846617736],[604039.5400924546,4111432.846076313],[604034.7769730756,4111433.0424477775],[603969.2325491537,4111435.721485141],[603942.0174926366,4111363.764769769],[604022.926274062,4111373.234584626],[604023.5075218383,4111368.2684844434],[603940.0252022677,4111358.497454696],[603921.9819838888,4111310.8014602666],[603917.3054255702,4111312.5705849915],[603935.8864647005,4111361.6882711994],[603964.2086731774,4111436.572300663],[603960.5332263776,4111437.5254658503],[603934.5295750485,4111444.2840101137],[603928.5241894912,4111445.8408284993],[603919.9468654689,4111448.070736321],[603914.937658416,4111439.676563056],[603874.9816655398,4111372.763175927],[603870.6887749855,4111375.3265898004],[603910.6442265536,4111442.23907022],[603914.9073788229,4111449.3830429935],[603907.1970545714,4111451.392704871],[603889.713992321,4111455.937049739],[603889.4832108521,4111456.009115592],[603889.2604698256,4111456.1031369125],[603889.0478524427,4111456.2182343584],[603888.847347223,4111456.353331473],[603830.0,4111500.2855667663],[603830.0,4111506.525219229],[603891.4459437209,4111460.653012838],[603908.4557119056,4111456.231690552],[603916.312138744,4111454.183947737],[603916.4417570994,4111462.2998128035],[603917.2567091547,4111513.617247541],[603917.8339182885,4111550.0],[603922.8345474873,4111550.0],[603922.2560796741,4111513.5379102267],[603921.4411249523,4111462.2203075606],[603921.2920664037,4111452.8872224996],[603929.779738145,4111450.6806217106],[603935.7850447212,4111449.1238238],[603961.7890228032,4111442.3651947468],[603966.6137400748,4111441.1139856307],[604022.0440502065,4111508.6256316076],[604043.4536586974,4111550.0],[604049.08341346,4111550.0],[604027.5127743362,4111508.314437653],[604081.0583169408,4111480.614578356],[604081.2631759453,4111480.4959849077],[604081.4559003523,4111480.358547938],[604081.6347623763,4111480.203499578],[604081.7981585087,4111480.0322298445],[604081.9446238936,4111479.8462741813],[604082.0728454601,4111479.6472996916],[604082.1816736945,4111479.4370901934],[604082.270132945,4111479.2175302273],[604082.3000706891,4111479.116573115],[604087.8551477399,4111480.3877098644],[604092.9937356109,4111484.3491296093],[604113.9254255914,4111508.105691645],[604118.6469156427,4111521.3818211053],[604117.1036872389,4111528.25677161],[604117.0522890992,4111528.588868567],[604116.0263533317,4111540.44883055],[604116.0170823622,4111540.676648982],[604116.0286060139,4111540.9043645808],[604116.0608284335,4111541.1300832205],[604116.1134815967,4111541.3519273843],[604116.1861275369,4111541.568051784],[604119.4554332601,4111550.0],[604124.8181128749,4111550.0],[604121.0577630085,4111540.301587544],[604122.019172393,4111529.1875596363],[604123.6837085369,4111521.7721935282],[604123.7242546711,4111521.541439759],[604123.7430212896,4111521.30790367],[604123.7398435725,4111521.073636316],[604123.7147494284,4111520.840695176],[604123.6679592495,4111520.611126079],[604123.5998839753,4111520.3869452416],[604118.4750192533,4111505.9765860587],[604118.3847831149,4111505.7566005033],[604118.2740560881,4111505.5461825123],[604118.1438397865,4111505.347235484],[604117.9953121201,4111505.1615590514],[604096.586311196,4111480.863269757],[604096.4194631778,4111480.6912758634],[604096.2369149202,4111480.5360460524],[604090.4736518334,4111476.0930541717],[604090.251445486,4111475.9401266044],[604090.0140560376,4111475.8120299554],[604089.7642471764,4111475.7102555265],[604089.5049271769,4111475.6359881745],[604081.8090910008,4111473.8749936656],[604077.9046184485,4111445.4036665033],[604158.5933670144,4111433.0552658816],[604166.2651747332,4111431.87873741],[604167.7398140258,4111438.4263567766],[604168.7920969102,4111443.110112641],[604168.8640539091,4111443.3659520973],[604168.9627632508,4111443.612707245],[604189.7669521692,4111488.5345989997],[604200.2736267531,4111525.1075071716],[604201.8628785489,4111530.63347377],[604126.7574117645,4111550.0],[604146.7822190027,4111550.0],[604205.6000950324,4111534.8333551856],[604205.6212751562,4111534.8277946864],[604215.7549157445,4111532.119876046],[604219.3564328997,4111531.240499969],[604220.6678888306,4111535.96446809],[604221.2136772799,4111537.9352669087],[604224.1910967735,4111550.0],[604232.4311116546,4111550.0],[604228.9671324036,4111535.9636892998],[604228.9385498816,4111535.8545151423],[604228.3773630962,4111533.828114153],[604226.4293343344,4111526.8111573043],[604223.9115755028,4111517.7573448746],[604223.8825065574,4111517.657828305],[604217.2486394213,4111495.9941940005],[604217.0749548381,4111495.5313434624],[604202.2335056,4111462.3706960757],[604202.1657872585,4111462.227103469],[604183.9050613105,4111425.418034957],[604183.8658818161,4111425.3411531677],[604173.5398202589,4111405.6074436116],[604172.9346446587,4111404.3949001795],[604131.949881727,4111321.8597612847],[604131.8724666039,4111321.7117076763],[604120.448286986,4111300.932127793],[604120.3148016869,4111300.707092201],[604109.1332224952,4111283.188991498],[604106.5597449925,4111275.4108545333],[604102.081226855,4111259.6430358794],[604102.1917622163,4111253.9497200674],[604102.1777181235,4111253.5283263572],[604102.1193959691,4111253.1107519064],[604102.0174437482,4111252.7016362255],[604101.8729942131,4111252.305524843],[604099.4041354515,4111246.505147891],[604099.2189389187,4111246.1267031063],[604098.994962625,4111245.7698378223],[604098.7346915626,4111245.4385114196],[604098.4410134096,4111245.136399928],[604094.1131701125,4111241.1298929597],[604090.683726392,4111236.3249051264],[604090.6274977503,4111236.2480737264],[604086.8878607226,4111231.2637633947],[604080.2390171012,4111218.594239842],[604074.7628946186,4111199.662651996],[604074.6754287877,4111199.395758227],[604065.7915424193,4111175.193789979],[604057.809408919,4111151.404982489],[604052.8370428311,4111134.940006219],[604048.137767724,4111113.4469420942],[604044.7943722324,4111097.94659233],[604043.1294521211,4111083.4263520753],[604043.292672725,4111070.2057687133],[604043.5297087389,4111063.856369374],[604043.6223175743,4111061.378570521],[604046.319422694,4111049.184264875],[604053.1391262013,4111018.4340423797],[604053.2046338274,4111018.051866425],[604055.0530585131,4111002.884384307],[604055.0821722805,4111002.4463486266],[604055.0631084968,4111002.0077606183],[604053.5867181465,4110987.043337573],[604053.5736858055,4110986.9283065773],[604050.746229104,4110964.834723851],[604050.7405295421,4110964.792015874],[604046.7595372869,4110936.1394240703],[604045.9891934263,4110930.5573517615],[604037.3785093429,4110860.5874125375],[604035.9110220212,4110848.6437021177],[604025.9155877505,4110762.551364886],[604018.0059075835,4110694.4467807263],[604017.9956188863,4110694.365470384],[604015.6893981291,4110677.526711974],[604015.6757040172,4110677.4346973617],[604014.1907139992,4110668.195828611],[604012.3510314778,4110656.7444985257],[604012.3473579773,4110656.722040471],[604009.0226003998,4110636.7527672704],[604008.9912543986,4110636.586328075],[604004.9382572159,4110617.3182089925],[604004.8874103101,4110617.105520831],[603996.4625352484,4110585.6889272216],[603996.4534707073,4110585.6556978296],[603995.8671722914,4110583.542287416],[603990.7739344817,4110565.1066781306],[603990.7500201111,4110565.0236235065],[603985.9207012103,4110548.9082723064],[603985.8649485592,4110548.736437801],[603981.0339261978,4110534.9179209378],[603980.930380385,4110534.6524883467],[603976.2923725024,4110523.9099206035],[603976.1156755384,4110523.551102835],[603975.9040281354,4110523.211724897],[603969.5843476937,4110514.1238975925],[603969.5480056042,4110514.0725043924],[603962.7876795912,4110504.670194415],[603961.9619639156,4110500.0],[603954.1126274066,4110500.0],[603953.2646557256,4110500.0],[603939.58991932,4110500.0]],[[604072.3690019371,4111220.1774064736],[604072.5020101661,4111220.637231282],[604072.4907320322,4111221.550369243],[604072.3690019371,4111220.1774064736]],[[603981.1530521506,4110925.611244089],[603888.1632004287,4110910.370471606],[603875.6124288802,4110852.961121289],[603998.9463268921,4110852.1872521047],[604008.9680477008,4110852.1222884655],[604009.0069974365,4110852.1217324976],[604019.0031649533,4110851.901142886],[604028.22636597,4110851.6998770763],[604029.4382662851,4110861.563394265],[604037.6580630034,4110928.357005114],[604036.1354484436,4110928.2819884913],[603981.1530521506,4110925.611244089]],[[604010.9635726887,4110847.0773386685],[604009.2882242529,4110839.253008176],[603994.0351765534,4110768.112116002],[603980.2127759805,4110701.9720188323],[603978.8414308599,4110695.400298503],[603994.8107171123,4110696.3253474687],[603994.8141570524,4110696.325544355],[604010.2718452606,4110697.1995840915],[604017.9689757838,4110763.474055655],[604027.632968965,4110846.711635677],[604018.8937743277,4110846.902339651],[604010.9635726887,4110847.0773386685]],[[603874.4302605063,4110847.9684404815],[603868.0251583569,4110823.866633608],[603858.0073003023,4110786.172424167],[603856.6076313562,4110780.918612481],[603856.713830995,4110765.9550285754],[603856.7138455438,4110765.9217278403],[603856.3289389721,4110704.0733244736],[603862.3127138426,4110702.230774444],[603908.6457457512,4110692.3333688034],[603962.4702665719,4110694.651738594],[603968.801715138,4110694.9184967787],[603972.7334597296,4110695.089007064],[603973.6772588706,4110695.129683714],[603975.3182833233,4110702.99375352],[603989.1422402706,4110769.14129848],[603989.144925916,4110769.1539848726],[604004.3991181747,4110840.300214876],[604005.8641486928,4110847.142303787],[603998.9146946481,4110847.1873521586],[603874.4302605063,4110847.9684404815]],[[603977.7551476872,4110690.3289918937],[603977.0643078538,4110687.241565396],[603974.1013902539,4110673.9573373557],[603952.3216755824,4110576.3747286242],[603967.619735406,4110572.9952674937],[603983.67386447,4110569.4488554266],[603988.1566088308,4110585.674707556],[603988.1577452308,4110585.6788123823],[603988.7400091396,4110587.7776797423],[603997.1320919868,4110619.0719902706],[604001.1451385325,4110638.1501823445],[604004.4541166256,4110658.024680264],[604006.2920192857,4110669.4649313833],[604007.7697019746,4110678.658337647],[604009.6181422808,4110692.1546344156],[603995.0981462507,4110691.3336155587],[603977.7551476872,4110690.3289918937]],[[603842.6800925998,4110848.0703306794],[603831.1556265819,4110795.737254168],[603853.813390171,4110789.858580634],[603863.1928911514,4110825.1508429586],[603869.2625215476,4110847.990300657],[603842.6800925998,4110848.0703306794]],[[604035.2938988713,4111070.057071106],[604035.1269340657,4111083.5809282544],[604035.1526675426,4111084.0859707603],[604036.8688580646,4111099.0533548016],[604036.9327451055,4111099.441087866],[604040.3188037071,4111115.139228508],[604040.3211897942,4111115.150215728],[604045.0550177672,4111136.8013142184],[604045.1335118131,4111137.1033350006],[604050.1686269529,4111153.77609196],[604050.2056080009,4111153.8921336248],[604057.2128059717,4111174.775382892],[604056.9790800444,4111174.813788653],[604051.9359806171,4111160.0457543475],[604051.9035438503,4111159.9563640556],[604047.3247984569,4111148.049391893],[604047.3164552369,4111148.027989483],[604037.1902029788,4111122.4002209785],[604030.4804697729,4111098.585659298],[604030.6153196138,4111087.661944475],[604032.2596989752,4111069.5493559805],[604032.898904433,4111063.6812813752],[604035.4908637624,4111064.7476198603],[604035.2963785133,4111069.9572269246],[604035.2938988713,4111070.057071106]],[[604067.1169839776,4111202.0205738456],[604068.6897108558,4111207.4576722938],[604066.7224114819,4111202.1355891763],[604058.660815216,4111179.604499285],[604058.8756900927,4111179.569191122],[604067.1169839776,4111202.0205738456]],[[604066.4883648043,4111265.4384409394],[604064.1394665813,4111265.471090314],[604065.7267189461,4111263.4816344096],[604066.4883648043,4111265.4384409394]],[[604194.9639209784,4111465.711271335],[604209.6717653684,4111498.5734018325],[604216.2179393091,4111519.9506642097],[604218.0171584096,4111526.42062054],[604214.5426407686,4111527.26898737],[604214.4902346177,4111527.282385662],[604206.7004478289,4111529.3639780246],[604205.0791525472,4111523.7265937137],[604194.5193348423,4111486.968698516],[604194.4591321393,4111486.785953017],[604194.3850535786,4111486.6083786674],[604173.6119890868,4111441.7536929995],[604172.6180672324,4111437.3297045617],[604171.2193921024,4111431.119376355],[604177.3380766952,4111430.1819658927],[604194.9639209784,4111465.711271335]],[[604166.0850331404,4111419.641498011],[604141.9057446369,4111373.42139677],[604122.3957474595,4111333.827778863],[604122.2634131998,4111333.5922453557],[604121.3397983229,4111332.13836288],[604099.5985765947,4111297.973229378],[604087.4850869938,4111278.353510657],[604086.5172460555,4111276.786257676],[604088.9315912355,4111277.6641457407],[604094.1425487465,4111282.150900794],[604094.540712459,4111282.452567608],[604102.5760616788,4111287.785019754],[604113.5009667084,4111304.90099087],[604124.8218317744,4111325.492650653],[604165.7712316229,4111407.9565753504],[604165.7748352579,4111407.9638139764],[604166.3989344604,4111409.214273163],[604166.4338249041,4111409.282535368],[604174.917080607,4111425.494534803],[604169.5780771432,4111426.3124945504],[604166.0850331404,4111419.641498011]],[[604039.4168177192,4111437.855406082],[604072.852352733,4111445.3637916413],[604077.0902215466,4111476.266236938],[604077.0907928066,4111476.2703768434],[604077.1901784339,4111476.986202809],[604024.7916718381,4111504.09268431],[603972.6496213477,4111440.585991945],[604034.9816108615,4111438.03825838],[604039.4168177192,4111437.855406082]],[[604081.9340697266,4111245.783287444],[604085.5954659575,4111245.9341725563],[604088.9344216865,4111247.2374482835],[604092.3783253526,4111250.4256469053],[604094.1766460728,4111254.6506508705],[604094.085726264,4111259.3336335714],[604092.8007338863,4111262.4552588705],[604090.5305223789,4111265.116332036],[604087.5450058467,4111266.930112483],[604083.9487935567,4111267.7678322126],[604082.6085655807,4111267.7730185795],[604081.1789889986,4111267.5920608183],[604078.9471658327,4111266.8941682847],[604077.1113769878,4111265.8820255585],[604073.9831370708,4111262.638386866],[604072.4201179171,4111258.6227068054],[604072.5212047527,4111254.205879862],[604073.574001773,4111251.4323259513],[604075.3953867459,4111249.0014041145],[604078.4114046778,4111246.837809697],[604081.9340697266,4111245.783287444]],[[604081.7677511952,4111237.769643422],[604081.5937664204,4111237.7624735585],[604081.151303349,4111237.768737154],[604080.7122396366,4111237.823835781],[604080.2819486767,4111237.927095124],[604078.8115695957,4111238.367258307],[604079.7561116713,4111234.889891522],[604079.9534576673,4111235.2659388296],[604080.1137533282,4111235.543717896],[604080.2957875953,4111235.807762276],[604081.7677511952,4111237.769643422]],[[604096.1996219951,4111270.797370199],[604096.749784083,4111270.152486864],[604098.1358022672,4111275.0323338825],[604094.6113952642,4111271.997737861],[604095.2334238155,4111271.6198390243],[604095.5840494209,4111271.3804628667],[604095.9073293922,4111271.105273259],[604096.1996219951,4111270.797370199]]],[[[603973.7522327314,4110873.711504678],[603973.8594507171,4110873.81208943],[603973.9760001184,4110873.901695378],[603974.1007613882,4110873.9794617873],[603974.232536098,4110874.044641651],[603974.37005845,4110874.0966088674],[603974.5120074358,4110874.1348642497],[603974.6570195255,4110874.1590403267],[603974.803701766,4110874.1689048675],[603974.950645161,4110874.164363116],[604007.8425152133,4110871.5299513587],[604007.9845338069,4110871.5117208883],[604008.1241671521,4110871.480032406],[604008.2601429325,4110871.4351746514],[604008.3912221594,4110871.377556362],[604008.5162104601,4110871.3077025455],[604008.6339689619,4110871.2262496985],[604008.7434246684,4110871.1339400066],[604008.8435802375,4110871.0316145797],[604008.9335230677,4110870.9202057905],[604009.012433615,4110870.800728778],[604009.0795928594,4110870.674272197],[604009.1343888566,4110870.5419882988],[604009.1763223148,4110870.405082433],[604009.205011143,4110870.2648020633],[604009.2201939333,4110870.1224254016],[604009.2217323427,4110869.97924976],[604009.001878532,4110864.0402254867],[604008.998967597,4110863.9870990952],[604008.9081167078,4110862.735732683],[604008.4048657141,4110855.3099532514],[604008.3878701009,4110855.1646623123],[604008.3568032309,4110855.021717717],[604008.3119605616,4110854.882478919],[604008.2537685625,4110854.74827013],[604008.1827806605,4110854.6203677235],[604008.0996719762,4110854.499988097],[604008.0052329028,4110854.388276105],[604007.9003615901,4110854.2862941674],[604007.7860554015,4110854.1950121694],[604007.6634014304,4110854.1152982363],[604007.5335661597,4110854.0479104756],[604007.3977843696,4110853.993489769],[604007.2573473937,4110853.952553677],[604007.1135908379,4110853.925491517],[604006.967881879,4110853.9125606595],[604006.8216062611,4110853.9138840814],[603973.485322177,4110855.8437758805],[603973.3367262654,4110855.8598370426],[603973.1904663689,4110855.890606322],[603973.0479946018,4110855.9357782314],[603972.9107254682,4110855.9949042904],[603972.7800218193,4110856.067397476],[603972.6571813219,4110856.1525380546],[603972.543423575,4110856.2494807225],[603972.4398780012,4110856.3572630035],[603972.3475726334,4110856.4748148],[603972.2674239083,4110856.600969022],[603972.2002275677,4110856.7344731707],[603972.1466507578,4110856.8740017745],[603972.1072254059,4110857.0181695498],[603972.0823429393,4110857.1655451544],[603972.072250399,4110857.3146653958],[603972.077047987,4110857.4640497626],[603973.3359225293,4110872.791932432],[603973.3551218902,4110872.937686929],[603973.3884971348,4110873.0808619335],[603973.435727668,4110873.2200821387],[603973.4963598042,4110873.354010227],[603973.5698111247,4110873.4813597165],[603973.655376073,4110873.6009073155],[603973.7522327314,4110873.711504678]],[[603976.2033225059,4110871.054425333],[603975.192759733,4110858.7499524946],[604005.5121617907,4110856.994712911],[604005.9152261552,4110862.9421767103],[604005.9157309721,4110862.9493693043],[604006.0049162621,4110864.177794006],[604006.1706280163,4110868.6542510088],[603976.2033225059,4110871.054425333]]],[[[604158.524650845,4111477.501246687],[604158.6415376643,4111477.5954681174],[604158.7672577463,4111477.677533137],[604158.9005516435,4111477.746619629],[604159.0400840349,4111477.8020354947],[604159.1844571035,4111477.843225585],[604159.3322245385,4111477.869777262],[604159.4819060253,4111477.8814245355],[604159.632002074,4111477.8780507245],[604159.781009042,4111477.859689627],[604159.9274341972,4111477.826525182],[604172.7272383319,4111474.2454367643],[604172.8636415475,4111474.200123492],[604172.9950815298,4111474.141962845],[604173.1203514187,4111474.0714888438],[604173.2383010065,4111473.98934857],[604173.3478472995,4111473.8962962218],[604173.4479844618,4111473.79318619],[604173.5377930503,4111473.680965215],[604173.6164484574,4111473.5606636903],[604173.683228482,4111473.433386205],[604173.7375199611,4111473.300301401],[604173.778824399,4111473.1626312397],[604173.8067625454,4111473.0216397867],[604173.8210778766,4111472.878621602],[604173.8216389518,4111472.734889855],[604173.8084406191,4111472.5917642675],[604173.7816040636,4111472.4505589944],[604165.8152198024,4111439.2862132736],[604165.7723717802,4111439.1406818237],[604165.7150428682,4111439.000222748],[604165.6438194863,4111438.8662728104],[604165.5594301819,4111438.7402021904],[604165.4627381772,4111438.62330047],[604165.3547325393,4111438.5167634427],[604165.236518063,4111438.4216808807],[604165.1093039695,4111438.3390253885],[604164.9743915381,4111438.2696424522],[604164.8331607942,4111438.214241794],[604164.6870563937,4111438.173390109],[604164.5375728456,4111438.1475052717],[604164.386239224,4111438.136852059],[604164.2346035276,4111438.141539443],[604164.0842168452,4111438.161519476],[604163.9366174892,4111438.1965877824],[604150.9833159683,4111441.975519002],[604150.8478833956,4111442.022153424],[604150.7175163927,4111442.0814930876],[604150.5934037183,4111442.1529968996],[604150.4766771009,4111442.236012849],[604150.3684009187,4111442.3297839505],[604150.269562494,4111442.4334551464],[604150.1810630906,4111442.5460811057],[604150.1037096953,4111442.666634842],[604150.0382076593,4111442.794017079],[604149.9851542666,4111442.9270662754],[604149.9450332876,4111443.064569214],[604149.9182105677,4111443.2052720664],[604149.9049306912,4111443.3478918266],[604149.9053147517,4111443.491128008],[604149.9193592469,4111443.633674503],[604149.9469361112,4111443.7742314935],[604158.0668177585,4111476.7407344123],[604158.1099740656,4111476.884531977],[604158.1672887699,4111477.0232951967],[604158.2381877004,4111477.155633959],[604158.3219606008,4111477.2802225123],[604158.4177682452,4111477.3958127443],[604158.524650845,4111477.501246687]],[[604160.6096111957,4111474.520467145],[604153.2037338896,4111444.452802807],[604163.2658202142,4111441.5173402084],[604170.5269814316,4111471.745816899],[604160.6096111957,4111474.520467145]]]]}}]}
