{"type":"FeatureCollection","name":"el-cantal-coastline","crs":{"type":"name","properties":{"name":"EPSG:25830"}},"features":[{"type":"Feature","properties":{"source":"DERA/IECA","id_dera":10125300001064.0},"geometry":{"type":"LineString","coordinates":[[603729.39612852,4109050.0],[603736.9900000002,4109083.41],[603753.9000000004,4109220.5700000003],[603762.7599999998,4109293.3499999996],[603776.8300000001,4109349.51],[603787.6900000004,4109367.6500000004],[603790.2800000003,4109378.1400000006]]}},{"type":"Feature","properties":{"source":"DERA/IECA","id_dera":10125300000431.0},"geometry":{"type":"LineString","coordinates":[[603790.2800000003,4109378.1400000006],[603801.8600000003,4109388.8100000005],[603819.4800000004,4109401.5],[603823.29,4109419.25],[603826.6900000004,4109436.17],[603831.7400000002,4109442.7799999993],[603833.8200000003,4109447.6999999993],[603834.5,4109452.039999999],[603835.4100000001,4109455.460000001],[603838.1299999999,4109459.460000001],[603841.6600000001,4109463.75],[603846.1200000001,4109468.76],[603848.2599999998,4109474.3900000006],[603851.4199999999,4109482.630000001],[603854.2800000003,4109487.3100000005],[603857.4100000001,4109492.380000001],[603861.0700000003,4109500.58],[603865.7800000003,4109525.09],[603867.3899999997,4109549.9399999995],[603869.8300000001,4109585.6799999997],[603874.6699999999,4109630.2200000007],[603877.3899999997,4109660.369999999],[603877.5199999996,4109661.039999999]]}},{"type":"Feature","properties":{"source":"DERA/IECA","id_dera":10125300001157.0},"geometry":{"type":"LineString","coordinates":[[603877.5199999996,4109661.039999999],[603881.2300000004,4109681.3200000003],[603883.5199999996,4109696.6500000004]]}},{"type":"Feature","properties":{"source":"DERA/IECA","id_dera":10125300001155.0},"geometry":{"type":"LineString","coordinates":[[603883.5199999996,4109696.6500000004],[603884.0099999998,4109699.91],[603889.7300000004,4109728.34],[603896.8099999996,4109757.6899999995]]}},{"type":"Feature","properties":{"source":"DERA/IECA","id_dera":10125300001144.0},"geometry":{"type":"LineString","coordinates":[[603896.8099999996,4109757.6899999995],[603898.8799999999,4109766.2799999993],[603902.9199999999,4109789.3599999994],[603904.9299999997,4109813.1799999997],[603905.21,4109826.2799999993],[603905.8200000003,4109831.9399999995],[603907.9000000004,4109842.59],[603909.0800000001,4109848.4299999997],[603909.7199999997,4109854.9499999993],[603909.6900000004,4109859.5700000003],[603909.5899999999,4109865.3000000007],[603910.2999999998,4109871.460000001],[603913.1500000004,4109890.51],[603915.0199999996,4109901.34],[603917.25,4109909.039999999],[603918.29,4109914.460000001],[603918.8700000001,4109919.9700000007],[603919.1799999997,4109928.1999999993],[603918.7199999997,4109933.8499999996],[603920.1100000003,4109940.369999999],[603922.2400000002,4109947.8599999994],[603924.8499999996,4109959.039999999],[603927.8600000003,4109974.0],[603927.3799999999,4109984.039999999],[603927.4199999999,4109989.84],[603928.3499999996,4109996.210000001],[603927.5999999996,4110003.25],[603928.4299999997,4110013.6500000004],[603929.5083767768,4110022.0]]}}]}
