{"type":"FeatureCollection","name":"el-cantal-roads","crs":{"type":"name","properties":{"name":"EPSG:25830"}},"source":"\u00a9 OpenStreetMap contributors, ODbL 1.0","features":[{"type":"Feature","properties":{"classes":["residential","service","tertiary","track"]},"geometry":{"type":"MultiPolygon","coordinates":[[[[603530.0,4109051.312951787],[603532.7112484737,4109061.6892429255],[603530.0,4109062.7187944814],[603530.0,4109068.06715274],[603534.00583644,4109066.5460029156],[603546.1395707694,4109111.3448569817],[603530.0,4109115.5548891816],[603530.0,4109120.722198772],[603547.4364112199,4109116.173883718],[603579.2126119961,4109235.5334982905],[603549.4785901689,4109236.492860209],[603549.3051960975,4109236.504498064],[603530.0,4109238.476218925],[603530.0,4109243.502229758],[603549.726729611,4109241.487455907],[603582.5185069365,4109240.4294361547],[603582.5695815318,4109240.4272653065],[603662.198578666,4109236.226749136],[603679.1761900379,4109235.8931081216],[603679.2024160208,4109235.892455061],[603680.9995805365,4109235.8382667415],[603681.2127663093,4109240.252774739],[603678.3505102559,4109295.846870203],[603671.9298155791,4109305.3206629916],[603669.3212558128,4109306.4027037323],[603668.9290707328,4109306.5909960973],[603668.559653777,4109306.820766122],[603668.2173747591,4109307.08929587],[603665.2084976888,4109309.7264055507],[603664.8939426937,4109310.0342980246],[603664.615121482,4109310.3748877374],[603664.3754102758,4109310.744050517],[603662.3779180265,4109314.225785665],[603662.1806148508,4109314.6181438616],[603662.0275142652,4109315.0297671217],[603661.9204618346,4109315.455693494],[603661.1614900001,4109319.3742988985],[603661.101686153,4109319.810498759],[603661.0901843745,4109320.250628885],[603661.1271240135,4109320.689356912],[603661.6825135346,4109324.6574094105],[603661.7674905885,4109325.089591029],[603661.8994695963,4109325.5098095355],[603662.0768502959,4109325.912969725],[603663.8898703207,4109329.4859374953],[603664.1091564817,4109329.8650948443],[603664.3685837256,4109330.218003077],[603664.6650414111,4109330.5404306757],[603667.5360062232,4109333.338599924],[603667.8674445688,4109333.6278554634],[603668.2286419545,4109333.878966181],[603668.6152296946,4109334.0888948906],[603671.4182073534,4109335.4169146875],[603674.5367305641,4109339.2874363214],[603674.6107761668,4109339.3766588434],[603682.5540580683,4109348.6705922526],[603686.6221076383,4109360.6705589704],[603712.51928764,4109439.4619856463],[603721.6578010569,4109467.912371854],[603725.8855617819,4109484.6857995],[603727.7779608234,4109500.1770036635],[603728.1050748153,4109511.4645025507],[603727.4640646381,4109525.5665506893],[603724.1478341462,4109546.6437904728],[603721.8325696441,4109560.3519364586],[603721.7804572794,4109560.8449781253],[603721.1227888631,4109576.027137431],[603721.1306268687,4109576.5044718953],[603722.362384135,4109592.6530259224],[603722.402031214,4109592.9869548096],[603725.0522411213,4109609.3859743895],[603725.0699320079,4109609.487173089],[603731.3325843645,4109642.7852749196],[603731.3417184486,4109642.832289033],[603736.901303066,4109670.560358887],[603734.8271898226,4109671.2780992496],[603730.0893332695,4109672.9174683737],[603730.0579911385,4109672.928783197],[603698.4918951973,4109684.802374278],[603677.080603612,4109688.462554025],[603655.5558271052,4109689.0332129747],[603641.7350310218,4109686.830583766],[603633.5406092302,4109685.2248093355],[603633.4559277513,4109685.2112134797],[603616.2296418429,4109683.0487212176],[603594.8154196986,4109679.7035859767],[603594.7032888472,4109679.691222125],[603571.8704105578,4109678.2123380466],[603571.7347501077,4109678.2109290515],[603542.5977714729,4109679.4910972537],[603530.0,4109678.5634696865],[603530.0,4109681.070238029],[603542.4874499018,4109681.989742149],[603542.6341115288,4109681.991912434],[603571.7766162413,4109680.711501437],[603594.485357924,4109682.182345195],[603615.8623684193,4109685.5216675703],[603615.899596345,4109685.5269107586],[603633.1019615524,4109687.686400149],[603639.8229185567,4109689.0034352224],[603638.2263045493,4109693.2182404823],[603638.1889507596,4109693.3333981275],[603638.1629122712,4109693.4516291977],[603638.1484333307,4109693.5718246596],[603638.1456497535,4109693.692857054],[603638.1545876503,4109693.813591071],[603638.7926695547,4109699.0032070545],[603641.2739841673,4109698.69812052],[603640.6735918421,4109693.8150395458],[603642.3247961297,4109689.4561246894],[603655.2765947621,4109691.5202612127],[603655.3911745823,4109691.533137035],[603655.5064533713,4109691.535400393],[603677.2362328256,4109690.9593064613],[603677.4137322262,4109690.9418721786],[603699.0308470016,4109687.2465077317],[603699.1470562115,4109687.2208958184],[603699.2603033821,4109687.184349561],[603729.4109316501,4109675.843186829],[603743.0108350711,4109726.8299439508],[603743.055551665,4109726.9697299073],[603743.113714878,4109727.1044768114],[603743.1847679021,4109727.2328947037],[603743.2680305332,4109727.3537542163],[603743.3627056817,4109727.4658983364],[603743.4678870041,4109727.568253487],[603743.5825675792,4109727.659839802],[603743.7056495475,4109727.7397805084],[603743.8359546213,4109727.8073103176],[603743.9722353651,4109727.8617827543],[603744.1131871364,4109727.902676343],[603748.0990988762,4109728.850390478],[603751.2909241909,4109729.6113828057],[603751.391842137,4109730.006724727],[603756.5281469136,4109750.131206861],[603756.5705642747,4109750.2845991855],[603759.9780058886,4109761.7164279586],[603758.7946566319,4109761.7702055094],[603750.1888588115,4109761.9406638835],[603750.1636506009,4109761.9412903865],[603701.7877282022,4109763.3877374455],[603701.4988678679,4109763.4131996506],[603701.2148991675,4109763.471939704],[603667.9038281515,4109772.4049835317],[603667.6669308163,4109772.4813403166],[603667.4388001834,4109772.580874835],[603667.2216975094,4109772.70260049],[603667.0177747404,4109772.845310722],[603636.8476123823,4109796.28029177],[603629.1750019446,4109794.8096782123],[603614.408623659,4109791.9763121167],[603614.1057901315,4109791.9371924335],[603554.4012643561,4109787.909436567],[603530.0,4109781.7584256995],[603530.0,4109786.914836975],[603553.3973533928,4109792.812784429],[603553.6171807519,4109792.857812627],[603553.8401601264,4109792.882948357],[603613.6166341415,4109796.9155579587],[603625.5326636,4109799.2020003893],[603613.6085692697,4109839.9608287374],[603556.9784600771,4109849.961158215],[603557.8479585048,4109854.8849750767],[603613.4968918808,4109845.057911757],[603617.8309474448,4109872.711711109],[603618.0265946056,4109873.963159563],[603574.4489503516,4109882.3781133303],[603570.4392175894,4109878.2616495597],[603564.0408102825,4109867.928127476],[603563.918003337,4109867.7478667977],[603559.6088669567,4109861.9805588936],[603559.4589804899,4109861.798530675],[603559.2926111398,4109861.6314335037],[603559.1112389343,4109861.480753882],[603558.916477367,4109861.347832261],[603555.2924066584,4109859.1174286446],[603555.0852547191,4109859.003086605],[603554.8682207576,4109858.9088407164],[603554.6432489128,4109858.835535212],[603554.4123544297,4109858.7838267437],[603554.1776056066,4109858.7541785054],[603549.4823077992,4109858.3858207436],[603549.2044094831,4109858.3795198495],[603548.9275294609,4109858.4041090463],[603548.6550907303,4109858.4592843438],[603545.2057824591,4109859.3600663715],[603544.9537410085,4109859.440350034],[603544.7115931216,4109859.5468148645],[603544.4820497066,4109859.6782689625],[603544.2676805609,4109859.833240665],[603530.0,4109871.3443658897],[603530.0,4109877.768775937],[603546.9890576256,4109864.0620512217],[603549.5110424205,4109863.403438422],[603553.1853319389,4109863.6916955505],[603555.889200613,4109865.35576862],[603559.847222223,4109870.6531477934],[603566.3320911042,4109881.126306594],[603566.4877649791,4109881.3495770004],[603566.666788411,4109881.554600513],[603568.5750572213,4109883.5136635946],[603561.0395798538,4109884.970914217],[603560.8103846132,4109885.0265689194],[603560.5874540911,4109885.1035746755],[603560.3727724726,4109885.201246098],[603560.1682505239,4109885.318713867],[603559.9757085853,4109885.4549324634],[603559.7968603696,4109885.6086894795],[603559.633297709,4109885.7786164056],[603530.0,4109919.62488588],[603530.0,4109927.215262614],[603562.8305325299,4109889.7172068153],[603574.0733258005,4109887.5430156714],[603621.3432075031,4109878.415081477],[603621.4051761024,4109878.402299695],[603670.4592007519,4109867.6353916815],[603669.722584248,4109922.750515894],[603669.7317205465,4109923.00005084],[603669.7657039367,4109923.247429679],[603669.8241953942,4109923.4901845157],[603669.9066113972,4109923.725893581],[603670.0121297484,4109923.952205398],[603670.1396977772,4109924.1668622387],[603670.2880428411,4109924.367722646],[603670.4556850224,4109924.5527827987],[603670.6409518914,4109924.7201965027],[603670.8419951914,4109924.868293608],[603683.0825777809,4109932.9745786306],[603683.2971575978,4109933.1017582174],[603683.523342888,4109933.2069217074],[603683.7588819625,4109933.2890221914],[603684.0014300151,4109933.347242354],[603684.2485724643,4109933.38100261],[603684.4978489917,4109933.3899668735],[603684.7467780336,4109933.374045905],[603837.1847472521,4109915.954555197],[603846.5894184186,4109914.8719666908],[603849.8455663802,4109914.5009656968],[603855.4917034344,4109959.879886982],[603855.4969812245,4109959.920599214],[603859.7681855498,4109991.592494934],[603857.9607151671,4109991.7618344733],[603855.1289104805,4109991.998724989],[603852.3461012519,4109990.699079652],[603851.2542689992,4109981.1982952617],[603848.2738849025,4109981.540801664],[603849.4614479269,4109991.8746054308],[603849.4866132052,4109992.0253717364],[603849.5269911716,4109992.172794224],[603849.5821625459,4109992.3153420747],[603849.6515544337,4109992.4515350848],[603849.7344462771,4109992.5799590405],[603849.8299773354,4109992.6992804008],[603849.937155624,4109992.8082601447],[603850.0548682145,4109992.905766638],[603850.1818927913,4109992.9907873827],[603850.3169103443,4109993.062439532],[603854.2212755,4109994.8858810803],[603854.3659036796,4109994.9444681294],[603854.5158357922,4109994.9877129477],[603854.6694492556,4109995.0151475347],[603854.8250816476,4109995.02647499],[603854.981048697,4109995.0215727272],[603858.2182439133,4109994.7507698545],[603858.2331206497,4109994.74945075],[603860.1417317897,4109994.570635465],[603860.9006481452,4110001.207395806],[603858.9274006523,4110009.0985072493],[603858.8523097227,4110009.474580518],[603857.7469579533,4110016.8318670643],[603856.2163098255,4110018.2290110253],[603855.903152566,4110018.548754448],[603855.6276749796,4110018.901480156],[603855.3933257587,4110019.2827723906],[603855.261452594,4110019.526986351],[603853.8732916731,4110019.877543908],[603847.8350327288,4110021.1133068167],[603842.5749998878,4110022.0],[603853.9260492602,4110022.0],[603859.1191955131,4110022.0],[603862.8679305522,4110022.0],[603863.951550953,4110022.0],[603864.2334160819,4110022.0],[603865.668226691,4110021.377199452],[603867.8220216604,4110021.2190966103],[603869.9021943944,4110021.764643112],[603870.254181979,4110022.0],[603871.8297818585,4110022.0],[603873.1443414876,4110022.0],[603880.5165378967,4110022.0],[603880.382822504,4110021.58152782],[603880.2230579852,4110021.163709272],[603880.0176407141,4110020.766341954],[603879.7691396525,4110020.394395368],[603877.9101342433,4110017.923164756],[603875.1715790615,4110012.209415914],[603875.0986463721,4110012.0648325253],[603868.8454002903,4110000.268334493],[603867.9287744433,4109992.252397],[603867.9187882124,4109992.172245053],[603863.427955462,4109958.8717574766],[603857.4807665676,4109911.0732336165],[603857.3999543056,4109910.6295965808],[603857.2697219608,4109910.1978744743],[603847.223626699,4109882.622902924],[603847.0581772067,4109882.233996425],[603846.8526170824,4109881.8647176204],[603822.9970973883,4109843.8813544763],[603818.2854548005,4109836.347878297],[603818.1137670089,4109836.0953473845],[603779.0731272593,4109783.138240542],[603768.5614368317,4109762.5069168196],[603764.259977761,4109748.0756956446],[603759.1433356253,4109728.0282534217],[603758.1491168641,4109724.1334421225],[603751.5765518603,4109697.024205845],[603751.5723573935,4109697.0070704287],[603746.5242698526,4109676.579562601],[603744.8723162322,4109669.62167609],[603739.190310686,4109641.283039747],[603732.9415799197,4109608.0589580755],[603730.3264136,4109591.876781878],[603729.1256422955,4109576.13445925],[603729.762212857,4109561.439340197],[603732.0398645515,4109547.953890951],[603732.0471153907,4109547.9094377384],[603735.4012718241,4109526.591148919],[603735.4457551197,4109526.1510817003],[603736.1035824246,4109511.679061364],[603736.1060297196,4109511.381556303],[603735.7692356703,4109499.760034298],[603735.7413983315,4109499.3908737847],[603733.7960903107,4109483.466556],[603733.7042971804,4109482.9739604057],[603729.3839414332,4109465.8331666747],[603729.3136085911,4109465.5875169574],[603720.1318703514,4109437.002561499],[603720.1235167383,4109436.976853357],[603694.2163152128,4109358.154936483],[603694.2045489381,4109358.1196906636],[603690.1074421132,4109346.0340106115],[603690.4097873577,4109329.8833459057],[603692.0251835028,4109327.3694220358],[603692.2484727845,4109326.9743060195],[603692.4255667146,4109326.556439403],[603692.5541854878,4109326.121201559],[603693.4917946869,4109322.1271235975],[603693.5697853905,4109321.684326107],[603693.5975901586,4109321.2355733216],[603693.5748576913,4109320.7865350135],[603693.1364664995,4109316.69786481],[603693.0627028535,4109316.250716573],[603692.9388330355,4109315.8147820714],[603692.76644709,4109315.395657141],[603690.9906051125,4109311.689991315],[603690.7735629323,4109311.295683963],[603690.5135961297,4109310.928256614],[603690.2139963006,4109310.5923614847],[603688.2293582811,4109308.604705138],[603687.7549927926,4109305.5672757924],[603687.7476076856,4109305.521713764],[603686.305041461,4109296.935821766],[603689.2124449624,4109240.464819596],[603689.2130797273,4109240.066208958],[603688.8735535132,4109233.0355278407],[603688.1442596953,4109216.5130913216],[603688.1305881919,4109216.315057128],[603684.7518941205,4109180.378389762],[603684.6983779981,4109180.0020934767],[603684.6093879213,4109179.6325753634],[603676.086763637,4109150.4188081105],[603650.6059405982,4109055.786461108],[603650.5837723276,4109055.707374456],[603648.9205884289,4109050.0],[603640.5878306158,4109050.0],[603642.8917517489,4109057.906125494],[603668.3727298508,4109152.5390483798],[603668.3952319669,4109152.619280019],[603676.8227176863,4109181.50693224],[603680.1564196097,4109216.965051438],[603680.76898445,4109230.842947343],[603679.0648351796,4109230.8943310557],[603662.05902655,4109231.2285261974],[603661.9764520101,4109231.2315146984],[603584.3318836963,4109235.327350091],[603551.6281872948,4109112.483822475],[603551.625389196,4109112.4734025877],[603538.1135861727,4109062.5865931865],[603535.3918242344,4109052.170065688],[603547.0071288366,4109050.0],[603534.8248020483,4109050.0],[603532.256168625,4109050.0],[603530.0,4109050.0],[603530.0,4109051.312951787]],[[603682.1821277967,4109335.922210302],[603682.2961586599,4109335.878283961],[603682.2929098379,4109336.051829385],[603682.1821277967,4109335.922210302]],[[603672.6426367718,4109327.1445524697],[603670.7238156712,4109325.274384583],[603669.5128154095,4109322.887833499],[603669.1423279265,4109320.2408376043],[603669.6480283829,4109317.629883612],[603670.9827953514,4109315.3033138495],[603672.9949232253,4109313.5397981685],[603675.5321702351,4109312.487338237],[603677.798134776,4109312.288765696],[603680.0758823348,4109312.7336843763],[603682.0868510521,4109313.7751710736],[603684.070968705,4109315.7623062623],[603685.255277012,4109318.2336133253],[603685.5478222866,4109320.962046675],[603684.9230904287,4109323.6233129553],[603683.4018079747,4109325.9907745128],[603681.6976757473,4109327.4031105163],[603679.6066414017,4109328.322530789],[603677.338684139,4109328.6303739124],[603675.1197937141,4109328.318202017],[603672.6426367718,4109327.1445524697]],[[603735.6446882123,4109673.640660653],[603737.4553619572,4109673.0140827005],[603738.7448736294,4109678.4453949113],[603738.7535029781,4109678.4810141493],[603743.8038706561,4109698.917748742],[603750.3800463731,4109726.0418777866],[603750.3917073308,4109726.0887375767],[603750.4526383331,4109726.327432283],[603748.7944039572,4109725.9320774274],[603745.6786270256,4109725.1912514367],[603732.2423456439,4109674.8179219933],[603735.6446882123,4109673.640660653]],[[603790.2615862805,4109844.47535622],[603803.1384833909,4109843.6909826207],[603803.9407311095,4109846.8732040804],[603809.6821863296,4109869.7672316614],[603809.7230928737,4109869.902849869],[603809.7766099027,4109870.0340046296],[603809.8422601484,4109870.1595262964],[603832.212496529,4109908.415817079],[603833.8952887577,4109911.2979106233],[603685.083972394,4109928.3029740984],[603674.7403726962,4109921.4529596735],[603675.4736508443,4109866.5876179263],[603790.2615862805,4109844.47535622]],[[603806.5692826658,4109843.160490713],[603806.6775739018,4109843.135530388],[603812.2150755515,4109841.728861726],[603816.2164125543,4109848.126625655],[603816.2204151264,4109848.1330120033],[603839.8522110523,4109885.7601564927],[603848.5437014458,4109909.61694802],[603846.0219493296,4109909.9042729675],[603846.0190729491,4109909.9046023856],[603837.1516900939,4109910.9253434883],[603834.8029737079,4109906.9027314167],[603812.5400221524,4109868.8299123454],[603806.8503947088,4109846.142547797],[603806.8499409109,4109846.1407430256],[603806.1219755644,4109843.253172398],[603806.5692826658,4109843.160490713]],[[603805.500410544,4109838.2757592555],[603803.7088291084,4109838.646973542],[603789.7958237041,4109839.4944598605],[603789.4749299733,4109839.5349680595],[603672.5281935651,4109862.0630920418],[603672.4651202396,4109862.076086891],[603622.9287570298,4109872.94886379],[603622.7708690914,4109871.9389405414],[603618.1285249757,4109842.318079469],[603630.4654728202,4109800.148039079],[603637.0173012301,4109801.4038317534],[603637.2508838319,4109801.437264245],[603637.4865780073,4109801.448525637],[603637.7222840585,4109801.4375156066],[603637.9559021814,4109801.404332238],[603638.1853511727,4109801.349271147],[603638.4085869698,4109801.2728228495],[603638.6236208611,4109801.1756683905],[603638.8285372021,4109801.058673277],[603639.0215104811,4109800.922879769],[603669.6863932444,4109777.103619605],[603702.2284848556,4109768.3767933054],[603749.7472207822,4109766.9559762455],[603752.1820616921,4109772.2328593726],[603752.2260242709,4109772.320489608],[603759.8364026126,4109786.3283840623],[603759.9392356321,4109786.491662783],[603776.0044384858,4109808.6925338395],[603778.4348518428,4109806.9338152967],[603762.4263275107,4109784.811269585],[603754.8855175936,4109770.931424895],[603753.0187039251,4109766.8855927796],[603758.9256810661,4109766.768590993],[603758.9896681836,4109766.7665036726],[603761.6906404109,4109766.643757433],[603772.0942868104,4109787.063022845],[603772.2550482141,4109787.348926511],[603772.4386936433,4109787.6206975393],[603809.1068545046,4109837.3596291984],[603805.500410544,4109838.2757592555]],[[603866.3667043383,4110013.30440138],[603866.4405794421,4110012.8126843343],[603866.6887055833,4110013.280764352],[603866.3667043383,4110013.30440138]]],[[[603530.0,4109280.2537495075],[603531.7248349447,4109279.365154432],[603530.0,4109276.017110233],[603530.0,4109280.2537495075]]],[[[603675.6437341074,4109974.6968256617],[603675.4879251075,4109974.5299950675],[603675.317548298,4109974.3780719475],[603675.1340241827,4109974.2423229488],[603652.0831170101,4109958.768615187],[603651.827672252,4109958.618300001],[603651.5562332977,4109958.499272384],[603631.3032913349,4109951.0157683124],[603631.045468963,4109950.9360310542],[603630.7805538102,4109950.884549333],[603630.5116328971,4109950.8619230576],[603630.2418399228,4109950.8684158893],[603530.0,4109958.709406752],[603530.0,4109963.724679636],[603630.0848604902,4109955.8959678207],[603649.5437505009,4109963.0860680486],[603672.0610792156,4109978.201593069],[603685.7182375685,4109994.233521413],[603690.6989425014,4110022.0],[603695.7787470992,4110022.0],[603690.5203508744,4109992.685445505],[603690.46010559,4109992.4284915756],[603690.3731075146,4109992.1793206483],[603690.2603262218,4109991.9407096757],[603690.1230186333,4109991.7153179226],[603689.9627150105,4109991.5056573288],[603675.6437341074,4109974.6968256617]]]]}}]}
