{"type":"FeatureCollection","name":"garrucha-coast-coastline","crs":{"type":"name","properties":{"name":"EPSG:25830"}},"features":[{"type":"Feature","properties":{"source":"DERA/IECA","id_dera":10125300001430.0},"geometry":{"type":"LineString","coordinates":[[604438.7005333337,4114350.0],[604437.3300000001,4114355.41],[604437.9199999999,4114359.630000001],[604440.1500000004,4114364.4800000004],[604440.3499999996,4114366.75],[604439.5099999998,4114368.5999999996],[604439.1900000004,4114370.6500000004],[604439.4900000002,4114371.8900000006],[604439.79,4114372.51],[604439.8799999999,4114374.7699999996],[604438.0,4114380.1099999994],[604437.8799999999,4114382.58],[604438.3899999997,4114383.41],[604440.75,4114384.66],[604441.5599999996,4114386.5199999996],[604441.6399999997,4114389.4000000004],[604441.54,4114389.91],[604441.0199999996,4114390.9399999995],[604439.4699999997,4114391.4399999995],[604438.2400000002,4114391.33],[604436.3899999997,4114390.4000000004],[604435.8700000001,4114390.3900000006],[604435.5599999996,4114390.6999999993],[604434.6200000001,4114393.99],[604433.8200000003,4114405.710000001],[604433.0800000001,4114409.9299999997],[604433.6900000004,4114410.960000001],[604438.5,4114414.3900000006],[604437.7800000003,4114415.0999999996],[604436.54,4114415.0999999996],[604436.3300000001,4114416.119999999],[604437.96,4114419.0199999996],[604439.3300000001,4114430.1400000006],[604439.8700000001,4114442.289999999],[604439.5,4114452.2699999996],[604439.6500000004,4114461.33],[604440.75,4114465.4499999993],[604441.2599999998,4114466.2799999993],[604447.5300000003,4114468.4800000004],[604447.8300000001,4114468.99],[604447.7199999997,4114469.92],[604447.0,4114469.8100000005],[604446.5899999999,4114469.5999999996],[604445.1500000004,4114469.3900000006],[604444.0199999996,4114470.0],[604443.2800000003,4114473.08],[604443.96,4114479.5700000003],[604445.3799999999,4114482.1500000004],[604445.7800000003,4114484.01],[604445.7800000003,4114484.9299999997],[604444.3200000003,4114487.1899999995],[604444.4100000001,4114489.3499999996],[604444.9199999999,4114490.1799999997],[604446.0499999998,4114491.01],[604447.0800000001,4114490.6999999993],[604447.5999999996,4114490.1899999995],[604448.0099999998,4114489.99],[604448.3200000003,4114489.99],[604448.9299999997,4114490.51],[604449.6500000004,4114490.7200000007],[604450.4800000004,4114490.619999999],[604450.79,4114490.01],[604451.0999999996,4114489.91],[604451.5099999998,4114490.01],[604451.71,4114490.2200000007],[604452.0199999996,4114490.84],[604452.1200000001,4114491.5600000005],[604451.6900000004,4114493.41],[604450.8600000003,4114494.33],[604448.2800000003,4114495.6500000004],[604447.4500000002,4114497.1899999995],[604447.4000000004,4114504.6999999993],[604449.3200000003,4114509.960000001],[604448.6699999999,4114516.0299999993],[604448.8700000001,4114517.0600000005],[604451.9299999997,4114520.6799999997],[604452.2999999998,4114527.58],[604450.6900000004,4114538.2699999996],[604451.0899999999,4114539.41],[604451.5,4114539.8200000003],[604452.3200000003,4114540.34],[604454.3799999999,4114541.1799999997],[604456.54,4114541.1899999995],[604460.9699999997,4114539.4700000007],[604461.3899999997,4114539.4700000007],[604461.3700000001,4114541.33],[604461.0599999996,4114542.869999999],[604460.8499999996,4114543.380000001],[604459.5999999996,4114544.8100000005],[604458.9699999997,4114547.2799999993],[604458.96,4114548.41],[604460.4900000002,4114550.99],[604461.9299999997,4114551.83],[604465.9100000001,4114557.0999999996],[604467.3300000001,4114560.51],[604466.9100000001,4114561.84],[604466.29,4114562.1500000004],[604462.8899999997,4114562.33],[604462.4699999997,4114562.74],[604462.6799999997,4114563.460000001],[604470.2400000002,4114571.6400000006],[604474.4100000001,4114580.0],[604475.8799999999,4114591.0199999996],[604478.1100000003,4114596.49],[604479.8499999996,4114598.3499999996],[604483.8499999996,4114600.539999999],[604485.1799999997,4114602.1999999993],[604487.5300000003,4114604.17]]}},{"type":"Feature","properties":{"source":"DERA/IECA","id_dera":10125300001126.0},"geometry":{"type":"LineString","coordinates":[[604487.5300000003,4114604.17],[604485.1799999997,4114602.1999999993],[604483.8499999996,4114600.539999999],[604479.8499999996,4114598.3499999996],[604478.1100000003,4114596.49],[604475.8799999999,4114591.0199999996],[604474.4100000001,4114580.0],[604470.2400000002,4114571.6400000006],[604462.6799999997,4114563.460000001],[604462.4699999997,4114562.74],[604462.8899999997,4114562.33],[604466.29,4114562.1500000004],[604466.9100000001,4114561.84],[604467.3300000001,4114560.51],[604465.9100000001,4114557.0999999996],[604461.9299999997,4114551.83],[604460.4900000002,4114550.99],[604458.96,4114548.41],[604458.9699999997,4114547.2799999993],[604459.5999999996,4114544.8100000005],[604460.8499999996,4114543.380000001],[604461.0599999996,4114542.869999999],[604461.3700000001,4114541.33],[604461.3899999997,4114539.4700000007],[604460.9699999997,4114539.4700000007],[604456.54,4114541.1899999995],[604454.3799999999,4114541.1799999997],[604452.3200000003,4114540.34],[604451.5,4114539.8200000003],[604451.0899999999,4114539.41],[604450.6900000004,4114538.2699999996],[604452.2999999998,4114527.58],[604451.9299999997,4114520.6799999997],[604448.8700000001,4114517.0600000005],[604448.6699999999,4114516.0299999993],[604449.3200000003,4114509.960000001],[604447.4000000004,4114504.6999999993],[604447.4500000002,4114497.1899999995],[604448.2800000003,4114495.6500000004],[604450.8600000003,4114494.33],[604451.6900000004,4114493.41],[604452.1200000001,4114491.5600000005],[604452.0199999996,4114490.84],[604451.71,4114490.2200000007],[604451.5099999998,4114490.01],[604451.0999999996,4114489.91],[604450.79,4114490.01],[604450.4800000004,4114490.619999999],[604449.6500000004,4114490.7200000007],[604448.9299999997,4114490.51],[604448.3200000003,4114489.99],[604448.0099999998,4114489.99],[604447.5999999996,4114490.1899999995],[604447.0800000001,4114490.6999999993],[604446.0499999998,4114491.01],[604444.9199999999,4114490.1799999997],[604444.4100000001,4114489.3499999996],[604444.3200000003,4114487.1899999995],[604445.7800000003,4114484.9299999997],[604445.7800000003,4114484.01],[604445.3799999999,4114482.1500000004],[604443.96,4114479.5700000003],[604443.2800000003,4114473.08],[604444.0199999996,4114470.0],[604445.1500000004,4114469.3900000006],[604446.5899999999,4114469.5999999996],[604447.0,4114469.8100000005],[604447.7199999997,4114469.92],[604447.8300000001,4114468.99],[604447.5300000003,4114468.4800000004],[604441.2599999998,4114466.2799999993],[604440.75,4114465.4499999993],[604439.6500000004,4114461.33],[604439.5,4114452.2699999996],[604439.8700000001,4114442.289999999],[604439.3300000001,4114430.1400000006],[604437.96,4114419.0199999996],[604436.3300000001,4114416.119999999],[604436.54,4114415.0999999996],[604437.7800000003,4114415.0999999996],[604438.5,4114414.3900000006],[604433.6900000004,4114410.960000001],[604433.0800000001,4114409.9299999997],[604433.8200000003,4114405.710000001],[604434.6200000001,4114393.99],[604435.5599999996,4114390.6999999993],[604435.8700000001,4114390.3900000006],[604436.3899999997,4114390.4000000004],[604438.2400000002,4114391.33],[604439.4699999997,4114391.4399999995],[604441.0199999996,4114390.9399999995],[604441.54,4114389.91],[604441.6399999997,4114389.4000000004],[604441.5599999996,4114386.5199999996],[604440.75,4114384.66],[604438.3899999997,4114383.41],[604437.8799999999,4114382.58],[604438.0,4114380.1099999994],[604439.8799999999,4114374.7699999996],[604439.79,4114372.51],[604439.4900000002,4114371.8900000006],[604439.1900000004,4114370.6500000004],[604439.5099999998,4114368.5999999996],[604440.3499999996,4114366.75],[604440.1500000004,4114364.4800000004],[604437.9199999999,4114359.630000001],[604437.3300000001,4114355.41],[604438.7005333337,4114350.0]]}},{"type":"Feature","properties":{"source":"DERA/IECA","id_dera":10125300000252.0},"geometry":{"type":"LineString","coordinates":[[604487.5300000003,4114604.17],[604493.2800000003,4114606.5700000003],[604503.7699999996,4114608.1799999997],[604512.3799999999,4114613.0700000003],[604514.54,4114613.1899999995],[604516.5,4114612.8900000006],[604526.5199999996,4114615.7300000004],[604536.5300000003,4114618.5700000003],[604553.1799999997,4114622.49],[604565.3499999996,4114626.4299999997],[604577.5199999996,4114630.3599999994],[604593.8600000003,4114634.6799999997],[604599.21,4114634.710000001],[604600.0300000003,4114635.4399999995],[604601.7599999998,4114637.92],[604606.9000000004,4114639.8100000005],[604622.9199999999,4114643.92],[604636.29,4114645.8599999994],[604643.1699999999,4114648.0600000005],[604647.0599999996,4114651.789999999],[604662.6799999997,4114655.8000000007],[604676.6100000003,4114658.1500000004],[604690.54,4114660.5],[604691.2599999998,4114660.92],[604691.8600000003,4114662.4700000007],[604691.4500000002,4114662.880000001],[604690.8300000001,4114663.2799999993],[604689.9000000004,4114663.59],[604692.1600000001,4114664.630000001],[604693.3899999997,4114665.9800000004],[604694.2000000002,4114667.7300000004],[604694.5999999996,4114669.8900000006],[604694.2800000003,4114671.8499999996],[604693.6600000001,4114672.1500000004],[604692.9400000004,4114672.1500000004],[604690.6799999997,4114670.2799999993],[604686.0499999998,4114671.08],[604683.1699999999,4114671.0600000005],[604671.25,4114667.9000000004],[604670.6399999997,4114667.0700000003],[604670.4400000004,4114664.5999999996],[604668.71,4114662.9399999995],[604667.4699999997,4114662.619999999],[604664.5899999999,4114662.5],[604653.6799999997,4114663.5600000005],[604637.2199999997,4114661.09],[604624.0099999998,4114658.9499999993],[604610.7999999998,4114656.8100000005],[604592.5199999996,4114650.619999999],[604591.29,4114650.8200000003],[604588.29,4114652.24]]}},{"type":"Feature","properties":{"source":"DERA/IECA","id_dera":10125300001138.0},"geometry":{"type":"LineString","coordinates":[[604796.75,4115583.34],[604791.2000000002,4115583.7699999996],[604787.21,4115582.41],[604784.7999999998,4115580.7300000004],[604775.0300000003,4115570.3499999996],[604764.7000000002,4115558.869999999],[604754.3600000003,4115547.3900000006],[604749.7400000002,4115537.33],[604745.75,4115531.1400000006],[604739.6100000003,4115522.8599999994],[604733.46,4115514.58],[604725.1699999999,4115497.91],[604715.1900000004,4115482.1799999997],[604706.3700000001,4115466.3499999996],[604698.0800000001,4115454.5999999996],[604693.25,4115446.2200000007],[604691.25,4115440.5500000007],[604688.2599999998,4115427.76],[604685.2599999998,4115414.960000001],[604684.6200000001,4115403.4299999997],[604683.9800000004,4115391.8900000006],[604684.0599999996,4115378.5700000003],[604684.1500000004,4115365.24],[604681.7699999996,4115351.5299999993],[604679.9400000004,4115346.789999999],[604674.5,4115336.5199999996],[604669.0599999996,4115326.24],[604665.6100000003,4115319.01],[604656.9000000004,4115311.8599999994],[604652.1100000003,4115305.34],[604647.7199999997,4115298.7300000004],[604643.8300000001,4115295.41],[604635.6399999997,4115289.3900000006],[604627.4400000004,4115283.369999999],[604623.3600000003,4115278.4000000004],[604617.9500000002,4115271.0600000005],[604611.8899999997,4115261.09],[604605.8300000001,4115251.119999999],[604598.3200000003,4115234.1999999993],[604594.9699999997,4115222.8100000005],[604591.6200000001,4115211.41],[604587.6399999997,4115198.1099999994],[604583.3799999999,4115188.460000001],[604579.1100000003,4115178.8100000005],[604575.8099999996,4115164.6899999995],[604573.6699999999,4115152.84],[604571.5300000003,4115140.99],[604570.9100000001,4115124.1099999994],[604571.0300000003,4115106.51],[604571.0,4115095.66],[604570.96,4115084.8000000007],[604571.2999999998,4115079.1400000006],[604572.7000000002,4115069.58],[604572.9800000004,4115057.539999999],[604572.1600000001,4115041.0600000005],[604571.5,4115031.2799999993],[604568.3600000003,4115022.41],[604568.04,4115008.5199999996],[604569.7599999998,4114998.0299999993],[604571.4699999997,4114987.539999999],[604571.7000000002,4114982.4000000004],[604570.2400000002,4114970.51],[604568.7699999996,4114958.6099999994],[604567.3700000001,4114951.1899999995],[604567.9400000004,4114942.960000001],[604567.5999999996,4114932.41],[604567.25,4114921.8599999994],[604566.29,4114910.4299999997],[604564.2800000003,4114903.1099999994],[604560.04,4114890.1099999994],[604557.5999999996,4114885.16],[604555.4000000004,4114875.26],[604553.3200000003,4114862.2799999993],[604550.9199999999,4114850.74],[604550.3399999999,4114845.1799999997],[604550.6100000003,4114833.960000001],[604550.79,4114822.08],[604550.9699999997,4114810.1899999995],[604552.3399999999,4114804.33],[604554.7000000002,4114790.3499999996],[604554.54,4114782.4299999997],[604555.1699999999,4114772.25],[604555.7999999998,4114762.0600000005],[604556.2000000002,4114751.7200000007],[604556.5999999996,4114741.380000001],[604557.0,4114731.039999999],[604557.4000000004,4114720.6999999993],[604559.1100000003,4114710.1099999994],[604560.8200000003,4114699.5199999996],[604563.9900000002,4114686.880000001],[604570.8899999997,4114670.039999999],[604574.21,4114666.3599999994],[604588.29,4114652.24]]}},{"type":"Feature","properties":{"source":"DERA/IECA","id_dera":10125300001431.0},"geometry":{"type":"LineString","coordinates":[[604796.75,4115583.34],[604803.3600000003,4115583.130000001],[604809.7599999998,4115584.0700000003],[604818.3600000003,4115588.16],[604825.1900000004,4115593.08],[604831.9100000001,4115603.99],[604837.0,4115615.16],[604842.0899999999,4115626.3200000003],[604847.1900000004,4115637.8599999994],[604852.2800000003,4115649.3900000006],[604857.3799999999,4115660.9299999997],[604863.3399999999,4115674.6099999994],[604869.2999999998,4115688.289999999],[604873.0899999999,4115703.5999999996],[604874.2400000002,4115707.2699999996],[604878.5499999998,4115717.3900000006],[604882.8600000003,4115727.51],[604888.1900000004,4115738.210000001],[604893.5199999996,4115748.9000000004],[604898.8499999996,4115759.5999999996],[604904.1799999997,4115770.289999999],[604908.9000000004,4115785.1799999997],[604909.6399999997,4115789.4800000004],[604908.8099999996,4115797.1400000006],[604908.1799999997,4115798.3000000007],[604905.8700000001,4115801.130000001],[604902.0999999996,4115803.33],[604895.7000000002,4115804.91],[604894.3399999999,4115804.91],[604892.9699999997,4115804.5999999996],[604891.2999999998,4115803.869999999],[604889.2000000002,4115801.7699999996],[604884.3200000003,4115792.59],[604879.0899999999,4115781.26],[604873.8600000003,4115769.9299999997],[604868.6200000001,4115758.5999999996],[604863.3899999997,4115747.2699999996],[604858.1600000001,4115735.9399999995],[604852.9299999997,4115724.6099999994],[604847.6900000004,4115713.2799999993],[604842.46,4115701.9499999993],[604826.5700000003,4115703.67],[604810.6900000004,4115705.380000001],[604794.7999999998,4115707.0999999996],[604778.9199999999,4115708.8100000005],[604767.7199999997,4115709.74],[604756.5199999996,4115710.66],[604745.3200000003,4115711.59],[604734.1200000001,4115712.51],[604730.7599999998,4115712.8499999996],[604732.1299999999,4115728.9800000004],[604733.5,4115745.119999999],[604734.8600000003,4115759.42],[604736.2199999997,4115773.7300000004],[604737.5800000001,4115788.0299999993],[604738.9400000004,4115802.34],[604740.2999999998,4115816.6400000006],[604741.6600000001,4115830.9399999995],[604743.0199999996,4115845.25],[604744.3799999999,4115859.5500000007],[604756.9299999997,4115858.3499999996],[604769.4699999997,4115857.1500000004],[604782.0199999996,4115855.9499999993],[604794.5599999996,4115854.75],[604807.1100000003,4115853.539999999],[604819.6600000001,4115852.34],[604832.2000000002,4115851.1400000006],[604844.75,4115849.9399999995],[604844.7599999998,4115852.5600000005],[604831.5999999996,4115853.91],[604818.4299999997,4115855.26],[604805.2599999998,4115856.5999999996],[604792.0999999996,4115857.9499999993],[604792.21,4115859.5199999996],[604773.75,4115860.9000000004],[604755.29,4115862.2699999996],[604761.2800000003,4115876.59],[604767.2699999996,4115890.9000000004],[604779.9100000001,4115885.6500000004],[604792.54,4115880.3900000006],[604793.9000000004,4115883.75],[604781.3200000003,4115888.9000000004],[604768.7400000002,4115894.039999999],[604774.04,4115906.99],[604779.3499999996,4115919.9399999995],[604789.6799999997,4115915.67],[604800.0099999998,4115911.41],[604810.3399999999,4115907.1400000006],[604820.6699999999,4115902.869999999],[604830.9900000002,4115898.5999999996],[604841.3200000003,4115894.34],[604851.6500000004,4115890.0700000003],[604861.9800000004,4115885.8000000007],[604863.4500000002,4115888.9499999993],[604853.1200000001,4115893.24],[604842.79,4115897.539999999],[604832.46,4115901.83],[604822.1399999997,4115906.130000001],[604811.8099999996,4115910.42],[604801.4800000004,4115914.710000001],[604791.1500000004,4115919.01],[604780.8200000003,4115923.3000000007],[604787.1200000001,4115938.25],[604793.4199999999,4115953.1899999995],[604803.2400000002,4115949.039999999],[604813.0599999996,4115944.8900000006],[604822.8799999999,4115940.74],[604832.7000000002,4115936.59],[604842.5099999998,4115932.4399999995],[604852.3300000001,4115928.289999999],[604862.1500000004,4115924.1400000006],[604871.9699999997,4115919.99],[604868.8099999996,4115912.4399999995],[604872.9000000004,4115911.2799999993],[604877.4699999997,4115921.9800000004],[604882.04,4115932.6799999997],[604878.0599999996,4115934.7799999993],[604873.54,4115923.24],[604863.6600000001,4115927.380000001],[604853.7800000003,4115931.51],[604843.8899999997,4115935.6500000004],[604834.0099999998,4115939.789999999],[604824.1299999999,4115943.92],[604814.25,4115948.0600000005],[604804.3600000003,4115952.1899999995],[604794.4800000004,4115956.33],[604798.8899999997,4115966.6099999994],[604803.2999999998,4115976.880000001],[604815.7300000004,4115971.58],[604828.1500000004,4115966.2699999996],[604829.6200000001,4115969.7300000004],[604817.25,4115975.09],[604804.8700000001,4115980.4499999993],[604808.5499999998,4115989.84],[604812.2300000004,4115999.2200000007],[604823.6699999999,4116013.2699999996],[604832.3499999996,4116006.5299999993],[604841.0199999996,4115999.7799999993],[604849.7000000002,4115993.039999999],[604858.3700000001,4115986.289999999],[604867.0499999998,4115979.5500000007],[604875.7199999997,4115972.8000000007],[604884.4000000004,4115966.0600000005],[604893.0700000003,4115959.3100000005],[604895.7999999998,4115962.1400000006],[604887.0599999996,4115968.92],[604878.3200000003,4115975.710000001],[604869.5800000001,4115982.49],[604860.8399999999,4115989.2799999993],[604852.0999999996,4115996.0600000005],[604843.3600000003,4116002.84],[604834.6200000001,4116009.630000001],[604825.8799999999,4116016.41],[604830.7000000002,4116023.0199999996],[604823.6799999997,4116028.2699999996],[604820.1799999997,4116030.4700000007],[604822.9500000002,4116032.99],[604833.7599999998,4116043.630000001],[604844.5700000003,4116054.2699999996],[604855.3799999999,4116064.9000000004],[604866.1900000004,4116075.539999999],[604879.7800000003,4116088.33],[604893.3700000001,4116101.119999999],[604902.6600000001,4116110.869999999],[604911.9500000002,4116120.619999999],[604920.8799999999,4116111.4800000004],[604929.7999999998,4116102.34],[604937.2000000002,4116094.7799999993],[604944.5899999999,4116087.210000001],[604951.9800000004,4116079.6400000006],[604959.3700000001,4116072.08],[604967.0899999999,4116064.17],[604974.8200000003,4116056.2699999996],[604982.54,4116048.3599999994],[604990.2599999998,4116040.460000001],[605000.0899999999,4116030.4000000004],[605009.9100000001,4116020.34],[605019.7400000002,4116010.289999999],[605029.5599999996,4116000.2300000004],[605016.5499999998,4115987.869999999],[605023.1699999999,4115981.119999999],[605028.7000000002,4115975.4800000004],[605037.21,4115983.8200000003],[605045.71,4115992.1500000004],[605032.8899999997,4116005.42],[605023.9100000001,4116014.710000001],[605014.9299999997,4116024.0],[605004.8399999999,4116034.4399999995],[604994.7599999998,4116044.869999999],[604984.3200000003,4116055.67],[604973.8899999997,4116066.4700000007],[604963.6299999999,4116077.09],[604952.0700000003,4116089.039999999],[604940.5199999996,4116101.0],[604934.3600000003,4116107.369999999],[604925.8799999999,4116116.1400000006],[604917.4100000001,4116124.91],[604917.7199999997,4116125.2300000004],[604928.1100000003,4116134.9800000004],[604938.5,4116144.7300000004],[604952.8300000001,4116158.5700000003],[604967.1600000001,4116172.4000000004],[604977.5,4116183.1500000004],[604987.8300000001,4116193.8900000006],[604996.4900000002,4116202.6999999993],[605005.1500000004,4116211.5],[605006.2000000002,4116212.2300000004],[605007.1399999997,4116212.539999999],[605008.6100000003,4116212.539999999],[605009.7699999996,4116212.33],[605011.9699999997,4116211.49],[605018.7800000003,4116204.67],[605032.5099999998,4116190.1400000006],[605046.2400000002,4116175.5999999996],[605057.25,4116164.16],[605068.2599999998,4116152.7200000007],[605076.3300000001,4116143.8000000007],[605079.1600000001,4116142.539999999],[605081.0499999998,4116142.539999999],[605082.2999999998,4116142.2200000007],[605089.3799999999,4116132.7300000004],[605096.4500000002,4116123.2300000004],[605100.8600000003,4116126.4800000004],[605093.2599999998,4116136.5],[605085.6600000001,4116146.5199999996],[605092.2699999996,4116151.76],[605099.8700000001,4116141.5299999993],[605107.4699999997,4116131.3000000007],[605111.6699999999,4116134.5500000007],[605100.4500000002,4116149.869999999],[605103.1799999997,4116152.8000000007],[605112.5300000003,4116161.4000000004],[605121.8700000001,4116169.99],[605123.0199999996,4116170.5199999996],[605123.75,4116170.51],[605125.2199999997,4116170.1999999993],[605125.54,4116169.880000001],[605133.8200000003,4116160.33],[605139.2699999996,4116152.5700000003],[605144.71,4116143.8599999994],[605150.6900000004,4116132.5299999993],[605154.46,4116123.5],[605156.6500000004,4116116.9000000004],[605159.3700000001,4116104.9399999995],[605162.2999999998,4116087.0999999996],[605162.9199999999,4116073.7799999993],[605162.5999999996,4116070.01],[605160.0800000001,4116053.4399999995],[605159.1299999999,4116050.92],[605154.8300000001,4116045.0500000007],[605154.2999999998,4116044.7300000004],[605152.8300000001,4116044.630000001],[605146.1200000001,4116046.210000001],[605144.3399999999,4116046.210000001],[605143.1799999997,4116045.6799999997],[605141.1900000004,4116043.4800000004],[605136.1500000004,4116033.84],[605131.4199999999,4116021.7799999993],[605129.0,4116012.130000001],[605129.6299999999,4116002.6899999995],[605130.25,4116001.3200000003],[605130.46,4116000.380000001],[605135.8099999996,4115993.869999999],[605137.1699999999,4115991.1500000004],[605138.1100000003,4115987.369999999],[605138.21,4115984.119999999],[605137.79,4115982.2300000004],[605135.1699999999,4115979.1899999995],[605134.1200000001,4115978.9800000004],[605132.0199999996,4115978.9800000004],[605126.9900000002,4115980.4499999993],[605122.5899999999,4115984.2300000004],[605114.5099999998,4115989.9000000004],[605110.7400000002,4115989.59],[605110.1100000003,4115989.380000001],[605108.8499999996,4115987.8100000005],[605107.5899999999,4115984.1400000006],[605107.4800000004,4115981.7200000007],[605107.79,4115979.7300000004],[605108.7400000002,4115977.5299999993],[605110.0999999996,4115975.8499999996],[605111.1500000004,4115975.01],[605111.5700000003,4115974.4800000004],[605111.7800000003,4115973.8599999994],[605106.96,4115956.539999999],[605102.1299999999,4115939.210000001],[605097.3099999996,4115921.8900000006],[605092.4900000002,4115904.5700000003],[605087.6600000001,4115887.24],[605082.8399999999,4115869.92],[605078.0199999996,4115852.59],[605073.2000000002,4115835.2699999996],[605068.3700000001,4115817.9499999993],[605063.5499999998,4115800.619999999],[605058.7300000004,4115783.3000000007],[605053.9000000004,4115765.9800000004],[605049.0800000001,4115748.6500000004],[605044.2599999998,4115731.33],[605039.4299999997,4115714.0],[605034.6100000003,4115696.6799999997],[605023.9100000001,4115697.210000001],[605023.29,4115685.83],[605022.6600000001,4115674.4499999993],[605022.04,4115663.0700000003],[605021.4199999999,4115651.6899999995],[605020.79,4115640.3100000005],[605020.1699999999,4115628.9299999997],[605019.5499999998,4115617.5500000007],[605018.9299999997,4115606.17],[605018.2999999998,4115594.789999999],[605017.6799999997,4115583.41],[605017.0599999996,4115572.0299999993],[605016.4299999997,4115560.6500000004],[605015.8099999996,4115549.2699999996],[605015.1900000004,4115537.8900000006],[605014.5599999996,4115526.51],[605013.9400000004,4115515.130000001],[605018.7599999998,4115505.51],[605023.5700000003,4115495.880000001],[605028.3899999997,4115486.26],[605033.21,4115476.630000001],[605033.7400000002,4115475.8900000006],[605038.6600000001,4115473.0600000005],[605048.5199999996,4115469.2699999996],[605049.5700000003,4115468.33],[605054.2800000003,4115459.5199999996],[605055.0199999996,4115456.0500000007],[605053.8600000003,4115449.5500000007],[605054.0599999996,4115441.4800000004],[605054.9000000004,4115439.380000001],[605054.9000000004,4115432.66],[605053.4199999999,4115415.460000001],[605053.4100000001,4115411.16],[605051.4199999999,4115404.869999999],[605045.96,4115396.0600000005],[605041.4400000004,4115386.0],[605038.9199999999,4115381.91],[605037.9800000004,4115380.9700000007],[605036.2999999998,4115380.130000001],[605033.8799999999,4115377.7200000007],[605033.3600000003,4115376.039999999],[605033.46,4115368.2799999993],[605037.0199999996,4115360.1999999993],[605043.8300000001,4115353.8000000007],[605048.5499999998,4115351.59],[605063.2300000004,4115351.4800000004],[605068.6900000004,4115352.3100000005],[605076.7699999996,4115355.3499999996],[605079.8099999996,4115358.2799999993],[605083.9100000001,4115370.0299999993],[605086.2300000004,4115386.8100000005],[605086.2300000004,4115388.8000000007],[605080.79,4115408.0],[605080.7999999998,4115422.16],[605081.6699999999,4115435.8499999996],[605082.5499999998,4115449.539999999],[605083.4199999999,4115463.2200000007],[605084.29,4115476.91],[605086.2999999998,4115495.9000000004],[605088.2999999998,4115514.880000001],[605088.4199999999,4115526.42],[605088.5300000003,4115537.9499999993],[605088.6900000004,4115547.9700000007],[605088.8499999996,4115557.99],[605091.0700000003,4115575.4000000004],[605092.96,4115585.99],[605095.0599999996,4115592.380000001],[605094.0300000003,4115607.17],[605093.9299999997,4115615.99],[605094.6699999999,4115630.25],[605094.4699999997,4115639.17],[605092.6900000004,4115649.5],[605090.9100000001,4115659.83],[605092.9100000001,4115670.5299999993],[605092.9100000001,4115673.7799999993],[605092.29,4115675.460000001],[605091.4500000002,4115676.51],[605090.4000000004,4115677.3499999996],[605087.9900000002,4115684.380000001],[605087.9900000002,4115686.0600000005],[605092.8200000003,4115694.130000001],[605094.6100000003,4115707.5500000007],[605097.4000000004,4115717.8000000007],[605100.1900000004,4115728.0600000005],[605102.9699999997,4115738.3100000005],[605105.7599999998,4115748.5600000005],[605108.1799999997,4115759.3100000005],[605110.5999999996,4115770.0600000005],[605113.0199999996,4115780.8100000005],[605115.4400000004,4115791.5600000005],[605119.7000000002,4115805.880000001],[605123.9500000002,4115820.1899999995],[605128.4199999999,4115830.41],[605132.8799999999,4115840.630000001],[605138.4000000004,4115858.880000001],[605143.9100000001,4115877.130000001],[605146.4900000002,4115886.880000001],[605149.0700000003,4115896.630000001],[605154.0099999998,4115914.1500000004],[605157.3200000003,4115923.75],[605160.6299999999,4115933.34],[605164.4699999997,4115945.7699999996],[605168.2999999998,4115958.1899999995],[605173.6600000001,4115975.289999999],[605179.0199999996,4115992.380000001],[605181.4400000004,4116006.380000001],[605183.8600000003,4116020.380000001],[605187.96,4116032.960000001],[605189.71,4116051.5299999993],[605191.4500000002,4116070.09],[605192.1399999997,4116080.2200000007],[605192.8200000003,4116090.34],[605192.0999999996,4116107.119999999],[605189.0199999996,4116121.4399999995],[605185.9299999997,4116135.76],[605180.2800000003,4116152.4399999995],[605175.3499999996,4116162.3000000007],[605164.1399999997,4116176.8900000006],[605155.3899999997,4116187.4399999995],[605146.6399999997,4116197.9800000004],[605142.6500000004,4116202.49],[605131.1200000001,4116208.369999999],[605129.2300000004,4116210.369999999],[605120.8499999996,4116219.9700000007],[605112.46,4116229.5700000003],[605105.54,4116237.210000001],[605098.6299999999,4116244.84],[605091.71,4116252.4800000004],[605084.79,4116260.1099999994],[605071.5800000001,4116273.6500000004],[605070.1200000001,4116275.539999999],[605065.29,4116278.2699999996],[605064.5599999996,4116279.2200000007]]}},{"type":"Feature","properties":{"source":"DERA/IECA","id_dera":10125300001125.0},"geometry":{"type":"LineString","coordinates":[[605234.1534920639,4116750.0],[605234.2599999998,4116748.17],[605234.46,4116747.6500000004],[605234.3600000003,4116746.5999999996],[605233.8300000001,4116745.24],[605234.04,4116740.9399999995],[605232.7800000003,4116739.1500000004],[605232.0499999998,4116738.5199999996],[605231.6299999999,4116737.789999999],[605232.6699999999,4116736.01],[605233.7199999997,4116732.2300000004],[605233.4000000004,4116730.0299999993],[605232.46,4116727.3000000007],[605227.21,4116722.6899999995],[605227.4199999999,4116722.369999999],[605228.8899999997,4116721.5299999993],[605229.9400000004,4116721.3200000003],[605230.25,4116720.4800000004],[605230.1500000004,4116718.8100000005],[605227.0,4116713.25],[605227.2000000002,4116712.7200000007],[605227.6200000001,4116712.09],[605227.6200000001,4116710.630000001],[605226.4699999997,4116706.8499999996],[605225.5199999996,4116705.49],[605221.2199999997,4116703.1799999997],[605220.5899999999,4116702.66],[605220.3799999999,4116701.8200000003],[605220.4800000004,4116701.1899999995],[605220.9000000004,4116700.1400000006],[605220.9000000004,4116699.09],[605220.2699999996,4116697.5199999996],[605217.8600000003,4116694.17],[605215.9699999997,4116692.380000001],[605213.4400000004,4116681.789999999],[605213.1299999999,4116681.16],[605211.3499999996,4116679.2799999993],[605210.4000000004,4116676.130000001],[605210.4000000004,4116675.3900000006],[605211.1299999999,4116672.25],[605210.29,4116671.7200000007],[605208.6100000003,4116666.6899999995],[605208.6100000003,4116664.49],[605208.29,4116662.91],[605205.3499999996,4116660.5],[605204.9299999997,4116659.5600000005],[605204.9299999997,4116657.880000001],[605205.25,4116657.1500000004],[605205.3499999996,4116655.0500000007],[605203.1500000004,4116653.16],[605201.6799999997,4116650.75],[605200.9400000004,4116644.460000001],[605200.0999999996,4116642.26],[605198.8399999999,4116640.4700000007],[605194.8499999996,4116637.6400000006],[605194.6399999997,4116636.8100000005],[605194.75,4116635.5500000007],[605195.2699999996,4116635.0199999996],[605195.2699999996,4116634.5],[605194.7400000002,4116633.4499999993],[605194.3200000003,4116633.130000001],[605193.3799999999,4116631.039999999],[605193.3799999999,4116626.0],[605192.6399999997,4116622.2300000004],[605188.1200000001,4116615.9399999995],[605187.4900000002,4116613.3200000003],[605184.7599999998,4116599.8900000006],[605182.7599999998,4116592.0299999993],[605180.0300000003,4116585.630000001],[605172.5700000003,4116572.7300000004],[605169.9400000004,4116561.51],[605167.7400000002,4116558.6799999997],[605167.0,4116556.4800000004],[605166.79,4116549.5600000005],[605165.6299999999,4116544.3100000005],[605162.6900000004,4116535.92],[605159.0099999998,4116521.7699999996],[605158.3799999999,4116515.369999999],[605153.3300000001,4116502.7799999993],[605152.5999999996,4116498.4800000004],[605149.5499999998,4116491.5600000005],[605145.0899999999,4116478.25],[605140.6200000001,4116464.9299999997],[605137.1500000004,4116453.5999999996],[605134.3099999996,4116446.16],[605132.3200000003,4116443.119999999],[605131.6900000004,4116441.33],[605131.6900000004,4116438.1899999995],[605130.9500000002,4116434.83],[605126.0099999998,4116426.9700000007],[605122.4400000004,4116418.789999999],[605121.5,4116414.6999999993],[605117.4000000004,4116408.619999999],[605116.5599999996,4116405.369999999],[605112.8799999999,4116395.9299999997],[605110.4699999997,4116387.539999999],[605109.4199999999,4116386.2799999993],[605105.7400000002,4116383.869999999],[605104.1699999999,4116381.039999999],[605100.3799999999,4116365.1999999993],[605099.4400000004,4116360.2699999996],[605096.3899999997,4116353.880000001],[605089.8799999999,4116342.24],[605082.9500000002,4116332.17],[605078.8600000003,4116321.789999999],[605074.7599999998,4116311.41],[605074.1299999999,4116310.1500000004],[605073.9199999999,4116310.0500000007],[605072.1299999999,4116313.619999999],[605071.9199999999,4116313.83],[605070.6699999999,4116313.09],[605070.04,4116312.039999999],[605068.8799999999,4116308.4800000004],[605065.0899999999,4116292.119999999],[605064.04,4116281.210000001],[605064.5599999996,4116279.2200000007]]}}]}
