{"type":"FeatureCollection","name":"garrucha-posito-coastline","crs":{"type":"name","properties":{"name":"EPSG:25830"}},"features":[{"type":"Feature","properties":{"source":"DERA/IECA","id_dera":10125300001138.0},"geometry":{"type":"LineString","coordinates":[[604796.75,4115583.34],[604791.2000000002,4115583.7699999996],[604787.21,4115582.41],[604784.7999999998,4115580.7300000004],[604775.0300000003,4115570.3499999996],[604764.7000000002,4115558.869999999],[604754.3600000003,4115547.3900000006],[604749.7400000002,4115537.33],[604745.75,4115531.1400000006],[604739.6100000003,4115522.8599999994],[604733.46,4115514.58],[604725.1699999999,4115497.91],[604715.1900000004,4115482.1799999997],[604706.3700000001,4115466.3499999996],[604698.0800000001,4115454.5999999996],[604693.25,4115446.2200000007],[604691.25,4115440.5500000007],[604688.2599999998,4115427.76],[604685.2599999998,4115414.960000001],[604684.6200000001,4115403.4299999997],[604683.9800000004,4115391.8900000006],[604684.0599999996,4115378.5700000003],[604684.1500000004,4115365.24],[604681.7699999996,4115351.5299999993],[604679.9400000004,4115346.789999999],[604674.5,4115336.5199999996],[604669.0599999996,4115326.24],[604665.6100000003,4115319.01],[604656.9000000004,4115311.8599999994],[604652.1100000003,4115305.34],[604647.7199999997,4115298.7300000004],[604643.8300000001,4115295.41],[604635.6399999997,4115289.3900000006],[604627.4400000004,4115283.369999999],[604623.3600000003,4115278.4000000004],[604617.9500000002,4115271.0600000005],[604611.8899999997,4115261.09],[604605.8300000001,4115251.119999999],[604598.3200000003,4115234.1999999993],[604597.9670588239,4115233.0]]}},{"type":"Feature","properties":{"source":"DERA/IECA","id_dera":10125300001431.0},"geometry":{"type":"LineString","coordinates":[[604796.75,4115583.34],[604803.3600000003,4115583.130000001],[604809.7599999998,4115584.0700000003],[604818.3600000003,4115588.16],[604825.1900000004,4115593.08],[604831.9100000001,4115603.99],[604837.0,4115615.16],[604842.0899999999,4115626.3200000003],[604847.1900000004,4115637.8599999994],[604852.2800000003,4115649.3900000006],[604857.3799999999,4115660.9299999997],[604863.3399999999,4115674.6099999994],[604869.2999999998,4115688.289999999],[604873.0899999999,4115703.5999999996],[604874.2400000002,4115707.2699999996],[604878.5499999998,4115717.3900000006],[604882.8600000003,4115727.51],[604888.1900000004,4115738.210000001],[604893.5199999996,4115748.9000000004],[604898.8499999996,4115759.5999999996],[604904.1799999997,4115770.289999999],[604908.9000000004,4115785.1799999997],[604909.6399999997,4115789.4800000004],[604908.8099999996,4115797.1400000006],[604908.1799999997,4115798.3000000007],[604905.8700000001,4115801.130000001],[604902.0999999996,4115803.33],[604895.7000000002,4115804.91],[604894.3399999999,4115804.91],[604892.9699999997,4115804.5999999996],[604891.2999999998,4115803.869999999],[604889.2000000002,4115801.7699999996],[604884.3200000003,4115792.59],[604879.0899999999,4115781.26],[604873.8600000003,4115769.9299999997],[604868.6200000001,4115758.5999999996],[604863.3899999997,4115747.2699999996],[604858.1600000001,4115735.9399999995],[604852.9299999997,4115724.6099999994],[604847.6900000004,4115713.2799999993],[604842.46,4115701.9499999993],[604826.5700000003,4115703.67],[604810.6900000004,4115705.380000001],[604794.7999999998,4115707.0999999996],[604778.9199999999,4115708.8100000005],[604767.7199999997,4115709.74],[604756.5199999996,4115710.66],[604745.3200000003,4115711.59],[604734.1200000001,4115712.51],[604730.7599999998,4115712.8499999996],[604732.1299999999,4115728.9800000004],[604733.5,4115745.119999999],[604734.8600000003,4115759.42],[604736.2199999997,4115773.7300000004],[604737.5800000001,4115788.0299999993],[604738.9400000004,4115802.34],[604740.2999999998,4115816.6400000006],[604741.3803916085,4115828.0]]}}]}
