{"type":"FeatureCollection","name":"garrucha-playa-coastline","crs":{"type":"name","properties":{"name":"EPSG:25830"}},"features":[{"type":"Feature","properties":{"source":"DERA/IECA","id_dera":10125300001430.0},"geometry":{"type":"LineString","coordinates":[[604446.1619999995,4114468.0],[604447.5300000003,4114468.4800000004],[604447.8300000001,4114468.99],[604447.7199999997,4114469.92],[604447.0,4114469.8100000005],[604446.5899999999,4114469.5999999996],[604445.1500000004,4114469.3900000006],[604444.0199999996,4114470.0],[604443.2800000003,4114473.08],[604443.96,4114479.5700000003],[604445.3799999999,4114482.1500000004],[604445.7800000003,4114484.01],[604445.7800000003,4114484.9299999997],[604444.3200000003,4114487.1899999995],[604444.4100000001,4114489.3499999996],[604444.9199999999,4114490.1799999997],[604446.0499999998,4114491.01],[604447.0800000001,4114490.6999999993],[604447.5999999996,4114490.1899999995],[604448.0099999998,4114489.99],[604448.3200000003,4114489.99],[604448.9299999997,4114490.51],[604449.6500000004,4114490.7200000007],[604450.4800000004,4114490.619999999],[604450.79,4114490.01],[604451.0999999996,4114489.91],[604451.5099999998,4114490.01],[604451.71,4114490.2200000007],[604452.0199999996,4114490.84],[604452.1200000001,4114491.5600000005],[604451.6900000004,4114493.41],[604450.8600000003,4114494.33],[604448.2800000003,4114495.6500000004],[604447.4500000002,4114497.1899999995],[604447.4000000004,4114504.6999999993],[604449.3200000003,4114509.960000001],[604448.6699999999,4114516.0299999993],[604448.8700000001,4114517.0600000005],[604451.9299999997,4114520.6799999997],[604452.2999999998,4114527.58],[604450.6900000004,4114538.2699999996],[604451.0899999999,4114539.41],[604451.5,4114539.8200000003],[604452.3200000003,4114540.34],[604454.3799999999,4114541.1799999997],[604456.54,4114541.1899999995],[604460.9699999997,4114539.4700000007],[604461.3899999997,4114539.4700000007],[604461.3700000001,4114541.33],[604461.0599999996,4114542.869999999],[604460.8499999996,4114543.380000001],[604459.5999999996,4114544.8100000005],[604458.9699999997,4114547.2799999993],[604458.96,4114548.41],[604460.4900000002,4114550.99],[604461.9299999997,4114551.83],[604465.9100000001,4114557.0999999996],[604467.3300000001,4114560.51],[604466.9100000001,4114561.84],[604466.29,4114562.1500000004],[604462.8899999997,4114562.33],[604462.4699999997,4114562.74],[604462.6799999997,4114563.460000001],[604470.2400000002,4114571.6400000006],[604474.4100000001,4114580.0],[604475.8799999999,4114591.0199999996],[604478.1100000003,4114596.49],[604479.8499999996,4114598.3499999996],[604483.8499999996,4114600.539999999],[604485.1799999997,4114602.1999999993],[604487.5300000003,4114604.17]]}},{"type":"Feature","properties":{"source":"DERA/IECA","id_dera":10125300001126.0},"geometry":{"type":"LineString","coordinates":[[604487.5300000003,4114604.17],[604485.1799999997,4114602.1999999993],[604483.8499999996,4114600.539999999],[604479.8499999996,4114598.3499999996],[604478.1100000003,4114596.49],[604475.8799999999,4114591.0199999996],[604474.4100000001,4114580.0],[604470.2400000002,4114571.6400000006],[604462.6799999997,4114563.460000001],[604462.4699999997,4114562.74],[604462.8899999997,4114562.33],[604466.29,4114562.1500000004],[604466.9100000001,4114561.84],[604467.3300000001,4114560.51],[604465.9100000001,4114557.0999999996],[604461.9299999997,4114551.83],[604460.4900000002,4114550.99],[604458.96,4114548.41],[604458.9699999997,4114547.2799999993],[604459.5999999996,4114544.8100000005],[604460.8499999996,4114543.380000001],[604461.0599999996,4114542.869999999],[604461.3700000001,4114541.33],[604461.3899999997,4114539.4700000007],[604460.9699999997,4114539.4700000007],[604456.54,4114541.1899999995],[604454.3799999999,4114541.1799999997],[604452.3200000003,4114540.34],[604451.5,4114539.8200000003],[604451.0899999999,4114539.41],[604450.6900000004,4114538.2699999996],[604452.2999999998,4114527.58],[604451.9299999997,4114520.6799999997],[604448.8700000001,4114517.0600000005],[604448.6699999999,4114516.0299999993],[604449.3200000003,4114509.960000001],[604447.4000000004,4114504.6999999993],[604447.4500000002,4114497.1899999995],[604448.2800000003,4114495.6500000004],[604450.8600000003,4114494.33],[604451.6900000004,4114493.41],[604452.1200000001,4114491.5600000005],[604452.0199999996,4114490.84],[604451.71,4114490.2200000007],[604451.5099999998,4114490.01],[604451.0999999996,4114489.91],[604450.79,4114490.01],[604450.4800000004,4114490.619999999],[604449.6500000004,4114490.7200000007],[604448.9299999997,4114490.51],[604448.3200000003,4114489.99],[604448.0099999998,4114489.99],[604447.5999999996,4114490.1899999995],[604447.0800000001,4114490.6999999993],[604446.0499999998,4114491.01],[604444.9199999999,4114490.1799999997],[604444.4100000001,4114489.3499999996],[604444.3200000003,4114487.1899999995],[604445.7800000003,4114484.9299999997],[604445.7800000003,4114484.01],[604445.3799999999,4114482.1500000004],[604443.96,4114479.5700000003],[604443.2800000003,4114473.08],[604444.0199999996,4114470.0],[604445.1500000004,4114469.3900000006],[604446.5899999999,4114469.5999999996],[604447.0,4114469.8100000005],[604447.7199999997,4114469.92],[604447.8300000001,4114468.99],[604447.5300000003,4114468.4800000004],[604446.1619999995,4114468.0]]}},{"type":"Feature","properties":{"source":"DERA/IECA","id_dera":10125300000252.0},"geometry":{"type":"LineString","coordinates":[[604487.5300000003,4114604.17],[604493.2800000003,4114606.5700000003],[604503.7699999996,4114608.1799999997],[604512.3799999999,4114613.0700000003],[604514.54,4114613.1899999995],[604516.5,4114612.8900000006],[604526.5199999996,4114615.7300000004],[604536.5300000003,4114618.5700000003],[604553.1799999997,4114622.49],[604565.3499999996,4114626.4299999997],[604577.5199999996,4114630.3599999994],[604593.8600000003,4114634.6799999997],[604599.21,4114634.710000001],[604600.0300000003,4114635.4399999995],[604601.7599999998,4114637.92],[604606.9000000004,4114639.8100000005],[604622.9199999999,4114643.92],[604636.29,4114645.8599999994],[604643.1699999999,4114648.0600000005],[604647.0599999996,4114651.789999999],[604662.6799999997,4114655.8000000007],[604676.6100000003,4114658.1500000004],[604690.54,4114660.5],[604691.2599999998,4114660.92],[604691.8600000003,4114662.4700000007],[604691.4500000002,4114662.880000001],[604690.8300000001,4114663.2799999993],[604689.9000000004,4114663.59],[604692.1600000001,4114664.630000001],[604693.3899999997,4114665.9800000004],[604694.2000000002,4114667.7300000004],[604694.5999999996,4114669.8900000006],[604694.2800000003,4114671.8499999996],[604693.6600000001,4114672.1500000004],[604692.9400000004,4114672.1500000004],[604690.6799999997,4114670.2799999993],[604686.0499999998,4114671.08],[604683.1699999999,4114671.0600000005],[604671.25,4114667.9000000004],[604670.6399999997,4114667.0700000003],[604670.4400000004,4114664.5999999996],[604668.71,4114662.9399999995],[604667.4699999997,4114662.619999999],[604664.5899999999,4114662.5],[604653.6799999997,4114663.5600000005],[604637.2199999997,4114661.09],[604624.0099999998,4114658.9499999993],[604610.7999999998,4114656.8100000005],[604592.5199999996,4114650.619999999],[604591.29,4114650.8200000003],[604588.29,4114652.24]]}},{"type":"Feature","properties":{"source":"DERA/IECA","id_dera":10125300001138.0},"geometry":{"type":"LineString","coordinates":[[604732.6742651468,4115513.0],[604725.1699999999,4115497.91],[604715.1900000004,4115482.1799999997],[604706.3700000001,4115466.3499999996],[604698.0800000001,4115454.5999999996],[604693.25,4115446.2200000007],[604691.25,4115440.5500000007],[604688.2599999998,4115427.76],[604685.2599999998,4115414.960000001],[604684.6200000001,4115403.4299999997],[604683.9800000004,4115391.8900000006],[604684.0599999996,4115378.5700000003],[604684.1500000004,4115365.24],[604681.7699999996,4115351.5299999993],[604679.9400000004,4115346.789999999],[604674.5,4115336.5199999996],[604669.0599999996,4115326.24],[604665.6100000003,4115319.01],[604656.9000000004,4115311.8599999994],[604652.1100000003,4115305.34],[604647.7199999997,4115298.7300000004],[604643.8300000001,4115295.41],[604635.6399999997,4115289.3900000006],[604627.4400000004,4115283.369999999],[604623.3600000003,4115278.4000000004],[604617.9500000002,4115271.0600000005],[604611.8899999997,4115261.09],[604605.8300000001,4115251.119999999],[604598.3200000003,4115234.1999999993],[604594.9699999997,4115222.8100000005],[604591.6200000001,4115211.41],[604587.6399999997,4115198.1099999994],[604583.3799999999,4115188.460000001],[604579.1100000003,4115178.8100000005],[604575.8099999996,4115164.6899999995],[604573.6699999999,4115152.84],[604571.5300000003,4115140.99],[604570.9100000001,4115124.1099999994],[604571.0300000003,4115106.51],[604571.0,4115095.66],[604570.96,4115084.8000000007],[604571.2999999998,4115079.1400000006],[604572.7000000002,4115069.58],[604572.9800000004,4115057.539999999],[604572.1600000001,4115041.0600000005],[604571.5,4115031.2799999993],[604568.3600000003,4115022.41],[604568.04,4115008.5199999996],[604569.7599999998,4114998.0299999993],[604571.4699999997,4114987.539999999],[604571.7000000002,4114982.4000000004],[604570.2400000002,4114970.51],[604568.7699999996,4114958.6099999994],[604567.3700000001,4114951.1899999995],[604567.9400000004,4114942.960000001],[604567.5999999996,4114932.41],[604567.25,4114921.8599999994],[604566.29,4114910.4299999997],[604564.2800000003,4114903.1099999994],[604560.04,4114890.1099999994],[604557.5999999996,4114885.16],[604555.4000000004,4114875.26],[604553.3200000003,4114862.2799999993],[604550.9199999999,4114850.74],[604550.3399999999,4114845.1799999997],[604550.6100000003,4114833.960000001],[604550.79,4114822.08],[604550.9699999997,4114810.1899999995],[604552.3399999999,4114804.33],[604554.7000000002,4114790.3499999996],[604554.54,4114782.4299999997],[604555.1699999999,4114772.25],[604555.7999999998,4114762.0600000005],[604556.2000000002,4114751.7200000007],[604556.5999999996,4114741.380000001],[604557.0,4114731.039999999],[604557.4000000004,4114720.6999999993],[604559.1100000003,4114710.1099999994],[604560.8200000003,4114699.5199999996],[604563.9900000002,4114686.880000001],[604570.8899999997,4114670.039999999],[604574.21,4114666.3599999994],[604588.29,4114652.24]]}}]}
