{"type":"FeatureCollection","name":"garrucha-coast-buildings","crs":{"type":"name","properties":{"name":"EPSG:25830"}},"source":"Direcci\u00f3n General del Catastro, INSPIRE BU","features":[{"type":"Feature","properties":{"id":"urban-mass","floors":2,"height":6.2,"heightSource":"overview-generalisation"},"geometry":{"type":"MultiPolygon","coordinates":[[[[604068.7178705946,4114791.635359184],[604006.175160045,4114859.332355944],[604055.0777052583,4114925.5081675826],[604104.1641247319,4114933.710474374],[604236.9539458235,4114919.4006189983],[604212.3211688994,4114801.146898223],[604310.7207775023,4114786.9748212625],[604318.5915646818,4114819.7369793565],[604279.5575430988,4114833.751812363],[604282.1025123894,4114892.071357512],[604322.2198429691,4114890.1288837465],[604332.4507468599,4114907.544824211],[604449.4284603749,4114895.267444252],[604442.798979301,4114951.912111272],[604428.4645882121,4114945.1472661067],[604429.5269196046,4114927.7520187353],[604405.7876499216,4114920.354376855],[604382.0715524694,4114932.8116163556],[604364.0092583607,4114923.674153366],[604321.9987374685,4114937.8462343654],[604231.437569888,4114938.302528129],[604225.0542802741,4114957.6795884967],[604148.9951468675,4114977.3664960093],[604131.9216883032,4114949.999245335],[604112.4502966357,4114956.828013712],[604211.8052438218,4115220.188794625],[604172.6460112392,4115244.975911273],[604202.2556190296,4115304.9550837646],[604244.8509998185,4115292.0532381153],[604266.9272299965,4115355.501845254],[604267.6381092428,4115395.7923859446],[604203.6850440205,4115394.302604397],[604189.4779780009,4115457.4581594784],[604207.2539501315,4115462.9871262796],[604218.4279983303,4115502.747379841],[604252.2752830127,4115503.1405946575],[604304.9356535035,4115702.483811281],[604330.8932762013,4115701.3148744917],[604341.527208137,4115722.152920594],[604410.5782977785,4115703.0278171096],[604441.066377042,4115746.022855015],[604431.5729892144,4115756.7252762653],[604395.2475678821,4115736.9088498703],[604368.481385085,4115786.5809807167],[604417.4986180331,4115951.133825694],[604403.5248235277,4115972.8426559493],[604425.5725650571,4115980.429395551],[604444.9335347326,4116056.3152531404],[604465.3233807022,4116064.2516603335],[604494.3160418904,4116156.1262905793],[604476.7625935022,4116172.603761853],[604489.4154515882,4116224.018425697],[604516.3852864252,4116226.626490073],[604525.2478400513,4116282.61042799],[604555.9635786745,4116286.1304216105],[604533.6765609938,4116304.5897238855],[604540.4499843384,4116354.8925258694],[604563.061019748,4116386.35076489],[604582.8685116562,4116387.3383508706],[604586.9407427462,4116402.5096008573],[604560.7967551309,4116416.7143512745],[604571.6643377438,4116440.328411108],[604564.5922135846,4116457.5600639903],[604581.0594811265,4116462.807535914],[604641.4732142651,4116426.1077530584],[604645.7962578187,4116398.087792156],[604666.9281606333,4116394.4472946115],[604676.8667912058,4116417.01522414],[604738.2492788744,4116389.9088260685],[604731.217271695,4116351.5807769564],[604748.0486026475,4116339.989384857],[604743.511438275,4116272.752412362],[604757.7707348873,4116270.931695269],[604763.3595402535,4116302.2711892445],[604792.0704022372,4116290.6768467827],[604783.8972006378,4116267.6749902503],[604790.8376859139,4116232.278884946],[604821.7108125126,4116301.198175851],[604766.4426543813,4116322.689629534],[604776.8928883703,4116393.301828931],[604828.2575169136,4116382.064964497],[604836.6714398661,4116361.187409992],[604858.1869425378,4116395.5295632165],[604898.0953328736,4116387.313369848],[604907.6476951947,4116366.2786789476],[604904.6231582799,4116330.0393734872],[604874.9312751029,4116184.7580901124],[604836.6791432172,4116176.2248258707],[604809.9124865591,4116152.8317339267],[604769.0245436978,4116162.345774096],[604757.700928647,4116128.0994134326],[604766.7649665866,4116119.61455662],[604795.8494392947,4116132.250253115],[604811.089889569,4116117.0043982496],[604826.3102191954,4116140.6288006185],[604858.5818886665,4116148.289237461],[604879.3794943455,4116124.1385094295],[604864.7577284684,4116111.436946614],[604844.454001251,4116123.8935293593],[604840.0899088527,4116104.038422706],[604825.5341172973,4116098.6622371688],[604811.6930150229,4116046.6181846764],[604818.6446780053,4116033.645203678],[604801.6932964073,4115989.9442730313],[604781.2160488748,4115997.376780729],[604784.129954057,4116025.4032317586],[604804.1418508693,4116056.5349595724],[604798.0441666616,4116074.9237043476],[604776.3707601149,4116066.3147096527],[604744.201521871,4116072.23656586],[604719.4335533141,4116027.282527874],[604724.6500733034,4116007.692879215],[604673.2027301646,4115820.544867939],[604690.3202809008,4115815.023476095],[604696.8961367254,4115842.629682332],[604713.6711954623,4115842.958319692],[604720.0491691635,4115864.3123468384],[604734.9878209035,4115864.0700194687],[604730.3449866466,4115789.708919664],[604703.1802614691,4115784.367544984],[604695.9297691566,4115707.4476697403],[604673.9397210311,4115694.796672683],[604653.0556942557,4115711.2790880324],[604643.014752248,4115707.300089511],[604630.0247079397,4115650.9533664207],[604659.9274113333,4115638.3727713525],[604654.0562151878,4115624.479264951],[604622.8489384232,4115631.3796176654],[604576.653795479,4115453.7915046327],[604590.6043061896,4115442.644084445],[604602.2577965045,4115465.5887686536],[604619.4292556843,4115460.6528567746],[604612.8016303168,4115426.5454273573],[604591.9970425569,4115421.8238715176],[604565.4903759965,4115308.6971612126],[604549.8984718183,4115281.150391771],[604555.1794297361,4115268.547836318],[604477.8427667309,4114775.6986075677],[604409.6038379415,4114773.9743469935],[604422.3924328985,4114757.037308194],[604415.3844813666,4114730.056571046],[604449.4311491584,4114717.651337685],[604445.5149398784,4114695.9530793685],[604461.3886844811,4114677.2009683955],[604460.2996004748,4114660.978524649],[604435.4674393731,4114648.413803682],[604406.3144768883,4114659.209276957],[604411.4210136763,4114702.448336077],[604381.654171902,4114708.132368963],[604356.9284545731,4114540.0330772],[604351.1234803313,4114559.6629660036],[604281.6298248267,4114602.368565649],[604241.8338046985,4114643.0216485886],[604241.0918021242,4114669.600686407],[604222.4601920816,4114673.4768035905],[604208.6362119946,4114653.551525471],[604190.9387641004,4114657.293239967],[604198.979652239,4114675.374526309],[604192.5301336684,4114695.941586788],[604106.9247613056,4114768.169081997],[604127.8625571945,4114794.767108862],[604113.9227920881,4114826.988867433],[604068.7178705946,4114791.635359184]],[[604827.9750292434,4116322.8737816405],[604820.2310066064,4116333.1023694226],[604811.2168782167,4116322.4058076404],[604819.5209742401,4116314.1016155044],[604827.9750292434,4116322.8737816405]],[[604718.4019553842,4116205.6010470665],[604717.5388168438,4116192.075604973],[604736.3539783594,4116191.3865011544],[604736.6172136546,4116206.468106547],[604718.4019553842,4116205.6010470665]],[[604692.9232843035,4116369.3571405886],[604705.4003064096,4116370.696330985],[604703.9917692574,4116383.5646134606],[604687.1541030307,4116383.553000986],[604692.9232843035,4116369.3571405886]],[[604672.5383599185,4116178.9947701576],[604696.7864586931,4116170.851506887],[604702.2151355913,4116182.4762179074],[604686.0359637567,4116198.9232128523],[604672.5383599185,4116178.9947701576]],[[604610.3608172998,4116088.307521774],[604608.1226271463,4116065.6308547514],[604640.6492867663,4116060.6171029895],[604642.3898591117,4116081.4608507203],[604610.3608172998,4116088.307521774]],[[604558.3087132471,4115458.869737762],[604545.5459047803,4115441.8428371977],[604562.2932095531,4115431.9717671648],[604572.3128793727,4115450.3446078263],[604558.3087132471,4115458.869737762]],[[604542.4825161361,4115385.789954429],[604553.3831817248,4115382.0041957437],[604558.0549450285,4115393.91184292],[604547.3271339551,4115397.252700757],[604542.4825161361,4115385.789954429]],[[604481.8167277357,4115861.1198396157],[604509.8823564671,4115852.142479126],[604510.7512682879,4115903.886610098],[604498.5207561747,4115902.398577846],[604481.8167277357,4115861.1198396157]],[[604451.941236582,4115152.2553012413],[604478.2430274565,4115139.6884258864],[604483.1791156926,4115158.01452547],[604499.0357084782,4115164.0452363603],[604501.3996205301,4115202.4564986955],[604486.4697424093,4115204.016016978],[604480.3931258786,4115176.10660965],[604457.1658124026,4115173.412290947],[604451.941236582,4115152.2553012413]],[[604491.1895256693,4115224.3224314386],[604476.4861159708,4115233.88905653],[604469.0785103828,4115221.322144008],[604484.0529373165,4115214.830559121],[604491.1895256693,4115224.3224314386]],[[604440.1873251229,4115524.9357921826],[604450.1572024316,4115515.649550087],[604466.1771419984,4115531.81989516],[604449.7739968817,4115543.7279012413],[604440.1873251229,4115524.9357921826]],[[604438.246068333,4114846.9653768768],[604435.6901734617,4114818.2014720473],[604449.2591716858,4114812.954795812],[604455.517907564,4114845.9145238562],[604438.246068333,4114846.9653768768]],[[604436.0742850811,4115181.0132455216],[604419.7316723543,4115187.9320814935],[604418.8538284652,4115159.9079562705],[604430.8695536692,4115160.7226241613],[604436.0742850811,4115181.0132455216]],[[604424.1522727981,4115854.570347076],[604434.8574594319,4115865.6516000037],[604422.9971990574,4115874.5030623088],[604414.4588275808,4115863.064751302],[604424.1522727981,4115854.570347076]],[[604408.0914729622,4114959.291069776],[604412.1221950626,4114970.153843722],[604400.9982586837,4114974.0353207197],[604397.3354994146,4114963.6453192635],[604408.0914729622,4114959.291069776]],[[604378.0590010068,4115636.538154144],[604401.8842113217,4115623.0123046422],[604410.2878386874,4115645.4909701473],[604386.9288097927,4115659.5450983276],[604378.0590010068,4115636.538154144]],[[604395.8260556709,4115784.731110345],[604394.2190074205,4115773.6952035064],[604405.3880512258,4115771.6082073846],[604407.5861335378,4115783.0464014183],[604395.8260556709,4115784.731110345]],[[604371.5138850991,4114739.3185364185],[604399.17011813,4114737.4139810354],[604403.0773674537,4114784.1154366527],[604373.5740359512,4114787.727364687],[604371.5138850991,4114739.3185364185]],[[604342.4219178617,4115289.8699288326],[604332.4522346214,4115255.180564947],[604352.8369012687,4115250.997538515],[604360.114818616,4115284.64851792],[604342.4219178617,4115289.8699288326]],[[604326.9385378006,4115583.283129354],[604312.7122420144,4115583.639172541],[604310.2627416379,4115571.9555251254],[604329.9960356852,4115566.841567086],[604326.9385378006,4115583.283129354]],[[604279.4603202521,4115471.6252570725],[604286.3273671956,4115461.842867677],[604296.1546863198,4115470.4542444684],[604288.475224766,4115480.6351357377],[604279.4603202521,4115471.6252570725]],[[604276.544063937,4114954.835139275],[604285.3188804553,4114963.9913067594],[604275.8696240429,4114971.478475912],[604268.1149590494,4114962.241047481],[604276.544063937,4114954.835139275]],[[604231.2255558398,4115068.687983553],[604216.2567956471,4115027.2177409837],[604242.093026607,4115024.071157816],[604258.5943095959,4115055.0024645696],[604231.2255558398,4115068.687983553]],[[604210.9346705425,4115247.276851211],[604229.0803778841,4115240.174358268],[604231.8734920924,4115266.543632013],[604213.8493105079,4115266.2912736475],[604210.9346705425,4115247.276851211]],[[604195.4930389844,4114758.412836402],[604209.0614014281,4114755.1091515007],[604210.0580243982,4114774.495264472],[604194.3282883469,4114773.558657344],[604195.4930389844,4114758.412836402]],[[604143.4027127309,4114848.2380168224],[604157.4817464701,4114812.6512596263],[604184.7471372256,4114854.986982026],[604154.3918940452,4114864.0172460964],[604143.4027127309,4114848.2380168224]],[[604104.5566403485,4114841.869895979],[604117.478833042,4114844.75600455],[604124.4677808715,4114889.233857817],[604098.2826805485,4114891.1872555963],[604072.9399387281,4114878.328015464],[604104.5566403485,4114841.869895979]]],[[[604276.7082894589,4114596.5869148546],[604260.6658208676,4114519.2246536505],[604204.5817653938,4114524.5063994285],[604169.8040878986,4114539.809837857],[604175.238413114,4114566.9813165693],[604207.2280613536,4114564.5089714136],[604219.9696897685,4114596.3807886415],[604276.7082894589,4114596.5869148546]],[[604226.3681152816,4114566.142630325],[604243.0304370975,4114554.27759121],[604252.6192003217,4114560.6266712677],[604245.1901387052,4114578.0318493717],[604231.3222026909,4114578.219955178],[604226.3681152816,4114566.142630325]]],[[[604526.828248093,4116360.3439026154],[604511.7541969374,4116331.5505654616],[604494.3764562622,4116327.9786483585],[604480.5575172681,4116271.806106732],[604436.2428245294,4116285.461715319],[604457.0216577052,4116357.0238137017],[604397.7360637627,4116381.775941701],[604384.4846297215,4116368.03302638],[604370.0175178105,4116372.168282316],[604388.2370631779,4116449.030949028],[604417.0865786021,4116450.9626100482],[604423.527023359,4116527.1230198587],[604539.8494660073,4116479.6004859847],[604520.7029749334,4116404.6386509724],[604526.828248093,4116360.3439026154]]],[[[604845.7830606077,4115684.3113082065],[604732.124545302,4115690.2107896344],[604732.0109667012,4115712.703439002],[604849.3576982823,4115699.985040743],[604845.7830606077,4115684.3113082065]]],[[[604589.7363196919,4116491.600829214],[604587.7359021469,4116510.124736514],[604610.6126623296,4116514.7114264756],[604622.4821141642,4116561.569208741],[604602.1242239305,4116575.790765702],[604601.0130644302,4116589.220762276],[604633.805310384,4116626.1405961085],[604629.975842507,4116654.9481867664],[604642.9931184184,4116678.475448042],[604630.4427444456,4116692.974617217],[604649.7005750139,4116723.1614723825],[604643.748431166,4116752.590626221],[604667.0875069494,4116753.6744318046],[604678.6155658659,4116728.384118936],[604720.1169214231,4116719.7414607755],[604733.468935667,4116728.216634245],[604735.9217917762,4116752.609193036],[604750.7930586896,4116752.1635960266],[604743.2501684316,4116724.7904412113],[604756.5579295673,4116688.469328358],[604767.6666587165,4116693.784536049],[604771.7073463277,4116730.6506950506],[604793.4421130316,4116727.384241968],[604784.5793761845,4116638.301812935],[604791.5992697789,4116626.436685562],[604776.316194529,4116600.854105989],[604771.7809001179,4116516.759800117],[604760.7883421711,4116497.6591295893],[604770.0781750698,4116476.362184868],[604755.1318730531,4116429.754994433],[604729.0882916721,4116435.859067165],[604722.481212803,4116453.5642776187],[604642.2056372367,4116463.274683894],[604637.1251862084,4116483.6753005316],[604655.236421317,4116492.5419074227],[604645.3608555401,4116510.0564049566],[604627.7179444982,4116510.468671437],[604617.0381884539,4116488.089845165],[604589.7363196919,4116491.600829214]],[[604730.875109038,4116628.417253077],[604744.6830527018,4116622.051132198],[604758.3063178972,4116636.1788242576],[604760.8657645995,4116671.1504372032],[604752.2049276279,4116682.666299313],[604738.6727452496,4116676.552759046],[604730.875109038,4116628.417253077]],[[604699.3399692784,4116680.0397292874],[604712.4734039283,4116677.5489467126],[604714.0662630082,4116692.3072254155],[604699.5089367775,4116692.0057212124],[604699.3399692784,4116680.0397292874]],[[604661.2857965659,4116671.210057503],[604665.583573382,4116646.1567051206],[604691.0992653671,4116642.1243705368],[604693.4336619215,4116624.355964374],[604705.2863734539,4116623.458518092],[604709.0430016888,4116660.3520349106],[604661.2857965659,4116671.210057503]],[[604703.1988664382,4116564.5883567994],[604708.4711313868,4116587.5050633894],[604692.8080970543,4116598.8481677235],[604687.2036668796,4116569.7921787472],[604703.1988664382,4116564.5883567994]],[[604668.0289715746,4116715.071786324],[604679.7772451886,4116713.8097287896],[604680.5876022142,4116726.682016018],[604668.2504560606,4116726.9422237924],[604668.0289715746,4116715.071786324]]],[[[604229.9323377123,4116106.052209865],[604256.078962604,4116141.511426539],[604277.3509756121,4116147.951966416],[604253.4599049337,4116179.160471369],[604287.3468241702,4116219.1723089474],[604345.4523080676,4116172.513180546],[604313.7442651244,4116121.4948778586],[604340.005366688,4116090.7885475936],[604310.5409887297,4116056.6103277123],[604291.2277756413,4116070.5949648726],[604295.5050652318,4116092.590060211],[604279.3433954426,4116092.937341051],[604262.2618578722,4116077.429897626],[604229.9323377123,4116106.052209865]]],[[[604210.3744444348,4116529.6261043292],[604259.8958783823,4116527.1268562498],[604256.0690513426,4116501.7529218057],[604210.7327371633,4116518.6749481135],[604210.3744444348,4116529.6261043292]]],[[[604149.02294492,4115768.8249056516],[604164.0252704406,4115851.290243432],[604224.8986613284,4115840.7574107763],[604196.3117351194,4115685.118826649],[604151.2653916742,4115695.009206216],[604163.3620679758,4115755.9030984594],[604149.02294492,4115768.8249056516]]],[[[604031.8323467987,4115196.0695996485],[604080.5227681347,4115306.3981234175],[604097.2713681309,4115299.0027095573],[604088.7825819821,4115264.843488757],[604110.8114781571,4115283.912547586],[604126.2357401663,4115277.140610893],[604064.512429335,4115176.0359648936],[604031.8323467987,4115196.0695996485]]],[[[603994.1880974149,4114943.350006646],[603972.8593295703,4114969.088722553],[603993.118513719,4114985.211506934],[604013.2082429726,4114959.422670402],[603994.1880974149,4114943.350006646]]],[[[603858.079489824,4116014.757302535],[603841.2689651364,4116037.0603539664],[603816.3361393671,4116030.903343036],[603806.3787409285,4116057.443307207],[603906.8294907198,4116101.3708248152],[603919.572285826,4116087.5006059012],[603941.4610243434,4116093.1475542267],[603956.4380160164,4116005.633639563],[603943.1681583514,4116005.8171784626],[603923.8952719381,4116080.581150651],[603903.7451433978,4116069.0686520836],[603912.2759951837,4116038.5634924793],[603858.079489824,4116014.757302535]]],[[[603779.171696896,4114614.6813030653],[603782.8726780743,4114654.1063532606],[603810.4938152396,4114661.1952473354],[603844.9289104551,4114645.8795138425],[603916.3833365077,4114640.9916363605],[603915.8869224455,4114553.3816600624],[603857.1804761246,4114539.4593241145],[603861.4084056135,4114594.2214418375],[603884.909413342,4114592.248225428],[603885.6297425919,4114564.0390847665],[603902.0906335621,4114569.036072291],[603889.7157441458,4114621.3837534846],[603845.8513745128,4114634.3336753757],[603834.1886000809,4114604.246729964],[603779.171696896,4114614.6813030653]]],[[[603741.40084743,4116109.9897687393],[603743.0177241019,4116130.460048235],[603773.9142940739,4116127.804189557],[603770.0624203336,4116103.1137964083],[603741.40084743,4116109.9897687393]]]]}}]}
