{"type":"FeatureCollection","name":"garrucha-playazo-coastline","crs":{"type":"name","properties":{"name":"EPSG:25830"}},"features":[{"type":"Feature","properties":{"source":"DERA/IECA","id_dera":10125300001431.0},"geometry":{"type":"MultiLineString","coordinates":[[[604918.288871152,4116124.0],[604917.4100000001,4116124.91],[604917.7199999997,4116125.2300000004],[604928.1100000003,4116134.9800000004],[604938.5,4116144.7300000004],[604952.8300000001,4116158.5700000003],[604967.1600000001,4116172.4000000004],[604977.5,4116183.1500000004],[604987.8300000001,4116193.8900000006],[604996.4900000002,4116202.6999999993],[605005.1500000004,4116211.5],[605006.2000000002,4116212.2300000004],[605007.1399999997,4116212.539999999],[605008.6100000003,4116212.539999999],[605009.7699999996,4116212.33],[605011.9699999997,4116211.49],[605018.7800000003,4116204.67],[605032.5099999998,4116190.1400000006],[605046.2400000002,4116175.5999999996],[605057.25,4116164.16],[605068.2599999998,4116152.7200000007],[605076.3300000001,4116143.8000000007],[605079.1600000001,4116142.539999999],[605081.0499999998,4116142.539999999],[605082.2999999998,4116142.2200000007],[605089.3799999999,4116132.7300000004],[605095.8769578952,4116124.0]],[[605097.4948307688,4116124.0],[605100.8600000003,4116126.4800000004],[605093.2599999998,4116136.5],[605085.6600000001,4116146.5199999996],[605092.2699999996,4116151.76],[605099.8700000001,4116141.5299999993],[605107.4699999997,4116131.3000000007],[605111.6699999999,4116134.5500000007],[605100.4500000002,4116149.869999999],[605103.1799999997,4116152.8000000007],[605112.5300000003,4116161.4000000004],[605121.8700000001,4116169.99],[605123.0199999996,4116170.5199999996],[605123.75,4116170.51],[605125.2199999997,4116170.1999999993],[605125.54,4116169.880000001],[605133.8200000003,4116160.33],[605139.2699999996,4116152.5700000003],[605144.71,4116143.8599999994],[605150.6900000004,4116132.5299999993],[605154.2512513843,4116124.0]],[[605188.4675977648,4116124.0],[605185.9299999997,4116135.76],[605180.2800000003,4116152.4399999995],[605175.3499999996,4116162.3000000007],[605164.1399999997,4116176.8900000006],[605155.3899999997,4116187.4399999995],[605146.6399999997,4116197.9800000004],[605142.6500000004,4116202.49],[605131.1200000001,4116208.369999999],[605129.2300000004,4116210.369999999],[605120.8499999996,4116219.9700000007],[605112.46,4116229.5700000003],[605105.54,4116237.210000001],[605098.6299999999,4116244.84],[605091.71,4116252.4800000004],[605084.79,4116260.1099999994],[605071.5800000001,4116273.6500000004],[605070.1200000001,4116275.539999999],[605065.29,4116278.2699999996],[605064.5599999996,4116279.2200000007]]]}},{"type":"Feature","properties":{"source":"DERA/IECA","id_dera":10125300001125.0},"geometry":{"type":"LineString","coordinates":[[605233.9882325581,4116742.0],[605234.04,4116740.9399999995],[605232.7800000003,4116739.1500000004],[605232.0499999998,4116738.5199999996],[605231.6299999999,4116737.789999999],[605232.6699999999,4116736.01],[605233.7199999997,4116732.2300000004],[605233.4000000004,4116730.0299999993],[605232.46,4116727.3000000007],[605227.21,4116722.6899999995],[605227.4199999999,4116722.369999999],[605228.8899999997,4116721.5299999993],[605229.9400000004,4116721.3200000003],[605230.25,4116720.4800000004],[605230.1500000004,4116718.8100000005],[605227.0,4116713.25],[605227.2000000002,4116712.7200000007],[605227.6200000001,4116712.09],[605227.6200000001,4116710.630000001],[605226.4699999997,4116706.8499999996],[605225.5199999996,4116705.49],[605221.2199999997,4116703.1799999997],[605220.5899999999,4116702.66],[605220.3799999999,4116701.8200000003],[605220.4800000004,4116701.1899999995],[605220.9000000004,4116700.1400000006],[605220.9000000004,4116699.09],[605220.2699999996,4116697.5199999996],[605217.8600000003,4116694.17],[605215.9699999997,4116692.380000001],[605213.4400000004,4116681.789999999],[605213.1299999999,4116681.16],[605211.3499999996,4116679.2799999993],[605210.4000000004,4116676.130000001],[605210.4000000004,4116675.3900000006],[605211.1299999999,4116672.25],[605210.29,4116671.7200000007],[605208.6100000003,4116666.6899999995],[605208.6100000003,4116664.49],[605208.29,4116662.91],[605205.3499999996,4116660.5],[605204.9299999997,4116659.5600000005],[605204.9299999997,4116657.880000001],[605205.25,4116657.1500000004],[605205.3499999996,4116655.0500000007],[605203.1500000004,4116653.16],[605201.6799999997,4116650.75],[605200.9400000004,4116644.460000001],[605200.0999999996,4116642.26],[605198.8399999999,4116640.4700000007],[605194.8499999996,4116637.6400000006],[605194.6399999997,4116636.8100000005],[605194.75,4116635.5500000007],[605195.2699999996,4116635.0199999996],[605195.2699999996,4116634.5],[605194.7400000002,4116633.4499999993],[605194.3200000003,4116633.130000001],[605193.3799999999,4116631.039999999],[605193.3799999999,4116626.0],[605192.6399999997,4116622.2300000004],[605188.1200000001,4116615.9399999995],[605187.4900000002,4116613.3200000003],[605184.7599999998,4116599.8900000006],[605182.7599999998,4116592.0299999993],[605180.0300000003,4116585.630000001],[605172.5700000003,4116572.7300000004],[605169.9400000004,4116561.51],[605167.7400000002,4116558.6799999997],[605167.0,4116556.4800000004],[605166.79,4116549.5600000005],[605165.6299999999,4116544.3100000005],[605162.6900000004,4116535.92],[605159.0099999998,4116521.7699999996],[605158.3799999999,4116515.369999999],[605153.3300000001,4116502.7799999993],[605152.5999999996,4116498.4800000004],[605149.5499999998,4116491.5600000005],[605145.0899999999,4116478.25],[605140.6200000001,4116464.9299999997],[605137.1500000004,4116453.5999999996],[605134.3099999996,4116446.16],[605132.3200000003,4116443.119999999],[605131.6900000004,4116441.33],[605131.6900000004,4116438.1899999995],[605130.9500000002,4116434.83],[605126.0099999998,4116426.9700000007],[605122.4400000004,4116418.789999999],[605121.5,4116414.6999999993],[605117.4000000004,4116408.619999999],[605116.5599999996,4116405.369999999],[605112.8799999999,4116395.9299999997],[605110.4699999997,4116387.539999999],[605109.4199999999,4116386.2799999993],[605105.7400000002,4116383.869999999],[605104.1699999999,4116381.039999999],[605100.3799999999,4116365.1999999993],[605099.4400000004,4116360.2699999996],[605096.3899999997,4116353.880000001],[605089.8799999999,4116342.24],[605082.9500000002,4116332.17],[605078.8600000003,4116321.789999999],[605074.7599999998,4116311.41],[605074.1299999999,4116310.1500000004],[605073.9199999999,4116310.0500000007],[605072.1299999999,4116313.619999999],[605071.9199999999,4116313.83],[605070.6699999999,4116313.09],[605070.04,4116312.039999999],[605068.8799999999,4116308.4800000004],[605065.0899999999,4116292.119999999],[605064.04,4116281.210000001],[605064.5599999996,4116279.2200000007]]}}]}
