{"type":"FeatureCollection","name":"garrucha-coast-roads","crs":{"type":"name","properties":{"name":"EPSG:25830"}},"source":"\u00a9 OpenStreetMap contributors, ODbL 1.0","features":[{"type":"Feature","properties":{"class":"living_street","widthMeters":4},"geometry":{"type":"MultiPolygon","coordinates":[[[[604846.5132048163,4116626.126609903],[604889.8432596801,4116616.1199716288],[604845.9673457858,4116622.164030198],[604846.5132048163,4116626.126609903]]],[[[604828.091830105,4116659.304395308],[604896.3715623254,4116644.748213183],[604827.6265005154,4116655.330796403],[604818.4788832687,4116609.6554423617],[604836.5511111784,4116746.068940456],[604864.8000870525,4116742.80172808],[604838.6247400321,4116741.880199121],[604828.091830105,4116659.304395308]]]]}},{"type":"Feature","properties":{"class":"residential","widthMeters":5},"geometry":{"type":"MultiPolygon","coordinates":[[[[604357.1087550225,4114350.0],[604130.7652831081,4114394.8563134335],[604120.2425131147,4114350.0],[604115.1067762907,4114350.0],[604189.2519799363,4114685.8549671886],[604009.5798294906,4114852.5655008513],[604031.7930982651,4114881.4433473987],[604035.7407537389,4114878.374794603],[604015.3196433618,4114852.1032869797],[604190.8091800995,4114691.1367727495],[604241.1997858993,4114915.186168338],[604245.6197616967,4114909.155514512],[604222.3502858629,4114800.755519701],[604313.3697507267,4114790.2506557284],[604325.1954820143,4114905.7927748943],[604255.2868544472,4114912.518981657],[604253.4566402636,4114919.0712478217],[604404.711957299,4114904.1843381026],[604414.0899913508,4114909.63183294],[604415.7634185321,4114904.920183392],[604407.1992388179,4114899.717872791],[604390.1056699591,4114791.402120727],[604448.4813692163,4114774.7784697944],[604455.08553949,4114772.0753307077],[604453.1915151323,4114767.447947891],[604320.417570779,4114806.423658734],[604312.3212409392,4114732.690784872],[604393.7079073964,4114707.5036010933],[604462.2078451954,4114697.4058923707],[604463.2337320598,4114692.5122683416],[604418.6889250359,4114698.7919215607],[604407.1935489238,4114693.4619079223],[604394.2768132336,4114675.775354936],[604397.8911241572,4114567.5234266734],[604370.0290422394,4114449.269568505],[604373.9230698934,4114435.819074711],[604368.0493443006,4114436.723301785],[604355.8121934064,4114375.6093434272],[604363.0789522877,4114366.978853535],[604381.8409446267,4114366.6782771796],[604382.6349922459,4114361.7417309806],[604355.1212977498,4114366.707893349],[604354.6884945175,4114360.3341078702],[604358.9088277385,4114354.716233851],[604385.8904267472,4114350.0],[604357.1087550225,4114350.0]],[[604361.1248833054,4114851.5389282154],[604367.1296097325,4114902.68263564],[604330.2185631023,4114905.7715829085],[604325.355790679,4114857.4095985643],[604361.1248833054,4114851.5389282154]],[[604385.2641592734,4114792.7956751627],[604392.8925313535,4114840.910792446],[604324.8693548804,4114852.4225391806],[604320.982569115,4114811.466187265],[604385.2641592734,4114792.7956751627]],[[604378.6293101537,4114709.4800710403],[604311.8562778904,4114727.636686459],[604296.764184159,4114595.661154654],[604380.6870551213,4114523.013571681],[604394.3915799896,4114598.05865918],[604386.4327279442,4114652.580223217],[604387.6997846889,4114691.354008313],[604378.6293101537,4114709.4800710403]],[[604131.8804586311,4114399.7342167627],[604314.4876884265,4114361.2286527567],[604331.7090183587,4114360.239598039],[604346.676235047,4114367.9636206077],[604379.155378231,4114518.112790898],[604193.558841275,4114681.983193565],[604131.8804586311,4114399.7342167627]],[[604238.4658475714,4114648.1356335287],[604257.5506188215,4114733.5428531924],[604208.7148737013,4114739.911846615],[604194.8808146896,4114687.534234105],[604238.4658475714,4114648.1356335287]],[[604209.7957874456,4114744.814499261],[604307.391287056,4114733.6416970934],[604309.7745209805,4114757.530496189],[604215.1195935186,4114768.6208308088],[604209.7957874456,4114744.814499261]],[[604312.7814901553,4114785.2853584094],[604221.0471823446,4114795.872724822],[604216.1836168587,4114773.5303661698],[604310.2494700059,4114762.509051002],[604312.7814901553,4114785.2853584094]],[[604242.7344763549,4114644.3108017053],[604261.7616540919,4114627.403963227],[604285.3889245049,4114731.46490683],[604262.5307474171,4114732.902089962],[604242.7344763549,4114644.3108017053]],[[604266.0270757695,4114623.6081823437],[604292.2512665987,4114599.85125256],[604306.9261443138,4114728.660138429],[604290.45275167,4114731.1855214913],[604266.0270757695,4114623.6081823437]],[[604351.5094483115,4114356.241297024],[604349.9375868399,4114364.171992369],[604341.9724468193,4114358.1739278743],[604351.5094483115,4114356.241297024]],[[604394.4299459907,4114702.547596573],[604392.1001952789,4114693.7342637037],[604399.9862136008,4114692.0764056756],[604401.7951492643,4114700.649822583],[604394.4299459907,4114702.547596573]],[[604393.957296461,4114684.8679309245],[604395.2017679719,4114686.383567633],[604393.5972579075,4114686.8536897283],[604393.957296461,4114684.8679309245]],[[604388.1763235518,4114703.4554591333],[604388.6736740965,4114704.238442946],[604387.5792757652,4114704.713617422],[604388.1763235518,4114703.4554591333]],[[604407.6367559966,4114699.468561705],[604408.7141985008,4114700.082264888],[604407.4811532525,4114700.3551952317],[604407.6367559966,4114699.468561705]],[[604393.6721919841,4114845.8503957596],[604402.0892791812,4114899.408692033],[604372.1102031715,4114902.2248276435],[604366.0609309592,4114850.7017129925],[604393.6721919841,4114845.8503957596]]],[[[604103.0048267386,4114940.0181364673],[604180.0778935278,4115153.6125327125],[604249.3022124156,4115309.6728919107],[604267.4650724458,4115396.865884239],[604272.7858240957,4115444.857298522],[604179.703570576,4115459.6070098216],[604180.5263726014,4115464.5388448583],[604273.4794475816,4115449.8089768547],[604281.962659824,4115486.2883050865],[604251.8041440053,4115493.174533042],[604247.4105878506,4115501.6561867986],[604304.927334587,4115724.712261633],[604170.9177562781,4115753.5539831463],[604141.1938723098,4115750.3442029604],[604129.351417236,4115731.813278519],[604128.8178382067,4115717.5244512004],[604158.0517272342,4115645.53929277],[604153.44557443,4115643.594207593],[604129.3017394007,4115696.116998721],[604123.2906670735,4115726.367939483],[604132.5038796685,4115748.7577156895],[604157.8327290318,4115888.9912467245],[604162.1242088923,4115893.8953328556],[604165.4769483261,4115890.1860016105],[604137.3146014971,4115753.6294214],[604171.5375887096,4115758.516610223],[604305.8760898386,4115729.6216486148],[604313.5674113163,4115762.56994534],[604291.2848936749,4115804.890718241],[604295.6974298359,4115807.242212368],[604317.4639841889,4115765.975245307],[604359.2025202953,4115788.98373131],[604276.8140346712,4115929.874805628],[604246.5479203644,4115964.902851947],[604234.5390244928,4115968.897280393],[604201.8726792868,4116035.540492734],[604183.6365727239,4116038.968518929],[604182.5602694274,4116043.851302071],[604196.5523538325,4116043.9555347566],[604188.1454447634,4116058.5130385347],[604192.7309963168,4116060.5062061017],[604220.7700544111,4116003.0278736847],[604249.6204557441,4115985.276443835],[604356.1174283633,4116107.3468305087],[604363.7435095443,4116141.694821127],[604332.8322370885,4116217.3388120625],[604331.198397757,4116268.731455764],[604341.4855551436,4116297.043333599],[604387.8477635657,4116374.8756280183],[604415.5886897343,4116503.7639335985],[604421.1728970008,4116499.152415849],[604416.200756173,4116466.481713424],[604392.5894714909,4116373.2819758267],[604345.9705757911,4116294.7964883787],[604333.8659867554,4116247.223163902],[604337.6597944009,4116218.6458291225],[604362.5535876906,4116162.6852819673],[604411.4319410643,4116165.8541116393],[604416.6453951894,4116267.0306284777],[604430.6738846946,4116306.2898286316],[604456.4880101905,4116356.0947775748],[604460.9444905118,4116353.8276685905],[604432.5693645432,4116298.576743315],[604419.6257799437,4116258.5073842877],[604420.0339141238,4116171.7702597384],[604409.1635240949,4116158.908505934],[604364.442441745,4116157.7313330774],[604368.5645892246,4116126.946579193],[604355.6231115066,4116097.122032245],[604253.1086628383,4115981.6747541926],[604294.8279179025,4115923.0096741198],[604359.3927718594,4115806.6744909505],[604370.2011849786,4115810.628745658],[604376.3546452733,4115832.1457778644],[604470.0086451467,4116172.5738425246],[604506.6583318448,4116328.7762622302],[604511.5245834332,4116327.627525759],[604475.4366828228,4116173.78201174],[604523.7426072994,4116156.341950602],[604537.8814455798,4116215.8442075173],[604510.699173226,4116222.633051448],[604511.910721902,4116227.484046171],[604539.0181856238,4116220.713885893],[604592.658256985,4116449.180858938],[604700.1759583706,4116411.48786655],[604757.8036779094,4116402.290482933],[604758.8117122211,4116397.3931503096],[604749.7061984976,4116395.792490732],[604715.8645454914,4116402.06244755],[604683.6040764658,4116291.763637445],[604751.3349277603,4116285.8131517177],[604797.686514504,4116272.506158693],[604839.1845792241,4116374.81272068],[604835.729716866,4116383.330364757],[604783.5485306252,4116392.2175512756],[604777.2319429221,4116401.8015322075],[604832.8385904828,4116388.394628885],[604849.065778304,4116390.6895570667],[604852.8773815893,4116380.67282988],[604802.4357880339,4116270.932404775],[604889.1420973644,4116244.6030196673],[604876.9653504413,4116183.444207964],[604850.3769325976,4116170.9788039406],[604780.221834843,4116191.0462208795],[604761.4624035027,4116123.8859111536],[604756.646729702,4116125.231008119],[604775.4233550051,4116192.452831949],[604737.5461546847,4116203.256882083],[604738.7170778163,4116208.117842793],[604776.7468729493,4116197.274779582],[604796.0846454537,4116267.769657385],[604750.6063553053,4116280.864981649],[604681.9788135967,4116286.8613812327],[604625.67430867,4116122.763366509],[604708.4266222332,4116099.7576382426],[604706.9683843848,4116094.9750090097],[604624.2619087339,4116117.966399933],[604604.2316582386,4116050.990555986],[604595.9541539461,4116010.8149474873],[604649.7650320368,4115995.9377227905],[604670.1327958151,4116073.54365959],[604649.743076363,4116077.690709902],[604650.7396195201,4116082.5903937425],[604700.9599528455,4116071.646763695],[604699.8126133021,4116066.7801825567],[604675.0256106555,4116072.490056812],[604654.658748537,4115994.8875555466],[604719.0211753063,4115976.4500836073],[604717.6610205369,4115971.6386411],[604653.3871088406,4115990.02714406],[604638.1549127334,4115931.5848005353],[604661.7097616598,4115924.56284309],[604660.2813287897,4115919.771227544],[604636.9205422492,4115926.7353328755],[604613.6740806733,4115836.445960254],[604676.1277998373,4115817.9688701616],[604674.7235207792,4115813.17012029],[604612.4061215228,4115831.6060023243],[604597.9878653879,4115776.4339210344],[604660.1182723334,4115758.1699619633],[604658.7680653054,4115753.355718411],[604596.6307498368,4115771.6194054],[604568.1003171274,4115678.5225793],[604594.9937468969,4115672.3190659904],[604593.7956200292,4115667.464738847],[604566.5980735174,4115673.6435872186],[604540.2583784714,4115590.188779],[604566.8180646583,4115582.367098704],[604565.0041260346,4115577.7077396633],[604529.7118740242,4115583.3686769214],[604518.7662129025,4115542.931639694],[604502.8415437447,4115525.4520575544],[604501.2904180246,4115512.928026764],[604532.836128829,4115497.8732230635],[604530.731511663,4115493.3377422085],[604500.1366519048,4115508.06184583],[604483.2333936547,4115450.903711407],[604475.2775174546,4115405.618111711],[604585.7451862466,4115377.262640565],[604584.5604038174,4115372.405039244],[604556.523591074,4115379.1611525],[604542.2621057602,4115329.165480182],[604571.5901895437,4115320.372634382],[604570.1542860327,4115315.5832522605],[604526.1959429489,4115328.787665563],[604515.2913128772,4115292.461598788],[604513.4535218981,4115283.715948925],[604560.4671059403,4115275.451756215],[604559.6838934704,4115270.5134793674],[604494.273680116,4115281.472045191],[604495.0350031485,4115286.4137440124],[604508.5056476911,4115284.483673716],[604539.0704990082,4115383.6847391417],[604475.1319507312,4115400.5749108167],[604469.4188058453,4115320.602430558],[604446.3877582898,4115214.0366606517],[604488.3092138051,4115217.1917825257],[604488.3534094346,4115212.191977855],[604446.4532255114,4115209.0234632096],[604445.8602512773,4115193.1963902656],[604436.7132187875,4115184.4370782715],[604420.1351049513,4115014.3809126616],[604517.9668050989,4115007.0373051045],[604517.5963959304,4115002.051044276],[604394.6517796611,4115011.4124517264],[604387.7498387968,4115005.5128554637],[604404.0313779763,4114967.077058472],[604452.5547402723,4114982.179234459],[604454.3436176808,4114977.5101962695],[604412.5552515703,4114960.759241283],[604393.8713375891,4114969.299983811],[604309.1980831865,4114932.9285519356],[604418.3855925887,4114922.4189925822],[604434.8255292014,4114935.0695260316],[604441.1864518337,4114965.7178722518],[604450.7103834065,4114973.050595909],[604439.1239716641,4114932.5110148718],[604419.6348784711,4114917.5484081605],[604263.6911308481,4114932.130914912],[604255.9457253165,4114926.929397849],[604276.9667597711,4115021.963174919],[604249.4556952117,4115023.216617859],[604230.257825061,4114927.4232239667],[604225.3303701752,4114928.2718630824],[604244.2995401648,4115022.8584670685],[604222.7053936251,4115024.0118657597],[604186.7995283698,4115038.8109638225],[604164.5362657433,4114934.99835995],[604159.6474245578,4114936.04680254],[604182.0684837427,4115040.595204749],[604148.6540828364,4115052.8478277307],[604108.0034688959,4114939.901617872],[604103.0048267386,4114940.0181364673]],[[604361.5838828118,4115784.5872427304],[604318.2422909649,4115760.405116554],[604310.7851824973,4115728.6612194353],[604402.2576769752,4115710.511335635],[604361.5838828118,4115784.5872427304]],[[604406.1163043887,4115704.1490686764],[604390.2703102784,4115691.5115259313],[604373.1846174552,4115612.047943269],[604448.5717716987,4115597.361464595],[604411.629014808,4115694.1391701726],[604406.1163043887,4115704.1490686764]],[[604456.9310903753,4115590.1912592547],[604422.4320253236,4115595.538259936],[604384.1301882188,4115524.553869298],[604435.3398502978,4115516.37535708],[604456.9310903753,4115590.1912592547]],[[604418.4705227026,4115598.962796633],[604372.0608406359,4115607.169065776],[604355.5313567587,4115529.303749009],[604378.9058339339,4115525.400970699],[604418.4705227026,4115598.962796633]],[[604434.6311101958,4115511.4251835695],[604354.4961174551,4115524.4073840543],[604344.5907447075,4115477.351251933],[604421.9589205795,4115459.7837483617],[604434.6311101958,4115511.4251835695]],[[604423.1453981644,4115454.7191684605],[604286.8410171515,4115485.1876906166],[604278.4580204437,4115449.2816603063],[604388.6931413369,4115443.1450921115],[604427.7734920752,4115420.787975719],[604470.3169554508,4115406.249733399],[604498.8802975329,4115534.944934789],[604484.396450105,4115551.666868057],[604478.3595368654,4115581.8046549857],[604461.5379394208,4115588.157577378],[604429.5799941376,4115461.608965165],[604423.1453981644,4115454.7191684605]],[[604543.8694402829,4115382.2709057955],[604527.7033008647,4115333.555486956],[604537.4738210756,4115330.606043025],[604551.6513596198,4115380.3073199308],[604543.8694402829,4115382.2709057955]],[[604277.7575460963,4115444.3211187785],[604273.3079384885,4115403.0878710863],[604377.9529542666,4115378.3550073225],[604420.6007210547,4115379.937815875],[604424.0169164258,4115417.195922733],[604387.4727949296,4115438.232003456],[604277.7575460963,4115444.3211187785]],[[604272.417217869,4115396.1754007926],[604258.8733552066,4115327.710025129],[604279.5021472322,4115323.9669032283],[604294.8526391407,4115393.6528618005],[604272.417217869,4115396.1754007926]],[[604257.7945703671,4115322.8241271996],[604234.5687329839,4115265.3632461247],[604226.1730993066,4115212.825981403],[604253.2369736576,4115207.769954634],[604278.4396516774,4115319.0780495866],[604257.7945703671,4115322.8241271996]],[[604246.5673861863,4115169.8963859263],[604252.2875542935,4115202.860817152],[604224.6752824235,4115208.019593484],[604216.5321927338,4115171.5220432524],[604246.5673861863,4115169.8963859263]],[[604284.4166813643,4115323.0347382873],[604391.9932100535,4115303.278872364],[604404.3664516095,4115374.1049240227],[604377.1315509472,4115373.4209047076],[604299.7378898866,4115392.5877603483],[604284.4166813643,4115323.0347382873]],[[604283.3539080648,4115318.148048739],[604258.1427332715,4115206.800682227],[604281.8004795513,4115202.1015280643],[604305.3190520348,4115313.810976998],[604283.3539080648,4115318.148048739]],[[604274.78206158,4115168.68410293],[604280.7689143909,4115197.1948999134],[604257.1939855483,4115201.8909988953],[604251.6007755712,4115169.658207451],[604274.78206158,4115168.68410293]],[[604288.1246859814,4115201.4962288626],[604316.4247890965,4115203.780244352],[604338.3072882999,4115307.685193556],[604310.2309352044,4115312.871809221],[604288.1246859814,4115201.4962288626]],[[604307.2025770441,4115166.6891148295],[604314.1279217175,4115198.557298291],[604285.7655116008,4115196.6593941296],[604279.8337669609,4115168.411035179],[604307.2025770441,4115166.6891148295]],[[604343.3898471284,4115306.6780598005],[604322.4124248007,4115205.6806415287],[604321.872124186,4115204.120082062],[604345.5844605996,4115205.334787188],[604361.7776384442,4115302.9105714248],[604343.3898471284,4115306.6780598005]],[[604312.2394629186,4115166.351555814],[604340.0466567577,4115164.4015191337],[604345.8440713614,4115200.3415300515],[604319.8572751452,4115199.010311819],[604312.2394629186,4115166.351555814]],[[604372.7263527409,4115203.0219753073],[604350.9684860759,4115200.712135795],[604345.0719685433,4115164.1577544054],[604365.4998299256,4115163.519403278],[604372.7263527409,4115203.0219753073]],[[604399.9340234211,4115205.3998582275],[604377.9025213704,4115203.5313901175],[604370.5247201978,4115163.2018803805],[604394.9417540187,4115161.0409793966],[604399.9340234211,4115205.3998582275]],[[604417.7501297388,4115187.5421878463],[604441.1064303151,4115195.4790799576],[604441.430890161,4115208.6149951536],[604405.0122324893,4115205.8143144646],[604399.9323291251,4115160.6767628537],[604414.6076388019,4115159.815847021],[604417.7501297388,4115187.5421878463]],[[604395.1931758794,4115118.0686147986],[604423.3115795415,4115114.3631023606],[604427.2685098661,4115153.8309677267],[604399.3756288772,4115155.700824907],[604395.1931758794,4115118.0686147986]],[[604363.1274687373,4115122.8029873655],[604390.3371843777,4115119.641349406],[604394.3859430739,4115156.0706261997],[604369.6206895139,4115158.262344538],[604363.1274687373,4115122.8029873655]],[[604338.2251210051,4115126.7569803325],[604358.170378188,4115123.4913335936],[604364.5893856622,4115158.5454131286],[604344.2189606775,4115159.181969424],[604338.2251210051,4115126.7569803325]],[[604305.2709440835,4115133.713387134],[604333.4685071447,4115128.5318804234],[604339.1837525234,4115159.4497526363],[604311.1989325894,4115161.4122457122],[604305.2709440835,4115133.713387134]],[[604396.1928327922,4115111.5439636745],[604384.3851892792,4115017.4866198455],[604415.1440260604,4115014.716233712],[604422.8650678231,4115109.3828720367],[604396.1928327922,4115111.5439636745]],[[604350.457296017,4115054.7851543743],[604345.5419622968,4115055.7013936546],[604357.261602183,4115118.573551987],[604337.323352651,4115121.8380513596],[604319.3476381869,4115022.9299185514],[604379.4094540038,4115017.980278446],[604389.7939936821,4115114.6708254125],[604362.2175282743,4115117.875077929],[604350.457296017,4115054.7851543743]],[[604304.2377090596,4115128.8186681913],[604282.965018864,4115026.5351046473],[604314.3386432626,4115023.331088288],[604332.5186574843,4115123.3633437343],[604304.2377090596,4115128.8186681913]],[[604387.7693606055,4115012.107227504],[604281.9872344189,4115021.608954502],[604272.7158336882,4114972.049232934],[604313.3597390021,4114978.2861159546],[604387.7693606055,4115012.107227504]],[[604266.3408250392,4114938.6023617],[604299.0589849538,4114934.015066053],[604392.1655545165,4114974.009031986],[604383.4053282401,4115002.936631027],[604314.8432602606,4114973.4912739065],[604271.7351875036,4114966.840224794],[604266.3408250392,4114938.6023617]],[[604211.7785591509,4115150.0718187457],[604240.3351829933,4115144.990220467],[604245.4695462768,4115164.9484881465],[604215.4318672095,4115166.5742800073],[604211.7785591509,4115150.0718187457]],[[604239.1867047426,4115140.1160431476],[604210.6856602613,4115145.187751182],[604188.3069561971,4115046.332949279],[604215.9315213613,4115032.670494117],[604239.1867047426,4115140.1160431476]],[[604267.4289806342,4115135.0402166652],[604244.1117864841,4115139.2349998746],[604224.0244972613,4115028.880750982],[604245.3109528506,4115028.0466476763],[604267.4289806342,4115135.0402166652]],[[604277.9389227002,4115026.924068719],[604299.3075310712,4115129.668827001],[604272.357527849,4115134.1831705724],[604250.4435757276,4115028.1767955436],[604277.9389227002,4115026.924068719]],[[604184.0144490751,4115149.8245284855],[604150.2996410544,4115057.571978751],[604183.0595190465,4115045.507739844],[604205.755131167,4115146.0535072074],[604184.0144490751,4115149.8245284855]],[[604210.378162286,4115166.878517203],[604191.5797382024,4115168.0934530552],[604185.9032172638,4115154.5715718083],[604206.8493392227,4115150.9383706385],[604210.378162286,4115166.878517203]],[[604221.2155827273,4115213.865404434],[604228.3328846099,4115253.7956409403],[604211.371841746,4115216.2362679294],[604221.2155827273,4115213.865404434]],[[604211.4752963405,4115171.8180413987],[604219.78597879,4115209.066746954],[604209.4073606147,4115211.5664355387],[604193.5958210689,4115172.9735858967],[604211.4752963405,4115171.8180413987]],[[604273.7110701834,4115163.724694733],[604250.5677025688,4115164.6972058793],[604245.2707120889,4115144.1067746887],[604268.4722410997,4115139.9327997374],[604273.7110701834,4115163.724694733]],[[604300.3400906041,4115134.5655270456],[604306.1569259622,4115161.7450163094],[604278.7742837071,4115163.467806916],[604273.4037076187,4115139.0775891165],[604300.3400906041,4115134.5655270456]],[[604309.8372738999,4115723.7518489347],[604295.4613389896,4115659.037369996],[604321.8837135971,4115654.418577249],[604334.7682275716,4115719.0476991353],[604309.8372738999,4115723.7518489347]],[[604293.9016199963,4115654.2342003104],[604270.3707676278,4115578.3112223456],[604304.6928252405,4115570.2542084143],[604320.9170224483,4115649.511742668],[604293.9016199963,4115654.2342003104]],[[604252.3905867619,4115501.0364502985],[604283.2213694218,4115491.1304026274],[604303.578434558,4115565.379890258],[604269.1656297254,4115573.4582068636],[604252.3905867619,4115501.0364502985]],[[604409.1175816369,4115372.3431401923],[604397.5994402628,4115303.4498412744],[604410.0251705438,4115302.2259958712],[604420.025633072,4115374.9121839073],[604409.1175816369,4115372.3431401923]],[[604430.7636447502,4115297.498670602],[604453.5089036805,4115360.561724192],[604455.6384262227,4115403.257514779],[604428.8293644626,4115414.9216765133],[604414.9519338482,4115301.362299377],[604430.7636447502,4115297.498670602]],[[604458.2654417317,4115289.9909895575],[604470.0844284373,4115401.250577174],[604460.6095386535,4115402.097766182],[604458.3808907291,4115359.4328713203],[604435.6177057489,4115296.231001345],[604458.2654417317,4115289.9909895575]],[[604433.9691981178,4115291.4988925485],[604407.1865158628,4115220.5304079866],[604405.7074867828,4115210.882544297],[604441.4034850047,4115213.6276507694],[604457.2275660067,4115285.090636558],[604433.9691981178,4115291.4988925485]],[[604408.0683758386,4115235.3103022226],[604429.1131250052,4115292.7548728273],[604414.3285720843,4115296.367513132],[604408.3927628393,4115241.015830825],[604408.0683758386,4115235.3103022226]],[[604378.8473000164,4115208.6294649523],[604400.5863106987,4115210.473127182],[604409.3961640635,4115297.265140187],[604395.57556151,4115298.225789937],[604378.8473000164,4115208.6294649523]],[[604366.7021028935,4115302.0318358717],[604350.6625919492,4115205.707758249],[604373.671453905,4115208.1504048235],[604390.5296969768,4115298.442909249],[604366.7021028935,4115302.0318358717]],[[604431.9094875592,4115185.859111249],[604422.6246081324,4115186.1522602853],[604419.599972049,4115159.465758207],[604427.8983265528,4115158.79640522],[604431.9094875592,4115185.859111249]],[[604328.0268208331,4115659.9130542],[604351.4680083103,4115654.408932035],[604363.8288192938,4115712.9184404723],[604339.6706316744,4115718.063754134],[604328.0268208331,4115659.9130542]],[[604326.8248645575,4115653.637835389],[604301.9004748488,4115538.6709287288],[604325.0485033105,4115535.0008163764],[604342.1468518297,4115612.2032717573],[604320.7975133542,4115615.6424898584],[604321.5927237234,4115620.5788488877],[604343.2464475238,4115617.0905965962],[604350.4040622477,4115649.519097743],[604326.8248645575,4115653.637835389]],[[604356.5798360172,4115654.4015970128],[604376.518192863,4115651.706069421],[604387.2301538347,4115697.223813778],[604399.360456693,4115705.7431691894],[604368.7202590759,4115711.882055512],[604356.5798360172,4115654.4015970128]],[[604368.761500938,4115614.993673506],[604375.4596556494,4115646.8168043294],[604355.4641025543,4115649.2458801046],[604348.1870164142,4115616.276098224],[604368.761500938,4115614.993673506]],[[604347.0900582763,4115611.390383838],[604318.7017915354,4115483.0648177876],[604339.7087601686,4115478.4324412765],[604367.1298048873,4115608.018794767],[604347.0900582763,4115611.390383838]],[[604288.1037457818,4115490.028074586],[604313.823055514,4115484.159388562],[604324.0123981163,4115530.102635581],[604300.570347769,4115533.819365008],[604288.1037457818,4115490.028074586]],[[604252.833487195,4115969.2331724875],[604295.5564041974,4115909.801591402],[604326.9273924038,4115853.4401259273],[604290.5534997791,4115920.4151633773],[604268.4602132158,4115951.8355462793],[604252.833487195,4115969.2331724875]],[[604236.0124963372,4115983.9502896895],[604235.6443490477,4115984.119662128],[604235.8542810027,4115983.8069324805],[604236.0124963372,4115983.9502896895]],[[604238.6034283042,4115971.8668831177],[604247.8211939,4115971.010487813],[604248.0955164774,4115980.1263619578],[604240.1553172623,4115980.9568377254],[604238.6034283042,4115971.8668831177]],[[604367.791016216,4115802.7120213066],[604357.9526004259,4115801.8860958493],[604363.3729596094,4115791.786368707],[604367.791016216,4115802.7120213066]],[[604446.4133169622,4116065.8854881474],[604491.6358439769,4116054.2576304805],[604522.2601959078,4116151.365210407],[604474.2061092675,4116168.935787279],[604446.4133169622,4116065.8854881474]],[[604561.4837990273,4116295.6599396053],[604543.9234051264,4116219.735432452],[604554.1661075853,4116218.170990018],[604571.9683244022,4116294.6045531877],[604561.4837990273,4116295.6599396053]],[[604528.9377073048,4116156.3550947136],[604540.3776818096,4116152.458791149],[604553.0348340776,4116213.2857921934],[604542.7849835207,4116214.851326408],[604528.9377073048,4116156.3550947136]],[[604522.0326419811,4116092.9620212857],[604539.3619338586,4116147.5548343607],[604527.3077353288,4116150.7736089546],[604510.706642412,4116096.463949542],[604522.0326419811,4116092.9620212857]],[[604509.2391098244,4116091.6841539512],[604495.6621770255,4116051.2417439325],[604508.4533841109,4116047.50846677],[604520.5627928884,4116088.1829419443],[604509.2391098244,4116091.6841539512]],[[604576.9797008338,4116294.200564787],[604545.2391348807,4116150.9479902596],[604578.3923129864,4116138.4550219118],[604598.4142947583,4116198.1097626616],[604561.9697151512,4116210.8101521456],[604563.6150933157,4116215.531669984],[604600.3596381176,4116202.726747128],[604630.7906940948,4116290.530951368],[604576.9797008338,4116294.200564787]],[[604544.1223694081,4116146.0256018066],[604489.6338844782,4115968.3588474463],[604517.685821417,4115961.468949728],[604576.8053601471,4116133.709812125],[604544.1223694081,4116146.0256018066]],[[604635.2761187531,4116287.409187541],[604605.2311184262,4116201.2382388143],[604640.6823982563,4116189.4617708954],[604676.8283576426,4116287.2215804285],[604635.2761187531,4116287.409187541]],[[604602.2792313275,4116193.873258165],[604583.1070026775,4116136.7883092174],[604620.9606139915,4116124.4491390814],[604638.820633107,4116184.817561283],[604602.2792313275,4116193.873258165]],[[604581.5213708637,4116132.046348012],[604545.6576098616,4116025.5570280016],[604591.1337597579,4116012.2079583635],[604619.533740419,4116119.6181463664],[604581.5213708637,4116132.046348012]],[[604550.3608964776,4115946.778366311],[604520.6476108392,4115954.8188835112],[604509.679660839,4115923.4652291904],[604541.3598353545,4115915.469121196],[604546.8041416452,4115936.7106416295],[604551.6475836945,4115935.469243581],[604546.211037211,4115914.2579988325],[604571.1714263962,4115908.601136536],[604590.1641122339,4116007.278874432],[604572.817971894,4116012.4762036894],[604556.8113267453,4115952.958962557],[604551.9828972815,4115954.25752673],[604568.0202308935,4116013.8888762626],[604544.0053587062,4116020.8299210547],[604522.3353259142,4115959.6199777485],[604551.5646714269,4115951.6312959283],[604550.3608964776,4115946.778366311]],[[604464.8276348276,4115881.581843332],[604487.0860220644,4115874.2745579374],[604516.019201478,4115956.7304379023],[604488.1793331387,4115963.454185987],[604464.8276348276,4115881.581843332]],[[604530.2388376169,4115860.890140374],[604544.3985838818,4115909.555376357],[604508.0184400354,4115918.7277161623],[604491.8526421811,4115872.757375999],[604530.2388376169,4115860.890140374]],[[604570.2310401067,4115903.687728196],[604549.2706850594,4115908.4031751053],[604534.9753260924,4115859.271855619],[604560.3539644853,4115851.9524258696],[604570.2310401067,4115903.687728196]],[[604575.1069262136,4115902.564612604],[604565.178344608,4115850.559526208],[604608.8770040742,4115837.8642237284],[604622.9165609785,4115891.313452002],[604575.1069262136,4115902.564612604]],[[604593.1351572637,4115777.640081571],[604607.6092443631,4115833.025802464],[604564.2070773937,4115845.6349681616],[604552.4657515279,4115787.6629961985],[604593.1351572637,4115777.640081571]],[[604536.3833452519,4115853.635293373],[604522.2414046917,4115794.996971848],[604547.6047577447,4115788.8505772837],[604559.3876567546,4115847.0278137266],[604536.3833452519,4115853.635293373]],[[604525.5222899315,4115857.1190063115],[604507.31205819,4115800.15384043],[604517.4563164997,4115796.4516884824],[604531.609237003,4115855.1966844117],[604525.5222899315,4115857.1190063115]],[[604505.6457087395,4115795.439408288],[604482.770385493,4115733.9197490355],[604507.2420548658,4115714.406801626],[604516.0503275649,4115791.6422376446],[604505.6457087395,4115795.439408288]],[[604520.8357110474,4115790.1928991065],[604509.7541355649,4115693.8410467897],[604528.2736110003,4115689.8143965974],[604546.6421762338,4115783.939123551],[604520.8357110474,4115790.1928991065]],[[604591.7717875565,4115772.8264779714],[604551.5059756177,4115782.7499275072],[604533.1233043035,4115688.5691393237],[604563.1528950891,4115679.4432390053],[604591.7717875565,4115772.8264779714]],[[604532.1450276484,4115683.6406491445],[604503.4489290126,4115531.423584139],[604514.153145383,4115544.8688469743],[604525.3890256132,4115586.02007938],[604535.0202914098,4115590.1149574188],[604561.6800097885,4115674.6650588727],[604532.1450276484,4115683.6406491445]],[[604509.0711472871,4115688.8661166155],[604498.3302673952,4115617.2672484214],[604470.7176973645,4115619.2082983335],[604463.0305985895,4115593.110021572],[604482.2739612607,4115585.0231332514],[604489.0831320859,4115553.5010916214],[604499.7260291444,4115540.5399532258],[604527.2987523944,4115684.909712759],[604509.0711472871,4115688.8661166155]],[[604365.7879666418,4115787.320659105],[604407.6917623385,4115711.0962030212],[604416.5735516964,4115722.108231388],[604439.0181694453,4115812.268326466],[604424.6076851061,4115816.4155393257],[604407.4108795918,4115756.198437378],[604402.6030894789,4115757.571446566],[604419.7918919818,4115817.7605228387],[604380.4865392608,4115828.409922246],[604365.7879666418,4115787.320659105]],[[604458.0631640569,4115878.2234659484],[604443.56708632,4115882.9677279806],[604425.9790880822,4115821.2238025544],[604440.4279654106,4115817.0655405237],[604458.0631640569,4115878.2234659484]],[[604398.9923803055,4115895.290955519],[604381.8409742274,4115833.2232044134],[604421.1634290782,4115822.569191553],[604438.773075776,4115884.3891154453],[604398.9923803055,4115895.290955519]],[[604447.8155197218,4115751.838878705],[604410.32689777,4115706.8469549865],[604415.4229199353,4115697.8108456642],[604457.0263894721,4115686.244465535],[604500.864888313,4115796.907778445],[604467.7235741877,4115804.9281931957],[604447.8155197218,4115751.838878705]],[[604520.7448109912,4115858.598636969],[604490.1846221809,4115868.039518839],[604469.4379166454,4115809.6989224893],[604502.5304694801,4115801.643689025],[604520.7448109912,4115858.598636969]],[[604445.8105111612,4115817.499683238],[604464.5078766351,4115810.7582278033],[604485.418397566,4115869.5594798382],[604463.0045889973,4115876.9177890564],[604445.8105111612,4115817.499683238]],[[604429.5453212669,4115748.0499748923],[604436.6926315114,4115744.797928312],[604443.3979056292,4115754.199267811],[604462.804947638,4115806.0343926484],[604443.8411673486,4115810.9496821053],[604429.5453212669,4115748.0499748923]],[[604432.1820455308,4115739.982856395],[604426.7100129289,4115743.525825696],[604423.6217690753,4115730.3023430277],[604432.1820455308,4115739.982856395]],[[604462.7454634017,4115686.904378046],[604504.7743992518,4115694.3169836006],[604506.6740371499,4115709.26021291],[604480.8409660963,4115729.262051135],[604462.7454634017,4115686.904378046]],[[604493.3011886473,4115619.02297174],[604498.5844829542,4115651.5832554763],[604504.0784272639,4115689.278517299],[604484.0621773916,4115688.3326779497],[604471.8999448619,4115624.0665410673],[604493.3011886473,4115619.02297174]],[[604462.1696526288,4115681.294040158],[604440.9845103567,4115637.3497048416],[604453.4985012418,4115596.19426744],[604458.3706863119,4115594.985692029],[604478.9464300642,4115687.635470634],[604462.1696526288,4115681.294040158]],[[604455.0510582046,4115681.5465575904],[604417.4933408253,4115692.911192807],[604438.7307851806,4115642.781703784],[604455.0510582046,4115681.5465575904]],[[604422.5026103643,4115980.4083892154],[604400.3244831221,4115900.110551078],[604440.1372636845,4115889.1994160125],[604462.6188642757,4115968.8250739537],[604422.5026103643,4115980.4083892154]],[[604484.762061344,4116047.7191659645],[604445.0837957518,4116061.062937157],[604423.8263726151,4115985.2304212963],[604463.970079589,4115973.6391791366],[604484.762061344,4116047.7191659645]],[[604484.5193728313,4115968.7253197436],[604507.0127589825,4116042.720323648],[604491.2984052822,4116047.3067584857],[604468.7982108471,4115972.338725285],[604484.5193728313,4115968.7253197436]],[[604467.4466492741,4115967.5228002844],[604444.9317855675,4115887.779330561],[604460.0612020235,4115883.099854532],[604483.081229078,4115963.809339463],[604467.4466492741,4115967.5228002844]],[[604583.2752211422,4115945.0969469906],[604633.3282316864,4115932.8906699973],[604648.4996909571,4115991.099980606],[604594.9892716556,4116005.8941367287],[604583.2752211422,4115945.0969469906]],[[604576.0474941698,4115907.4798542345],[604624.1564511142,4115896.1582533973],[604632.0940021144,4115928.0451271986],[604582.3212168228,4115940.183066503],[604576.0474941698,4115907.4798542345]],[[604711.0290470258,4116403.336793757],[604673.7096755117,4116414.515424412],[604637.0740465791,4116295.083650127],[604678.4552184271,4116292.1178066563],[604711.0290470258,4116403.336793757]],[[604594.8250284501,4116298.209667415],[604622.7904112777,4116434.051261993],[604596.7187910504,4116446.0100936196],[604562.646487776,4116300.5681697116],[604594.8250284501,4116298.209667415]],[[604668.965018167,4116416.109657591],[604627.4133449451,4116432.0468491083],[604599.9342744176,4116297.864136842],[604631.9656445042,4116295.456746967],[604668.965018167,4116416.109657591]],[[604830.8992727076,4116257.3499378534],[604800.832036555,4116266.195904246],[604781.5464051183,4116195.8690111176],[604811.6681952337,4116186.841555121],[604830.8992727076,4116257.3499378534]],[[604816.4619995018,4116185.416142147],[604854.5931565631,4116176.840331427],[604872.7062533352,4116186.0911660893],[604886.3776801139,4116239.358533881],[604835.6994599273,4116255.9476988],[604816.4619995018,4116185.416142147]],[[604840.8113058597,4116384.1025857087],[604848.0813616238,4116382.1960592493],[604845.3889844615,4116386.836035173],[604840.8113058597,4116384.1025857087]]],[[[604473.59879005,4115113.5964885126],[604533.6272097162,4115104.844298209],[604532.9085716198,4115099.8962117825],[604472.872608847,4115108.649503485],[604473.59879005,4115113.5964885126]]],[[[604485.8988189067,4115158.9679480577],[604481.3990851089,4115165.098319456],[604541.8096090358,4115155.048397918],[604541.0056463849,4115150.113456778],[604485.8988189067,4115158.9679480577]]],[[[604492.7786127264,4115205.196141648],[604487.8486942457,4115210.932734644],[604548.9188916188,4115203.464569236],[604548.320507578,4115198.500504718],[604492.7786127264,4115205.196141648]]],[[[604593.9376419561,4115498.479046471],[604562.9041409336,4115505.3312199824],[604557.7004333994,4115487.3575042207],[604552.8976684503,4115488.7479893314],[604558.0247636519,4115506.457084478],[604538.2672502206,4115511.515175657],[604539.672513717,4115516.313637338],[604559.6046717012,4115511.216027039],[604580.1213127992,4115562.5024120314],[604561.7230497499,4115569.8940746943],[604563.6171897736,4115574.5214101663],[604608.6255335792,4115557.0827364833],[604607.0166271906,4115552.3486663285],[604584.7748173936,4115560.6722486396],[604564.5308759214,4115510.0989434384],[604592.9227779879,4115507.0105041238],[604593.9376419561,4115498.479046471]]],[[[604653.4356813033,4116536.7360713696],[604681.1175932168,4116750.0],[604686.1607199631,4116750.0],[604675.2296458622,4116666.9527943963],[604706.1527666133,4116663.025332305],[604717.5312530297,4116750.0],[604722.5738596407,4116750.0],[604711.1130148629,4116662.3958029584],[604746.5629506133,4116657.899929229],[604759.2642352859,4116750.0],[604764.3115574995,4116750.0],[604751.5232164057,4116657.2686621756],[604799.4503570398,4116651.1485159635],[604798.8170154697,4116646.18879032],[604750.8693562133,4116652.311557582],[604726.1039530418,4116455.541218308],[604772.5771748655,4116449.609174473],[604771.9430743415,4116444.6495458055],[604637.2422763058,4116462.425122677],[604632.0420214392,4116471.68047267],[604642.5362177812,4116505.9728844073],[604601.7012161388,4116513.5131620537],[604602.6091291398,4116518.430040533],[604644.2285954504,4116510.744909669],[604653.4356813033,4116536.7360713696]],[[604658.3122208402,4116535.6194831003],[604636.8112027581,4116468.160989159],[604679.9530943555,4116461.2856882834],[604705.492747988,4116658.0689937207],[604674.5815471462,4116661.9949418614],[604658.3122208402,4116535.6194831003]],[[604710.4531346764,4116657.439441164],[604684.9097174435,4116460.6236125454],[604721.1427789668,4116456.1631170213],[604745.9093544162,4116652.9427704792],[604710.4531346764,4116657.439441164]]],[[[604705.1731865192,4116087.878023067],[604745.9729922414,4116075.787109522],[604744.5573714657,4116070.9916931875],[604703.7170934496,4116083.094740411],[604705.1731865192,4116087.878023067]]],[[[604939.4046107134,4116391.3803914413],[604964.0322174585,4116484.528480329],[604956.426654428,4116493.1731142704],[604949.2217102255,4116487.1335710697],[604930.0832815963,4116426.538221157],[604926.6272587414,4116390.768662099],[604921.6332874418,4116390.523202003],[604943.896942949,4116486.6146679763],[604914.3301138757,4116523.2549740747],[604892.2611925098,4116408.940169697],[604810.0147620855,4116418.4997310787],[604827.3305305898,4116540.4658938968],[604786.2380906307,4116547.079097685],[604787.0325422665,4116552.0155788814],[604868.3968045652,4116538.82639817],[604883.2041689513,4116598.7302480214],[604846.0999977004,4116603.1545998063],[604841.4101703279,4116565.2360818186],[604836.4457120905,4116565.831190556],[604841.1443106353,4116603.819284599],[604794.5288396965,4116610.640467675],[604795.3211809461,4116615.577288043],[604841.7777034233,4116608.7801298676],[604853.1170799595,4116684.575647717],[604805.4705173692,4116691.9846850713],[604806.2145520144,4116696.9290164164],[604853.8930879914,4116689.516393094],[604863.2472824007,4116750.0],[604868.2900843578,4116750.0],[604858.8442209819,4116688.8142013955],[604903.2646516473,4116682.317900361],[604917.2360387048,4116750.0],[604922.3372458693,4116750.0],[604912.06809997,4116699.2172441073],[604948.1976306755,4116689.4048311184],[604961.3225824072,4116750.0],[604966.438550196,4116750.0],[604953.0331274223,4116688.11002421],[604966.0162373697,4116684.6875607665],[604982.9099703459,4116750.0],[604988.0745253455,4116750.0],[604970.8292263927,4116683.328380323],[604996.5466570249,4116675.5761965825],[604995.1173397677,4116670.7848447715],[604911.0301806083,4116694.3177519944],[604873.3471393056,4116538.0160626024],[604913.566811626,4116529.4870571536],[604942.5909205938,4116492.9142012172],[604956.750312528,4116498.197123489],[604968.1868102356,4116491.3405574793],[604944.3766966738,4116391.907990911],[604939.4046107134,4116391.3803914413]],[[604832.266984741,4116539.6651402926],[604815.3385104632,4116420.4269413347],[604850.724379787,4116417.576224231],[604867.4945075426,4116533.9075282],[604832.266984741,4116539.6651402926]],[[604872.4327475786,4116533.099219513],[604855.697735158,4116416.9990849094],[604887.8055478336,4116412.2380955797],[604909.7159383148,4116525.731725838],[604872.4327475786,4116533.099219513]],[[604884.2873369065,4116603.636510394],[604902.0772570464,4116677.4192955005],[604858.0681679907,4116683.8746637693],[604846.7333504946,4116608.11449875],[604884.2873369065,4116603.636510394]]]]}},{"type":"Feature","properties":{"class":"secondary","widthMeters":8},"geometry":{"type":"MultiPolygon","coordinates":[[[[603727.7144621576,4114670.201637369],[603931.9976590576,4114818.451024167],[603985.6079413882,4114875.144960873],[604006.5481295567,4114921.2499570716],[604022.7563843555,4115048.5036962195],[604035.3042209228,4115087.233353686],[604157.8588563363,4115286.9849618007],[604175.1828254827,4115324.4902224154],[604179.354598836,4115371.180372819],[604172.6998861635,4115405.8420598716],[604084.8463103671,4115665.687406659],[604077.6920981136,4115700.2206338285],[604079.0446986168,4115739.8825296415],[604147.8263728222,4116001.0612708824],[604148.4472145191,4116032.1299178773],[604139.8255160201,4116065.5299518276],[604176.1253382796,4116113.912302168],[604295.6058268981,4116608.8614798216],[604334.2690917382,4116750.0],[604347.2475623885,4116750.0],[604183.898746965,4116112.019707547],[604183.7656251863,4116084.659607054],[604193.6242704501,4116051.8329816926],[604166.8430001144,4116024.4851693553],[604155.5632104498,4115999.017638879],[604086.9791753755,4115738.8306723107],[604085.6727346162,4115700.823052538],[604092.5188941123,4115667.95628642],[604180.490961921,4115407.6629815353],[604187.3484373603,4115371.5967095676],[604182.8553876223,4115322.167043627],[604164.7897890712,4115282.987048563],[604058.6987506057,4115113.614744185],[604038.3709297149,4115047.9021169515],[604032.5836047106,4114924.800708655],[604013.7941642986,4114880.343241321],[603992.3870432925,4114853.807307522],[603956.1580976689,4114824.1883061784],[603700.0,4114645.860268468],[603700.0,4114655.6344830655],[603727.7144621576,4114670.201637369]],[[604170.0181347809,4116085.927427092],[604175.7610231105,4116084.6172098042],[604175.3959954884,4116093.825902972],[604170.0181347809,4116085.927427092]],[[604177.1826308125,4116075.182665771],[604161.7775750753,4116077.5701376805],[604150.9384807696,4116070.4110389897],[604147.2200789553,4116055.168460086],[604154.927396168,4116042.7333293296],[604171.9794515292,4116039.5841201968],[604183.6441014713,4116048.432764527],[604185.7759834891,4116063.629055605],[604177.1826308125,4116075.182665771]],[[604007.2069909154,4114884.8899902008],[604032.1186631437,4114951.4799616435],[604029.8018704777,4115041.713898803],[604014.2295338652,4114919.008438539],[603998.1728215979,4114880.609055509],[603975.7389674946,4114849.702547235],[604007.2069909154,4114884.8899902008]],[[604160.088121149,4116028.8099293113],[604156.4180218828,4116032.8357782173],[604157.0748560285,4116022.892948627],[604160.088121149,4116028.8099293113]],[[604314.4800376119,4116647.0531929005],[604287.7437594242,4116546.875039064],[604264.2544786064,4116446.0228391257],[604288.6172998485,4116540.317546714],[604314.4800376119,4116647.0531929005]]],[[[605168.8869124142,4116078.8027592665],[605162.6243761615,4116120.8057613545],[605141.2003638042,4116161.6410054527],[605011.8811369981,4116290.4863420078],[604968.4099139888,4116341.676668758],[604918.4446785743,4116385.0365818297],[604867.7676844812,4116399.946927704],[604749.0532227661,4116410.198756086],[604690.6407096073,4116423.2545308727],[604412.0849974217,4116542.1492445963],[604336.295723843,4116526.5181668717],[604333.1367816258,4116533.8680705493],[604374.4322192932,4116546.1950429287],[604429.0972189201,4116545.447359784],[604652.642385359,4116445.80649127],[604740.0623394682,4116415.6927882154],[604858.8404251449,4116409.2658160175],[604922.3400675834,4116392.0266214954],[605138.1027679632,4116177.0322671393],[605160.5455209583,4116146.5880576647],[605174.0972344208,4116107.5955219218],[605176.7086962727,4116070.126583673],[605150.8669341734,4115967.189416724],[605143.1979833279,4115969.4669577065],[605164.7640266845,4116043.1874476876],[605168.8869124142,4116078.8027592665]]]]}},{"type":"Feature","properties":{"class":"tertiary","widthMeters":8},"geometry":{"type":"MultiPolygon","coordinates":[[[[604386.3410576951,4114350.0],[604378.0047769728,4114353.497995823],[604380.2016067163,4114368.2328476016],[604389.0475272392,4114373.6786741265],[604402.7682658551,4114370.700427223],[604409.9022712114,4114350.0],[604386.3410576951,4114350.0]],[[604395.4974870444,4114351.7956927572],[604399.7811432127,4114362.128687798],[604388.119102373,4114364.746202425],[604386.0265290652,4114354.805454675],[604395.4974870444,4114351.7956927572]]],[[[604458.7232543844,4114694.818652531],[604442.4637796847,4114882.8010550654],[604432.5581524811,4114897.002751408],[604405.6383766485,4114905.9061895437],[604259.3652526842,4114920.5411759536],[604243.1804008343,4114910.9723098557],[604232.4506300066,4114923.1299522463],[604105.7222241056,4114935.965826252],[604104.4113673951,4114940.873316373],[604106.8173598353,4114948.5029428634],[604234.1394415739,4114930.9686789596],[604247.0302311934,4114938.206622455],[604259.3127842774,4114928.570206374],[604406.3245293428,4114913.8781067766],[604426.6540781158,4114918.0340979574],[604442.72302556,4114940.071238387],[604473.2356994485,4115111.1229959987],[604501.1533820471,4115398.097328097],[604524.6911510613,4115487.2502882304],[604582.4068690746,4115638.686616876],[604734.2633470076,4116206.724722852],[604760.1446174211,4116388.414478102],[604748.514181722,4116414.471187027],[604767.6488192753,4116443.081033397],[604809.1966944886,4116750.0],[604817.2671814314,4116750.0],[604777.5904349369,4116429.9313961244],[604797.1817088837,4116409.2396290153],[604866.1127369505,4116403.954396344],[604906.9152351932,4116392.9834467294],[604940.2745071176,4116396.89382272],[604949.9450151037,4116389.006763698],[604952.5465914656,4116376.335525489],[604935.6211535145,4116339.8473136146],[604937.2889613045,4116328.9991240473],[604887.7146845026,4116167.0877902107],[604869.7992185882,4116154.518931974],[604761.9553819058,4116120.0871151104],[604745.2651818536,4116073.389401355],[604603.1601321225,4115528.985542318],[604608.5795961665,4115505.7301304457],[604595.2168606017,4115402.0513554127],[604562.2691879261,4115262.7123818775],[604485.5481088882,4114769.9177101227],[604466.7183228709,4114695.099508181],[604458.7232543844,4114694.818652531]],[[604492.2964838162,4115214.165183453],[604448.2396686255,4114916.614490695],[604499.0244785085,4114909.846727111],[604554.3947943065,4115264.12463092],[604587.325594412,4115403.368367774],[604594.6983697718,4115491.1320934063],[604590.7470070461,4115510.612959965],[604749.4568593262,4116105.138738891],[604759.6384690941,4116128.5156123852],[604867.0399579362,4116162.0285533904],[604882.5951185779,4116174.0469241017],[604936.0546625546,4116343.5255121556],[604930.6884521055,4116360.1167356805],[604900.0063154498,4116387.169248086],[604855.6159545752,4116397.3101197146],[604795.796904153,4116401.3485455927],[604781.966798552,4116399.9422565247],[604768.0433471807,4116387.109856993],[604742.0418253489,4116204.844590341],[604700.3862830738,4116069.213473126],[604590.0915551324,4115636.4612324843],[604532.298878049,4115484.7704913015],[604509.0254026104,4115396.6552096237],[604492.2964838162,4115214.165183453]],[[604452.2140261004,4114908.290235073],[604459.3823444926,4114782.3772303574],[604468.0225720836,4114772.753081922],[604478.1275909736,4114779.6466644416],[604497.7552271851,4114901.947002271],[604452.2140261004,4114908.290235073]],[[604462.8203535542,4114764.680392679],[604460.5330853185,4114755.178188408],[604468.05877076,4114753.6984128165],[604470.9181079953,4114761.176360507],[604462.8203535542,4114764.680392679]],[[604460.6312991785,4114745.348336725],[604462.4804451764,4114725.2349959514],[604468.570733277,4114745.4777319063],[604460.6312991785,4114745.348336725]],[[604458.1385707257,4114771.284717962],[604458.1925607667,4114771.311666884],[604458.138573437,4114771.3798385514],[604458.1385707257,4114771.284717962]],[[604432.3189240992,4114906.69927219],[604438.7806828737,4114904.672425477],[604441.674504463,4114912.0318654887],[604434.3515961709,4114914.405139676],[604432.3189240992,4114906.69927219]],[[604249.7191963585,4114920.0213828115],[604251.2761629758,4114927.1064631753],[604242.7466867806,4114929.0587999844],[604241.9902228392,4114920.5996674127],[604249.7191963585,4114920.0213828115]],[[604476.1309879173,4114767.559719303],[604476.2423589425,4114767.411174706],[604476.3308695189,4114767.659777465],[604476.1309879173,4114767.559719303]],[[604598.6224233841,4115502.236539745],[604600.3355261507,4115509.2845426425],[604599.2051700422,4115510.24130455],[604598.6224233841,4115502.236539745]],[[604760.7550250693,4116403.027651199],[604777.3696501872,4116405.9702026793],[604773.3168041443,4116421.77049316],[604757.5433158856,4116416.8741254243],[604760.7550250693,4116403.027651199]],[[604940.6902584373,4116370.3310012114],[604941.6099641313,4116386.7155419025],[604926.6691627776,4116387.538923542],[604924.6903584874,4116372.2801750656],[604940.6902584373,4116370.3310012114]],[[604780.6931109093,4116401.5919537446],[604779.6807191343,4116402.305015139],[604780.6660943464,4116401.286588678],[604780.6931109093,4116401.5919537446]]],[[[605048.7242069201,4115714.9091812083],[605120.9367381025,4115924.5219860044],[605143.2938003232,4115969.7503099814],[605150.7711171781,4115966.906064449],[605124.4854142955,4115911.887772297],[605056.3194029842,4115712.390794978],[605042.4824929754,4115539.4715354024],[605034.4928462065,4115539.8784070136],[605041.4735654414,4115676.9572283337],[605048.7242069201,4115714.9091812083]]]]}}]}
