{"type":"FeatureCollection","name":"lance-nuevo-roads","crs":{"type":"name","properties":{"name":"EPSG:25830"}},"source":"\u00a9 OpenStreetMap contributors, ODbL 1.0","features":[{"type":"Feature","properties":{"classes":["residential","service","tertiary"]},"geometry":{"type":"MultiPolygon","coordinates":[[[[603105.0749719623,4108320.0],[603104.9833082242,4108320.0],[603100.0887569491,4108320.0],[603040.0,4108362.4482930964],[603040.0,4108368.5700544165],[603101.9445502097,4108324.8107796945],[603110.3808962229,4108340.9900694084],[603110.4519339569,4108341.117138627],[603113.9426298799,4108346.955283645],[603116.2806514188,4108351.5668976493],[603116.4384770337,4108351.835316256],[603128.2298118173,4108369.3000673014],[603128.4468972617,4108369.577290599],[603134.6979280473,4108376.495045665],[603136.9599329339,4108380.2973511447],[603114.2216063584,4108387.4199023535],[603085.7144857976,4108394.598388256],[603085.4819495073,4108394.6691284114],[603085.2573816855,4108394.7621154496],[603085.0429050298,4108394.876470424],[603084.8405468523,4108395.011112408],[603084.652219917,4108395.1647687173],[603084.4797043591,4108395.335986935],[603084.3246308591,4108395.5231486442],[603084.1884652287,4108395.724484724],[603084.0724945553,4108395.9380920716],[603083.9778150364,4108396.1619515913],[603083.9053216177,4108396.393947281],[603083.8556995335,4108396.6318862326],[603083.8294178301,4108396.873519359],[603083.8267249316,4108397.116562656],[603083.8476462924,4108397.3587187887],[603083.8919841562,4108397.597698808],[603083.959319425,4108397.831243788],[603093.4414786965,4108425.5744295055],[603091.7160375944,4108426.4537742],[603091.7174042485,4108426.456455834],[603091.5897825673,4108426.522764798],[603091.3818169327,4108426.6585965543],[603085.2732024371,4108431.096428486],[603082.946232906,4108430.8326995457],[603082.6747721183,4108430.816816644],[603082.4031921189,4108430.830510792],[603082.1347059478,4108430.873619976],[603081.8724900425,4108430.9456341746],[603079.8247134261,4108431.6297967755],[603062.7097454064,4108436.2949342043],[603046.9204964762,4108437.975736369],[603046.6657945549,4108438.0162276626],[603046.4166194326,4108438.082743616],[603046.1756228358,4108438.1745763654],[603040.0,4108440.9004342863],[603040.0,4108446.365837056],[603047.8377197105,4108442.9063462606],[603062.9796293433,4108441.2944548656],[603076.4821956697,4108444.870882193],[603076.956553391,4108445.5158337993],[603077.1161257086,4108445.711300901],[603077.2945890098,4108445.8896868946],[603077.4901252331,4108446.0491745053],[603079.2866980969,4108447.3693430643],[603079.4677071235,4108447.4905737825],[603079.658583172,4108447.595585633],[603079.8578767711,4108447.6835811785],[603080.0640745282,4108447.7538921996],[603082.1979153737,4108448.3791462537],[603082.4229024976,4108448.4338973095],[603082.6519902447,4108448.4675972816],[603082.8832133398,4108448.4799570674],[603083.1145881889,4108448.470870637],[603084.7568211238,4108448.3299866915],[603089.6790108301,4108451.4918446336],[603093.9456892753,4108460.7162326206],[603113.3862518118,4108522.7036669794],[603117.3744050362,4108536.789013157],[603117.1545754096,4108540.283765143],[603112.5972348935,4108545.7753182985],[603112.4028490926,4108546.0439919406],[603107.5363125461,4108553.8070532843],[603107.4005728118,4108554.0533673563],[603107.2933574663,4108554.3133688318],[603105.3050477119,4108560.0278229085],[603090.7100027022,4108555.7924456922],[603082.4590486177,4108553.012077094],[603075.9544177535,4108546.5833974136],[603073.9354349853,4108539.943522711],[603075.61537472,4108536.025165835],[603075.6660840836,4108535.8972837483],[603079.1136615686,4108526.452486438],[603079.1806379522,4108526.24006667],[603079.22844254,4108526.022528822],[603079.256695894,4108525.8015995533],[603079.2651737591,4108525.5790324407],[603079.2035487851,4108516.0802520416],[603079.1896863591,4108515.833067095],[603079.1514433696,4108515.588465299],[603079.089194858,4108515.3488454176],[603075.4972536148,4108503.8873423375],[603075.4215752317,4108503.6787814554],[603075.3277040095,4108503.4777514753],[603075.2163792758,4108503.2858357048],[603075.0884778216,4108503.1045456682],[603068.0465964962,4108494.008679155],[603067.8730474542,4108493.8075637454],[603067.6791383037,4108493.625998552],[603067.4670584091,4108493.4660335677],[603067.2392022938,4108493.3294749036],[603057.7748647616,4108488.320565485],[603057.5177940306,4108488.202615342],[603057.2490455352,4108488.114457284],[603056.9720591531,4108488.0572197],[603048.2442689972,4108486.763325748],[603048.0051398212,4108486.7395507055],[603047.7648326902,4108486.7388448142],[603047.5255679658,4108486.761214597],[603047.2895563783,4108486.8064533635],[603047.0589785995,4108486.874143122],[603040.0,4108489.320634754],[603040.0,4108494.6124132727],[603048.1172614498,4108491.799143346],[603055.8148460448,4108492.940309434],[603064.4233456308,4108497.496274869],[603070.8602215657,4108505.8106672256],[603074.2060821032,4108516.486952905],[603074.2623570967,4108525.161095381],[603070.9928084388,4108534.118174519],[603068.9802665319,4108538.8123056577],[603068.8933747375,4108539.046690753],[603068.8303239902,4108539.2885815557],[603068.7917446621,4108539.535559677],[603068.7780224633,4108539.7851558677],[603068.7892945866,4108540.0348747023],[603068.8254483348,4108540.282219529],[603068.8861222483,4108540.524717433],[603071.3548704042,4108548.64374583],[603071.4386751258,4108548.877093856],[603071.5451818061,4108549.100993074],[603071.6733428534,4108549.3132412275],[603071.8218976852,4108549.51175066],[603071.9893851273,4108549.694568847],[603079.3555184756,4108556.974691696],[603079.5241825522,4108557.1268746154],[603079.7059646978,4108557.263118747],[603079.8993639088,4108557.382299102],[603080.1027832583,4108557.4834315893],[603080.3145430814,4108557.5656811427],[603089.1637983639,4108560.5476625296],[603089.2653910102,4108560.579504506],[603103.8090731903,4108564.799976598],[603101.6526571978,4108572.9936893727],[603101.6071533753,4108573.2024701377],[603101.5796445438,4108573.414374055],[603101.570331672,4108573.627853038],[603101.5617300284,4108583.7804309013],[603101.5756509665,4108584.0460169413],[603101.6177062496,4108584.3086213786],[603103.8710836578,4108594.7773441332],[603103.9318217246,4108595.00622439],[603104.0139427314,4108595.228331178],[603104.1167098847,4108595.4416717435],[603104.239201153,4108595.6443319866],[603104.3803175392,4108595.8344936296],[603104.5387929402,4108596.0104505336],[603112.7367960727,4108604.2883041403],[603112.9635960923,4108604.491014156],[603113.2133362513,4108604.664678926],[603121.1269110093,4108609.4811603627],[603127.7027778956,4108616.0293624722],[603128.5065341569,4108622.689769754],[603126.0771736511,4108629.7704214426],[603119.7767008769,4108636.7083712467],[603119.7684783747,4108636.71747044],[603105.5324543822,4108652.549244062],[603089.1464893311,4108663.153933799],[603073.1988884704,4108670.8950804477],[603056.2196143894,4108678.0871120207],[603043.1589802217,4108681.427005771],[603040.0,4108681.9850834087],[603040.0,4108687.062509231],[603044.121806495,4108686.334334988],[603044.306256207,4108686.2945176912],[603057.6407341762,4108682.884596009],[603057.8208418982,4108682.831254568],[603057.9964361786,4108682.7645406295],[603075.2080362153,4108675.4741011034],[603075.3246683681,4108675.4211344304],[603091.4678128426,4108667.5850686897],[603091.7344135526,4108667.4348387835],[603108.527767074,4108656.5664948574],[603108.7069869796,4108656.438981646],[603108.874305328,4108656.2962092264],[603109.0284269574,4108656.1392827565],[603123.4823167508,4108640.0652222405],[603130.1252866298,4108632.7501217355],[603130.2863443802,4108632.5535567766],[603130.4266154,4108632.3416572176],[603130.5446503555,4108632.1166124856],[603130.6392296646,4108631.8807478286],[603133.4218652693,4108623.7704350753],[603133.4852876697,4108623.554320691],[603133.5290024132,4108623.3333753375],[603133.552654691,4108623.1093923077],[603133.5560525308,4108622.8841895484],[603133.5391683538,4108622.659594908],[603132.5629294328,4108614.5698926793],[603132.5231424905,4108614.334967547],[603132.4611714022,4108614.1048971172],[603132.3775790917,4108613.8817712693],[603132.2731248824,4108613.6676168004],[603132.1487575996,4108613.464379015],[603132.0056069527,4108613.273904054],[603131.8449732718,4108613.097922126],[603124.4444831234,4108605.7285659574],[603124.2231287711,4108605.532790415],[603123.9802198604,4108605.364501754],[603116.074178861,4108600.552605629],[603108.6054205335,4108593.011099843],[603106.5619545187,4108583.517581762],[603106.5700567367,4108573.9544792427],[603109.2260016908,4108563.862711154],[603109.5084898781,4108563.15455885],[603109.5475810678,4108563.049816735],[603111.9228063847,4108556.2233572435],[603116.5509866789,4108548.8405199447],[603119.7016134331,4108545.0440438567],[603129.9983841692,4108556.1616973723],[603130.045182003,4108556.2108697635],[603137.9084444257,4108564.251641147],[603138.1088237246,4108564.4353991817],[603138.327972586,4108564.596311131],[603151.6477757527,4108573.303001348],[603151.8511756893,4108573.422650939],[603152.0649509578,4108573.5225893864],[603152.2871968186,4108573.6019262387],[603152.515933059,4108573.6599546033],[603159.6922888355,4108575.1239085835],[603164.5475135712,4108576.349245445],[603173.0461777296,4108587.8046645136],[603173.1928465589,4108587.9843072155],[603173.3555309171,4108588.1495859055],[603173.5328308535,4108588.299078308],[603173.7232206455,4108588.431497993],[603173.9250619281,4108588.5457054465],[603174.1366177927,4108588.640717877],[603174.3560677334,4108588.7157176724],[603180.8904561523,4108590.6153748888],[603181.1374006786,4108590.673754716],[603181.3889910989,4108590.7068011034],[603181.6426354358,4108590.714173596],[603181.895720552,4108590.6957962383],[603182.1456390712,4108590.6518583614],[603182.389816241,4108590.5828126296],[603182.625736458,4108590.4893703773],[603189.9707469371,4108587.1395262615],[603190.2404712324,4108586.9959921776],[603190.4906719156,4108586.820627281],[603198.6561998181,4108580.318516964],[603195.5415862267,4108576.407100063],[603187.6164237494,4108582.717810322],[603181.3952287099,4108585.555115137],[603176.5601936523,4108584.14948868],[603168.031739074,4108572.6539148604],[603167.8765317164,4108572.464800615],[603167.703582998,4108572.291762288],[603167.5145491732,4108572.136456993],[603167.3112405364,4108572.0003720196],[603167.0956040856,4108571.8848105953],[603166.8697048769,4108571.7908794014],[603166.6357062486,4108571.7194779753],[603160.8600664526,4108570.261851454],[603160.748011441,4108570.236296296],[603153.9835259082,4108568.8563625487],[603141.2922779785,4108560.560536942],[603133.6436869898,4108552.739283086],[603122.160856416,4108540.3410142525],[603122.3913815918,4108536.676229263],[603122.3931768963,4108536.39410164],[603122.3631724534,4108536.1135683055],[603122.3017503957,4108535.8382020956],[603118.1875958241,4108521.3078447827],[603118.1675957248,4108521.240801875],[603098.6681191154,4108459.0655163564],[603098.5517119381,4108458.76411505],[603094.025597057,4108448.9788358747],[603092.3179523336,4108441.223665084],[603092.5002598914,4108439.416232364],[603092.5126512144,4108439.199234834],[603092.506147685,4108438.981981118],[603092.4807984608,4108438.7661133585],[603092.4367951475,4108438.5532632205],[603092.0946965344,4108437.198506126],[603094.8173909708,4108430.4850960323],[603097.643002435,4108429.045066134],[603121.2033836687,4108417.0502524036],[603121.213734917,4108417.044952133],[603154.782662706,4108399.757596546],[603158.690906229,4108397.741330263],[603160.714116844,4108396.7002189867],[603172.3897273637,4108409.306214468],[603172.4981211894,4108409.4187546168],[603181.6910639633,4108418.597594778],[603180.9838469565,4108419.313514928],[603176.9252761735,4108423.425576914],[603176.7633267499,4108423.6064416924],[603176.6196840059,4108423.802162018],[603176.4957025428,4108424.0108921807],[603176.3925515494,4108424.230663781],[603176.3112037751,4108424.4594042967],[603176.2524263583,4108424.694956625],[603176.2167735902,4108424.935099424],[603176.2045816892,4108425.177568064],[603176.2159656289,4108425.420075981],[603176.250818055,4108425.66033624],[603176.3088102967,4108425.896083104],[603176.3893954672,4108426.1250933968],[603176.49181362,4108426.3452074714],[603176.6150989161,4108426.554349575],[603176.758088732,4108426.7505474254],[603199.7083536955,4108455.2258399897],[603199.8779307515,4108455.4155994863],[603200.0659208975,4108455.5871359245],[603200.2703761031,4108455.7386717736],[603200.4891777203,4108455.8686367567],[603200.7200584376,4108455.9756841245],[603200.9606257749,4108456.0587046086],[603201.2083868757,4108456.1168379164],[603201.4607743386,4108456.149481647],[603215.7731091788,4108457.2638757247],[603224.3430834636,4108460.8263854156],[603225.3027135999,4108458.517898898],[603224.3999386596,4108460.8492069873],[603248.8770982821,4108470.3277338357],[603276.0559594732,4108488.561393911],[603276.2515369401,4108488.6800019722],[603276.4571362546,4108488.780238391],[603276.6710363561,4108488.861264093],[603286.7426883283,4108492.1580083827],[603286.968494428,4108492.2203727136],[603288.0416328855,4108492.4632772696],[603283.7706795991,4108498.2503700852],[603278.2941110935,4108503.4381686766],[603276.056481209,4108505.551485712],[603275.9366915256,4108505.678609119],[603275.8324920763,4108505.8187961495],[603269.0324553613,4108516.176711124],[603268.9291456996,4108516.361237674],[603262.6889279464,4108529.622024856],[603262.6353135137,4108529.75128982],[603257.9778280236,4108542.650341426],[603253.1445465124,4108552.0015515974],[603255.8096123355,4108553.3790218],[603260.6879120569,4108543.940712472],[603260.766227652,4108543.761395167],[603265.4332215429,4108530.8360097473],[603271.5984791196,4108517.734516838],[603278.2439897802,4108507.6119782003],[603280.3547953661,4108505.6184396646],[603280.3564215731,4108505.6169015053],[603284.938404951,4108501.276518127],[603316.2455821986,4108528.689669251],[603316.372493322,4108528.789264153],[603316.5093663565,4108528.874653557],[603316.6546181021,4108528.944849769],[603316.8065684432,4108528.999040836],[603316.9634597816,4108529.0365999327],[603327.9106603957,4108531.0419221125],[603330.991281561,4108533.3561675847],[603331.0311968122,4108533.385138831],[603359.8827222771,4108553.6103561847],[603396.6850978606,4108579.5345311263],[603411.216785663,4108589.8744618637],[603411.3224741182,4108589.943163187],[603411.4335577195,4108590.002748042],[603426.0521647877,4108597.069900106],[603432.2489018159,4108602.6643895744],[603432.2635367553,4108602.6775369965],[603460.4556897555,4108627.8791920957],[603484.2527573431,4108651.383047771],[603486.4831166017,4108654.0467738435],[603486.3281589,4108654.2530361805],[603481.1974143246,4108661.0805161744],[603481.1161956843,4108661.2002019673],[603481.0468822393,4108661.327153938],[603480.9901184862,4108661.4601916503],[603480.946432231,4108661.5980780805],[603480.9162296813,4108661.7395311203],[603480.8997916692,4108661.8832354983],[603480.8972710401,4108662.0278550093],[603480.9086912315,4108662.172044939],[603480.9339460552,4108662.3144645668],[603480.9728006845,4108662.4537896337],[603481.0248938376,4108662.588724655],[603481.0897411373,4108662.718014965],[603481.1667396144,4108662.8404583847],[603491.6626802225,4108677.870807552],[603501.8790521545,4108692.509385249],[603503.7391992381,4108695.173323454],[603503.8360532727,4108695.2975782673],[603503.9454054579,4108695.4109892994],[603504.0660495192,4108695.5123055032],[603505.6842644608,4108696.732298394],[603501.6237390923,4108702.6798273944],[603492.262195301,4108707.371084915],[603486.2485936009,4108710.3776053605],[603469.9679830997,4108717.9946953286],[603464.4929438776,4108720.0],[603477.4806048691,4108720.0],[603488.3969085593,4108714.892668962],[603488.4554220423,4108714.864359724],[603494.499139611,4108711.8427827484],[603504.0267855105,4108707.068289293],[603513.5917966205,4108706.1450814176],[603516.2402206066,4108706.036053491],[603518.0473678061,4108706.9525265144],[603518.4173444072,4108707.1171715087],[603518.8020721775,4108707.243564555],[603519.1976078823,4108707.3304101983],[603521.9914655922,4108707.797043743],[603524.0664657527,4108710.073415581],[603524.1826772242,4108710.195627688],[603533.9073598614,4108720.0],[603535.0302102256,4108720.0],[603536.3146394233,4108720.0],[603543.408439449,4108720.0],[603541.7307026649,4108716.9727529883],[603538.8864810036,4108703.5083163083],[603537.9819425555,4108698.9863776052],[603538.580305867,4108697.6846739263],[603538.7513213971,4108697.2463989174],[603538.8696957296,4108696.791076161],[603539.400173316,4108694.1123930435],[603539.4652428408,4108693.633569551],[603539.4720983517,4108693.1503936187],[603539.3456869,4108690.4192627477],[603539.2979150387,4108689.9610203705],[603539.2592174677,4108689.7872516145],[603541.0973798241,4108689.912903713],[603541.559149501,4108690.163281881],[603545.231168742,4108693.4214084474],[603555.6213986629,4108711.3380720876],[603556.6975978067,4108715.5447446336],[603556.698123599,4108715.5467938436],[603557.8440880601,4108720.0],[603560.9470795477,4108720.0],[603560.8959173682,4108719.82159327],[603559.8053504449,4108715.583661377],[603561.2171193585,4108716.964142066],[603562.4256035781,4108720.0],[603565.6545566776,4108720.0],[603563.8868051312,4108715.5591951716],[603563.8213765046,4108715.416930175],[603563.7414731812,4108715.282261346],[603563.6479659379,4108715.156656291],[603563.5418738056,4108715.0414838376],[603558.2181101427,4108709.835707696],[603547.9352066164,4108692.1041151206],[603548.3918234046,4108685.3998151887],[603548.3945809468,4108685.251761288],[603548.3827270283,4108685.104156931],[603548.3563771727,4108684.958440608],[603548.3157881745,4108684.81603241],[603548.2613555972,4108684.678320188],[603548.193609918,4108684.5466460274],[603548.1132113581,4108684.42229317],[603548.0209434481,4108684.3064735066],[603536.4619683576,4108671.1824173555],[603535.3363152868,4108672.1738330927],[603536.4611845196,4108671.1815280947],[603530.4901720306,4108664.412834749],[603506.0794959199,4108636.080572127],[603505.9384904249,4108635.9375182563],[603469.4073262386,4108603.533224123],[603467.4165643986,4108605.777520738],[603503.872425967,4108638.1150190756],[603528.2231191912,4108666.3776625325],[603528.2346363735,4108666.3908730936],[603534.2110540156,4108673.165693679],[603545.3562585037,4108685.819954837],[603545.1185055594,4108689.3107749084],[603543.4212522922,4108687.8048280175],[603543.2866060341,4108687.6984777884],[603543.1406954663,4108687.608199927],[603542.2403591659,4108687.120024621],[603542.0952389019,4108687.0511238957],[603541.9435823871,4108686.998138025],[603541.7871291016,4108686.9616747494],[603541.6276735439,4108686.942152298],[603538.3974581995,4108686.7213430014],[603538.3271243178,4108686.512102341],[603538.1723654813,4108686.164933642],[603537.9853528703,4108685.834021741],[603536.0068994018,4108682.6917998535],[603535.7633574257,4108682.3468341795],[603535.4848059353,4108682.0294651873],[603535.1743492829,4108681.7432298344],[603532.3068197484,4108679.3668036507],[603531.960180178,4108679.109764272],[603531.5878674954,4108678.891563675],[603531.1942151464,4108678.714741555],[603527.7186373268,4108677.3738620947],[603527.3167370947,4108677.2427528435],[603526.9032443039,4108677.154791805],[603526.4827774991,4108677.110961468],[603523.4596072155,4108676.9566484336],[603518.9614111325,4108675.072059213],[603510.9778549258,4108670.4737708746],[603507.7947039383,4108666.831295217],[603498.476607651,4108655.920460125],[603493.0082753527,4108649.3783717914],[603490.2650732498,4108646.102153438],[603490.009031704,4108645.8241726146],[603466.006561882,4108622.117445537],[603465.8615554465,4108621.9811821855],[603437.6025376975,4108596.7197550517],[603405.2773278347,4108567.5361628938],[603404.8616919108,4108567.2081351695],[603367.7973083052,4108541.747602568],[603346.8341934246,4108527.2409148333],[603320.665693484,4108507.385859979],[603310.2241951084,4108499.0262405085],[603295.7726570618,4108485.336593782],[603295.710931037,4108485.2793423613],[603276.3771892419,4108467.721985839],[603276.0878902666,4108467.4830400296],[603270.3133263356,4108463.1526313205],[603264.3099327752,4108458.6418936113],[603264.0671005176,4108458.4731118055],[603263.8124620811,4108458.322732053],[603251.2600832711,4108451.522655449],[603250.7417278496,4108451.287878114],[603237.522688425,4108446.4011177146],[603231.7184398405,4108444.0153358392],[603225.5386646369,4108441.479026309],[603212.5420971041,4108435.610052764],[603200.357889839,4108425.9403760084],[603189.0987963644,4108414.688929898],[603178.2059275963,4108403.81277103],[603165.605631649,4108390.208405459],[603156.4734332119,4108379.930221634],[603156.3719124441,4108379.820179716],[603151.5573463334,4108374.793607629],[603141.4149221303,4108363.471619007],[603128.849986792,4108342.8630180527],[603127.3618553237,4108339.6450562975],[603118.2756218524,4108320.0],[603109.7998025786,4108320.0],[603109.4088950455,4108320.0],[603105.0749719623,4108320.0]],[[603492.3520857211,4108661.067369863],[603492.3794277557,4108661.099730927],[603501.7260627451,4108672.0439828313],[603501.7558227512,4108672.0784308263],[603504.7508105116,4108675.5055915406],[603508.3674700644,4108690.2772797816],[603508.1913222224,4108691.8024543556],[603508.1649528248,4108692.2425789037],[603508.1871841312,4108692.6829318665],[603508.2437614062,4108693.2167872805],[603507.413187058,4108694.2787004975],[603506.0624056933,4108693.260329192],[603504.3390593413,4108690.792304973],[603494.1226739049,4108676.1537079257],[603484.2486378204,4108662.013935549],[603488.4595406285,4108656.4104886698],[603492.3520857211,4108661.067369863]],[[603114.7807165087,4108338.613752051],[603106.1648679854,4108322.0902110334],[603108.1112438273,4108320.9716838864],[603109.496164488,4108320.1747290343],[603110.1183576726,4108321.420471085],[603119.2085443594,4108341.0740744877],[603117.5353028845,4108342.0532476986],[603117.0161532388,4108342.35249186],[603114.7807165087,4108338.613752051]],[[603156.3996479799,4108393.2972176033],[603154.2609350444,4108394.4005819014],[603144.5897292172,4108382.969313606],[603145.4294016055,4108382.6626689434],[603145.6256894348,4108382.581374806],[603145.8143661277,4108382.4837082596],[603145.9940690567,4108382.3703746544],[603147.0423133627,4108381.645245241],[603150.5427437314,4108385.2998145586],[603157.2566367625,4108392.8562235907],[603156.4019614118,4108393.2960256254],[603156.3996479799,4108393.2972176033]],[[603141.7601282694,4108378.6796839484],[603141.7019329533,4108378.539278092],[603141.5409992309,4108378.2183316057],[603138.8679736262,4108373.725122964],[603138.7310099029,4108373.518873162],[603138.5743171899,4108373.3271821714],[603132.2750088085,4108366.3560003033],[603120.6697183241,4108349.166809017],[603119.4342154937,4108346.7298502205],[603120.0393670738,4108346.3810334997],[603120.0535653897,4108346.372787183],[603121.3171116157,4108345.633365746],[603121.68492761,4108346.428737545],[603121.9002320195,4108346.8320654426],[603134.7754063563,4108367.9495103783],[603134.9799342728,4108368.252833364],[603135.211319423,4108368.536201349],[603143.6255892968,4108377.9290512106],[603143.4131491128,4108378.076008008],[603141.7601282694,4108378.6796839484]],[[603115.5115184279,4108392.2511737896],[603115.6483371693,4108392.2125525624],[603139.5312121923,4108384.731483109],[603149.7000677919,4108396.750968444],[603118.9297208786,4108412.5971084214],[603097.9419943182,4108423.2821592367],[603089.5688917277,4108398.7838847884],[603115.5115184279,4108392.2511737896]],[[603074.7751530858,4108439.2463197396],[603072.8071169083,4108438.7250456205],[603074.8243877847,4108438.1751850625],[603074.7926351565,4108438.3642035276],[603074.7769939019,4108438.6359806666],[603074.7751530858,4108439.2463197396]],[[603081.1089454234,4108436.673739732],[603081.6770817348,4108436.2825966943],[603082.9325179454,4108435.863155191],[603085.1299715054,4108436.1122053354],[603086.1454463078,4108436.7278474136],[603087.1674261645,4108438.108061879],[603087.4814177614,4108439.351511362],[603087.3457949752,4108440.6961021423],[603086.8458777757,4108441.763621309],[603085.9039027483,4108442.736920602],[603084.7153066394,4108443.315182896],[603083.1541514497,4108443.4491113406],[603081.8926028408,4108443.0794547265],[603080.7583415288,4108442.2459699553],[603080.220944077,4108441.5153075587],[603079.7723852802,4108440.171550667],[603079.7757278933,4108439.063277285],[603080.2172193496,4108437.773713272],[603081.1089454234,4108436.673739732]],[[603185.2286028803,4108422.1312320363],[603194.8647164349,4108431.7608005814],[603195.2056029838,4108432.0646095453],[603207.9573500284,4108442.184699372],[603208.2230878753,4108442.378342238],[603208.5038322496,4108442.549505198],[603208.7976861238,4108442.6970316814],[603222.309449581,4108448.7986567514],[603222.436946595,4108448.8535883217],[603226.2268907453,4108450.409060624],[603226.14116231,4108450.597650201],[603226.1392056704,4108450.6019653613],[603224.0238720034,4108455.2788871564],[603217.3242567561,4108452.4938794714],[603217.076020301,4108452.4057185324],[603216.8198852488,4108452.344167547],[603216.5586954645,4108452.3099099146],[603202.9243960391,4108451.2483093655],[603182.0511089136,4108425.3500045473],[603184.5413147768,4108422.826978034],[603185.2286028803,4108422.1312320363]],[[603250.0390716109,4108468.096797641],[603250.9418465511,4108465.7654895517],[603228.669419489,4108457.14072258],[603230.6939214201,4108452.6646262766],[603230.8551513996,4108452.309944735],[603234.5476745281,4108453.8277216917],[603234.6814169667,4108453.879909784],[603247.700247108,4108458.6926576346],[603259.7412616444,4108465.2157097575],[603265.5092291791,4108469.549556673],[603271.1379958303,4108473.7706325673],[603284.9441013738,4108486.308232365],[603278.5547263313,4108484.216804291],[603251.4318670213,4108466.0207145633],[603250.0390716109,4108468.096797641]],[[603342.0683050229,4108533.666952367],[603342.2099115001,4108533.7695951997],[603363.2506178366,4108548.3299770076],[603363.2619633878,4108548.337799375],[603400.1133293718,4108573.6520043816],[603418.1066250486,4108589.8965703053],[603412.8530778879,4108587.356819665],[603398.4214699373,4108577.088100115],[603398.4156572087,4108577.0839848556],[603361.6089725717,4108551.1567745483],[603361.6061746989,4108551.1548084505],[603332.7734449572,4108530.9427670934],[603329.4297667783,4108528.4309061174],[603329.3149820155,4108528.3527184725],[603329.1934576714,4108528.285482445],[603329.0662355529,4108528.2297744374],[603328.9344063123,4108528.186072024],[603328.7991000983,4108528.1547498587],[603317.91077002,4108526.1602116586],[603286.9249705122,4108499.0284649064],[603291.7261448867,4108492.5229285853],[603304.8434054712,4108504.948641533],[603305.0942972507,4108505.167240344],[603315.7064578475,4108513.663494536],[603315.7886239782,4108513.727540101],[603342.0683050229,4108533.666952367]],[[603510.0044283449,4108699.8047396746],[603510.1788149094,4108700.081793024],[603511.0624934791,4108701.3659719746],[603508.3994119497,4108701.623010656],[603509.847854745,4108699.5014488506],[603509.8532813544,4108699.5143540353],[603510.0044283449,4108699.8047396746]],[[603518.114829383,4108697.502221834],[603517.0490722096,4108695.953442702],[603516.3919399701,4108694.192248973],[603516.1893133556,4108692.280292003],[603516.3386053547,4108690.9876485146],[603517.2297106974,4108688.676973994],[603518.7151218308,4108686.8538059867],[603520.7063348435,4108685.557860669],[603522.9872787145,4108684.9429541132],[603525.4360058837,4108685.0679455902],[603527.7051237811,4108685.943372279],[603529.5775547236,4108687.49512401],[603530.9095303298,4108689.6105960035],[603531.3756512254,4108691.2516872166],[603531.4581885028,4108693.0349125727],[603531.1139718215,4108694.773058418],[603530.4100868847,4108696.304318096],[603528.6734422159,4108698.3005762976],[603526.461810472,4108699.561434746],[603523.9813409226,4108700.018578325],[603521.1195695684,4108699.54060176],[603519.530151888,4108698.7345476504],[603518.114829383,4108697.502221834]]],[[[603456.3628601506,4108660.3967448594],[603456.4522334476,4108660.2578233904],[603456.525789334,4108660.1099170274],[603459.470905455,4108653.266621026],[603459.5215287292,4108653.1314173895],[603459.5589196949,4108652.991973297],[603459.5827319829,4108652.8495804807],[603459.5927450098,4108652.705557987],[603459.5888660203,4108652.561239961],[603459.5711309472,4108652.417963283],[603458.4592992046,4108645.9909256427],[603458.4302099461,4108645.858644839],[603458.3893072442,4108645.729527199],[603458.3369245812,4108645.6046254276],[603458.2734890365,4108645.484957856],[603458.1995178041,4108645.371500143],[603453.0450182854,4108638.1958342153],[603452.9657643822,4108638.094911706],[603452.8781746707,4108638.0011323034],[603446.5216027263,4108631.753872323],[603446.4254417438,4108631.6671978133],[603446.3221653835,4108631.5891375896],[603446.2125429123,4108631.5202730927],[603443.8830074435,4108630.193486214],[603443.8803577679,4108630.1919806544],[603437.243856064,4108626.429997782],[603427.4613090894,4108620.3607798945],[603421.4183171892,4108612.161838868],[603421.3722347894,4108612.102487854],[603419.7964556189,4108610.174679811],[603419.7809799514,4108610.156055713],[603413.9565638808,4108603.2606929685],[603413.8625126895,4108603.159235104],[603413.759514015,4108603.0668738685],[603407.856345448,4108598.2454724335],[603407.7498484717,4108598.1660849317],[603407.6367458898,4108598.0964301587],[603398.9083494613,4108593.2403954836],[603398.7765550603,4108593.175313167],[603398.6390235459,4108593.1234426103],[603398.4970755551,4108593.085281898],[603398.352074134,4108593.0611974644],[603398.2054116487,4108593.051420579],[603398.0584964158,4108593.0560451243],[603397.9127391789,4108593.0750266933],[603397.7695395618,4108593.1081830165],[603397.6302726293,4108593.1551957126],[603397.4962756826,4108593.215613345],[603397.3688354181,4108593.288855758],[603397.2491755724,4108593.374219646],[603390.044189573,4108599.0668233153],[603389.9377469672,4108599.1593749346],[603389.840468447,4108599.2615156225],[603389.7532142067,4108599.37234219],[603389.6767557998,4108599.490874644],[603389.6117693167,4108599.6160648493],[603383.5177366406,4108612.841711763],[603375.7791457634,4108623.090966419],[603350.0065397256,4108649.397808681],[603326.1554171292,4108630.7559766173],[603326.0349639711,4108630.671023087],[603325.9067544779,4108630.59830176],[603325.7720266442,4108630.538514835],[603325.6320814058,4108630.4922396163],[603325.4882700782,4108630.459922939],[603325.3419813076,4108630.441876854],[603320.4681691194,4108630.0825793226],[603320.3253659833,4108630.0788724897],[603315.773493573,4108630.1775874766],[603311.3656768852,4108630.1235914114],[603311.2253692497,4108630.1284430497],[603311.0861297427,4108630.1463910495],[603310.9491780883,4108630.1772781885],[603310.8157139691,4108630.220833898],[603310.6869065169,4108630.276676635],[603310.5638840721,4108630.3443172225],[603310.4477242988,4108630.423163136],[603310.3394447449,4108630.512523693],[603301.6076366132,4108638.4340190166],[603297.2355047639,4108638.777873092],[603297.0815023906,4108638.798051006],[603296.9304121381,4108638.8340456556],[603296.7838539545,4108638.8854711163],[603296.6433991961,4108638.9517760184],[603296.5105537801,4108639.032249459],[603296.3867420384,4108639.126028624],[603296.2732914464,4108639.2321080393],[603287.4443471148,4108648.3889986356],[603287.3442404078,4108648.50398619],[603287.2563228665,4108648.628541384],[603287.1815027177,4108648.761377508],[603287.1205528865,4108648.9011223055],[603287.0741030115,4108649.046332152],[603287.0426329403,4108649.1955069657],[603287.0264677728,4108649.347105705],[603287.025774502,4108649.4995622886],[603287.0405602898,4108649.6513017723],[603287.5811836374,4108653.2780353646],[603288.5567695858,4108668.994898432],[603287.7725703468,4108676.9667612575],[603283.5725970716,4108680.7824241943],[603285.5898932571,4108683.0029007425],[603290.2174570829,4108678.7987730918],[603290.3282987672,4108678.686904809],[603290.4268009915,4108678.5640320964],[603290.5118780253,4108678.4315093057],[603290.5825921157,4108678.290797156],[603290.6381638241,4108678.1434466317],[603290.6779806172,4108677.9910818897],[603290.7016036181,4108677.8353823535],[603291.55413535,4108669.1688781236],[603291.5610968857,4108669.0490759145],[603291.5584592939,4108668.9291006033],[603290.5714230933,4108653.0277719377],[603290.557911671,4108652.8995462614],[603290.1166778001,4108649.9395599626],[603298.0379807218,4108641.7240246157],[603302.3536310802,4108641.3846126273],[603302.4935328675,4108641.3669613097],[603302.6311589548,4108641.336250738],[603302.7652930894,4108641.292752312],[603302.8947498788,4108641.2368504447],[603303.0183852655,4108641.1690391605],[603303.135106638,4108641.089917733],[603303.2438824865,4108641.0001853867],[603311.9184834292,4108633.1305884183],[603315.7621962058,4108633.177674171],[603315.8130923016,4108633.177434097],[603318.6523087958,4108633.115860926],[603316.7239837934,4108648.419008609],[603316.7132607234,4108648.550542149],[603316.7141402647,4108648.682509125],[603317.5801045813,4108665.758518654],[603317.5809212767,4108665.7732001287],[603319.5245481409,4108697.8750843243],[603319.5417002812,4108698.027919177],[603319.8363210553,4108699.8188551646],[603318.3022433701,4108698.491171292],[603316.3390145155,4108700.75959199],[603321.0077461967,4108704.800195551],[603321.0675110489,4108704.8492828654],[603333.8737574323,4108714.826005671],[603333.9858187739,4108714.9053413738],[603334.1046650246,4108714.974097949],[603334.2293004163,4108715.0316993124],[603334.3586806767,4108715.0776628437],[603334.4917217772,4108715.111603432],[603357.6494591181,4108719.902478418],[603358.0069067649,4108720.0],[603362.6004294582,4108720.0],[603365.4922318659,4108720.0],[603370.0129161499,4108720.0],[603365.8683974636,4108719.020979483],[603352.0652246494,4108705.27005362],[603350.1350027056,4108677.9733102224],[603351.6051791349,4108652.0528700594],[603375.5637381378,4108627.597677923],[603379.3820595952,4108719.236532734],[603375.3993965297,4108720.0],[603379.4138710299,4108720.0],[603382.4164741159,4108720.0],[603387.5622191912,4108720.0],[603402.7679697217,4108716.349472482],[603410.500291726,4108714.8809410464],[603428.3806179914,4108712.118760595],[603432.0593987386,4108714.6802931163],[603434.3629121173,4108719.43353126],[603426.1091295856,4108718.380978965],[603425.8441756273,4108718.361422011],[603425.5786423907,4108718.3700923435],[603408.6427002918,4108719.8267881484],[603408.3908865291,4108719.8614167497],[603408.1438905841,4108719.9214360323],[603407.8798813701,4108720.0],[603434.637434092,4108720.0],[603437.9711568259,4108720.0],[603438.3043083315,4108720.0],[603438.300278722,4108719.998525871],[603438.0326562523,4108719.917281527],[603437.9210729535,4108719.8966532713],[603434.7657584875,4108713.385746404],[603435.0381086229,4108709.948842306],[603440.308246011,4108698.631580888],[603440.3648745251,4108698.4920755345],[603444.2234044718,4108687.4222689876],[603445.3096686845,4108684.3185638115],[603445.3235723332,4108684.276890449],[603450.2045829776,4108668.9006004087],[603456.3628601506,4108660.3967448594]],[[603324.6669944567,4108633.4002577257],[603348.5974519303,4108652.104097246],[603347.1344047756,4108677.898842336],[603347.1357340056,4108678.089588634],[603349.1123229577,4108706.042043326],[603349.1309725897,4108706.194417619],[603349.1650982494,4108706.344087834],[603349.2143425165,4108706.4894863763],[603349.2781896231,4108706.629090391],[603349.3559708565,4108706.7614377136],[603349.4468715624,4108706.8851421825],[603349.5499396779,4108706.9989081593],[603360.0341570255,4108717.4434412695],[603358.3939582581,4108716.995949783],[603358.3030322535,4108716.9741632314],[603335.4417467294,4108712.244618227],[603323.374197733,4108702.8433785755],[603322.514411173,4108697.6169219664],[603320.5758820273,4108665.5992341633],[603319.7169934645,4108648.6627519084],[603321.6680539657,4108633.179175773],[603324.6669944567,4108633.4002577257]],[[603386.0094465949,4108614.520273729],[603386.0994911502,4108614.3866536478],[603386.1746835962,4108614.244145949],[603392.1860307871,4108601.1979481936],[603398.3240442962,4108596.3483512304],[603406.0618094676,4108600.6532491907],[603411.754305337,4108605.30258411],[603416.602316584,4108611.042008583],[603406.54085051,4108621.171762724],[603406.4394778208,4108621.2847194592],[603406.3500387635,4108621.4073420563],[603406.273449021,4108621.5383750964],[603406.210492724,4108621.6764770546],[603406.161814423,4108621.820234034],[603406.12791249,4108621.9681742424],[603406.1091340148,4108622.118783057],[603406.1056712529,4108622.2705185357],[603407.7273998726,4108680.5990588637],[603407.7275417385,4108680.6038820846],[603408.7067538503,4108712.167946037],[603402.1728887634,4108713.4088651645],[603402.1026040794,4108713.4239671743],[603385.3930171245,4108717.4355289103],[603385.2770440248,4108717.468351151],[603382.3508508145,4108718.425055549],[603378.4392098825,4108624.5465543666],[603386.0094465949,4108614.520273729]],[[603410.7261739518,4108680.513269334],[603409.1223797699,4108622.8297750186],[603418.5267332678,4108613.3615933354],[603419.025681858,4108613.9720069794],[603425.2176912966,4108622.373130307],[603425.3076407877,4108622.4837503415],[603425.4076865249,4108622.5853306223],[603425.5169246418,4108622.676953418],[603425.6343682227,4108622.757790961],[603435.6875155886,4108628.9948928095],[603435.7385930482,4108629.0251982426],[603441.0595332042,4108632.04143882],[603438.2649431422,4108636.6692096977],[603438.1989640892,4108636.7908115587],[603438.1444693442,4108636.917975118],[603438.101922482,4108637.049618623],[603438.0716854391,4108637.1846222132],[603438.0540154354,4108637.321837442],[603437.2183596356,4108647.4975732267],[603437.2139360163,4108647.663082804],[603437.8103335439,4108668.586064725],[603437.818504305,4108668.705381661],[603437.8361547813,4108668.8236684026],[603441.2586405545,4108686.8133181445],[603437.5568420527,4108697.433475007],[603432.2043659962,4108708.9275531126],[603432.1533724922,4108709.051179591],[603432.1135924426,4108709.1788564925],[603432.0853420343,4108709.309568994],[603432.0688458122,4108709.442278143],[603431.9495146619,4108710.948169517],[603429.602137684,4108709.3136925306],[603429.4812587752,4108709.237799114],[603429.3537138106,4108709.17373818],[603429.2206575833,4108709.122089737],[603429.0832947858,4108709.08332141],[603428.9428691022,4108709.057784209],[603428.8006519479,4108709.045709347],[603428.6579309583,4108709.04720615],[603428.5159983308,4108709.0622610664],[603411.692475888,4108711.661184829],[603410.7261739518,4108680.513269334]],[[603453.8357459935,4108658.7715584063],[603447.633093556,4108667.3366909698],[603447.5464830742,4108667.470769634],[603447.474610496,4108667.613292602],[603447.418289689,4108667.7626459766],[603443.2101439391,4108681.019259063],[603440.805699743,4108668.3807524983],[603440.2150803675,4108647.6604812974],[603441.0151185548,4108637.918459267],[603443.6688379622,4108633.523966651],[603444.5580789306,4108634.0304338266],[603450.6835585209,4108640.050575475],[603455.5619461341,4108646.841861351],[603456.5390556687,4108652.490125848],[603453.8357459935,4108658.7715584063]]],[[[603317.3195330793,4108719.8778318847],[603317.4975837218,4108720.0],[603331.3516542696,4108720.0],[603320.1690121568,4108715.7211670643],[603301.6644608678,4108698.7256031027],[603301.5217517324,4108698.604072684],[603293.4780660219,4108692.2585943094],[603293.261625135,4108692.105735118],[603293.0302211225,4108691.9766430072],[603292.7864535808,4108691.8727682],[603292.5330609978,4108691.795277627],[603292.2728899895,4108691.7450418193],[603283.4910833592,4108690.5279051354],[603283.2926040745,4108690.5084271193],[603283.0932037405,4108690.5048317877],[603275.9384042514,4108690.661320507],[603275.7059322847,4108690.6772671994],[603275.4759548632,4108690.714789165],[603275.2504699392,4108690.773560428],[603275.031436436,4108690.8530704067],[603244.6120053307,4108703.5293171736],[603244.562187549,4108703.5507139442],[603207.3807235174,4108720.0],[603219.739192425,4108720.0],[603246.5602989851,4108708.1341935927],[603276.5193104156,4108695.649810815],[603283.0026745287,4108695.5080076316],[603290.9141634748,4108696.6045204364],[603298.351339349,4108702.471537172],[603317.1385115605,4108719.726675218],[603317.3195330793,4108719.8778318847]]]]}}]}
