{"type":"FeatureCollection","name":"lance-nuevo-coastline","crs":{"type":"name","properties":{"name":"EPSG:25830"}},"features":[{"type":"Feature","properties":{"source":"DERA/IECA","id_dera":10125300001149.0},"geometry":{"type":"LineString","coordinates":[[603211.85165774,4108320.0],[603247.5899999999,4108383.26],[603273.9299999997,4108406.25],[603296.04,4108421.8000000007],[603312.0800000001,4108429.76],[603336.7199999997,4108431.08],[603367.9699999997,4108424.75],[603390.5599999996,4108414.380000001],[603403.6399999997,4108399.6500000004],[603408.4000000004,4108392.1400000006]]}},{"type":"Feature","properties":{"source":"DERA/IECA","id_dera":10125300000520.0},"geometry":{"type":"LineString","coordinates":[[603408.4000000004,4108392.1400000006],[603387.6200000001,4108378.66],[603384.9800000004,4108379.0],[603382.4299999997,4108377.130000001],[603380.0999999996,4108374.119999999],[603379.7000000002,4108370.619999999],[603380.79,4108367.3599999994],[603384.0899999999,4108364.5299999993],[603386.7300000004,4108363.41],[603389.9400000004,4108363.789999999],[603393.4900000002,4108365.4499999993],[603410.5800000001,4108375.41],[603446.6100000003,4108398.539999999],[603454.8300000001,4108403.59],[603470.0199999996,4108412.1099999994],[603472.9800000004,4108415.4800000004],[603475.46,4108418.130000001],[603477.5599999996,4108423.49],[603477.3099999996,4108427.2699999996],[603474.4500000002,4108429.380000001],[603469.8099999996,4108430.630000001],[603466.96,4108430.4700000007],[603464.8200000003,4108430.880000001]]}},{"type":"Feature","properties":{"source":"DERA/IECA","id_dera":10125300001064.0},"geometry":{"type":"LineString","coordinates":[[603464.8200000003,4108430.880000001],[603462.9299999997,4108435.710000001],[603463.6900000004,4108449.3900000006],[603476.8399999999,4108482.6899999995],[603509.1200000001,4108549.75],[603530.2800000003,4108577.6899999995],[603572.4299999997,4108620.0299999993],[603626.4199999999,4108680.130000001],[603651.8099999996,4108716.2200000007],[603653.8415575047,4108720.0]]}}]}
