{"type":"FeatureCollection","name":"marina-de-la-torre-coastline","crs":{"type":"name","properties":{"name":"EPSG:25830"}},"features":[{"type":"Feature","properties":{"source":"DERA/IECA","id_dera":10125300000468.0},"geometry":{"type":"LineString","coordinates":[[604482.3061818182,4112580.0],[604477.0899999999,4112625.8499999996],[604472.54,4112677.6400000006],[604470.8499999996,4112705.380000001]]}},{"type":"Feature","properties":{"source":"DERA/IECA","id_dera":10125300001152.0},"geometry":{"type":"LineString","coordinates":[[604470.8499999996,4112705.380000001],[604469.3300000001,4112730.3599999994],[604468.4699999997,4112791.630000001],[604468.4400000004,4112843.26],[604466.4500000002,4112862.8599999994],[604461.9100000001,4112878.710000001],[604461.1399999997,4112883.8599999994],[604459.8099999996,4112891.9000000004],[604456.5,4112925.539999999],[604461.2199999997,4112968.130000001],[604462.96,4113001.619999999],[604461.8200000003,4113059.619999999],[604461.5099999998,4113110.0],[604462.4199999999,4113146.8000000007],[604462.3799999999,4113159.76],[604459.71,4113194.01],[604454.1500000004,4113220.74],[604452.1399999997,4113238.130000001],[604451.8799999999,4113252.6099999994],[604453.0999999996,4113263.9299999997],[604454.1500000004,4113274.33],[604453.5899999999,4113298.9499999993],[604453.6699999999,4113317.210000001],[604456.8300000001,4113337.9700000007],[604457.7999999998,4113354.880000001],[604455.7699999996,4113368.49],[604455.6200000001,4113376.5],[604456.7699999996,4113421.84],[604459.8099999996,4113463.2799999993],[604457.7699999996,4113511.880000001],[604451.8300000001,4113596.5299999993],[604453.3700000001,4113629.0],[604449.9100000001,4113663.210000001],[604445.8499999996,4113690.16],[604445.4000000004,4113706.5299999993],[604443.0,4113729.789999999],[604440.7999999998,4113741.369999999],[604438.5199999996,4113755.0999999996],[604436.6100000003,4113765.83],[604438.2699999996,4113776.0199999996],[604442.2000000002,4113784.58],[604448.6699999999,4113799.0600000005],[604449.7400000002,4113812.3100000005],[604450.1600000001,4113826.76],[604448.2599999998,4113836.3499999996],[604442.9400000004,4113845.6500000004],[604440.3300000001,4113855.380000001],[604437.5,4113877.5700000003],[604433.9699999997,4113951.7799999993],[604434.7300000004,4114009.369999999]]}},{"type":"Feature","properties":{"source":"DERA/IECA","id_dera":10125300001430.0},"geometry":{"type":"LineString","coordinates":[[604434.7300000004,4114009.369999999],[604433.8099999996,4114010.8200000003],[604432.5899999999,4114011.9499999993],[604429.7000000002,4114013.58],[604429.5999999996,4114014.1899999995],[604430.0,4114015.9499999993],[604430.6100000003,4114017.289999999],[604435.6299999999,4114020.41],[604436.6500000004,4114021.75],[604437.1500000004,4114023.710000001],[604436.0099999998,4114024.630000001],[604430.6500000004,4114026.1400000006],[604428.9000000004,4114026.2300000004],[604428.1699999999,4114027.67],[604428.1699999999,4114028.59],[604429.2699999996,4114032.92],[604431.6100000003,4114038.08],[604431.5899999999,4114041.380000001],[604430.9500000002,4114044.0500000007],[604430.0099999998,4114045.789999999],[604428.5700000003,4114047.2200000007],[604427.6299999999,4114049.0700000003],[604430.5899999999,4114053.0999999996],[604430.8799999999,4114055.0600000005],[604433.5199999996,4114060.630000001],[604434.1299999999,4114063.0],[604434.3799999999,4114071.5500000007],[604433.5499999998,4114072.5700000003],[604430.1399999997,4114074.710000001],[604428.4800000004,4114077.2699999996],[604427.3200000003,4114082.3100000005],[604424.9699999997,4114095.3599999994],[604425.0300000003,4114102.26],[604426.9299999997,4114110.8100000005],[604429.5700000003,4114116.49],[604431.3799999999,4114122.58],[604431.4699999997,4114125.5600000005],[604428.3200000003,4114135.83],[604428.29,4114139.8499999996],[604428.9000000004,4114141.3900000006],[604430.1299999999,4114142.5299999993],[604431.3600000003,4114143.16],[604434.75,4114143.49],[604435.7800000003,4114144.2200000007],[604436.0800000001,4114145.1400000006],[604434.6200000001,4114148.2200000007],[604433.2800000003,4114147.6999999993],[604432.2599999998,4114146.9700000007],[604431.54,4114146.8599999994],[604430.2000000002,4114147.369999999],[604428.4400000004,4114148.49],[604429.04,4114151.0700000003],[604431.3899999997,4114154.789999999],[604431.79,4114156.539999999],[604431.46,4114159.1099999994],[604430.4299999997,4114159.83],[604429.1799999997,4114161.460000001],[604428.4400000004,4114164.8599999994],[604428.5300000003,4114167.74],[604430.8399999999,4114176.5999999996],[604432.0999999996,4114188.5500000007],[604430.0999999996,4114195.5299999993],[604429.21,4114205.8200000003],[604432.2400000002,4114215.51],[604430.5499999998,4114222.09],[604430.6500000004,4114223.0199999996],[604431.2599999998,4114224.7699999996],[604432.5800000001,4114226.9399999995],[604434.8399999999,4114227.880000001],[604435.3399999999,4114229.630000001],[604435.1299999999,4114230.039999999],[604432.3499999996,4114231.4700000007],[604431.8200000003,4114233.210000001],[604433.6600000001,4114235.3900000006],[604433.6600000001,4114235.8000000007],[604434.0599999996,4114237.24],[604435.1799999997,4114238.59],[604436.1100000003,4114238.49],[604438.2800000003,4114237.58],[604438.8899999997,4114237.4800000004],[604439.4100000001,4114238.0999999996],[604439.4000000004,4114239.130000001],[604438.9800000004,4114240.26],[604437.9500000002,4114240.869999999],[604433.3099999996,4114241.66],[604433.0,4114242.0700000003],[604432.8899999997,4114242.59],[604431.5899999999,4114254.0999999996],[604434.3899999997,4114266.5700000003],[604435.8799999999,4114275.0199999996],[604439.2400000002,4114280.8100000005],[604441.3700000001,4114286.17],[604440.5899999999,4114295.84],[604438.2000000002,4114299.5299999993],[604438.0800000001,4114301.9000000004],[604438.4800000004,4114303.4399999995],[604441.6500000004,4114307.0700000003],[604442.1600000001,4114308.0999999996],[604442.25,4114309.4399999995],[604441.7199999997,4114312.1099999994],[604441.2999999998,4114312.5199999996],[604440.0700000003,4114312.8200000003],[604439.3099999996,4114319.09],[604440.6100000003,4114323.9399999995],[604440.3899999997,4114326.1999999993],[604439.6699999999,4114327.4299999997],[604439.1500000004,4114327.3200000003],[604438.4299999997,4114327.42],[604438.1200000001,4114328.039999999],[604438.1200000001,4114328.4499999993],[604439.1200000001,4114332.5700000003],[604440.04,4114334.119999999],[604439.9299999997,4114334.33],[604439.6100000003,4114335.7699999996],[604439.71,4114337.3100000005],[604441.0300000003,4114340.0],[604441.5199999996,4114344.3200000003],[604441.4000000004,4114345.5600000005],[604440.5700000003,4114346.6799999997],[604439.8499999996,4114346.99],[604439.2300000004,4114347.91],[604437.3300000001,4114355.41],[604437.9199999999,4114359.630000001],[604440.1500000004,4114364.4800000004],[604440.3499999996,4114366.75],[604439.5099999998,4114368.5999999996],[604439.1900000004,4114370.6500000004],[604439.4900000002,4114371.8900000006],[604439.79,4114372.51],[604439.8799999999,4114374.7699999996],[604438.0,4114380.1099999994],[604437.8799999999,4114382.58],[604438.3899999997,4114383.41],[604440.75,4114384.66],[604441.5599999996,4114386.5199999996],[604441.6399999997,4114389.4000000004],[604441.54,4114389.91],[604441.0199999996,4114390.9399999995],[604439.4699999997,4114391.4399999995],[604438.2400000002,4114391.33],[604436.3899999997,4114390.4000000004],[604435.8700000001,4114390.3900000006],[604435.5599999996,4114390.6999999993],[604434.6200000001,4114393.99],[604433.8200000003,4114405.710000001],[604433.0800000001,4114409.9299999997],[604433.6900000004,4114410.960000001],[604438.5,4114414.3900000006],[604437.7800000003,4114415.0999999996],[604436.54,4114415.0999999996],[604436.3300000001,4114416.119999999],[604437.96,4114419.0199999996],[604439.3300000001,4114430.1400000006],[604439.8700000001,4114442.289999999],[604439.5,4114452.2699999996],[604439.6500000004,4114461.33],[604440.75,4114465.4499999993],[604441.2599999998,4114466.2799999993],[604447.5300000003,4114468.4800000004],[604447.8300000001,4114468.99],[604447.7199999997,4114469.92],[604447.0,4114469.8100000005],[604446.5899999999,4114469.5999999996],[604445.1500000004,4114469.3900000006],[604444.0199999996,4114470.0],[604443.2800000003,4114473.08],[604443.96,4114479.5700000003],[604445.3799999999,4114482.1500000004],[604445.7800000003,4114484.01],[604445.7800000003,4114484.9299999997],[604444.3200000003,4114487.1899999995],[604444.4100000001,4114489.3499999996],[604444.9199999999,4114490.1799999997],[604446.0499999998,4114491.01],[604447.0800000001,4114490.6999999993],[604447.5999999996,4114490.1899999995],[604448.0099999998,4114489.99],[604448.3200000003,4114489.99],[604448.9299999997,4114490.51],[604449.6500000004,4114490.7200000007],[604450.4800000004,4114490.619999999],[604450.79,4114490.01],[604451.0999999996,4114489.91],[604451.5099999998,4114490.01],[604451.71,4114490.2200000007],[604452.0199999996,4114490.84],[604452.1200000001,4114491.5600000005],[604451.6900000004,4114493.41],[604450.8600000003,4114494.33],[604448.2800000003,4114495.6500000004],[604447.4500000002,4114497.1899999995],[604447.4000000004,4114504.6999999993],[604449.3200000003,4114509.960000001],[604448.6699999999,4114516.0299999993],[604448.8700000001,4114517.0600000005],[604451.9299999997,4114520.6799999997],[604452.2999999998,4114527.58],[604450.6900000004,4114538.2699999996],[604451.0899999999,4114539.41],[604451.5,4114539.8200000003],[604452.3200000003,4114540.34],[604454.3799999999,4114541.1799999997],[604456.54,4114541.1899999995],[604460.9699999997,4114539.4700000007],[604461.3899999997,4114539.4700000007],[604461.3700000001,4114541.33],[604461.0599999996,4114542.869999999],[604460.8499999996,4114543.380000001],[604459.5999999996,4114544.8100000005],[604458.9699999997,4114547.2799999993],[604458.96,4114548.41],[604460.4900000002,4114550.99],[604461.9299999997,4114551.83],[604465.9100000001,4114557.0999999996],[604467.3300000001,4114560.51],[604466.9100000001,4114561.84],[604466.29,4114562.1500000004],[604462.8899999997,4114562.33],[604462.4699999997,4114562.74],[604462.6799999997,4114563.460000001],[604470.2400000002,4114571.6400000006],[604474.4100000001,4114580.0],[604475.8799999999,4114591.0199999996],[604478.1100000003,4114596.49],[604479.8499999996,4114598.3499999996],[604483.8499999996,4114600.539999999],[604485.1799999997,4114602.1999999993],[604487.5300000003,4114604.17]]}},{"type":"Feature","properties":{"source":"DERA/IECA","id_dera":10125300001126.0},"geometry":{"type":"LineString","coordinates":[[604487.5300000003,4114604.17],[604485.1799999997,4114602.1999999993],[604483.8499999996,4114600.539999999],[604479.8499999996,4114598.3499999996],[604478.1100000003,4114596.49],[604475.8799999999,4114591.0199999996],[604474.4100000001,4114580.0],[604470.2400000002,4114571.6400000006],[604462.6799999997,4114563.460000001],[604462.4699999997,4114562.74],[604462.8899999997,4114562.33],[604466.29,4114562.1500000004],[604466.9100000001,4114561.84],[604467.3300000001,4114560.51],[604465.9100000001,4114557.0999999996],[604461.9299999997,4114551.83],[604460.4900000002,4114550.99],[604458.96,4114548.41],[604458.9699999997,4114547.2799999993],[604459.5999999996,4114544.8100000005],[604460.8499999996,4114543.380000001],[604461.0599999996,4114542.869999999],[604461.3700000001,4114541.33],[604461.3899999997,4114539.4700000007],[604460.9699999997,4114539.4700000007],[604456.54,4114541.1899999995],[604454.3799999999,4114541.1799999997],[604452.3200000003,4114540.34],[604451.5,4114539.8200000003],[604451.0899999999,4114539.41],[604450.6900000004,4114538.2699999996],[604452.2999999998,4114527.58],[604451.9299999997,4114520.6799999997],[604448.8700000001,4114517.0600000005],[604448.6699999999,4114516.0299999993],[604449.3200000003,4114509.960000001],[604447.4000000004,4114504.6999999993],[604447.4500000002,4114497.1899999995],[604448.2800000003,4114495.6500000004],[604450.8600000003,4114494.33],[604451.6900000004,4114493.41],[604452.1200000001,4114491.5600000005],[604452.0199999996,4114490.84],[604451.71,4114490.2200000007],[604451.5099999998,4114490.01],[604451.0999999996,4114489.91],[604450.79,4114490.01],[604450.4800000004,4114490.619999999],[604449.6500000004,4114490.7200000007],[604448.9299999997,4114490.51],[604448.3200000003,4114489.99],[604448.0099999998,4114489.99],[604447.5999999996,4114490.1899999995],[604447.0800000001,4114490.6999999993],[604446.0499999998,4114491.01],[604444.9199999999,4114490.1799999997],[604444.4100000001,4114489.3499999996],[604444.3200000003,4114487.1899999995],[604445.7800000003,4114484.9299999997],[604445.7800000003,4114484.01],[604445.3799999999,4114482.1500000004],[604443.96,4114479.5700000003],[604443.2800000003,4114473.08],[604444.0199999996,4114470.0],[604445.1500000004,4114469.3900000006],[604446.5899999999,4114469.5999999996],[604447.0,4114469.8100000005],[604447.7199999997,4114469.92],[604447.8300000001,4114468.99],[604447.5300000003,4114468.4800000004],[604441.2599999998,4114466.2799999993],[604440.75,4114465.4499999993],[604439.6500000004,4114461.33],[604439.5,4114452.2699999996],[604439.8700000001,4114442.289999999],[604439.3300000001,4114430.1400000006],[604437.96,4114419.0199999996],[604436.3300000001,4114416.119999999],[604436.54,4114415.0999999996],[604437.7800000003,4114415.0999999996],[604438.5,4114414.3900000006],[604433.6900000004,4114410.960000001],[604433.0800000001,4114409.9299999997],[604433.8200000003,4114405.710000001],[604434.6200000001,4114393.99],[604435.5599999996,4114390.6999999993],[604435.8700000001,4114390.3900000006],[604436.3899999997,4114390.4000000004],[604438.2400000002,4114391.33],[604439.4699999997,4114391.4399999995],[604441.0199999996,4114390.9399999995],[604441.54,4114389.91],[604441.6399999997,4114389.4000000004],[604441.5599999996,4114386.5199999996],[604440.75,4114384.66],[604438.3899999997,4114383.41],[604437.8799999999,4114382.58],[604438.0,4114380.1099999994],[604439.8799999999,4114374.7699999996],[604439.79,4114372.51],[604439.4900000002,4114371.8900000006],[604439.1900000004,4114370.6500000004],[604439.5099999998,4114368.5999999996],[604440.3499999996,4114366.75],[604440.1500000004,4114364.4800000004],[604437.9199999999,4114359.630000001],[604437.3300000001,4114355.41],[604439.2300000004,4114347.91],[604439.8499999996,4114346.99],[604440.5700000003,4114346.6799999997],[604441.4000000004,4114345.5600000005],[604441.5199999996,4114344.3200000003],[604441.0300000003,4114340.0],[604439.71,4114337.3100000005],[604439.6100000003,4114335.7699999996],[604439.9299999997,4114334.33],[604440.04,4114334.119999999],[604439.1200000001,4114332.5700000003],[604438.1200000001,4114328.4499999993],[604438.1200000001,4114328.039999999],[604438.4299999997,4114327.42],[604439.1500000004,4114327.3200000003],[604439.6699999999,4114327.4299999997],[604440.3899999997,4114326.1999999993],[604440.6100000003,4114323.9399999995],[604439.3099999996,4114319.09],[604440.0700000003,4114312.8200000003],[604441.2999999998,4114312.5199999996],[604441.7199999997,4114312.1099999994],[604442.25,4114309.4399999995],[604442.1600000001,4114308.0999999996],[604441.6500000004,4114307.0700000003],[604438.4800000004,4114303.4399999995],[604438.0800000001,4114301.9000000004],[604438.2000000002,4114299.5299999993],[604440.5899999999,4114295.84],[604441.3700000001,4114286.17],[604439.2400000002,4114280.8100000005],[604435.8799999999,4114275.0199999996],[604434.3899999997,4114266.5700000003],[604431.5899999999,4114254.0999999996],[604432.8899999997,4114242.59],[604433.0,4114242.0700000003],[604433.3099999996,4114241.66],[604437.9500000002,4114240.869999999],[604438.9800000004,4114240.26],[604439.4000000004,4114239.130000001],[604439.4100000001,4114238.0999999996],[604438.8899999997,4114237.4800000004],[604438.2800000003,4114237.58],[604436.1100000003,4114238.49],[604435.1799999997,4114238.59],[604434.0599999996,4114237.24],[604433.6600000001,4114235.8000000007],[604433.6600000001,4114235.3900000006],[604431.8200000003,4114233.210000001],[604432.3499999996,4114231.4700000007],[604435.1299999999,4114230.039999999],[604435.3399999999,4114229.630000001],[604434.8399999999,4114227.880000001],[604432.5800000001,4114226.9399999995],[604431.2599999998,4114224.7699999996],[604430.6500000004,4114223.0199999996],[604430.5499999998,4114222.09],[604432.2400000002,4114215.51],[604429.21,4114205.8200000003],[604430.0999999996,4114195.5299999993],[604432.0999999996,4114188.5500000007],[604430.8399999999,4114176.5999999996],[604428.5300000003,4114167.74],[604428.4400000004,4114164.8599999994],[604429.1799999997,4114161.460000001],[604430.4299999997,4114159.83],[604431.46,4114159.1099999994],[604431.79,4114156.539999999],[604431.3899999997,4114154.789999999],[604429.04,4114151.0700000003],[604428.4400000004,4114148.49],[604430.2000000002,4114147.369999999],[604431.54,4114146.8599999994],[604432.2599999998,4114146.9700000007],[604433.2800000003,4114147.6999999993],[604434.6200000001,4114148.2200000007],[604436.0800000001,4114145.1400000006],[604435.7800000003,4114144.2200000007],[604434.75,4114143.49],[604431.3600000003,4114143.16],[604430.1299999999,4114142.5299999993],[604428.9000000004,4114141.3900000006],[604428.29,4114139.8499999996],[604428.3200000003,4114135.83],[604431.4699999997,4114125.5600000005],[604431.3799999999,4114122.58],[604429.5700000003,4114116.49],[604426.9299999997,4114110.8100000005],[604425.0300000003,4114102.26],[604424.9699999997,4114095.3599999994],[604427.3200000003,4114082.3100000005],[604428.4800000004,4114077.2699999996],[604430.1399999997,4114074.710000001],[604433.5499999998,4114072.5700000003],[604434.3799999999,4114071.5500000007],[604434.1299999999,4114063.0],[604433.5199999996,4114060.630000001],[604430.8799999999,4114055.0600000005],[604430.5899999999,4114053.0999999996],[604427.6299999999,4114049.0700000003],[604428.5700000003,4114047.2200000007],[604430.0099999998,4114045.789999999],[604430.9500000002,4114044.0500000007],[604431.5899999999,4114041.380000001],[604431.6100000003,4114038.08],[604429.2699999996,4114032.92],[604428.1699999999,4114028.59],[604428.1699999999,4114027.67],[604428.9000000004,4114026.2300000004],[604430.6500000004,4114026.1400000006],[604436.0099999998,4114024.630000001],[604437.1500000004,4114023.710000001],[604436.6500000004,4114021.75],[604435.6299999999,4114020.41],[604430.6100000003,4114017.289999999],[604430.0,4114015.9499999993],[604429.5999999996,4114014.1899999995],[604429.7000000002,4114013.58],[604432.5899999999,4114011.9499999993],[604433.8099999996,4114010.8200000003],[604434.7300000004,4114009.369999999]]}},{"type":"Feature","properties":{"source":"DERA/IECA","id_dera":10125300000252.0},"geometry":{"type":"MultiLineString","coordinates":[[[604487.5300000003,4114604.17],[604493.2800000003,4114606.5700000003],[604503.7699999996,4114608.1799999997],[604512.3799999999,4114613.0700000003],[604514.54,4114613.1899999995],[604516.5,4114612.8900000006],[604526.5199999996,4114615.7300000004],[604536.5300000003,4114618.5700000003],[604553.1799999997,4114622.49],[604565.3499999996,4114626.4299999997],[604577.5199999996,4114630.3599999994],[604593.8600000003,4114634.6799999997],[604599.21,4114634.710000001],[604600.0300000003,4114635.4399999995],[604601.7599999998,4114637.92],[604606.9000000004,4114639.8100000005],[604622.9199999999,4114643.92],[604636.29,4114645.8599999994],[604643.1699999999,4114648.0600000005],[604647.0599999996,4114651.789999999],[604662.6799999997,4114655.8000000007],[604676.6100000003,4114658.1500000004],[604687.5761702124,4114660.0]],[[604630.4915420586,4114660.0],[604624.0099999998,4114658.9499999993],[604610.7999999998,4114656.8100000005],[604592.5199999996,4114650.619999999],[604591.29,4114650.8200000003],[604588.29,4114652.24]]]}},{"type":"Feature","properties":{"source":"DERA/IECA","id_dera":10125300001138.0},"geometry":{"type":"LineString","coordinates":[[604580.5519830026,4114660.0],[604588.29,4114652.24]]}}]}
