{"type":"FeatureCollection","name":"marina-de-la-torre-buildings","crs":{"type":"name","properties":{"name":"EPSG:25830"}},"source":"Direcci\u00f3n General del Catastro, INSPIRE BU","features":[{"type":"Feature","properties":{"id":"3433513XG0133D_part1","floors":1,"height":3.1,"heightSource":"Catastro:numberOfFloorsAboveGround"},"geometry":{"type":"Polygon","coordinates":[[[604208.81,4112953.41],[604209.17,4112953.4],[604210.85,4112953.34],[604210.87,4112954.98],[604228.46,4112954.2],[604228.39,4112952.6],[604228.21,4112948.79],[604213.85,4112948.0],[604213.26,4112933.97],[604212.15,4112907.26],[604211.71,4112896.71],[604209.46,4112896.88],[604207.62,4112934.61],[604206.71,4112952.05],[604206.64,4112953.49],[604208.81,4112953.41]]]}},{"type":"Feature","properties":{"id":"3433513XG0133D_part2","floors":3,"height":9.3,"heightSource":"Catastro:numberOfFloorsAboveGround"},"geometry":{"type":"Polygon","coordinates":[[[604276.03,4112890.45],[604267.56,4112890.9],[604267.64,4112892.43],[604276.11,4112892.01],[604276.03,4112890.45]]]}},{"type":"Feature","properties":{"id":"3433513XG0133D_part3","floors":3,"height":9.3,"heightSource":"Catastro:numberOfFloorsAboveGround"},"geometry":{"type":"Polygon","coordinates":[[[604266.63,4112950.92],[604266.69,4112952.61],[604266.94,4112952.6],[604270.32,4112952.45],[604270.53,4112952.44],[604280.76,4112952.08],[604280.72,4112950.3],[604266.63,4112950.92]]]}},{"type":"Feature","properties":{"id":"3433513XG0133D_part4","floors":4,"height":12.4,"heightSource":"Catastro:numberOfFloorsAboveGround"},"geometry":{"type":"Polygon","coordinates":[[[604231.12,4112972.29],[604231.19,4112974.01],[604281.67,4112971.91],[604281.63,4112970.23],[604271.18,4112970.65],[604231.12,4112972.29]]]}},{"type":"Feature","properties":{"id":"3433513XG0133D_part5","floors":4,"height":12.4,"heightSource":"Catastro:numberOfFloorsAboveGround"},"geometry":{"type":"Polygon","coordinates":[[[604258.83,4112891.25],[604258.91,4112892.85],[604267.64,4112892.43],[604267.56,4112890.9],[604265.92,4112890.99],[604258.83,4112891.25]]]}},{"type":"Feature","properties":{"id":"3433513XG0133D_part6","floors":4,"height":12.4,"heightSource":"Catastro:numberOfFloorsAboveGround"},"geometry":{"type":"Polygon","coordinates":[[[604276.36,4112892.0],[604283.17,4112891.68],[604283.28,4112893.42],[604287.82,4112893.25],[604287.1,4112877.22],[604285.61,4112877.3],[604275.71,4112877.87],[604275.82,4112880.33],[604265.44,4112880.89],[604265.52,4112882.67],[604265.92,4112890.99],[604267.56,4112890.9],[604276.03,4112890.45],[604276.11,4112892.01],[604276.36,4112892.0]]]}},{"type":"Feature","properties":{"id":"3433513XG0133D_part7","floors":4,"height":12.4,"heightSource":"Catastro:numberOfFloorsAboveGround"},"geometry":{"type":"Polygon","coordinates":[[[604280.76,4112952.08],[604270.53,4112952.44],[604271.18,4112970.65],[604281.63,4112970.23],[604281.67,4112971.91],[604289.09,4112971.59],[604291.85,4112971.48],[604290.88,4112949.87],[604288.06,4112949.98],[604280.72,4112950.3],[604280.76,4112952.08]]]}},{"type":"Feature","properties":{"id":"3433513XG0133D_part8","floors":1,"height":3.1,"heightSource":"Catastro:numberOfFloorsAboveGround"},"geometry":{"type":"Polygon","coordinates":[[[604220.57,4112933.63],[604219.32,4112906.86],[604212.15,4112907.26],[604213.26,4112933.97],[604220.57,4112933.63]]]}},{"type":"Feature","properties":{"id":"3433513XG0133D_part12","floors":5,"height":15.5,"heightSource":"Catastro:numberOfFloorsAboveGround"},"geometry":{"type":"Polygon","coordinates":[[[604200.0,4112972.2073863638],[604200.0,4112973.7484615385],[604205.6,4112973.49],[604205.79,4112972.01],[604200.0,4112972.2073863638]]]}},{"type":"Feature","properties":{"id":"3433513XG0133D_part13","floors":5,"height":15.5,"heightSource":"Catastro:numberOfFloorsAboveGround"},"geometry":{"type":"Polygon","coordinates":[[[604205.46,4112941.77],[604204.43,4112941.72],[604204.06,4112948.19],[604205.33,4112948.26],[604205.12,4112951.87],[604206.71,4112952.05],[604207.62,4112934.61],[604209.46,4112896.88],[604211.71,4112896.71],[604226.11,4112896.03],[604231.22,4112895.79],[604258.94,4112894.5],[604258.81,4112893.05],[604258.8,4112892.86],[604226.03,4112894.58],[604224.31,4112894.67],[604210.26,4112895.27],[604208.05,4112895.37],[604205.46,4112941.77]]]}},{"type":"Feature","properties":{"id":"3433513XG0133D_part14","floors":5,"height":15.5,"heightSource":"Catastro:numberOfFloorsAboveGround"},"geometry":{"type":"Polygon","coordinates":[[[604229.24,4112971.11],[604215.27,4112971.64],[604215.3,4112973.04],[604211.63,4112973.21],[604211.7,4112974.83],[604231.19,4112974.01],[604231.12,4112972.29],[604230.29,4112954.26],[604263.03,4112952.77],[604263.27,4112952.76],[604264.13,4112952.73],[604264.28,4112952.72],[604266.69,4112952.61],[604266.63,4112950.92],[604264.05,4112951.03],[604241.95,4112952.0],[604228.39,4112952.6],[604228.46,4112954.2],[604229.24,4112971.11]]]}},{"type":"Feature","properties":{"id":"3433513XG0133D_part15","floors":5,"height":15.5,"heightSource":"Catastro:numberOfFloorsAboveGround"},"geometry":{"type":"Polygon","coordinates":[[[604249.48,4112881.77],[604249.55,4112883.54],[604223.88,4112884.66],[604224.31,4112894.67],[604226.03,4112894.58],[604258.8,4112892.86],[604258.91,4112892.85],[604258.83,4112891.25],[604265.92,4112890.99],[604265.52,4112882.67],[604265.44,4112880.89],[604249.48,4112881.77]]]}},{"type":"Feature","properties":{"id":"3433513XG0133D_part16","floors":5,"height":15.5,"heightSource":"Catastro:numberOfFloorsAboveGround"},"geometry":{"type":"Polygon","coordinates":[[[604230.29,4112954.26],[604231.12,4112972.29],[604271.18,4112970.65],[604270.53,4112952.44],[604270.32,4112952.45],[604266.94,4112952.6],[604266.69,4112952.61],[604266.92,4112958.38],[604263.26,4112958.52],[604263.03,4112952.77],[604230.29,4112954.26]]]}},{"type":"Feature","properties":{"id":"3433513XG0133D_part18","floors":6,"height":18.6,"heightSource":"Catastro:numberOfFloorsAboveGround"},"geometry":{"type":"Polygon","coordinates":[[[604205.79,4112972.01],[604207.67,4112971.93],[604207.72,4112972.5],[604208.15,4112972.48],[604207.99,4112969.13],[604209.76,4112969.04],[604209.81,4112970.21],[604211.49,4112970.13],[604211.63,4112973.21],[604215.3,4112973.04],[604215.27,4112971.64],[604229.24,4112971.11],[604228.46,4112954.2],[604210.87,4112954.98],[604210.85,4112953.34],[604209.17,4112953.4],[604208.81,4112953.41],[604209.09,4112960.04],[604205.74,4112960.19],[604205.45,4112953.53],[604206.64,4112953.49],[604206.71,4112952.05],[604205.12,4112951.87],[604205.33,4112948.26],[604204.06,4112948.19],[604204.43,4112941.72],[604205.46,4112941.77],[604208.05,4112895.37],[604206.63,4112895.41],[604206.56,4112892.58],[604204.72,4112892.66],[604204.72,4112889.27],[604206.95,4112889.26],[604206.96,4112889.82],[604210.02,4112889.68],[604210.26,4112895.27],[604224.31,4112894.67],[604223.88,4112884.66],[604209.97,4112885.28],[604209.82,4112880.95],[604207.56,4112881.05],[604200.0,4112881.3705377458],[604200.0,4112972.2073863638],[604205.79,4112972.01]]]}},{"type":"Feature","properties":{"id":"3433513XG0133D_part19","floors":6,"height":18.6,"heightSource":"Catastro:numberOfFloorsAboveGround"},"geometry":{"type":"Polygon","coordinates":[[[604205.45,4112953.53],[604205.74,4112960.19],[604209.09,4112960.04],[604208.81,4112953.41],[604206.64,4112953.49],[604205.45,4112953.53]]]}},{"type":"Feature","properties":{"id":"3433513XG0133D_part20","floors":6,"height":18.6,"heightSource":"Catastro:numberOfFloorsAboveGround"},"geometry":{"type":"Polygon","coordinates":[[[604205.52,4112975.07],[604211.7,4112974.83],[604211.63,4112973.21],[604211.49,4112970.13],[604209.81,4112970.21],[604209.76,4112969.04],[604207.99,4112969.13],[604208.15,4112972.48],[604207.72,4112972.5],[604207.67,4112971.93],[604205.79,4112972.01],[604205.6,4112973.49],[604205.52,4112975.07]]]}},{"type":"Feature","properties":{"id":"3433513XG0133D_part21","floors":6,"height":18.6,"heightSource":"Catastro:numberOfFloorsAboveGround"},"geometry":{"type":"Polygon","coordinates":[[[604264.28,4112952.72],[604264.13,4112952.73],[604263.27,4112952.76],[604263.03,4112952.77],[604263.26,4112958.52],[604266.92,4112958.38],[604266.69,4112952.61],[604264.28,4112952.72]]]}},{"type":"Feature","properties":{"id":"3433513XG0133D_part22","floors":7,"height":21.7,"heightSource":"Catastro:numberOfFloorsAboveGround"},"geometry":{"type":"Polygon","coordinates":[[[604206.95,4112889.26],[604204.72,4112889.27],[604204.72,4112892.66],[604206.56,4112892.58],[604207.07,4112892.56],[604206.96,4112889.82],[604206.95,4112889.26]]]}},{"type":"Feature","properties":{"id":"3433513XG0133D_part23","floors":7,"height":21.7,"heightSource":"Catastro:numberOfFloorsAboveGround"},"geometry":{"type":"Polygon","coordinates":[[[604207.07,4112892.56],[604206.56,4112892.58],[604206.63,4112895.41],[604208.05,4112895.37],[604210.26,4112895.27],[604210.02,4112889.68],[604206.96,4112889.82],[604207.07,4112892.56]]]}},{"type":"Feature","properties":{"id":"3433517XG0133D_part1","floors":4,"height":12.4,"heightSource":"Catastro:numberOfFloorsAboveGround"},"geometry":{"type":"Polygon","coordinates":[[[604207.56,4112881.05],[604207.46,4112879.51],[604200.0,4112879.8989468194],[604200.0,4112881.3705377458],[604207.56,4112881.05]]]}},{"type":"Feature","properties":{"id":"3433517XG0133D_part3","floors":5,"height":15.5,"heightSource":"Catastro:numberOfFloorsAboveGround"},"geometry":{"type":"MultiPolygon","coordinates":[[[[604206.79,4112820.47],[604206.63,4112816.74],[604203.65,4112816.87],[604203.35,4112809.83],[604200.03,4112809.96],[604200.32,4112816.89],[604200.0,4112816.9032231406],[604200.0,4112820.7005246915],[604206.79,4112820.47]]],[[[604203.65,4112806.25],[604203.78,4112809.4],[604208.53,4112809.2],[604207.8,4112796.0],[604236.7,4112794.61],[604236.86,4112797.57],[604239.02,4112797.47],[604239.87,4112800.3],[604240.41,4112803.37],[604240.12,4112806.87],[604239.6,4112809.31],[604237.39,4112809.41],[604237.52,4112812.34],[604208.78,4112813.75],[604208.85,4112815.57],[604244.36,4112813.83],[604243.93,4112804.87],[604244.49,4112804.84],[604244.45,4112803.93],[604253.44,4112803.47],[604253.54,4112805.59],[604253.64,4112805.58],[604253.87,4112808.37],[604256.81,4112808.24],[604256.46,4112801.72],[604244.11,4112802.31],[604243.56,4112792.93],[604200.0,4112794.48540395],[604200.0,4112806.398173207],[604203.65,4112806.25]]]]}},{"type":"Feature","properties":{"id":"3433517XG0133D_part4","floors":5,"height":15.5,"heightSource":"Catastro:numberOfFloorsAboveGround"},"geometry":{"type":"Polygon","coordinates":[[[604200.0,4112820.7005246915],[604200.0,4112824.7526046513],[604202.14,4112825.31],[604202.26,4112827.64],[604205.33,4112827.52],[604207.02,4112867.11],[604209.03,4112867.01],[604208.1,4112848.65],[604206.79,4112820.47],[604200.0,4112820.7005246915]]]}},{"type":"Feature","properties":{"id":"3433517XG0133D_part5","floors":6,"height":18.6,"heightSource":"Catastro:numberOfFloorsAboveGround"},"geometry":{"type":"MultiPolygon","coordinates":[[[[604205.33,4112827.52],[604202.26,4112827.64],[604202.14,4112825.31],[604200.0,4112824.7526046513],[604200.0,4112866.958253521],[604202.77,4112866.81],[604203.14,4112873.9],[604207.21,4112873.68],[604207.02,4112867.11],[604205.33,4112827.52]]],[[[604207.46,4112879.51],[604207.56,4112881.05],[604209.82,4112880.95],[604219.17,4112880.43],[604219.1,4112879.01],[604258.31,4112877.04],[604257.9,4112866.6],[604253.96,4112866.76],[604253.98,4112867.47],[604220.58,4112869.02],[604211.3,4112869.44],[604211.38,4112873.67],[604207.21,4112873.75],[604207.41,4112877.5],[604200.0,4112877.888976378],[604200.0,4112879.8989468194],[604207.46,4112879.51]]]]}},{"type":"Feature","properties":{"id":"3433517XG0133D_part6","floors":6,"height":18.6,"heightSource":"Catastro:numberOfFloorsAboveGround"},"geometry":{"type":"Polygon","coordinates":[[[604203.78,4112809.4],[604203.65,4112806.25],[604200.0,4112806.398173207],[604200.0,4112816.9032231406],[604200.32,4112816.89],[604200.03,4112809.96],[604203.35,4112809.83],[604203.65,4112816.87],[604206.63,4112816.74],[604208.9,4112816.65],[604208.85,4112815.57],[604208.78,4112813.75],[604208.54,4112809.44],[604208.53,4112809.2],[604203.78,4112809.4]]]}},{"type":"Feature","properties":{"id":"3433517XG0133D_part7","floors":7,"height":21.7,"heightSource":"Catastro:numberOfFloorsAboveGround"},"geometry":{"type":"Polygon","coordinates":[[[604203.14,4112873.9],[604202.77,4112866.81],[604200.0,4112866.958253521],[604200.0,4112877.888976378],[604207.41,4112877.5],[604207.21,4112873.75],[604207.21,4112873.68],[604203.14,4112873.9]]]}},{"type":"Feature","properties":{"id":"3433517XG0133D_part8","floors":1,"height":3.1,"heightSource":"Catastro:numberOfFloorsAboveGround"},"geometry":{"type":"Polygon","coordinates":[[[604208.9,4112816.65],[604206.63,4112816.74],[604206.79,4112820.47],[604208.1,4112848.65],[604217.47,4112848.19],[604217.86,4112855.66],[604218.97,4112854.16],[604220.26,4112852.8],[604221.71,4112851.63],[604223.3,4112850.66],[604225.01,4112849.89],[604225.89,4112849.6],[604230.51,4112848.56],[604231.23,4112848.34],[604232.63,4112847.77],[604233.95,4112847.05],[604235.19,4112846.19],[604236.33,4112845.21],[604237.36,4112844.1],[604239.17,4112841.68],[604240.19,4112840.65],[604241.3,4112839.72],[604242.92,4112838.68],[604245.13,4112837.61],[604248.78,4112835.65],[604250.09,4112833.99],[604250.83,4112832.79],[604251.72,4112830.87],[604252.17,4112829.53],[604252.34,4112828.85],[604252.51,4112827.71],[604252.96,4112823.71],[604253.05,4112822.57],[604253.3,4112816.4],[604254.29,4112816.4],[604254.19,4112814.56],[604251.51,4112814.7],[604251.45,4112813.48],[604244.36,4112813.83],[604208.85,4112815.57],[604208.9,4112816.65]],[[604218.18,4112832.46],[604217.6,4112821.12],[604228.76,4112820.55],[604229.05,4112826.27],[604229.34,4112831.88],[604223.24,4112832.2],[604218.18,4112832.46]]]}},{"type":"Feature","properties":{"id":"3433517XG0133D_part9","floors":6,"height":18.6,"heightSource":"Catastro:numberOfFloorsAboveGround"},"geometry":{"type":"Polygon","coordinates":[[[604207.02,4112867.11],[604207.21,4112873.68],[604207.21,4112873.75],[604211.38,4112873.67],[604211.3,4112869.44],[604211.16,4112866.91],[604209.03,4112867.01],[604207.02,4112867.11]]]}},{"type":"Feature","properties":{"id":"3433517XG0133D_part10","floors":5,"height":15.5,"heightSource":"Catastro:numberOfFloorsAboveGround"},"geometry":{"type":"Polygon","coordinates":[[[604237.52,4112812.34],[604237.39,4112809.41],[604239.6,4112809.31],[604240.12,4112806.87],[604240.41,4112803.37],[604239.87,4112800.3],[604239.02,4112797.47],[604236.86,4112797.57],[604236.7,4112794.61],[604207.8,4112796.0],[604208.53,4112809.2],[604208.54,4112809.44],[604208.78,4112813.75],[604237.52,4112812.34]]]}},{"type":"Feature","properties":{"id":"3433517XG0133D_part11","floors":4,"height":12.4,"heightSource":"Catastro:numberOfFloorsAboveGround"},"geometry":{"type":"Polygon","coordinates":[[[604217.47,4112848.19],[604208.1,4112848.65],[604209.03,4112867.01],[604211.16,4112866.91],[604211.3,4112869.44],[604220.58,4112869.02],[604253.98,4112867.47],[604253.96,4112866.76],[604257.9,4112866.6],[604257.87,4112865.7],[604218.49,4112867.56],[604217.86,4112855.66],[604217.47,4112848.19]]]}},{"type":"Feature","properties":{"id":"3433517XG0133D_part12","floors":1,"height":3.1,"heightSource":"Catastro:numberOfFloorsAboveGround"},"geometry":{"type":"Polygon","coordinates":[[[604222.62,4112822.2],[604219.17,4112826.01],[604223.24,4112832.2],[604229.34,4112831.88],[604229.05,4112826.27],[604222.62,4112822.2]]]}},{"type":"Feature","properties":{"id":"3433517XG0133D_part13","floors":4,"height":12.4,"heightSource":"Catastro:numberOfFloorsAboveGround"},"geometry":{"type":"Polygon","coordinates":[[[604267.07,4112815.79],[604265.68,4112790.39],[604254.06,4112790.9],[604254.09,4112792.33],[604243.56,4112792.93],[604244.11,4112802.31],[604256.46,4112801.72],[604256.81,4112808.24],[604253.87,4112808.37],[604254.19,4112814.56],[604254.29,4112816.4],[604267.07,4112815.79]]]}},{"type":"Feature","properties":{"id":"3433517XG0133D_part14","floors":4,"height":12.4,"heightSource":"Catastro:numberOfFloorsAboveGround"},"geometry":{"type":"Polygon","coordinates":[[[604253.44,4112803.47],[604244.45,4112803.93],[604244.49,4112804.84],[604243.93,4112804.87],[604244.36,4112813.83],[604251.45,4112813.48],[604250.94,4112805.76],[604253.54,4112805.59],[604253.44,4112803.47]]]}},{"type":"Feature","properties":{"id":"3433517XG0133D_part15","floors":5,"height":15.5,"heightSource":"Catastro:numberOfFloorsAboveGround"},"geometry":{"type":"Polygon","coordinates":[[[604250.94,4112805.76],[604251.45,4112813.48],[604251.51,4112814.7],[604254.19,4112814.56],[604253.87,4112808.37],[604253.64,4112805.58],[604253.54,4112805.59],[604250.94,4112805.76]]]}},{"type":"Feature","properties":{"id":"3433517XG0133D_part16","floors":4,"height":12.4,"heightSource":"Catastro:numberOfFloorsAboveGround"},"geometry":{"type":"Polygon","coordinates":[[[604281.89,4112862.27],[604271.75,4112862.79],[604271.91,4112865.05],[604257.87,4112865.7],[604257.9,4112866.6],[604258.31,4112877.04],[604272.36,4112876.42],[604272.38,4112877.51],[604282.44,4112876.95],[604281.89,4112862.27]]]}},{"type":"Feature","properties":{"id":"4234103XG0143C_part1","floors":1,"height":3.1,"heightSource":"Catastro:numberOfFloorsAboveGround"},"geometry":{"type":"Polygon","coordinates":[[[604217.98,4113310.25],[604218.1,4113312.97],[604218.25,4113316.86],[604221.92,4113316.72],[604221.76,4113313.55],[604220.58,4113313.6],[604220.42,4113310.14],[604217.98,4113310.25]]]}},{"type":"Feature","properties":{"id":"4234103XG0143C_part2","floors":1,"height":3.1,"heightSource":"Catastro:numberOfFloorsAboveGround"},"geometry":{"type":"Polygon","coordinates":[[[604218.5,4113319.83],[604218.62,4113322.92],[604218.76,4113326.36],[604220.95,4113326.27],[604220.79,4113322.2],[604222.19,4113322.15],[604222.09,4113319.68],[604218.5,4113319.83]]]}},{"type":"Feature","properties":{"id":"4234103XG0143C_part3","floors":1,"height":3.1,"heightSource":"Catastro:numberOfFloorsAboveGround"},"geometry":{"type":"Polygon","coordinates":[[[604224.34,4113501.89],[604224.53,4113505.25],[604224.74,4113508.92],[604224.85,4113510.82],[604228.85,4113510.68],[604228.81,4113509.87],[604230.34,4113509.77],[604230.32,4113508.32],[604228.66,4113508.39],[604228.57,4113505.95],[604227.18,4113506.01],[604227.02,4113501.79],[604224.34,4113501.89]]]}},{"type":"Feature","properties":{"id":"4234103XG0143C_part4","floors":1,"height":3.1,"heightSource":"Catastro:numberOfFloorsAboveGround"},"geometry":{"type":"Polygon","coordinates":[[[604224.82,4113514.57],[604225.01,4113517.9],[604225.21,4113521.44],[604225.33,4113523.44],[604229.45,4113523.29],[604229.41,4113522.52],[604230.91,4113522.44],[604230.87,4113520.88],[604229.2,4113521.0],[604229.0,4113518.13],[604227.68,4113518.19],[604227.52,4113514.46],[604224.82,4113514.57]]]}},{"type":"Feature","properties":{"id":"4234103XG0143C_part5","floors":1,"height":3.1,"heightSource":"Catastro:numberOfFloorsAboveGround"},"geometry":{"type":"Polygon","coordinates":[[[604241.29,4113312.73],[604239.75,4113312.8],[604239.88,4113315.91],[604244.14,4113315.74],[604243.98,4113311.8],[604243.88,4113309.2],[604241.15,4113309.32],[604241.29,4113312.73]]]}},{"type":"Feature","properties":{"id":"4234103XG0143C_part6","floors":1,"height":3.1,"heightSource":"Catastro:numberOfFloorsAboveGround"},"geometry":{"type":"Polygon","coordinates":[[[604240.04,4113318.87],[604240.14,4113321.28],[604241.56,4113321.23],[604241.73,4113325.38],[604244.52,4113325.27],[604244.38,4113321.87],[604244.26,4113318.71],[604240.04,4113318.87]]]}},{"type":"Feature","properties":{"id":"4234103XG0143C_part7","floors":2,"height":6.2,"heightSource":"Catastro:numberOfFloorsAboveGround"},"geometry":{"type":"Polygon","coordinates":[[[604244.28,4113331.56],[604244.2,4113330.48],[604238.82,4113330.77],[604238.85,4113331.69],[604233.49,4113332.01],[604233.88,4113343.07],[604241.46,4113342.7],[604241.63,4113345.45],[604246.08,4113345.28],[604246.66,4113356.54],[604234.4,4113357.02],[604235.56,4113384.36],[604247.85,4113383.86],[604248.33,4113395.2],[604236.01,4113395.65],[604236.53,4113409.31],[604241.94,4113409.02],[604242.0,4113410.12],[604247.37,4113409.97],[604247.35,4113408.94],[604252.85,4113408.7],[604253.79,4113408.66],[604253.56,4113402.88],[604251.97,4113402.94],[604249.1,4113331.33],[604244.28,4113331.56]]]}},{"type":"Feature","properties":{"id":"4234103XG0143C_part8","floors":2,"height":6.2,"heightSource":"Catastro:numberOfFloorsAboveGround"},"geometry":{"type":"Polygon","coordinates":[[[604247.59,4113413.98],[604247.53,4113413.04],[604242.06,4113413.31],[604242.08,4113414.23],[604236.71,4113414.42],[604237.31,4113428.29],[604249.6,4113427.8],[604250.08,4113439.05],[604237.76,4113439.51],[604238.86,4113466.96],[604251.25,4113466.46],[604251.71,4113477.75],[604239.32,4113478.25],[604239.85,4113491.48],[604245.15,4113491.4],[604245.19,4113492.35],[604250.68,4113492.09],[604250.63,4113491.2],[604255.39,4113491.01],[604252.47,4113419.65],[604254.1,4113419.59],[604253.88,4113413.71],[604253.0,4113413.73],[604247.59,4113413.98]]]}},{"type":"Feature","properties":{"id":"4234103XG0143C_part9","floors":2,"height":6.2,"heightSource":"Catastro:numberOfFloorsAboveGround"},"geometry":{"type":"Polygon","coordinates":[[[604250.7,4113495.14],[604250.64,4113494.04],[604245.4,4113494.25],[604245.44,4113495.29],[604239.72,4113495.52],[604239.9,4113500.0],[604239.96,4113501.35],[604241.87,4113501.27],[604242.77,4113522.01],[604248.8,4113520.48],[604248.72,4113517.72],[604256.57,4113517.43],[604256.41,4113513.08],[604251.25,4113513.19],[604251.22,4113511.97],[604243.6,4113512.17],[604243.24,4113500.82],[604250.81,4113500.52],[604250.78,4113500.0],[604250.76,4113499.25],[604255.9,4113499.13],[604255.79,4113494.95],[604255.5,4113494.96],[604250.7,4113495.14]]]}},{"type":"Feature","properties":{"id":"4234103XG0143C_part10","floors":3,"height":9.3,"heightSource":"Catastro:numberOfFloorsAboveGround"},"geometry":{"type":"Polygon","coordinates":[[[604246.66,4113356.54],[604246.08,4113345.28],[604241.63,4113345.45],[604241.46,4113342.7],[604233.88,4113343.07],[604234.4,4113357.02],[604246.66,4113356.54]]]}},{"type":"Feature","properties":{"id":"4234103XG0143C_part11","floors":3,"height":9.3,"heightSource":"Catastro:numberOfFloorsAboveGround"},"geometry":{"type":"Polygon","coordinates":[[[604248.33,4113395.2],[604247.85,4113383.86],[604235.56,4113384.36],[604236.01,4113395.65],[604248.33,4113395.2]]]}},{"type":"Feature","properties":{"id":"4234103XG0143C_part12","floors":3,"height":9.3,"heightSource":"Catastro:numberOfFloorsAboveGround"},"geometry":{"type":"Polygon","coordinates":[[[604250.08,4113439.05],[604249.6,4113427.8],[604237.31,4113428.29],[604237.76,4113439.51],[604250.08,4113439.05]]]}},{"type":"Feature","properties":{"id":"4234103XG0143C_part13","floors":3,"height":9.3,"heightSource":"Catastro:numberOfFloorsAboveGround"},"geometry":{"type":"Polygon","coordinates":[[[604251.71,4113477.75],[604251.25,4113466.46],[604238.86,4113466.96],[604239.32,4113478.25],[604251.71,4113477.75]]]}},{"type":"Feature","properties":{"id":"4234103XG0143C_part14","floors":3,"height":9.3,"heightSource":"Catastro:numberOfFloorsAboveGround"},"geometry":{"type":"Polygon","coordinates":[[[604250.81,4113500.52],[604243.24,4113500.82],[604243.6,4113512.17],[604251.22,4113511.97],[604251.25,4113513.19],[604256.41,4113513.08],[604255.93,4113500.0],[604255.9,4113499.13],[604250.76,4113499.25],[604250.78,4113500.0],[604250.81,4113500.52]]]}},{"type":"Feature","properties":{"id":"4234103XG0143C_part15","floors":2,"height":6.2,"heightSource":"Catastro:numberOfFloorsAboveGround"},"geometry":{"type":"Polygon","coordinates":[[[604228.72,4113316.45],[604228.46,4113309.78],[604227.81,4113309.81],[604220.42,4113310.14],[604220.58,4113313.6],[604221.76,4113313.55],[604221.92,4113316.72],[604228.72,4113316.45]]]}},{"type":"Feature","properties":{"id":"4234103XG0143C_part16","floors":2,"height":6.2,"heightSource":"Catastro:numberOfFloorsAboveGround"},"geometry":{"type":"Polygon","coordinates":[[[604222.19,4113322.15],[604220.79,4113322.2],[604220.95,4113326.27],[604229.25,4113325.95],[604229.0,4113319.39],[604222.09,4113319.68],[604222.19,4113322.15]]]}},{"type":"Feature","properties":{"id":"4234103XG0143C_part17","floors":2,"height":6.2,"heightSource":"Catastro:numberOfFloorsAboveGround"},"geometry":{"type":"Polygon","coordinates":[[[604235.05,4113508.06],[604234.79,4113501.5],[604227.02,4113501.79],[604227.18,4113506.01],[604228.57,4113505.95],[604228.66,4113508.39],[604230.32,4113508.32],[604235.05,4113508.06]]]}},{"type":"Feature","properties":{"id":"4234103XG0143C_part18","floors":2,"height":6.2,"heightSource":"Catastro:numberOfFloorsAboveGround"},"geometry":{"type":"Polygon","coordinates":[[[604235.62,4113520.7],[604235.22,4113514.14],[604227.52,4113514.46],[604227.68,4113518.19],[604229.0,4113518.13],[604229.2,4113521.0],[604230.87,4113520.88],[604235.62,4113520.7]]]}},{"type":"Feature","properties":{"id":"4234103XG0143C_part19","floors":2,"height":6.2,"heightSource":"Catastro:numberOfFloorsAboveGround"},"geometry":{"type":"Polygon","coordinates":[[[604233.83,4113309.63],[604233.7,4113309.63],[604233.29,4113309.65],[604233.55,4113316.16],[604239.88,4113315.91],[604239.75,4113312.8],[604241.29,4113312.73],[604241.15,4113309.32],[604233.83,4113309.63]]]}},{"type":"Feature","properties":{"id":"4234103XG0143C_part20","floors":2,"height":6.2,"heightSource":"Catastro:numberOfFloorsAboveGround"},"geometry":{"type":"Polygon","coordinates":[[[604233.65,4113319.12],[604233.9,4113325.69],[604241.73,4113325.38],[604241.56,4113321.23],[604240.14,4113321.28],[604240.04,4113318.87],[604233.65,4113319.12]]]}},{"type":"Feature","properties":{"id":"4234103XG0143C_part21","floors":1,"height":3.1,"heightSource":"Catastro:numberOfFloorsAboveGround"},"geometry":{"type":"Polygon","coordinates":[[[604215.76,4113313.06],[604215.91,4113316.95],[604218.25,4113316.86],[604218.1,4113312.97],[604215.76,4113313.06]]]}},{"type":"Feature","properties":{"id":"4234103XG0143C_part22","floors":1,"height":3.1,"heightSource":"Catastro:numberOfFloorsAboveGround"},"geometry":{"type":"Polygon","coordinates":[[[604216.1,4113319.92],[604216.22,4113323.01],[604218.62,4113322.92],[604218.5,4113319.83],[604216.1,4113319.92]]]}},{"type":"Feature","properties":{"id":"4234103XG0143C_part23","floors":1,"height":3.1,"heightSource":"Catastro:numberOfFloorsAboveGround"},"geometry":{"type":"Polygon","coordinates":[[[604222.6,4113505.35],[604222.81,4113508.98],[604224.74,4113508.92],[604224.53,4113505.25],[604222.6,4113505.35]]]}},{"type":"Feature","properties":{"id":"4234103XG0143C_part24","floors":1,"height":3.1,"heightSource":"Catastro:numberOfFloorsAboveGround"},"geometry":{"type":"Polygon","coordinates":[[[604223.14,4113518.03],[604223.38,4113521.59],[604225.21,4113521.44],[604225.01,4113517.9],[604223.14,4113518.03]]]}},{"type":"Feature","properties":{"id":"4234103XG0143C_part25","floors":1,"height":3.1,"heightSource":"Catastro:numberOfFloorsAboveGround"},"geometry":{"type":"Polygon","coordinates":[[[604246.11,4113315.66],[604245.96,4113311.72],[604243.98,4113311.8],[604244.14,4113315.74],[604246.11,4113315.66]]]}},{"type":"Feature","properties":{"id":"4234103XG0143C_part26","floors":1,"height":3.1,"heightSource":"Catastro:numberOfFloorsAboveGround"},"geometry":{"type":"Polygon","coordinates":[[[604246.37,4113321.79],[604246.25,4113318.63],[604244.26,4113318.71],[604244.38,4113321.87],[604246.37,4113321.79]]]}},{"type":"Feature","properties":{"id":"4234104XG0143C_part2","floors":4,"height":12.4,"heightSource":"Catastro:numberOfFloorsAboveGround"},"geometry":{"type":"Polygon","coordinates":[[[604201.5,4113077.5],[604201.42,4113075.38],[604201.53,4113075.37],[604203.17,4113075.31],[604206.95,4113075.15],[604206.81,4113071.73],[604206.13,4113071.75],[604206.08,4113070.7],[604207.62,4113070.65],[604207.41,4113065.96],[604202.63,4113066.17],[604202.67,4113067.49],[604200.0,4113067.587737105],[604200.0,4113077.5560165974],[604201.5,4113077.5]]]}},{"type":"Feature","properties":{"id":"4234104XG0143C_part4","floors":1,"height":3.1,"heightSource":"Catastro:numberOfFloorsAboveGround"},"geometry":{"type":"Polygon","coordinates":[[[604204.76,4113114.17],[604202.12,4113114.26],[604200.0,4113114.337218543],[604200.0,4113116.4146341463],[604204.83,4113116.28],[604204.77,4113114.61],[604204.76,4113114.17]]]}},{"type":"Feature","properties":{"id":"4234104XG0143C_part5","floors":4,"height":12.4,"heightSource":"Catastro:numberOfFloorsAboveGround"},"geometry":{"type":"Polygon","coordinates":[[[604200.04,4113102.85],[604202.15,4113102.76],[604202.21,4113104.37],[604200.09,4113104.45],[604200.1,4113104.68],[604200.25,4113108.35],[604203.76,4113108.2],[604203.73,4113107.51],[604204.6,4113107.47],[604204.67,4113109.0],[604206.31,4113108.93],[604209.55,4113108.85],[604209.41,4113104.48],[604207.9,4113104.53],[604207.72,4113098.04],[604206.43,4113098.09],[604206.28,4113094.9],[604206.17,4113091.84],[604207.36,4113091.78],[604207.23,4113085.75],[604208.57,4113085.7],[604208.44,4113080.88],[604205.27,4113080.98],[604205.26,4113080.98],[604203.71,4113081.0],[604203.77,4113082.58],[604202.7,4113082.63],[604202.67,4113081.88],[604200.0,4113081.9988427297],[604200.0,4113085.768181818],[604201.44,4113085.71],[604201.52,4113087.5],[604200.0,4113087.5673891623],[604200.0,4113102.8513725493],[604200.04,4113102.85]]]}},{"type":"Feature","properties":{"id":"4234104XG0143C_part6","floors":1,"height":3.1,"heightSource":"Catastro:numberOfFloorsAboveGround"},"geometry":{"type":"Polygon","coordinates":[[[604207.23,4113085.75],[604207.36,4113091.78],[604207.37,4113091.8],[604207.82,4113091.79],[604209.41,4113091.72],[604209.26,4113088.34],[604209.15,4113085.67],[604208.57,4113085.7],[604207.23,4113085.75]]]}},{"type":"Feature","properties":{"id":"4234104XG0143C_part9","floors":1,"height":3.1,"heightSource":"Catastro:numberOfFloorsAboveGround"},"geometry":{"type":"Polygon","coordinates":[[[604202.21,4113104.37],[604202.15,4113102.76],[604200.04,4113102.85],[604200.09,4113104.45],[604202.21,4113104.37]]]}},{"type":"Feature","properties":{"id":"4234104XG0143C_part10","floors":1,"height":3.1,"heightSource":"Catastro:numberOfFloorsAboveGround"},"geometry":{"type":"Polygon","coordinates":[[[604209.99,4113104.46],[604209.85,4113101.22],[604209.72,4113097.95],[604208.03,4113098.03],[604207.72,4113098.04],[604207.9,4113104.53],[604209.41,4113104.48],[604209.99,4113104.46]]]}},{"type":"Feature","properties":{"id":"4234104XG0143C_part12","floors":4,"height":12.4,"heightSource":"Catastro:numberOfFloorsAboveGround"},"geometry":{"type":"Polygon","coordinates":[[[604205.81,4113018.5],[604205.69,4113014.35],[604202.49,4113014.44],[604200.84,4113014.51],[604200.91,4113016.31],[604200.0,4113016.359765625],[604200.0,4113041.828142415],[604200.88,4113041.79],[604200.83,4113040.5],[604201.79,4113040.46],[604201.88,4113042.37],[604203.53,4113042.29],[604206.76,4113042.21],[604206.75,4113041.89],[604206.63,4113037.99],[604206.62,4113037.48],[604205.13,4113037.52],[604204.96,4113031.42],[604203.74,4113031.47],[604203.59,4113028.37],[604203.45,4113025.18],[604204.58,4113025.12],[604204.45,4113019.19],[604205.83,4113019.15],[604205.81,4113018.5]]]}},{"type":"Feature","properties":{"id":"4234104XG0143C_part13","floors":1,"height":3.1,"heightSource":"Catastro:numberOfFloorsAboveGround"},"geometry":{"type":"Polygon","coordinates":[[[604204.45,4113019.19],[604204.58,4113025.12],[604203.45,4113025.18],[604203.59,4113028.37],[604203.74,4113031.47],[604204.96,4113031.42],[604205.13,4113037.52],[604206.62,4113037.48],[604207.28,4113037.46],[604207.14,4113034.58],[604206.99,4113031.32],[604205.25,4113031.41],[604205.14,4113028.31],[604205.03,4113025.12],[604206.57,4113025.04],[604206.41,4113021.74],[604206.29,4113019.14],[604205.83,4113019.15],[604204.45,4113019.19]]]}},{"type":"Feature","properties":{"id":"4234104XG0143C_part14","floors":1,"height":3.1,"heightSource":"Catastro:numberOfFloorsAboveGround"},"geometry":{"type":"Polygon","coordinates":[[[604201.93,4113055.9],[604200.0,4113055.989288256],[604200.0,4113057.980079681],[604202.01,4113057.9],[604201.99,4113057.4],[604201.93,4113055.9]]]}},{"type":"Feature","properties":{"id":"4234104XG0143C_part16","floors":4,"height":12.4,"heightSource":"Catastro:numberOfFloorsAboveGround"},"geometry":{"type":"Polygon","coordinates":[[[604200.6,4113008.82],[604201.03,4113008.8],[604204.51,4113008.65],[604204.36,4113005.2],[604203.11,4113005.25],[604203.0,4113002.64],[604204.82,4113002.56],[604204.7,4113000.0],[604204.68,4112999.54],[604200.37,4112999.75],[604200.38,4113000.0],[604200.42,4113000.9],[604200.0,4113000.9168561874],[604200.0,4113008.8484023665],[604200.6,4113008.82]]]}},{"type":"Feature","properties":{"id":"4234104XG0143C_part17","floors":4,"height":12.4,"heightSource":"Catastro:numberOfFloorsAboveGround"},"geometry":{"type":"Polygon","coordinates":[[[604202.4,4113057.38],[604207.03,4113057.19],[604206.89,4113054.01],[604206.81,4113052.14],[604205.22,4113052.2],[604205.19,4113051.47],[604206.09,4113051.44],[604205.95,4113047.98],[604202.08,4113048.15],[604202.03,4113048.15],[604200.23,4113048.24],[604200.12,4113046.16],[604200.0,4113046.1662337664],[604200.0,4113055.989288256],[604201.93,4113055.9],[604201.99,4113057.4],[604202.4,4113057.38]]]}},{"type":"Feature","properties":{"id":"4234104XG0143C_part24","floors":4,"height":12.4,"heightSource":"Catastro:numberOfFloorsAboveGround"},"geometry":{"type":"Polygon","coordinates":[[[604201.46,4113124.23],[604201.46,4113124.81],[604201.51,4113125.97],[604201.52,4113126.31],[604203.94,4113126.23],[604203.86,4113124.02],[604205.61,4113123.95],[604209.38,4113123.81],[604209.25,4113120.22],[604208.35,4113120.25],[604208.32,4113119.54],[604210.02,4113119.49],[604210.02,4113114.61],[604204.77,4113114.61],[604204.83,4113116.28],[604200.0,4113116.4146341463],[604200.0,4113124.269673913],[604201.46,4113124.23]]]}},{"type":"Feature","properties":{"id":"4234104XG0143C_part25","floors":1,"height":3.1,"heightSource":"Catastro:numberOfFloorsAboveGround"},"geometry":{"type":"Polygon","coordinates":[[[604201.52,4113087.5],[604201.44,4113085.71],[604200.0,4113085.768181818],[604200.0,4113087.5673891623],[604201.52,4113087.5]]]}},{"type":"Feature","properties":{"id":"4234104XG0143C_part27","floors":1,"height":3.1,"heightSource":"Catastro:numberOfFloorsAboveGround"},"geometry":{"type":"Polygon","coordinates":[[[604202.6,4113065.43],[604200.0,4113065.533482587],[604200.0,4113067.587737105],[604202.67,4113067.49],[604202.63,4113066.17],[604202.6,4113065.43]]]}},{"type":"Feature","properties":{"id":"4234105XG0143C_part2","floors":2,"height":6.2,"heightSource":"Catastro:numberOfFloorsAboveGround"},"geometry":{"type":"Polygon","coordinates":[[[604200.0,4113237.8857142855],[604200.0,4113243.0109094568],[604218.32,4113242.27],[604218.1,4113237.11],[604200.0,4113237.8857142855]]]}},{"type":"Feature","properties":{"id":"4234105XG0143C_part3","floors":2,"height":6.2,"heightSource":"Catastro:numberOfFloorsAboveGround"},"geometry":{"type":"Polygon","coordinates":[[[604200.77,4113193.15],[604200.88,4113195.7],[604200.94,4113197.18],[604201.02,4113199.14],[604201.32,4113206.75],[604201.36,4113208.18],[604201.76,4113217.78],[604201.82,4113219.14],[604202.2,4113228.7],[604202.27,4113230.22],[604202.46,4113234.79],[604216.08,4113234.34],[604214.44,4113198.58],[604214.15,4113192.54],[604200.77,4113193.15]]]}},{"type":"Feature","properties":{"id":"4234105XG0143C_part4","floors":3,"height":9.3,"heightSource":"Catastro:numberOfFloorsAboveGround"},"geometry":{"type":"Polygon","coordinates":[[[604200.0,4113243.0109094568],[604200.0,4113253.4073943663],[604200.15,4113253.4],[604210.04,4113252.99],[604212.08,4113252.9],[604218.76,4113252.62],[604218.32,4113242.27],[604200.0,4113243.0109094568]]]}},{"type":"Feature","properties":{"id":"4234105XG0143C_part5","floors":3,"height":9.3,"heightSource":"Catastro:numberOfFloorsAboveGround"},"geometry":{"type":"Polygon","coordinates":[[[604213.48,4113177.55],[604200.17,4113178.26],[604200.68,4113190.68],[604200.77,4113193.15],[604214.15,4113192.54],[604213.48,4113177.55]]]}},{"type":"Feature","properties":{"id":"4234105XG0143C_part9","floors":4,"height":12.4,"heightSource":"Catastro:numberOfFloorsAboveGround"},"geometry":{"type":"Polygon","coordinates":[[[604200.0,4113130.3742259415],[604200.0,4113136.1431518327],[604207.76,4113135.81],[604207.51,4113130.06],[604200.0,4113130.3742259415]]]}},{"type":"Feature","properties":{"id":"4234105XG0143C_part11","floors":4,"height":12.4,"heightSource":"Catastro:numberOfFloorsAboveGround"},"geometry":{"type":"Polygon","coordinates":[[[604200.0,4113161.0586675205],[604200.0,4113176.2864102563],[604215.52,4113175.59],[604214.88,4113160.42],[604200.0,4113161.0586675205]]]}},{"type":"Feature","properties":{"id":"4234105XG0143C_part12","floors":3,"height":9.3,"heightSource":"Catastro:numberOfFloorsAboveGround"},"geometry":{"type":"Polygon","coordinates":[[[604207.76,4113135.81],[604200.0,4113136.1431518327],[604200.0,4113161.0586675205],[604214.88,4113160.42],[604213.58,4113129.8],[604207.51,4113130.06],[604207.76,4113135.81]]]}},{"type":"Feature","properties":{"id":"4241403XG0144S_part1","floors":1,"height":3.1,"heightSource":"Catastro:numberOfFloorsAboveGround"},"geometry":{"type":"Polygon","coordinates":[[[604314.47,4114266.1],[604326.35,4114300.71],[604343.19,4114294.93],[604348.08,4114293.25],[604341.58,4114274.29],[604340.04,4114269.83],[604336.4,4114259.21],[604336.2,4114258.65],[604314.47,4114266.1]]]}},{"type":"Feature","properties":{"id":"4241403XG0144S_part2","floors":1,"height":3.1,"heightSource":"Catastro:numberOfFloorsAboveGround"},"geometry":{"type":"Polygon","coordinates":[[[604354.15,4114308.37],[604357.61,4114307.65],[604356.88,4114304.15],[604353.42,4114304.88],[604354.15,4114308.37]]]}},{"type":"Feature","properties":{"id":"4241404XG0144S_part1","floors":2,"height":6.2,"heightSource":"Catastro:numberOfFloorsAboveGround"},"geometry":{"type":"Polygon","coordinates":[[[604364.71,4114309.35],[604365.06,4114310.4],[604360.86,4114311.74],[604354.87,4114313.64],[604357.96,4114322.64],[604360.64,4114321.74],[604362.64,4114327.65],[604359.95,4114328.56],[604363.06,4114337.36],[604373.12,4114334.05],[604373.49,4114335.2],[604375.13,4114334.66],[604366.43,4114308.77],[604364.71,4114309.35]]]}},{"type":"Feature","properties":{"id":"4241404XG0144S_part2","floors":3,"height":9.3,"heightSource":"Catastro:numberOfFloorsAboveGround"},"geometry":{"type":"Polygon","coordinates":[[[604362.64,4114327.65],[604360.64,4114321.74],[604357.96,4114322.64],[604359.95,4114328.56],[604362.64,4114327.65]]]}},{"type":"Feature","properties":{"id":"4241405XG0144S_part1","floors":1,"height":3.1,"heightSource":"Catastro:numberOfFloorsAboveGround"},"geometry":{"type":"Polygon","coordinates":[[[604345.25,4114273.69],[604341.58,4114274.29],[604348.08,4114293.25],[604351.77,4114303.94],[604358.32,4114301.68],[604358.8,4114303.06],[604360.06,4114308.78],[604353.73,4114310.54],[604354.87,4114313.64],[604360.86,4114311.74],[604365.06,4114310.4],[604364.71,4114309.35],[604366.43,4114308.77],[604366.01,4114307.26],[604364.39,4114307.74],[604362.18,4114300.88],[604362.58,4114300.62],[604364.73,4114297.82],[604366.23,4114295.66],[604372.16,4114287.14],[604371.35,4114281.31],[604369.73,4114269.7],[604369.11,4114269.8],[604345.25,4114273.69]]]}},{"type":"Feature","properties":{"id":"4241406XG0144S_part1","floors":1,"height":3.1,"heightSource":"Catastro:numberOfFloorsAboveGround"},"geometry":{"type":"Polygon","coordinates":[[[604371.35,4114281.31],[604372.16,4114287.14],[604366.23,4114295.66],[604377.13,4114296.16],[604381.13,4114296.55],[604382.14,4114283.83],[604384.04,4114283.97],[604385.19,4114267.58],[604374.13,4114269.05],[604369.73,4114269.7],[604371.35,4114281.31]]]}},{"type":"Feature","properties":{"id":"4241406XG0144S_part2","floors":1,"height":3.1,"heightSource":"Catastro:numberOfFloorsAboveGround"},"geometry":{"type":"Polygon","coordinates":[[[604377.41,4114310.32],[604381.37,4114310.24],[604381.13,4114296.55],[604377.13,4114296.16],[604377.41,4114310.32]]]}},{"type":"Feature","properties":{"id":"4432101XG0143C_part1","floors":2,"height":6.2,"heightSource":"Catastro:numberOfFloorsAboveGround"},"geometry":{"type":"Polygon","coordinates":[[[604293.29,4113331.63],[604293.43,4113335.42],[604292.36,4113335.46],[604292.27,4113333.0],[604284.84,4113333.26],[604284.9,4113335.14],[604278.35,4113335.34],[604278.56,4113342.13],[604276.3,4113342.2],[604276.24,4113340.24],[604270.65,4113340.68],[604271.91,4113371.94],[604274.35,4113371.84],[604274.39,4113372.94],[604277.62,4113372.82],[604277.71,4113375.33],[604280.1,4113375.24],[604280.15,4113376.45],[604286.7,4113376.24],[604286.76,4113378.13],[604294.18,4113377.89],[604294.08,4113374.7],[604295.27,4113374.66],[604295.41,4113378.8],[604301.19,4113378.61],[604300.74,4113368.4],[604310.64,4113367.96],[604310.45,4113363.23],[604296.51,4113363.72],[604296.38,4113360.6],[604291.38,4113360.8],[604291.27,4113358.2],[604284.61,4113358.48],[604284.36,4113352.67],[604291.84,4113352.34],[604291.68,4113348.91],[604296.43,4113348.68],[604296.56,4113346.22],[604310.38,4113345.52],[604310.15,4113340.95],[604299.42,4113341.34],[604299.01,4113331.43],[604293.29,4113331.63]]]}},{"type":"Feature","properties":{"id":"4432101XG0143C_part2","floors":2,"height":6.2,"heightSource":"Catastro:numberOfFloorsAboveGround"},"geometry":{"type":"Polygon","coordinates":[[[604295.7,4113382.91],[604295.87,4113386.95],[604294.47,4113387.01],[604294.34,4113383.89],[604287.29,4113384.19],[604287.37,4113386.11],[604280.39,4113386.61],[604280.89,4113393.51],[604278.55,4113393.46],[604278.3,4113390.25],[604277.45,4113390.33],[604275.2,4113390.45],[604275.25,4113391.41],[604272.7,4113391.54],[604273.99,4113423.59],[604276.48,4113423.5],[604276.52,4113424.47],[604279.76,4113424.45],[604279.62,4113421.04],[604281.84,4113420.95],[604282.13,4113427.96],[604288.94,4113427.77],[604289.0,4113429.82],[604296.4,4113429.42],[604296.23,4113426.22],[604297.37,4113426.09],[604297.55,4113430.25],[604303.22,4113430.0],[604302.79,4113419.78],[604313.51,4113419.33],[604313.4,4113413.55],[604309.64,4113413.62],[604309.65,4113414.49],[604303.02,4113414.61],[604303.02,4113415.06],[604299.31,4113415.13],[604299.26,4113412.28],[604294.26,4113412.37],[604294.19,4113409.52],[604287.06,4113409.7],[604286.92,4113404.17],[604294.01,4113404.02],[604293.92,4113400.88],[604298.75,4113400.73],[604298.66,4113397.77],[604302.23,4113397.66],[604302.24,4113397.92],[604309.04,4113397.72],[604309.06,4113398.14],[604312.6,4113398.01],[604312.54,4113392.34],[604301.57,4113392.79],[604301.19,4113382.68],[604295.7,4113382.91]]]}},{"type":"Feature","properties":{"id":"4432101XG0143C_part3","floors":2,"height":6.2,"heightSource":"Catastro:numberOfFloorsAboveGround"},"geometry":{"type":"Polygon","coordinates":[[[604269.84,4113320.64],[604272.08,4113320.52],[604272.12,4113321.54],[604275.31,4113321.41],[604275.4,4113323.8],[604277.71,4113323.71],[604277.75,4113324.96],[604284.72,4113324.73],[604284.78,4113326.76],[604291.9,4113326.54],[604291.79,4113323.25],[604292.93,4113323.21],[604293.05,4113327.42],[604298.99,4113327.21],[604298.39,4113316.86],[604310.92,4113316.13],[604310.35,4113306.1],[604269.26,4113306.07],[604269.84,4113320.64]]]}},{"type":"Feature","properties":{"id":"4432101XG0143C_part4","floors":2,"height":6.2,"heightSource":"Catastro:numberOfFloorsAboveGround"},"geometry":{"type":"Polygon","coordinates":[[[604297.86,4113434.26],[604297.94,4113438.61],[604296.7,4113438.65],[604296.59,4113435.36],[604289.48,4113435.69],[604289.58,4113437.64],[604282.61,4113437.99],[604282.96,4113445.01],[604280.78,4113445.12],[604280.62,4113441.81],[604277.56,4113441.97],[604277.6,4113442.96],[604274.77,4113443.08],[604276.06,4113475.01],[604278.83,4113474.89],[604278.88,4113475.94],[604282.02,4113475.81],[604281.88,4113472.56],[604284.13,4113472.46],[604284.43,4113479.32],[604291.33,4113479.02],[604291.42,4113481.04],[604298.41,4113480.74],[604298.29,4113477.81],[604299.79,4113477.75],[604299.96,4113481.65],[604305.5,4113481.41],[604305.13,4113471.3],[604315.72,4113470.85],[604315.53,4113465.13],[604312.21,4113465.23],[604311.78,4113465.81],[604305.38,4113466.14],[604305.3,4113466.42],[604301.67,4113466.66],[604301.56,4113463.72],[604296.58,4113463.91],[604296.47,4113460.96],[604289.52,4113461.19],[604289.26,4113455.72],[604296.18,4113455.4],[604295.87,4113448.75],[604299.63,4113448.61],[604299.65,4113449.25],[604304.48,4113449.07],[604304.49,4113449.32],[604311.25,4113449.23],[604311.24,4113449.75],[604314.96,4113449.8],[604315.04,4113443.86],[604303.88,4113444.21],[604303.36,4113434.01],[604297.86,4113434.26]]]}},{"type":"Feature","properties":{"id":"4432101XG0143C_part5","floors":2,"height":6.2,"heightSource":"Catastro:numberOfFloorsAboveGround"},"geometry":{"type":"Polygon","coordinates":[[[604299.91,4113485.72],[604300.1,4113489.99],[604299.16,4113490.03],[604299.02,4113486.73],[604291.73,4113487.05],[604291.81,4113488.97],[604284.99,4113489.27],[604285.31,4113496.56],[604283.02,4113496.66],[604282.86,4113492.96],[604279.53,4113493.1],[604279.6,4113494.7],[604277.07,4113494.77],[604277.35,4113500.0],[604277.98,4113511.22],[604277.98,4113511.87],[604296.92,4113507.98],[604299.81,4113507.38],[604308.82,4113504.59],[604316.53,4113503.19],[604319.25,4113502.49],[604319.16,4113500.0],[604318.99,4113495.08],[604318.98,4113494.83],[604306.27,4113495.54],[604305.7,4113485.47],[604299.91,4113485.72]]]}},{"type":"Feature","properties":{"id":"4432101XG0143C_part6","floors":2,"height":6.2,"heightSource":"Catastro:numberOfFloorsAboveGround"},"geometry":{"type":"Polygon","coordinates":[[[604301.11,4113327.13],[604301.26,4113331.35],[604311.75,4113330.83],[604311.5,4113326.41],[604301.11,4113327.13]]]}},{"type":"Feature","properties":{"id":"4432101XG0143C_part7","floors":2,"height":6.2,"heightSource":"Catastro:numberOfFloorsAboveGround"},"geometry":{"type":"Polygon","coordinates":[[[604302.84,4113378.56],[604303.17,4113382.6],[604314.62,4113381.84],[604314.4,4113377.89],[604302.84,4113378.56]]]}},{"type":"Feature","properties":{"id":"4432101XG0143C_part8","floors":2,"height":6.2,"heightSource":"Catastro:numberOfFloorsAboveGround"},"geometry":{"type":"Polygon","coordinates":[[[604305.51,4113429.9],[604305.69,4113433.91],[604316.31,4113433.56],[604316.09,4113429.4],[604305.51,4113429.9]]]}},{"type":"Feature","properties":{"id":"4432101XG0143C_part9","floors":2,"height":6.2,"heightSource":"Catastro:numberOfFloorsAboveGround"},"geometry":{"type":"Polygon","coordinates":[[[604307.71,4113481.32],[604307.89,4113485.38],[604318.58,4113484.5],[604318.32,4113481.04],[604307.71,4113481.32]]]}},{"type":"Feature","properties":{"id":"4432101XG0143C_part10","floors":3,"height":9.3,"heightSource":"Catastro:numberOfFloorsAboveGround"},"geometry":{"type":"Polygon","coordinates":[[[604298.39,4113316.86],[604298.99,4113327.21],[604301.11,4113327.13],[604311.5,4113326.41],[604310.92,4113316.13],[604298.39,4113316.86]]]}},{"type":"Feature","properties":{"id":"4432101XG0143C_part11","floors":3,"height":9.3,"heightSource":"Catastro:numberOfFloorsAboveGround"},"geometry":{"type":"Polygon","coordinates":[[[604299.01,4113331.43],[604299.42,4113341.34],[604310.15,4113340.95],[604312.32,4113340.95],[604311.75,4113330.83],[604301.26,4113331.35],[604299.01,4113331.43]]]}},{"type":"Feature","properties":{"id":"4432101XG0143C_part12","floors":3,"height":9.3,"heightSource":"Catastro:numberOfFloorsAboveGround"},"geometry":{"type":"Polygon","coordinates":[[[604300.74,4113368.4],[604301.19,4113378.61],[604302.84,4113378.56],[604314.4,4113377.89],[604313.83,4113367.83],[604310.64,4113367.96],[604300.74,4113368.4]]]}},{"type":"Feature","properties":{"id":"4432101XG0143C_part13","floors":3,"height":9.3,"heightSource":"Catastro:numberOfFloorsAboveGround"},"geometry":{"type":"Polygon","coordinates":[[[604301.19,4113382.68],[604301.57,4113392.79],[604312.54,4113392.34],[604315.2,4113391.99],[604314.62,4113381.84],[604303.17,4113382.6],[604301.19,4113382.68]]]}},{"type":"Feature","properties":{"id":"4432101XG0143C_part14","floors":3,"height":9.3,"heightSource":"Catastro:numberOfFloorsAboveGround"},"geometry":{"type":"Polygon","coordinates":[[[604302.79,4113419.78],[604303.22,4113430.0],[604305.51,4113429.9],[604316.09,4113429.4],[604315.68,4113419.32],[604313.51,4113419.33],[604302.79,4113419.78]]]}},{"type":"Feature","properties":{"id":"4432101XG0143C_part15","floors":3,"height":9.3,"heightSource":"Catastro:numberOfFloorsAboveGround"},"geometry":{"type":"Polygon","coordinates":[[[604303.36,4113434.01],[604303.88,4113444.21],[604315.04,4113443.86],[604316.72,4113443.79],[604316.31,4113433.56],[604305.69,4113433.91],[604303.36,4113434.01]]]}},{"type":"Feature","properties":{"id":"4432101XG0143C_part16","floors":3,"height":9.3,"heightSource":"Catastro:numberOfFloorsAboveGround"},"geometry":{"type":"Polygon","coordinates":[[[604305.13,4113471.3],[604305.5,4113481.41],[604307.71,4113481.32],[604318.32,4113481.04],[604318.3,4113480.84],[604317.93,4113470.78],[604315.72,4113470.85],[604305.13,4113471.3]]]}},{"type":"Feature","properties":{"id":"4432101XG0143C_part17","floors":3,"height":9.3,"heightSource":"Catastro:numberOfFloorsAboveGround"},"geometry":{"type":"Polygon","coordinates":[[[604305.7,4113485.47],[604306.27,4113495.54],[604318.98,4113494.83],[604318.61,4113484.96],[604318.58,4113484.5],[604307.89,4113485.38],[604305.7,4113485.47]]]}},{"type":"Feature","properties":{"id":"4432102XG0143C_part1","floors":1,"height":3.1,"heightSource":"Catastro:numberOfFloorsAboveGround"},"geometry":{"type":"Polygon","coordinates":[[[604373.66,4113281.45],[604373.43,4113277.22],[604374.92,4113277.13],[604374.66,4113272.54],[604373.19,4113272.63],[604372.95,4113268.44],[604367.09,4113268.76],[604366.99,4113266.89],[604363.29,4113267.1],[604363.52,4113271.27],[604364.03,4113271.24],[604364.16,4113273.52],[604360.85,4113273.71],[604361.04,4113277.17],[604364.19,4113277.0],[604364.35,4113279.92],[604363.86,4113279.95],[604364.08,4113283.94],[604367.74,4113283.74],[604367.59,4113281.79],[604373.66,4113281.45]]]}},{"type":"Feature","properties":{"id":"4432103XG0143C_part1","floors":1,"height":3.1,"heightSource":"Catastro:numberOfFloorsAboveGround"},"geometry":{"type":"Polygon","coordinates":[[[604249.293,4113017.0995],[604248.995,4113010.735],[604245.3005,4113010.908],[604245.598,4113017.2725],[604249.293,4113017.0995]]]}},{"type":"Feature","properties":{"id":"4432103XG0143C_part2","floors":4,"height":12.4,"heightSource":"Catastro:numberOfFloorsAboveGround"},"geometry":{"type":"Polygon","coordinates":[[[604247.4595,4112995.651],[604247.521,4112996.9635],[604248.962,4112996.896],[604253.712,4112995.3685],[604247.4595,4112995.651]]]}},{"type":"Feature","properties":{"id":"4432103XG0143C_part3","floors":4,"height":12.4,"heightSource":"Catastro:numberOfFloorsAboveGround"},"geometry":{"type":"Polygon","coordinates":[[[604251.0965,4113017.2135],[604252.427,4113045.2015],[604253.8745,4113045.134],[604253.9025,4113044.9155],[604252.6135,4113017.1425],[604251.0965,4113017.2135]]]}},{"type":"Feature","properties":{"id":"4432103XG0143C_part4","floors":3,"height":9.3,"heightSource":"Catastro:numberOfFloorsAboveGround"},"geometry":{"type":"Polygon","coordinates":[[[604252.427,4113045.2015],[604252.4385,4113045.444],[604253.0765,4113047.218],[604253.6665,4113049.274],[604254.1205,4113051.364],[604254.185,4113051.7975],[604253.8745,4113045.134],[604252.427,4113045.2015]]]}},{"type":"Feature","properties":{"id":"4432103XG0143C_part5","floors":4,"height":12.4,"heightSource":"Catastro:numberOfFloorsAboveGround"},"geometry":{"type":"Polygon","coordinates":[[[604253.4175,4113066.0365],[604253.914,4113064.1155],[604254.298,4113062.0115],[604254.553,4113059.683],[604254.185,4113051.7975],[604254.1205,4113051.364],[604253.6665,4113049.274],[604253.0765,4113047.218],[604252.4385,4113045.444],[604253.4175,4113066.0365]]]}},{"type":"Feature","properties":{"id":"4432103XG0143C_part6","floors":4,"height":12.4,"heightSource":"Catastro:numberOfFloorsAboveGround"},"geometry":{"type":"Polygon","coordinates":[[[604252.6325,4113015.5465],[604252.698,4113017.0605],[604255.0465,4113016.9325],[604263.2295,4113016.5555],[604263.1755,4113015.067],[604252.6325,4113015.5465]]]}},{"type":"Feature","properties":{"id":"4432103XG0143C_part7","floors":4,"height":12.4,"heightSource":"Catastro:numberOfFloorsAboveGround"},"geometry":{"type":"Polygon","coordinates":[[[604253.4175,4113066.0365],[604254.685,4113094.0465],[604256.157,4113093.9775],[604254.886,4113066.099],[604254.846,4113065.97],[604253.4175,4113066.0365]]]}},{"type":"Feature","properties":{"id":"4432103XG0143C_part8","floors":3,"height":9.3,"heightSource":"Catastro:numberOfFloorsAboveGround"},"geometry":{"type":"Polygon","coordinates":[[[604254.846,4113065.97],[604254.553,4113059.683],[604254.298,4113062.0115],[604253.914,4113064.1155],[604253.4175,4113066.0365],[604254.846,4113065.97]]]}},{"type":"Feature","properties":{"id":"4432103XG0143C_part9","floors":2,"height":6.2,"heightSource":"Catastro:numberOfFloorsAboveGround"},"geometry":{"type":"Polygon","coordinates":[[[604256.3685,4113066.008],[604255.369,4113044.9255],[604253.8745,4113045.134],[604254.185,4113051.7975],[604254.553,4113059.683],[604254.846,4113065.97],[604254.886,4113066.099],[604256.3685,4113066.008]]]}},{"type":"Feature","properties":{"id":"4432103XG0143C_part10","floors":3,"height":9.3,"heightSource":"Catastro:numberOfFloorsAboveGround"},"geometry":{"type":"Polygon","coordinates":[[[604255.083,4112995.3145],[604255.154,4112996.8345],[604262.271,4112996.502],[604277.359,4112995.7665],[604262.145,4112996.454],[604262.0755,4112994.958],[604255.083,4112995.3145]]]}},{"type":"Feature","properties":{"id":"4432103XG0143C_part11","floors":3,"height":9.3,"heightSource":"Catastro:numberOfFloorsAboveGround"},"geometry":{"type":"Polygon","coordinates":[[[604262.0755,4112994.958],[604262.145,4112996.454],[604277.359,4112995.7665],[604283.155,4112995.5025],[604283.0815,4112993.9605],[604262.0755,4112994.958]]]}},{"type":"Feature","properties":{"id":"4432103XG0143C_part12","floors":4,"height":12.4,"heightSource":"Catastro:numberOfFloorsAboveGround"},"geometry":{"type":"Polygon","coordinates":[[[604262.271,4112996.502],[604262.3585,4112998.375],[604276.373,4112997.72],[604276.8565,4112999.527],[604277.2285,4113001.3605],[604277.4875,4113003.213],[604277.633,4113005.078],[604277.664,4113006.9485],[604277.5805,4113008.817],[604277.383,4113010.6775],[604277.072,4113012.522],[604263.0915,4113013.175],[604263.1755,4113015.067],[604278.1865,4113014.4005],[604278.6355,4113012.558],[604278.967,4113010.6915],[604279.181,4113008.8075],[604279.276,4113006.9135],[604279.2515,4113005.0175],[604279.108,4113003.127],[604278.8455,4113001.249],[604278.4655,4112999.3915],[604277.9695,4112997.5615],[604277.359,4112995.7665],[604262.271,4112996.502]]]}},{"type":"Feature","properties":{"id":"4432103XG0143C_part13","floors":3,"height":9.3,"heightSource":"Catastro:numberOfFloorsAboveGround"},"geometry":{"type":"Polygon","coordinates":[[[604263.1755,4113015.067],[604263.2295,4113016.5555],[604284.0805,4113015.562],[604284.0385,4113014.093],[604278.1865,4113014.4005],[604263.1755,4113015.067]]]}},{"type":"Feature","properties":{"id":"4432103XG0143C_part14","floors":3,"height":9.3,"heightSource":"Catastro:numberOfFloorsAboveGround"},"geometry":{"type":"Polygon","coordinates":[[[604277.359,4112995.7665],[604277.9695,4112997.5615],[604278.4655,4112999.3915],[604278.8455,4113001.249],[604279.108,4113003.127],[604279.2515,4113005.0175],[604279.276,4113006.9135],[604279.181,4113008.8075],[604278.967,4113010.6915],[604278.6355,4113012.558],[604278.1865,4113014.4005],[604284.0385,4113014.093],[604283.7965,4113008.9855],[604283.6955,4113006.8565],[604283.155,4112995.5025],[604277.359,4112995.7665]]]}},{"type":"Feature","properties":{"id":"4432103XG0143C_part15","floors":3,"height":9.3,"heightSource":"Catastro:numberOfFloorsAboveGround"},"geometry":{"type":"Polygon","coordinates":[[[604283.0815,4112993.9605],[604283.155,4112995.5025],[604286.6955,4112995.341],[604286.6245,4112993.82],[604283.0815,4112993.9605]]]}},{"type":"Feature","properties":{"id":"4432103XG0143C_part16","floors":3,"height":9.3,"heightSource":"Catastro:numberOfFloorsAboveGround"},"geometry":{"type":"Polygon","coordinates":[[[604283.155,4112995.5025],[604283.6955,4113006.8565],[604286.043,4113006.8265],[604286.0705,4113008.956],[604283.7965,4113008.9855],[604284.0385,4113014.093],[604286.371,4113013.984],[604289.2355,4113013.862],[604289.226,4113013.662],[604289.1205,4113011.4],[604297.348,4113011.0155],[604296.702,4112997.181],[604288.589,4112997.56],[604288.4905,4112995.45],[604288.48,4112995.2235],[604288.2225,4112995.2695],[604286.6955,4112995.341],[604283.155,4112995.5025]]]}},{"type":"Feature","properties":{"id":"4432103XG0143C_part17","floors":4,"height":12.4,"heightSource":"Catastro:numberOfFloorsAboveGround"},"geometry":{"type":"Polygon","coordinates":[[[604286.0705,4113008.956],[604286.043,4113006.8265],[604283.6955,4113006.8565],[604283.7965,4113008.9855],[604286.0705,4113008.956]]]}},{"type":"Feature","properties":{"id":"4432103XG0143C_part18","floors":2,"height":6.2,"heightSource":"Catastro:numberOfFloorsAboveGround"},"geometry":{"type":"Polygon","coordinates":[[[604289.2355,4113013.862],[604286.371,4113013.984],[604286.441,4113015.477],[604299.018,4113014.8715],[604297.972,4112993.3025],[604288.1515,4112993.7485],[604288.2225,4112995.2695],[604288.48,4112995.2235],[604288.4905,4112995.45],[604290.495,4112995.339],[604290.526,4112995.995],[604298.0195,4112995.645],[604298.8055,4113012.471],[604291.245,4113012.824],[604291.28,4113013.566],[604289.226,4113013.662],[604289.2355,4113013.862]]]}},{"type":"Feature","properties":{"id":"4432103XG0143C_part19","floors":3,"height":9.3,"heightSource":"Catastro:numberOfFloorsAboveGround"},"geometry":{"type":"Polygon","coordinates":[[[604291.28,4113013.566],[604291.245,4113012.824],[604298.8055,4113012.471],[604298.0195,4112995.645],[604290.526,4112995.995],[604290.495,4112995.339],[604288.4905,4112995.45],[604288.589,4112997.56],[604296.702,4112997.181],[604297.348,4113011.0155],[604289.1205,4113011.4],[604289.226,4113013.662],[604291.28,4113013.566]]]}},{"type":"Feature","properties":{"id":"4432103XG0143C_part20","floors":3,"height":9.3,"heightSource":"Catastro:numberOfFloorsAboveGround"},"geometry":{"type":"Polygon","coordinates":[[[604229.957,4112996.4575],[604230.5325,4113008.484],[604232.002,4113008.415],[604232.136,4113011.283],[604233.778,4113045.943],[604232.178,4113010.841],[604232.0565,4113008.2325],[604233.9705,4113008.1435],[604233.462,4112997.8475],[604237.5755,4112997.6555],[604237.5045,4112996.1355],[604229.957,4112996.4575]]]}},{"type":"Feature","properties":{"id":"4432103XG0143C_part21","floors":2,"height":6.2,"heightSource":"Catastro:numberOfFloorsAboveGround"},"geometry":{"type":"Polygon","coordinates":[[[604230.654,4113011.352],[604232.276,4113046.002],[604233.778,4113045.943],[604232.136,4113011.283],[604230.654,4113011.352]]]}},{"type":"Feature","properties":{"id":"4432103XG0143C_part22","floors":4,"height":12.4,"heightSource":"Catastro:numberOfFloorsAboveGround"},"geometry":{"type":"Polygon","coordinates":[[[604233.462,4112997.8475],[604233.9705,4113008.1435],[604232.0565,4113008.2325],[604232.178,4113010.841],[604234.0705,4113010.7525],[604235.711,4113045.8745],[604233.778,4113045.943],[604232.276,4113046.002],[604232.16,4113046.0405],[604232.461,4113053.007],[604232.4895,4113053.1045],[604232.608,4113053.099],[604234.1525,4113053.027],[604236.0445,4113052.9385],[604236.057,4113053.199],[604242.425,4113052.901],[604243.059,4113066.446],[604236.6895,4113066.744],[604238.002,4113094.845],[604251.4,4113094.2],[604254.685,4113094.0465],[604253.4175,4113066.0365],[604252.4385,4113045.444],[604252.427,4113045.2015],[604251.0965,4113017.2135],[604252.6135,4113017.1425],[604252.5605,4113017.0585],[604252.698,4113017.0605],[604252.6325,4113015.5465],[604263.1755,4113015.067],[604263.0915,4113013.175],[604277.072,4113012.522],[604277.383,4113010.6775],[604277.5805,4113008.817],[604277.664,4113006.9485],[604277.633,4113005.078],[604277.4875,4113003.213],[604277.2285,4113001.3605],[604276.8565,4112999.527],[604276.373,4112997.72],[604262.3585,4112998.375],[604262.271,4112996.502],[604255.154,4112996.8345],[604237.5755,4112997.6555],[604233.462,4112997.8475]],[[604245.3005,4113010.908],[604248.995,4113010.735],[604249.293,4113017.0995],[604245.598,4113017.2725],[604245.3005,4113010.908]]]}},{"type":"Feature","properties":{"id":"4432103XG0143C_part23","floors":4,"height":12.4,"heightSource":"Catastro:numberOfFloorsAboveGround"},"geometry":{"type":"Polygon","coordinates":[[[604235.711,4113045.8745],[604234.0705,4113010.7525],[604232.178,4113010.841],[604233.778,4113045.943],[604235.711,4113045.8745]]]}},{"type":"Feature","properties":{"id":"4432103XG0143C_part25","floors":1,"height":3.1,"heightSource":"Catastro:numberOfFloorsAboveGround"},"geometry":{"type":"Polygon","coordinates":[[[604232.6205,4113053.36],[604233.254,4113066.905],[604234.7905,4113066.833],[604234.1645,4113053.288],[604232.6205,4113053.36]]]}},{"type":"Feature","properties":{"id":"4432103XG0143C_part26","floors":2,"height":6.2,"heightSource":"Catastro:numberOfFloorsAboveGround"},"geometry":{"type":"Polygon","coordinates":[[[604233.254,4113066.905],[604234.5695,4113095.0105],[604235.2,4113094.98],[604236.11,4113094.936],[604234.7905,4113066.833],[604233.254,4113066.905]]]}},{"type":"Feature","properties":{"id":"4432103XG0143C_part28","floors":3,"height":9.3,"heightSource":"Catastro:numberOfFloorsAboveGround"},"geometry":{"type":"Polygon","coordinates":[[[604234.1645,4113053.288],[604234.7905,4113066.833],[604236.6895,4113066.744],[604236.057,4113053.199],[604234.1645,4113053.288]]]}},{"type":"Feature","properties":{"id":"4432103XG0143C_part29","floors":4,"height":12.4,"heightSource":"Catastro:numberOfFloorsAboveGround"},"geometry":{"type":"Polygon","coordinates":[[[604234.7905,4113066.833],[604236.11,4113094.936],[604238.002,4113094.845],[604236.6895,4113066.744],[604234.7905,4113066.833]]]}},{"type":"Feature","properties":{"id":"4432103XG0143C_part30","floors":3,"height":9.3,"heightSource":"Catastro:numberOfFloorsAboveGround"},"geometry":{"type":"Polygon","coordinates":[[[604243.059,4113066.446],[604242.425,4113052.901],[604236.057,4113053.199],[604236.6895,4113066.744],[604243.059,4113066.446]]]}},{"type":"Feature","properties":{"id":"4432103XG0143C_part31","floors":4,"height":12.4,"heightSource":"Catastro:numberOfFloorsAboveGround"},"geometry":{"type":"Polygon","coordinates":[[[604237.5045,4112996.1355],[604237.5755,4112997.6555],[604255.154,4112996.8345],[604255.083,4112995.3145],[604253.712,4112995.3685],[604248.962,4112996.896],[604247.521,4112996.9635],[604247.4595,4112995.651],[604239.5415,4112996.009],[604237.5045,4112996.1355]]]}},{"type":"Feature","properties":{"id":"4432104XG0143C_part1","floors":1,"height":3.1,"heightSource":"Catastro:numberOfFloorsAboveGround"},"geometry":{"type":"Polygon","coordinates":[[[604234.5415,4113123.4305],[604232.0925,4113123.564],[604232.444,4113130.063],[604234.8945,4113129.9605],[604234.5415,4113123.4305]]]}},{"type":"Feature","properties":{"id":"4432104XG0143C_part2","floors":2,"height":6.2,"heightSource":"Catastro:numberOfFloorsAboveGround"},"geometry":{"type":"Polygon","coordinates":[[[604235.2,4113094.98],[604234.5695,4113095.0105],[604234.9135,4113102.356],[604236.3265,4113102.29],[604236.429,4113104.481],[604236.5385,4113104.4665],[604236.4435,4113102.0765],[604236.11,4113094.936],[604235.2,4113094.98]]]}},{"type":"Feature","properties":{"id":"4432104XG0143C_part3","floors":3,"height":9.3,"heightSource":"Catastro:numberOfFloorsAboveGround"},"geometry":{"type":"Polygon","coordinates":[[[604235.016,4113104.547],[604235.5785,4113116.5645],[604243.177,4113116.21],[604243.108,4113114.731],[604238.922,4113114.926],[604238.4395,4113104.599],[604236.5655,4113104.6865],[604236.5385,4113104.4665],[604236.429,4113104.481],[604235.016,4113104.547]]]}},{"type":"Feature","properties":{"id":"4432104XG0143C_part4","floors":4,"height":12.4,"heightSource":"Catastro:numberOfFloorsAboveGround"},"geometry":{"type":"Polygon","coordinates":[[[604236.11,4113094.936],[604236.4435,4113102.0765],[604238.3355,4113101.988],[604238.002,4113094.845],[604236.11,4113094.936]]]}},{"type":"Feature","properties":{"id":"4432104XG0143C_part5","floors":1,"height":3.1,"heightSource":"Catastro:numberOfFloorsAboveGround"},"geometry":{"type":"Polygon","coordinates":[[[604236.4795,4113129.507],[604240.617,4113129.217],[604240.455,4113126.9385],[604236.3175,4113127.228],[604236.4795,4113129.507]]]}},{"type":"Feature","properties":{"id":"4432104XG0143C_part6","floors":4,"height":12.4,"heightSource":"Catastro:numberOfFloorsAboveGround"},"geometry":{"type":"Polygon","coordinates":[[[604238.3355,4113101.988],[604236.4435,4113102.0765],[604236.5385,4113104.4665],[604236.5655,4113104.6865],[604238.4395,4113104.599],[604238.922,4113114.926],[604243.108,4113114.731],[604260.5825,4113113.9145],[604267.629,4113113.5685],[604267.6985,4113113.553],[604267.625,4113111.6925],[604281.643,4113111.0375],[604281.972,4113108.928],[604282.1595,4113106.8015],[604282.2055,4113104.667],[604282.1095,4113102.534],[604281.872,4113100.412],[604281.4935,4113098.311],[604280.9765,4113096.2395],[604266.9455,4113096.895],[604266.857,4113095.002],[604254.505,4113095.579],[604254.4395,4113094.18],[604254.691,4113094.168],[604254.685,4113094.0465],[604251.4,4113094.2],[604238.002,4113094.845],[604238.3355,4113101.988]],[[604249.123,4113094.393],[604254.258,4113094.1525],[604254.559,4113100.5865],[604249.424,4113100.827],[604249.123,4113094.393]]]}},{"type":"Feature","properties":{"id":"4432104XG0143C_part7","floors":1,"height":3.1,"heightSource":"Catastro:numberOfFloorsAboveGround"},"geometry":{"type":"Polygon","coordinates":[[[604244.268,4113129.332],[604244.084,4113126.8135],[604241.5055,4113127.0085],[604241.7,4113129.5265],[604244.268,4113129.332]]]}},{"type":"Feature","properties":{"id":"4432104XG0143C_part8","floors":4,"height":12.4,"heightSource":"Catastro:numberOfFloorsAboveGround"},"geometry":{"type":"Polygon","coordinates":[[[604243.108,4113114.731],[604243.177,4113116.21],[604260.6515,4113115.3935],[604260.5825,4113113.9145],[604243.108,4113114.731]]]}},{"type":"Feature","properties":{"id":"4432104XG0143C_part9","floors":1,"height":3.1,"heightSource":"Catastro:numberOfFloorsAboveGround"},"geometry":{"type":"Polygon","coordinates":[[[604254.559,4113100.5865],[604254.258,4113094.1525],[604249.123,4113094.393],[604249.424,4113100.827],[604254.559,4113100.5865]]]}},{"type":"Feature","properties":{"id":"4432104XG0143C_part10","floors":4,"height":12.4,"heightSource":"Catastro:numberOfFloorsAboveGround"},"geometry":{"type":"Polygon","coordinates":[[[604254.691,4113094.168],[604254.4395,4113094.18],[604254.505,4113095.579],[604266.857,4113095.002],[604266.854,4113094.9355],[604256.3555,4113095.4125],[604256.288,4113093.971],[604254.685,4113094.0465],[604254.691,4113094.168]]]}},{"type":"Feature","properties":{"id":"4432104XG0143C_part11","floors":4,"height":12.4,"heightSource":"Catastro:numberOfFloorsAboveGround"},"geometry":{"type":"Polygon","coordinates":[[[604256.288,4113093.971],[604256.3555,4113095.4125],[604266.854,4113094.9355],[604266.786,4113093.48],[604256.288,4113093.971]]]}},{"type":"Feature","properties":{"id":"4432104XG0143C_part12","floors":3,"height":9.3,"heightSource":"Catastro:numberOfFloorsAboveGround"},"geometry":{"type":"Polygon","coordinates":[[[604260.5825,4113113.9145],[604260.6515,4113115.3935],[604267.699,4113115.0645],[604267.629,4113113.5685],[604260.5825,4113113.9145]]]}},{"type":"Feature","properties":{"id":"4432104XG0143C_part13","floors":3,"height":9.3,"heightSource":"Catastro:numberOfFloorsAboveGround"},"geometry":{"type":"Polygon","coordinates":[[[604266.786,4113093.48],[604266.854,4113094.9355],[604287.69,4113093.9895],[604287.6215,4113092.505],[604266.786,4113093.48]]]}},{"type":"Feature","properties":{"id":"4432104XG0143C_part14","floors":3,"height":9.3,"heightSource":"Catastro:numberOfFloorsAboveGround"},"geometry":{"type":"Polygon","coordinates":[[[604266.854,4113094.9355],[604266.857,4113095.002],[604281.97,4113094.3],[604282.576,4113096.3],[604283.056,4113098.334],[604283.4085,4113100.394],[604283.632,4113102.472],[604283.726,4113104.5595],[604283.6895,4113106.649],[604283.5235,4113108.732],[604283.2275,4113110.801],[604282.804,4113112.8475],[604288.5495,4113112.572],[604288.268,4113106.487],[604288.2375,4113106.4885],[604288.1415,4113104.3605],[604288.1695,4113104.3595],[604287.69,4113093.9895],[604266.854,4113094.9355]]]}},{"type":"Feature","properties":{"id":"4432104XG0143C_part15","floors":4,"height":12.4,"heightSource":"Catastro:numberOfFloorsAboveGround"},"geometry":{"type":"Polygon","coordinates":[[[604283.2275,4113110.801],[604283.5235,4113108.732],[604283.6895,4113106.649],[604283.726,4113104.5595],[604283.632,4113102.472],[604283.4085,4113100.394],[604283.056,4113098.334],[604282.576,4113096.3],[604281.97,4113094.3],[604266.857,4113095.002],[604266.9455,4113096.895],[604280.9765,4113096.2395],[604281.4935,4113098.311],[604281.872,4113100.412],[604282.1095,4113102.534],[604282.2055,4113104.667],[604282.1595,4113106.8015],[604281.972,4113108.928],[604281.643,4113111.0375],[604267.625,4113111.6925],[604267.6985,4113113.553],[604282.804,4113112.8475],[604283.2275,4113110.801]]]}},{"type":"Feature","properties":{"id":"4432104XG0143C_part16","floors":3,"height":9.3,"heightSource":"Catastro:numberOfFloorsAboveGround"},"geometry":{"type":"Polygon","coordinates":[[[604267.629,4113113.5685],[604267.699,4113115.0645],[604288.619,4113114.08],[604288.5495,4113112.572],[604282.804,4113112.8475],[604267.6985,4113113.553],[604267.629,4113113.5685]]]}},{"type":"Feature","properties":{"id":"4432104XG0143C_part17","floors":2,"height":6.2,"heightSource":"Catastro:numberOfFloorsAboveGround"},"geometry":{"type":"Polygon","coordinates":[[[604302.68,4113091.8],[604287.6215,4113092.505],[604287.69,4113093.9895],[604293.0385,4113093.7395],[604293.151,4113096.1555],[604301.5355,4113095.7635],[604302.1775,4113109.5045],[604293.847,4113109.894],[604293.961,4113112.343],[604293.698,4113112.327],[604293.7695,4113113.8475],[604303.463,4113113.394],[604302.68,4113091.8]]]}},{"type":"Feature","properties":{"id":"4432104XG0143C_part18","floors":3,"height":9.3,"heightSource":"Catastro:numberOfFloorsAboveGround"},"geometry":{"type":"Polygon","coordinates":[[[604293.961,4113112.343],[604293.847,4113109.894],[604302.1775,4113109.5045],[604301.5355,4113095.7635],[604293.151,4113096.1555],[604293.0385,4113093.7395],[604287.69,4113093.9895],[604288.1695,4113104.3595],[604290.0175,4113104.276],[604290.1135,4113106.404],[604288.268,4113106.487],[604288.5495,4113112.572],[604292.166,4113112.399],[604293.698,4113112.327],[604293.961,4113112.343]]]}},{"type":"Feature","properties":{"id":"4432104XG0143C_part19","floors":4,"height":12.4,"heightSource":"Catastro:numberOfFloorsAboveGround"},"geometry":{"type":"Polygon","coordinates":[[[604288.1415,4113104.3605],[604288.2375,4113106.4885],[604288.268,4113106.487],[604290.1135,4113106.404],[604290.0175,4113104.276],[604288.1695,4113104.3595],[604288.1415,4113104.3605]]]}},{"type":"Feature","properties":{"id":"4432104XG0143C_part20","floors":3,"height":9.3,"heightSource":"Catastro:numberOfFloorsAboveGround"},"geometry":{"type":"Polygon","coordinates":[[[604288.5495,4113112.572],[604288.619,4113114.08],[604292.237,4113113.913],[604292.166,4113112.399],[604288.5495,4113112.572]]]}},{"type":"Feature","properties":{"id":"4432105XG0143C_part1","floors":1,"height":3.1,"heightSource":"Catastro:numberOfFloorsAboveGround"},"geometry":{"type":"Polygon","coordinates":[[[604254.0,4113152.6],[604251.04,4113152.73],[604252.82,4113194.35],[604255.85,4113194.24],[604254.0,4113152.6]]]}},{"type":"Feature","properties":{"id":"4432105XG0143C_part2","floors":1,"height":3.1,"heightSource":"Catastro:numberOfFloorsAboveGround"},"geometry":{"type":"Polygon","coordinates":[[[604261.9,4113157.05],[604265.5,4113156.84],[604265.3,4113153.19],[604261.7,4113153.4],[604261.9,4113157.05]]]}},{"type":"Feature","properties":{"id":"4432105XG0143C_part3","floors":1,"height":3.1,"heightSource":"Catastro:numberOfFloorsAboveGround"},"geometry":{"type":"Polygon","coordinates":[[[604267.06,4113190.2],[604262.7,4113190.39],[604262.85,4113193.86],[604265.74,4113193.73],[604267.2,4113193.67],[604267.06,4113190.2]]]}},{"type":"Feature","properties":{"id":"4432105XG0143C_part4","floors":1,"height":3.1,"heightSource":"Catastro:numberOfFloorsAboveGround"},"geometry":{"type":"Polygon","coordinates":[[[604274.1,4113183.74],[604274.33,4113187.32],[604277.6,4113187.11],[604277.38,4113183.53],[604274.1,4113183.74]]]}},{"type":"Feature","properties":{"id":"4432105XG0143C_part5","floors":1,"height":3.1,"heightSource":"Catastro:numberOfFloorsAboveGround"},"geometry":{"type":"Polygon","coordinates":[[[604239.82,4113145.8],[604236.44,4113145.84],[604236.66,4113150.4],[604240.03,4113150.25],[604239.82,4113145.8]]]}},{"type":"Feature","properties":{"id":"4432105XG0143C_part6","floors":1,"height":3.1,"heightSource":"Catastro:numberOfFloorsAboveGround"},"geometry":{"type":"Polygon","coordinates":[[[604250.75,4113145.15],[604247.28,4113145.45],[604247.66,4113149.88],[604250.97,4113149.72],[604251.14,4113149.71],[604250.75,4113145.15]]]}},{"type":"Feature","properties":{"id":"4432105XG0143C_part7","floors":1,"height":3.1,"heightSource":"Catastro:numberOfFloorsAboveGround"},"geometry":{"type":"Polygon","coordinates":[[[604261.78,4113144.77],[604258.27,4113144.83],[604258.62,4113149.4],[604262.04,4113149.22],[604261.78,4113144.77]]]}},{"type":"Feature","properties":{"id":"4432105XG0143C_part8","floors":1,"height":3.1,"heightSource":"Catastro:numberOfFloorsAboveGround"},"geometry":{"type":"Polygon","coordinates":[[[604272.74,4113144.2],[604269.27,4113144.45],[604269.58,4113148.95],[604272.76,4113148.77],[604272.74,4113144.2]]]}},{"type":"Feature","properties":{"id":"4432105XG0143C_part9","floors":1,"height":3.1,"heightSource":"Catastro:numberOfFloorsAboveGround"},"geometry":{"type":"Polygon","coordinates":[[[604283.9,4113148.18],[604283.76,4113143.9],[604280.58,4113143.9],[604280.58,4113148.4],[604283.9,4113148.18]]]}},{"type":"Feature","properties":{"id":"4432105XG0143C_part10","floors":2,"height":6.2,"heightSource":"Catastro:numberOfFloorsAboveGround"},"geometry":{"type":"Polygon","coordinates":[[[604285.0,4113148.11],[604284.96,4113147.62],[604287.8,4113147.38],[604287.15,4113133.94],[604232.17,4113136.32],[604232.76,4113149.91],[604235.44,4113149.79],[604235.47,4113150.46],[604236.66,4113150.4],[604236.44,4113145.84],[604239.82,4113145.8],[604240.03,4113150.25],[604241.0,4113150.21],[604240.97,4113149.56],[604243.89,4113149.42],[604246.46,4113149.3],[604246.49,4113149.94],[604247.66,4113149.88],[604247.28,4113145.45],[604250.75,4113145.15],[604251.14,4113149.71],[604252.1,4113149.67],[604252.06,4113149.03],[604254.75,4113148.86],[604257.47,4113148.69],[604257.51,4113149.46],[604258.62,4113149.4],[604258.27,4113144.83],[604261.78,4113144.77],[604262.04,4113149.22],[604263.04,4113149.17],[604263.02,4113148.63],[604265.88,4113148.46],[604268.44,4113148.32],[604268.48,4113149.02],[604269.58,4113148.95],[604269.27,4113144.45],[604272.74,4113144.2],[604272.76,4113148.77],[604272.96,4113148.76],[604274.06,4113148.7],[604274.02,4113148.1],[604276.79,4113147.91],[604279.42,4113147.73],[604279.46,4113148.48],[604280.58,4113148.4],[604280.58,4113143.9],[604283.76,4113143.9],[604283.9,4113148.18],[604285.0,4113148.11]]]}},{"type":"Feature","properties":{"id":"4432105XG0143C_part11","floors":2,"height":6.2,"heightSource":"Catastro:numberOfFloorsAboveGround"},"geometry":{"type":"Polygon","coordinates":[[[604289.77,4113136.66],[604289.98,4113141.54],[604290.18,4113146.3],[604290.4,4113151.31],[604285.04,4113151.53],[604283.1,4113151.56],[604283.3,4113154.26],[604282.88,4113154.28],[604282.96,4113155.89],[604283.04,4113157.36],[604283.58,4113157.35],[604283.7,4113159.99],[604283.82,4113162.46],[604283.36,4113162.49],[604283.44,4113164.04],[604283.54,4113165.76],[604283.96,4113165.71],[604284.08,4113168.09],[604284.21,4113170.58],[604283.68,4113170.63],[604283.76,4113172.28],[604283.83,4113173.85],[604284.32,4113173.84],[604284.42,4113176.29],[604284.52,4113178.85],[604284.04,4113178.89],[604284.1,4113180.44],[604284.2,4113182.29],[604283.06,4113182.33],[604283.14,4113184.62],[604280.46,4113184.71],[604280.54,4113186.79],[604281.67,4113186.75],[604281.73,4113188.76],[604281.8,4113190.61],[604280.67,4113190.64],[604280.71,4113192.98],[604297.52,4113192.29],[604297.3,4113188.16],[604297.08,4113183.97],[604300.1,4113183.83],[604299.88,4113179.91],[604299.71,4113175.67],[604299.54,4113171.69],[604299.35,4113167.58],[604299.14,4113163.38],[604298.96,4113159.45],[604298.76,4113155.23],[604298.58,4113151.04],[604300.23,4113150.99],[604301.85,4113150.92],[604301.71,4113147.93],[604301.64,4113146.01],[604301.54,4113144.06],[604301.42,4113141.17],[604301.29,4113138.16],[604301.2,4113136.37],[604301.12,4113134.16],[604301.01,4113131.12],[604289.56,4113131.61],[604289.77,4113136.66]],[[604290.8,4113191.17],[604288.08,4113191.26],[604287.86,4113185.46],[604290.6,4113185.36],[604290.8,4113191.17]],[[604292.29,4113158.38],[604289.56,4113158.47],[604289.36,4113152.66],[604292.08,4113152.57],[604292.29,4113158.38]],[[604292.64,4113166.68],[604289.92,4113166.77],[604289.7,4113160.97],[604292.44,4113160.87],[604292.64,4113166.68]],[[604292.94,4113174.62],[604290.21,4113174.72],[604290.02,4113168.91],[604292.74,4113168.82],[604292.94,4113174.62]],[[604293.35,4113182.83],[604290.62,4113182.92],[604290.42,4113177.12],[604293.14,4113177.02],[604293.35,4113182.83]],[[604296.38,4113140.17],[604292.35,4113140.28],[604292.14,4113132.9],[604296.18,4113132.78],[604296.38,4113140.17]],[[604296.71,4113149.76],[604292.68,4113149.88],[604292.46,4113142.5],[604296.5,4113142.38],[604296.71,4113149.76]]]}},{"type":"Feature","properties":{"id":"4432105XG0143C_part12","floors":3,"height":9.3,"heightSource":"Catastro:numberOfFloorsAboveGround"},"geometry":{"type":"Polygon","coordinates":[[[604287.86,4113185.46],[604288.08,4113191.26],[604290.8,4113191.17],[604290.6,4113185.36],[604287.86,4113185.46]]]}},{"type":"Feature","properties":{"id":"4432105XG0143C_part13","floors":3,"height":9.3,"heightSource":"Catastro:numberOfFloorsAboveGround"},"geometry":{"type":"Polygon","coordinates":[[[604289.36,4113152.66],[604289.56,4113158.47],[604292.29,4113158.38],[604292.08,4113152.57],[604289.36,4113152.66]]]}},{"type":"Feature","properties":{"id":"4432105XG0143C_part14","floors":3,"height":9.3,"heightSource":"Catastro:numberOfFloorsAboveGround"},"geometry":{"type":"Polygon","coordinates":[[[604289.7,4113160.97],[604289.92,4113166.77],[604292.64,4113166.68],[604292.44,4113160.87],[604289.7,4113160.97]]]}},{"type":"Feature","properties":{"id":"4432105XG0143C_part15","floors":3,"height":9.3,"heightSource":"Catastro:numberOfFloorsAboveGround"},"geometry":{"type":"Polygon","coordinates":[[[604290.02,4113168.91],[604290.21,4113174.72],[604292.94,4113174.62],[604292.74,4113168.82],[604290.02,4113168.91]]]}},{"type":"Feature","properties":{"id":"4432105XG0143C_part16","floors":3,"height":9.3,"heightSource":"Catastro:numberOfFloorsAboveGround"},"geometry":{"type":"Polygon","coordinates":[[[604290.42,4113177.12],[604290.62,4113182.92],[604293.35,4113182.83],[604293.14,4113177.02],[604290.42,4113177.12]]]}},{"type":"Feature","properties":{"id":"4432105XG0143C_part17","floors":3,"height":9.3,"heightSource":"Catastro:numberOfFloorsAboveGround"},"geometry":{"type":"Polygon","coordinates":[[[604292.14,4113132.9],[604292.35,4113140.28],[604296.38,4113140.17],[604296.18,4113132.78],[604292.14,4113132.9]]]}},{"type":"Feature","properties":{"id":"4432105XG0143C_part18","floors":3,"height":9.3,"heightSource":"Catastro:numberOfFloorsAboveGround"},"geometry":{"type":"Polygon","coordinates":[[[604292.46,4113142.5],[604292.68,4113149.88],[604296.71,4113149.76],[604296.5,4113142.38],[604292.46,4113142.5]]]}},{"type":"Feature","properties":{"id":"4432105XG0143C_part19","floors":2,"height":6.2,"heightSource":"Catastro:numberOfFloorsAboveGround"},"geometry":{"type":"Polygon","coordinates":[[[604232.91,4113153.53],[604233.08,4113157.62],[604236.54,4113157.48],[604236.57,4113158.09],[604240.02,4113157.95],[604240.17,4113161.44],[604236.72,4113161.58],[604236.74,4113162.21],[604233.28,4113162.35],[604233.6,4113170.14],[604237.08,4113170.34],[604237.06,4113170.73],[604240.62,4113170.55],[604240.8,4113174.25],[604237.32,4113174.42],[604237.32,4113174.9],[604233.8,4113174.92],[604234.14,4113182.82],[604237.68,4113182.82],[604237.68,4113183.29],[604241.18,4113183.29],[604241.18,4113186.93],[604237.9,4113186.93],[604237.9,4113187.45],[604234.33,4113187.55],[604234.64,4113195.05],[604252.24,4113194.37],[604252.82,4113194.35],[604251.04,4113152.73],[604232.91,4113153.53]]]}},{"type":"Feature","properties":{"id":"4432106XG0143C_part1","floors":2,"height":6.2,"heightSource":"Catastro:numberOfFloorsAboveGround"},"geometry":{"type":"Polygon","coordinates":[[[604281.02,4113234.41],[604260.67,4113235.21],[604260.9,4113239.17],[604261.7,4113252.73],[604281.86,4113251.83],[604281.26,4113239.37],[604281.02,4113234.41]]]}},{"type":"Feature","properties":{"id":"4432106XG0143C_part2","floors":2,"height":6.2,"heightSource":"Catastro:numberOfFloorsAboveGround"},"geometry":{"type":"Polygon","coordinates":[[[604288.71,4113238.69],[604289.24,4113252.68],[604293.64,4113252.51],[604293.12,4113238.53],[604288.71,4113238.69]]]}},{"type":"Feature","properties":{"id":"4432106XG0143C_part3","floors":2,"height":6.2,"heightSource":"Catastro:numberOfFloorsAboveGround"},"geometry":{"type":"Polygon","coordinates":[[[604289.7,4113193.84],[604289.74,4113194.79],[604285.62,4113194.91],[604285.64,4113195.67],[604285.68,4113196.89],[604284.8,4113196.91],[604284.86,4113199.22],[604283.88,4113199.24],[604283.9,4113200.33],[604284.82,4113200.31],[604284.83,4113201.66],[604283.9,4113201.68],[604284.04,4113202.85],[604285.2,4113202.84],[604285.12,4113204.97],[604286.08,4113205.02],[604286.0,4113206.81],[604290.32,4113206.83],[604290.35,4113208.7],[604288.24,4113208.72],[604286.1,4113208.74],[604286.12,4113210.63],[604285.44,4113210.63],[604285.44,4113212.85],[604284.52,4113212.85],[604284.52,4113214.05],[604285.42,4113214.05],[604285.42,4113215.34],[604284.67,4113215.34],[604284.67,4113216.5],[604285.82,4113216.5],[604285.82,4113218.75],[604286.68,4113218.75],[604286.68,4113220.51],[604291.04,4113220.51],[604291.04,4113222.43],[604286.9,4113222.43],[604286.9,4113224.33],[604286.06,4113224.33],[604286.06,4113226.56],[604285.14,4113226.56],[604285.14,4113227.76],[604286.14,4113227.76],[604286.14,4113228.97],[604285.26,4113228.97],[604285.26,4113229.21],[604285.26,4113230.18],[604286.38,4113230.18],[604286.38,4113232.38],[604287.23,4113232.38],[604287.23,4113234.21],[604291.44,4113234.21],[604291.44,4113235.2],[604304.42,4113234.58],[604302.7,4113193.3],[604301.46,4113193.35],[604289.7,4113193.84]]]}},{"type":"Feature","properties":{"id":"4432106XG0143C_part4","floors":2,"height":6.2,"heightSource":"Catastro:numberOfFloorsAboveGround"},"geometry":{"type":"Polygon","coordinates":[[[604306.76,4113253.14],[604306.3,4113238.04],[604301.23,4113238.23],[604301.8,4113253.33],[604306.76,4113253.14]]]}},{"type":"Feature","properties":{"id":"4432106XG0143C_part5","floors":3,"height":9.3,"heightSource":"Catastro:numberOfFloorsAboveGround"},"geometry":{"type":"Polygon","coordinates":[[[604293.12,4113238.53],[604293.64,4113252.51],[604294.56,4113252.48],[604294.62,4113254.16],[604300.96,4113253.93],[604300.94,4113253.36],[604301.8,4113253.33],[604301.23,4113238.23],[604293.12,4113238.53]]]}},{"type":"Feature","properties":{"id":"4432106XG0143C_part6","floors":2,"height":6.2,"heightSource":"Catastro:numberOfFloorsAboveGround"},"geometry":{"type":"Polygon","coordinates":[[[604252.3,4113239.56],[604236.65,4113240.3],[604237.35,4113255.08],[604252.83,4113254.35],[604252.3,4113239.56]]]}},{"type":"Feature","properties":{"id":"4432106XG0143C_part7","floors":2,"height":6.2,"heightSource":"Catastro:numberOfFloorsAboveGround"},"geometry":{"type":"Polygon","coordinates":[[[604259.08,4113239.26],[604255.24,4113239.44],[604255.96,4113254.2],[604256.18,4113254.19],[604261.76,4113253.95],[604261.7,4113252.73],[604260.9,4113239.17],[604259.08,4113239.26]]]}},{"type":"Feature","properties":{"id":"4432106XG0143C_part8","floors":2,"height":6.2,"heightSource":"Catastro:numberOfFloorsAboveGround"},"geometry":{"type":"Polygon","coordinates":[[[604285.58,4113251.58],[604285.5,4113250.01],[604287.0,4113249.94],[604286.56,4113240.75],[604285.35,4113240.81],[604285.26,4113239.18],[604281.26,4113239.37],[604281.86,4113251.83],[604285.58,4113251.58]]]}},{"type":"Feature","properties":{"id":"4432106XG0143C_part9","floors":2,"height":6.2,"heightSource":"Catastro:numberOfFloorsAboveGround"},"geometry":{"type":"Polygon","coordinates":[[[604234.64,4113195.05],[604234.7,4113196.29],[604236.52,4113237.31],[604254.14,4113236.52],[604252.24,4113194.37],[604234.64,4113195.05]]]}},{"type":"Feature","properties":{"id":"4443601XG0144S_part2","floors":1,"height":3.1,"heightSource":"Catastro:numberOfFloorsAboveGround"},"geometry":{"type":"Polygon","coordinates":[[[604375.72,4114158.48],[604378.92,4114158.48],[604378.92,4114154.58],[604375.72,4114154.58],[604375.72,4114158.48]]]}},{"type":"Feature","properties":{"id":"4443601XG0144S_part3","floors":2,"height":6.2,"heightSource":"Catastro:numberOfFloorsAboveGround"},"geometry":{"type":"Polygon","coordinates":[[[604360.32,4114154.68],[604355.62,4114154.68],[604355.62,4114157.88],[604358.32,4114157.88],[604358.32,4114158.48],[604368.12,4114158.48],[604368.12,4114157.38],[604370.12,4114157.38],[604370.12,4114158.48],[604375.72,4114158.48],[604375.72,4114154.58],[604373.47,4114154.58],[604373.47,4114150.98],[604369.07,4114150.98],[604367.47,4114150.98],[604367.42,4114150.98],[604367.42,4114154.58],[604365.22,4114154.58],[604360.32,4114154.58],[604360.32,4114154.68]]]}},{"type":"Feature","properties":{"id":"4443601XG0144S_part4","floors":3,"height":9.3,"heightSource":"Catastro:numberOfFloorsAboveGround"},"geometry":{"type":"Polygon","coordinates":[[[604360.32,4114150.98],[604360.32,4114154.58],[604365.22,4114154.58],[604367.42,4114154.58],[604367.42,4114150.98],[604365.22,4114150.98],[604365.22,4114151.68],[604363.62,4114151.68],[604363.62,4114150.98],[604360.32,4114150.98]]]}},{"type":"Feature","properties":{"id":"4443602XG0144S_part1","floors":1,"height":3.1,"heightSource":"Catastro:numberOfFloorsAboveGround"},"geometry":{"type":"Polygon","coordinates":[[[604347.9015,4114147.9755],[604347.2175,4114144.829],[604345.234,4114145.2605],[604345.918,4114148.407],[604347.9015,4114147.9755]]]}},{"type":"Feature","properties":{"id":"4443602XG0144S_part2","floors":1,"height":3.1,"heightSource":"Catastro:numberOfFloorsAboveGround"},"geometry":{"type":"Polygon","coordinates":[[[604366.459,4114142.618],[604366.6785,4114150.2805],[604369.6575,4114150.197],[604369.531,4114145.781],[604366.952,4114145.855],[604366.859,4114142.6065],[604366.459,4114142.618]]]}},{"type":"Feature","properties":{"id":"4443602XG0144S_part3","floors":1,"height":3.1,"heightSource":"Catastro:numberOfFloorsAboveGround"},"geometry":{"type":"Polygon","coordinates":[[[604366.859,4114142.6065],[604366.952,4114145.855],[604369.531,4114145.781],[604369.6575,4114150.197],[604373.676,4114150.085],[604373.4565,4114142.4175],[604366.859,4114142.6065]]]}},{"type":"Feature","properties":{"id":"4443602XG0144S_part4","floors":1,"height":3.1,"heightSource":"Catastro:numberOfFloorsAboveGround"},"geometry":{"type":"Polygon","coordinates":[[[604377.455,4114142.303],[604373.4565,4114142.4175],[604373.676,4114150.085],[604377.43,4114149.98],[604377.6745,4114149.98],[604377.455,4114142.303]]]}},{"type":"Feature","properties":{"id":"4443603XG0144S_part1","floors":1,"height":3.1,"heightSource":"Catastro:numberOfFloorsAboveGround"},"geometry":{"type":"Polygon","coordinates":[[[604343.25,4114126.48],[604346.4,4114126.08],[604345.97,4114122.7],[604342.82,4114123.08],[604343.25,4114126.48]]]}},{"type":"Feature","properties":{"id":"4443603XG0144S_part2","floors":1,"height":3.1,"heightSource":"Catastro:numberOfFloorsAboveGround"},"geometry":{"type":"Polygon","coordinates":[[[604362.13,4114122.26],[604362.08,4114120.84],[604358.09,4114120.98],[604358.1765,4114123.434],[604362.174,4114123.28],[604362.67,4114134.454],[604371.131,4114134.151],[604370.9465,4114127.098],[604369.737,4114127.158],[604369.555,4114121.998],[604362.13,4114122.26]]]}},{"type":"Feature","properties":{"id":"4443603XG0144S_part3","floors":1,"height":3.1,"heightSource":"Catastro:numberOfFloorsAboveGround"},"geometry":{"type":"Polygon","coordinates":[[[604375.5975,4114126.908],[604375.404,4114121.792],[604369.555,4114121.998],[604369.737,4114127.158],[604370.9465,4114127.098],[604373.107,4114127.0025],[604375.5975,4114126.908]]]}}]}
