{"type":"FeatureCollection","name":"marina-de-la-torre-roads","crs":{"type":"name","properties":{"name":"EPSG:25830"}},"source":"\u00a9 OpenStreetMap contributors, ODbL 1.0","features":[{"type":"Feature","properties":{"classes":["residential","service","tertiary","track"]},"geometry":{"type":"Polygon","coordinates":[[[604291.6599181974,4112702.4745915965],[604291.1621503272,4112702.5262571243],[604291.1268998852,4112702.530422609],[604258.7055394383,4112706.829186647],[604200.0,4112711.6203844454],[604200.0,4112714.128696696],[604258.9402932462,4112709.318339685],[604259.0029139228,4112709.311637173],[604291.4379046122,4112705.0110658943],[604292.379753938,4112704.913307189],[604319.5097506399,4112796.937262343],[604329.5926522103,4112836.283794731],[604332.6460885872,4112856.04623784],[604332.722600025,4112856.421414932],[604343.5206297459,4112898.8770317533],[604354.080095407,4112943.4156206846],[604356.5894013196,4112953.984905209],[604360.9813397881,4112973.6707587224],[604356.393489435,4112972.3611553726],[604356.1264489873,4112972.300524962],[604355.854379327,4112972.269464581],[604349.1806576366,4112971.8760851254],[604349.0568882694,4112971.8718622588],[604345.4249336957,4112971.837957724],[604345.2020122131,4112971.8458283576],[604344.9806796152,4112971.8735378403],[604342.8001928977,4112972.2459765812],[604342.6025967546,4112972.2880074275],[604337.983681681,4112973.467417547],[604330.0793143028,4112975.3277960215],[604329.8642517858,4112975.388678029],[604329.6554865557,4112975.468525282],[604329.4546873485,4112975.566699533],[604322.2711643601,4112979.4860414825],[604318.2862630084,4112979.856661582],[604315.5656825171,4112979.8159533963],[604315.5368076126,4112973.538625836],[604316.1899973801,4112969.978287587],[604318.6304954991,4112963.787010659],[604318.6804163464,4112963.6378890257],[604318.7144508673,4112963.4843605137],[604318.7322249942,4112963.328112528],[604318.733543375,4112963.170862363],[604312.7362060357,4112827.137813124],[604312.7286820672,4112827.039995203],[604312.058205313,4112820.94001131],[604312.0485620861,4112820.868265605],[604311.2987493466,4112816.154293755],[604311.2646548159,4112815.995750412],[604311.2136441702,4112815.8418142474],[604307.0379629353,4112805.2045574943],[604304.245418978,4112806.3007774753],[604308.3615817894,4112816.786415195],[604309.080120288,4112821.3037700984],[604309.7412790282,4112827.3189788903],[604315.7223888803,4112962.983952358],[604313.3454683062,4112969.013940005],[604313.2987464013,4112969.1517034285],[604313.265588847,4112969.2933447845],[604312.5608038597,4112973.134912844],[604312.5420398929,4112973.2731283493],[604312.5361956625,4112973.4124892387],[604312.5659917833,4112979.8900867854],[604218.2156420795,4112986.2460312387],[604200.0,4112986.9480188647],[604200.0,4112991.9517303584],[604215.9575208827,4112991.3367653657],[604223.9541919344,4113176.4948161696],[604227.3361051672,4113254.697807378],[604227.7877640213,4113280.659535069],[604227.4349354691,4113282.5467980863],[604227.4031649225,4113282.7740313634],[604227.392361091,4113283.0032203835],[604227.4026149763,4113283.2324346667],[604227.4338402089,4113283.45974352],[604228.3160110472,4113288.24192565],[604228.3825470137,4113288.5153245693],[604228.479384241,4113288.779514946],[604228.6052960108,4113289.0311500593],[604231.4478928507,4113293.992941643],[604231.5852536177,4113294.2067271336],[604231.7436067953,4113294.4054643656],[604231.921316349,4113294.5871000746],[604232.1165462625,4113294.7497576815],[604237.739127228,4113298.9692450794],[604237.9394936041,4113299.104965897],[604238.1520438881,4113299.220677614],[604238.3747863369,4113299.3152959337],[604238.6056336997,4113299.387934216],[604238.8424227767,4113299.437911789],[604246.9078490759,4113300.736118524],[604247.147581354,4113300.7629179554],[604247.3887805069,4113300.766487745],[604247.6292008826,4113300.746794657],[604247.8666040798,4113300.7040220406],[604248.0987797884,4113300.6385681247],[604249.9884038378,4113300.0059684846],[604259.4024626743,4113308.01590897],[604266.6337764539,4113509.3621046375],[604267.1018021696,4113522.4830271136],[604267.101941399,4113522.486848328],[604267.224454741,4113525.780065943],[604256.770658619,4113528.1126721944],[604256.6863903983,4113528.1330153286],[604200.0,4113542.8622616916],[604200.0,4113548.02829376],[604257.9018650288,4113532.9832215854],[604270.3445431401,4113530.2068264456],[604270.4252017203,4113530.187418358],[604349.9650974484,4113509.646571267],[604350.1691618658,4113509.5844742805],[604350.3671901411,4113509.5052081193],[604366.2335498703,4113502.35456692],[604366.4925987216,4113507.843112675],[604366.5244334508,4113508.192065858],[604366.5866851954,4113508.536894067],[604366.6788762447,4113508.8749511396],[604366.800299137,4113509.203642872],[604369.4053535289,4113515.405292911],[604369.5540395482,4113515.7201294214],[604369.7295412861,4113516.0208430737],[604369.9305289929,4113516.3051554062],[604370.1554798153,4113516.570912228],[604370.3662681418,4113516.799015127],[604370.2089377589,4113516.8097599344],[604369.9757038788,4113516.8367394046],[604369.7460295771,4113516.8854800425],[604353.1761656463,4113521.2241028883],[604259.3907434215,4113544.1688215192],[604259.3455265975,4113544.180332123],[604200.0,4113559.878721326],[604200.0,4113565.050697734],[604260.6016186494,4113549.020040489],[604354.3839893726,4113526.0760684116],[604354.4231305891,4113526.066156794],[604370.7846384795,4113521.7820895123],[604374.7225682363,4113521.513150386],[604374.7297636797,4113521.5209368775],[604374.9666857186,4113521.756740694],[604375.2224687323,4113521.971939537],[604375.4953264679,4113522.165030574],[604377.9268624466,4113523.737512198],[604378.4292930651,4113524.0135173905],[604380.2457288445,4113524.847933381],[604383.9480870508,4113529.252052329],[604384.0565547673,4113529.3758184398],[604390.6530427596,4113536.5974091813],[604397.3920147968,4113552.323340202],[604398.8144407603,4113564.2497003963],[604400.0047119446,4113583.6438299357],[604400.0763049768,4113598.465852806],[604400.0682544931,4113604.833748958],[604404.0682512965,4113604.838805873],[604400.0682526481,4113604.8355176477],[604400.0487785027,4113628.5250606695],[604398.8949403086,4113654.0021772874],[604395.7902072457,4113689.340963485],[604386.9078440431,4113789.9057146646],[604382.8260776186,4113831.3339065514],[604382.8148754665,4113831.472115083],[604381.3369446978,4113854.6998635535],[604381.3327397316,4113854.7780053588],[604380.665116259,4113869.949025239],[604380.6612541231,4113870.1314485488],[604380.6892464937,4113887.1804264225],[604380.4844775334,4113903.696288042],[604377.9729452272,4113919.748513354],[604377.9322091151,4113920.124579793],[604376.8204824077,4113938.4474575566],[604374.8692089437,4113958.6222183686],[604371.3065928657,4113965.99750153],[604371.295855824,4113966.019906612],[604363.2973691899,4113982.8442929382],[604358.7410445324,4113991.745182902],[604356.4312461404,4113994.1068487735],[604356.162851462,4113994.410647993],[604355.9265837444,4113994.7400523564],[604353.8168729175,4113998.0205028565],[604353.6516901985,4113998.3146831957],[604350.9429844262,4113998.833454932],[604350.7075062374,4113998.89050815],[604350.4786568515,4113998.9700883343],[604350.2585858067,4113999.0714480025],[604329.690228107,4114009.7819666136],[604324.5640347777,4114010.459441021],[604228.7822740996,4114019.918334613],[604200.0,4114022.271809682],[604200.0,4114027.288496936],[604229.2107466203,4114024.899986436],[604229.2526975304,4114024.896200158],[604325.0964249586,4114015.431187062],[604325.1782837542,4114015.421738492],[604330.3155993157,4114014.742794177],[604343.139486343,4114017.8880293104],[604354.9929497465,4114021.4344881335],[604355.1974347918,4114021.819466729],[604355.4492604095,4114022.23144611],[604355.7488915889,4114022.610080906],[604358.4290379683,4114025.6059302217],[604358.7255882465,4114025.904241388],[604359.0518253085,4114026.16976163],[604361.8006134976,4114028.1762533057],[604366.194318301,4114034.151454792],[604366.4142522385,4114034.424603554],[604375.3176300353,4114044.540312073],[604385.5035866259,4114059.1891372395],[604387.1425618784,4114064.4798700623],[604389.7047685564,4114073.471410916],[604392.0453013896,4114085.4327544584],[604393.2619149575,4114096.4680553097],[604394.6674823061,4114110.587183762],[604403.975824394,4114243.1971446485],[604403.9762180281,4114243.202697185],[604405.7088565807,4114267.404264538],[604399.1444725199,4114269.371288258],[604399.0107034796,4114269.418370395],[604398.8819785232,4114269.477874759],[604398.7594482163,4114269.54926949],[604396.9780661447,4114270.703352091],[604396.8381487578,4114270.8059553113],[604396.7110157063,4114270.9240293694],[604395.1546935295,4114272.5469347243],[604395.0365435084,4114272.6862031063],[604394.9361945371,4114272.8387979744],[604393.7290920665,4114274.943161666],[604393.6662719543,4114275.065317469],[604393.6148899163,4114275.192707787],[604393.5753768401,4114275.324264328],[604392.9588610743,4114277.7799275843],[604392.9222525745,4114277.9853376327],[604390.783380194,4114297.942683142],[604390.7749546133,4114298.083926205],[604390.7284530156,4114301.8337926357],[604390.7399379506,4114302.0385811427],[604391.1681160127,4114305.4614544855],[604391.1938463,4114305.6078287256],[604392.2969242642,4114310.4593577543],[604392.3398018576,4114310.610727798],[604392.3982980312,4114310.7567742835],[604392.4717692911,4114310.89589061],[604394.7683222659,4114314.741389814],[604394.842321673,4114314.853559547],[604394.9260629488,4114314.958656455],[604395.0188740061,4114315.0558370547],[604399.8805099636,4114319.7098677],[604399.9918307462,4114319.8064150084],[604404.891173122,4114323.6506593707],[604404.8206602536,4114324.4749095384],[604404.811540379,4114324.6073667104],[604404.7523497673,4114325.7414338035],[604401.8804298003,4114333.029762269],[604397.1904134785,4114338.8114259383],[604391.7317263745,4114343.5937197506],[604389.6843450363,4114343.686951724],[604389.4321262751,4114343.7064446295],[604387.6982436347,4114343.8957670517],[604387.2864328066,4114343.962619107],[604386.8838251497,4114344.0720011443],[604386.4948004655,4114344.222723241],[604384.208886073,4114345.2484955788],[604384.7435016425,4114346.439876336],[604383.0341944286,4114346.507992422],[604382.7984549117,4114346.307660225],[604382.6139815623,4114346.5247379527],[604370.244287746,4114347.0176716535],[604370.011928456,4114347.0378191853],[604369.7824579,4114347.079532812],[604356.929108962,4114350.041396775],[604331.3950956053,4114355.2157507883],[604319.5411350295,4114357.349443545],[604319.9840134748,4114359.809902584],[604319.359176506,4114357.389245904],[604313.9274920244,4114358.7913105977],[604285.7204547741,4114364.4862031937],[604285.7066490364,4114364.4890310396],[604257.2808103091,4114370.3950573886],[604257.2714738626,4114370.397015808],[604238.480058148,4114374.3761619837],[604200.0,4114381.850301083],[604200.0,4114386.943745109],[604239.4540582434,4114379.2804219867],[604239.4952811761,4114379.272054606],[604258.3026068436,4114375.289539444],[604286.7168765322,4114369.38591679],[604314.9824458831,4114363.6792067876],[604314.4876884265,4114361.2286527567],[604315.1125253952,4114363.649309437],[604317.5979603715,4114363.0077514374],[604313.0356751771,4114376.6662395727],[604304.4094420992,4114398.688216847],[604304.3677056519,4114398.8140387246],[604304.3395286413,4114398.9435730134],[604301.0781115066,4114419.0079212612],[604294.4816906003,4114438.6361305723],[604288.3389401254,4114452.5407594214],[604272.7518008285,4114472.191968782],[604266.3118811735,4114478.618064462],[604266.2594386351,4114478.6736974525],[604243.0609254286,4114504.84269979],[604213.0302096612,4114511.473670961],[604200.0,4114508.707969692],[604200.0,4114511.263663509],[604212.7758998617,4114513.9753867565],[604212.907493803,4114513.9960620725],[604213.0405406929,4114514.002616394],[604213.1735295929,4114513.994975286],[604213.3049502228,4114513.973225525],[604243.8429994364,4114507.230231934],[604265.0764768746,4114507.9273050595],[604274.5130893757,4114513.5085449824],[604277.7974303829,4114544.1285562417],[604277.8043204064,4114544.1819296638],[604284.2134623041,4114586.614707213],[604284.2428547131,4114586.7545864405],[604284.2880235935,4114586.8901957483],[604287.9133798534,4114596.000532827],[604287.9705948925,4114596.1242193994],[604288.0409345444,4114596.240942415],[604288.3308617184,4114596.6675757444],[604280.5714767816,4114603.8600581298],[604277.4251228992,4114600.5498126918],[604277.3784614136,4114600.502841581],[604271.5081870176,4114594.8488402083],[604271.4001943251,4114594.7543552117],[604271.2836675653,4114594.6706214044],[604271.159673079,4114594.598405038],[604271.0293455445,4114594.5383669673],[604270.893877594,4114594.4910566024],[604270.7545089001,4114594.456906883],[604266.2546358635,4114593.580062572],[604266.103735001,4114593.558548369],[604265.9514298502,4114593.552459664],[604265.7992931436,4114593.5618593316],[604265.6488958738,4114593.5866503073],[604229.2607751823,4114601.5023586],[604229.8984677558,4114604.4337999146],[604265.9843975563,4114596.5838288707],[604269.7460234069,4114597.3168184906],[604275.2734685879,4114602.6406211844],[604278.3545401595,4114605.8821837977],[604277.78338981,4114606.3953510714],[604261.599779867,4114620.8591076117],[604238.3131073219,4114641.5507738623],[604238.302692519,4114641.560080259],[604217.7822095873,4114660.0],[604225.2628329655,4114660.0],[604238.4658475714,4114648.1356335287],[604241.1170136089,4114660.0],[604246.2403247097,4114660.0],[604242.7344763549,4114644.3108017053],[604261.7616540919,4114627.403963227],[604269.1626572787,4114660.0],[604274.2899195111,4114660.0],[604266.0270757695,4114623.6081823437],[604281.1177324187,4114610.121229521],[604281.1226389725,4114610.1168327504],[604282.8646303746,4114608.551687987],[604282.8933012594,4114608.525522675],[604292.2512665987,4114599.85125256],[604292.8342746657,4114604.4921019655],[604299.2443391389,4114660.0],[604304.2775679288,4114660.0],[604297.7998313115,4114603.906095617],[604297.7968393443,4114603.881276251],[604296.764184159,4114595.661154654],[604308.1440819098,4114584.6178800086],[604321.7716703147,4114571.9728505164],[604321.8469009043,4114573.521425031],[604319.4757349697,4114585.0454066177],[604322.4141775182,4114585.650018385],[604324.8235553881,4114573.9403249375],[604324.8437073703,4114573.816252897],[604324.8534006601,4114573.690929261],[604324.852567189,4114573.5652340786],[604324.6456552687,4114569.306081942],[604324.7505934675,4114569.2087098625],[604334.3930124352,4114560.2596257413],[604361.9642258687,4114536.4187766705],[604362.2224481759,4114538.1971837785],[604362.5785971378,4114545.850936583],[604340.0582160051,4114566.0613256264],[604342.0619337307,4114568.294062798],[604365.1119108975,4114547.6084001865],[604365.2167721983,4114547.504538628],[604365.3109189153,4114547.3908745986],[604365.393439578,4114547.268508525],[604365.4635352719,4114547.1386250793],[604365.520527374,4114547.0024817134],[604365.5638641214,4114546.8613964836],[604365.5931259547,4114546.71673529],[604365.6080295787,4114546.5698986533],[604365.6084307056,4114546.4223081563],[604365.2157970979,4114537.98448888],[604365.2018521474,4114537.8386745555],[604364.6557918084,4114534.077893394],[604367.0424332023,4114531.98873207],[604375.200029894,4114526.2459323485],[604380.6870551213,4114523.013571681],[604385.7481843567,4114539.0750256917],[604385.7612882975,4114539.115411306],[604386.9805334468,4114542.767130983],[604390.7780547384,4114557.9777671746],[604392.9297984726,4114568.1586374696],[604394.4056207702,4114582.8187488504],[604394.3915799896,4114598.05865918],[604393.8034450703,4114605.2398028676],[604393.3618428303,4114610.5889302455],[604390.9197698574,4114626.0472719753],[604387.2081739214,4114643.546417117],[604387.162470535,4114643.8567281757],[604386.4327279442,4114652.580223217],[604386.4240489523,4114652.7780078123],[604386.4310474473,4114652.975858999],[604386.598707299,4114655.2082325965],[604386.5990369112,4114655.212570801],[604386.9669708578,4114660.0],[604391.9817155299,4114660.0],[604391.5845022828,4114654.831598674],[604391.4318672473,4114652.7992789517],[604392.1319681365,4114644.430126989],[604395.8245330104,4114627.0207080254],[604395.848313793,4114626.892099772],[604398.3150963195,4114611.2773463675],[604398.3372444152,4114611.0929302],[604398.7865599847,4114605.6503712703],[604399.3831432837,4114598.3660791353],[604399.3914847684,4114598.16431594],[604399.4057353549,4114582.696681568],[604399.3931640246,4114582.4439708265],[604397.8911241572,4114567.5234266734],[604397.8496632865,4114567.256875019],[604395.6605851566,4114556.8993588556],[604395.6401673199,4114556.810750023],[604391.8081282815,4114541.4618560453],[604391.7538966897,4114541.275682727],[604390.5106463649,4114537.552065965],[604384.5133922864,4114518.5198270925],[604382.0725104761,4114510.606632657],[604378.2970036984,4114490.778681503],[604378.2946612244,4114490.7665428687],[604374.6623920287,4114472.1912050745],[604374.6592973352,4114472.175641312],[604370.0290422394,4114449.269568505],[604368.9037123374,4114441.6509780576],[604372.2132095261,4114441.15138571],[604372.2303873246,4114441.148731489],[604374.703755558,4114440.7577516483],[604373.9230698934,4114435.819074711],[604371.4582859527,4114436.208697582],[604368.0493443006,4114436.723301785],[604364.696054326,4114419.9937357246],[604364.6954622653,4114419.990791113],[604359.0237182666,4114391.8698239718],[604359.0207651632,4114391.8554014857],[604357.0408778425,4114382.3287673304],[604355.8121934064,4114375.6093434272],[604359.0461040274,4114369.888816507],[604363.0789522877,4114366.978853535],[604368.6981787073,4114365.6658849115],[604374.6678831365,4114365.5244841897],[604379.355812883,4114366.2785416427],[604378.98829839,4114366.5423086463],[604380.2016067163,4114368.2328476016],[604380.4616197321,4114368.5579761653],[604380.7540173392,4114368.8543188567],[604383.2300405317,4114371.115315389],[604383.580268114,4114371.400589048],[604383.9604262816,4114371.644556644],[604384.3656670572,4114371.8441069727],[604388.0314423583,4114373.3986189957],[604388.3614647171,4114373.5217230795],[604388.7010373976,4114373.6153167086],[604389.0475272392,4114373.6786741265],[604389.3982474433,4114373.7113040388],[604393.3650490539,4114373.9047444514],[604393.7219173951,4114373.9062085142],[604394.0774959225,4114373.8758594235],[604394.4289542942,4114373.8139387537],[604397.5454322845,4114373.1202525934],[604397.9306848062,4114373.0140496977],[604398.30341766,4114372.8699359223],[604401.7946378428,4114371.3154114876],[604402.1384493564,4114371.142036273],[604402.4639976005,4114370.9364063563],[604402.7682658551,4114370.700427223],[604403.0484345934,4114370.4362855945],[604404.9284870022,4114368.4845166677],[604405.1832005564,4114368.193094831],[604406.4190638901,4114366.632792297],[604406.6464718176,4114366.314933512],[604406.8417740855,4114365.9763990277],[604407.003106185,4114365.620420761],[604407.9289834922,4114363.279554679],[604408.0354747534,4114362.9749233946],[604408.1170626975,4114362.6626990912],[604408.6348143946,4114360.294579305],[604404.7271197868,4114359.4402240794],[604408.6979781691,4114359.9221822806],[604412.683781147,4114327.083112145],[604408.7129227647,4114326.6011539437],[604412.7074856067,4114326.8096430353],[604412.7972054293,4114325.09064917],[604413.6639198078,4114314.9593144325],[604413.6729956778,4114314.8276986694],[604414.2895440444,4114303.062504131],[604414.2941153006,4114302.9384873114],[604414.5274532724,4114292.000738971],[604414.5280816258,4114291.867966419],[604414.3804690321,4114279.427535235],[604414.3748656947,4114279.2580966842],[604413.7387373132,4114267.5439418317],[604413.7344106126,4114267.475202331],[604411.9559935961,4114242.63419949],[604402.6437645433,4114109.9688635156],[604398.6535825003,4114110.2489479017],[604402.6339079819,4114109.8527042135],[604401.2204697062,4114095.654511153],[604401.2160546093,4114095.612420936],[604399.9788266157,4114084.3901368105],[604399.9284701541,4114084.0603389577],[604397.5234548394,4114071.7694563023],[604397.4447648117,4114071.441395481],[604394.8237885826,4114062.243614895],[604394.7977891942,4114062.156171373],[604393.1194998325,4114056.7385297106],[604392.4455211648,4114038.0016099736],[604393.4234986264,4114021.64196609],[604396.0515872538,4114016.7521907776],[604396.2426559967,4114016.342799657],[604396.3863407798,4114015.9144738032],[604396.4808086492,4114015.4726772713],[604397.4651196692,4114009.137981693],[604397.5091205089,4114008.689440101],[604397.5023834904,4114008.238795844],[604397.4449941427,4114007.79177001],[604396.2711028637,4114001.4857931808],[604396.1643617455,4114001.049932914],[604396.0094722921,4114000.6287713107],[604395.8083838632,4114000.2276088963],[604392.9419120919,4113995.2302625994],[604391.6414954049,4113988.467274927],[604391.4965910746,4113987.9233981147],[604387.8150217017,4113977.202860165],[604382.8350437301,4113959.361435672],[604384.7902222093,4113939.146299818],[604384.8014584571,4113939.00347402],[604385.9060569219,4113920.7980800937],[604388.4325447393,4113904.6502680215],[604388.4803159108,4113904.08153959],[604388.6889798042,4113887.251527941],[604388.6892818139,4113887.195370957],[604388.661393171,4113870.209569241],[604389.3232843982,4113855.1688084253],[604390.7943273481,4113832.049311657],[604394.8712779842,4113790.6699979724],[604394.8750407839,4113790.629721021],[604403.7592653672,4113690.043895576],[604406.8716610237,4113654.6178969145],[604406.8829137431,4113654.4487917013],[604408.0446081578,4113628.798207218],[604408.0487027294,4113628.62052415],[604408.0682492179,4113604.8429785483],[604408.0763139932,4113598.463777864],[604408.0762705293,4113598.439400456],[604408.0040730059,4113583.492228788],[604407.9966076504,4113583.266519289],[604406.7923811135,4113563.6450029826],[604406.7717436644,4113563.416320691],[604405.3084779483,4113551.1475387383],[604406.3025616382,4113532.7498615296],[604409.2114975285,4113516.2106521856],[604411.0378142712,4113512.6999625107],[604411.2209801051,4113512.294181315],[604411.3579173763,4113511.8705585054],[604412.7093667043,4113506.7276887284],[604412.7860901239,4113506.3698475454],[604412.8297865712,4113506.0064917747],[604412.840090261,4113505.640663086],[604412.7462957859,4113500.313433372],[604412.7227728606,4113499.9450331633],[604412.6653875487,4113499.5803703493],[604412.5746286014,4113499.2225507647],[604411.1594087846,4113494.5578957293],[604410.3487121668,4113483.506415974],[604410.3230672489,4113483.2609198876],[604409.46614091,4113476.9492284353],[604408.4469579769,4113464.808132322],[604407.8652384102,4113444.9986934015],[604409.8383984371,4113436.042958686],[604409.8741306055,4113435.860748576],[604411.606319127,4113425.795988539],[604411.6493342619,4113425.462942899],[604411.6642622725,4113425.127462864],[604411.7064341384,4113408.1178626237],[604411.7044128729,4113407.9804137456],[604409.4789445461,4113338.214649571],[604409.4741307292,4113338.1082323147],[604408.7063463156,4113325.0033218656],[604404.4283093293,4113225.3729490307],[604404.4259808691,4113225.32534173],[604403.7160251072,4113212.3897386193],[604403.7124412176,4113212.3320574337],[604403.6451973151,4113211.362959187],[604398.1923652237,4113127.8150237994],[604399.2969334245,4113111.338041898],[604399.2948246235,4113110.773156114],[604397.8328123458,4113091.1595590278],[604397.8187815587,4113091.009517161],[604394.7948099058,4113064.141990933],[604394.7824823789,4113064.0434786878],[604392.321817122,4113046.1817639293],[604392.3094377932,4113046.098408098],[604390.554344216,4113035.080553743],[604386.6041484106,4113035.7098017856],[604390.5315735885,4113034.9512957064],[604384.2891591425,4113002.629055529],[604380.3617339646,4113003.387561608],[604384.2844282462,4113002.604957255],[604377.7288889271,4112969.746238164],[604377.6572136071,4112969.4473375664],[604373.480608746,4112954.5752979103],[604369.7485986222,4112939.5095559983],[604369.7177106043,4112939.3924852517],[604360.5579307841,4112906.690145994],[604356.706170287,4112907.769006983],[604360.5349878094,4112906.6113557657],[604344.3676102498,4112853.13934488],[604344.2862983369,4112852.8983533024],[604337.3378735731,4112834.280832882],[604327.2415519697,4112794.8819314647],[604327.203492958,4112794.7437569373],[604299.9033839861,4112702.142787195],[604299.0282674318,4112699.1789360186],[604264.5959801411,4112580.0],[604256.2687892219,4112580.0],[604291.3458507396,4112701.410664213],[604295.188683252,4112700.3004217697],[604291.3524132672,4112701.4331320613],[604291.6599181974,4112702.4745915965]],[[604380.7583652454,4113490.7821114175],[604385.5052448228,4113488.5729378136],[604390.863613973,4113488.112062964],[604396.0614136546,4113489.513155551],[604400.4583528227,4113492.5975514567],[604403.5579896023,4113497.0585017796],[604404.7573494688,4113501.011668612],[604404.8316015328,4113505.2289511487],[604403.7342831003,4113509.404739086],[604402.1587253591,4113512.433400087],[604398.0641957065,4113516.1628881074],[604393.6701257236,4113518.1688117934],[604388.8718534359,4113518.725599993],[604383.9707583478,4113517.7553889533],[604382.0298866127,4113516.863810826],[604380.2630266252,4113515.7211771626],[604376.508525857,4113511.6582742254],[604374.4503099236,4113506.758439902],[604374.2004202976,4113501.4639534014],[604375.7375115245,4113496.5229280293],[604380.7583652454,4113490.7821114175]],[[604369.1585280178,4113491.8933279742],[604370.2635709814,4113492.859786137],[604369.3229420917,4113493.6411325503],[604368.3499956457,4113493.3384610736],[604367.8840034324,4113494.836406875],[604364.4890968732,4113497.656433022],[604348.5077908528,4113504.858878145],[604272.1828772,4113524.569469493],[604272.0985561426,4113522.3028788776],[604271.6305876864,4113509.1835616487],[604264.3605345744,4113306.758719347],[604263.9597750391,4113283.9522667658],[604263.9575505577,4113283.9523058548],[604263.9455854121,4113283.7266257764],[604263.2840039353,4113277.6267515803],[604263.244438032,4113277.3788457084],[604263.1802089588,4113277.136157826],[604263.0919643788,4113276.901135112],[604262.980594119,4113276.676147452],[604259.8440734771,4113271.0671416745],[604259.7174995315,4113270.8642281387],[604259.5721158804,4113270.674337484],[604259.4092529559,4113270.4992074333],[604259.2304011456,4113270.3404406337],[604254.9217829395,4113266.8695418183],[604254.7208300553,4113266.7235079496],[604254.5063765628,4113266.59813789],[604254.2805398194,4113266.494669452],[604254.0455495729,4113266.414124207],[604247.2847338167,4113264.4663051986],[604247.0251898156,4113264.406299538],[604246.7607343838,4113264.3742512534],[604246.4943702023,4113264.370524227],[604246.2291216239,4113264.395160777],[604243.5002394066,4113264.796205769],[604238.075060695,4113261.496453111],[604232.299587577,4113253.74531583],[604228.9495322893,4113176.2790043447],[604220.9507949146,4112991.073109091],[604314.142490225,4112984.7952177976],[604316.1930467264,4112984.82590038],[604316.8189909576,4112989.4785000025],[604318.3351490607,4113019.9838825464],[604320.1357716535,4113056.0129826954],[604321.7569516178,4113088.599428292],[604326.7507753912,4113088.3509849007],[604325.1295813614,4113055.764256581],[604323.3289678567,4113019.7353388877],[604321.8076070102,4112989.125276182],[604321.7883665849,4112988.916038392],[604321.2085696022,4112984.6064480357],[604322.7576864612,4112984.4623707314],[604330.5597172674,4112986.840346298],[604330.7984059443,4112986.9004293126],[604331.0418460297,4112986.936749801],[604331.2876778197,4112986.948955704],[604340.4333614303,4112986.952283564],[604344.5002843316,4112987.2199925906],[604349.3584614991,4112987.5573296216],[604349.4074109952,4112987.5602464555],[604353.2683096011,4112987.7523332066],[604353.4906205243,4112987.753496655],[604353.7121558147,4112987.734905924],[604353.9311636246,4112987.696708026],[604354.1459120925,4112987.63920502],[604360.3960409506,4112985.6638994957],[604360.645747765,4112985.5700556785],[604360.8840338482,4112985.4501394667],[604361.1081861642,4112985.305516182],[604363.341293854,4112983.6897031576],[604365.1252216216,4112990.850537043],[604368.0048034852,4113003.769926322],[604376.5918166834,4113043.9357697205],[604380.5866431599,4113063.838569543],[604387.2730568623,4113111.904043469],[604387.2975975269,4113112.058316425],[604390.2067340683,4113128.295968518],[604395.6627161445,4113211.8921677633],[604395.6638187751,4113211.908545072],[604395.7296304981,4113212.857003193],[604396.436696611,4113225.739956049],[604396.5903250629,4113229.3177792383],[604393.3578890191,4113235.068408266],[604393.304272297,4113235.1732238377],[604387.2901335397,4113248.1638919227],[604381.9607709248,4113253.9135570186],[604381.8641469177,4113254.0289032096],[604381.7795651836,4113254.1533494745],[604381.7078768382,4113254.285643555],[604381.6498032555,4113254.424454223],[604381.6059288093,4113254.5683846767],[604381.5766949921,4113254.715986596],[604381.5623959736,4113254.865774715],[604381.5631756396,4113255.0162417702],[604383.4687397929,4113289.4030080144],[604383.4237938247,4113291.6315471227],[604383.4279479338,4113291.7773676384],[604383.4462471211,4113291.9220950347],[604383.4785183098,4113292.064360455],[604383.5244562734,4113292.2028183294],[604383.5836265233,4113292.3361591],[604387.0678836439,4113299.2588503947],[604387.1340690455,4113299.3767897286],[604387.2106081352,4113299.4882884356],[604395.8053093494,4113310.872444858],[604400.4913270716,4113320.167457678],[604400.715050365,4113325.3777060234],[604400.7182153026,4113325.44005678],[604401.4847099968,4113338.522953684],[604403.7062882945,4113408.1667701104],[604403.6651216436,4113424.7709270036],[604402.0057924425,4113434.412343065],[604400.1101669588,4113443.0161657245],[604395.6512920442,4113449.6247269716],[604395.426547651,4113450.000704695],[604395.2442613177,4113450.3990023015],[604390.2304449871,4113463.157916453],[604382.0187956562,4113475.1095862254],[604375.1435348603,4113485.05010397],[604369.1585280178,4113491.8933279742]],[[604383.6285194552,4113042.457034506],[604383.6348147439,4113042.496554093],[604380.5086647496,4113043.1240249453],[604383.6285194552,4113042.457034506]],[[604375.8243865207,4113002.0804225793],[604371.9127791917,4113002.916680975],[604375.8169758784,4113002.0464808648],[604372.9228024981,4112989.06162601],[604372.8999755045,4112988.964888012],[604369.9338847186,4112977.0587538104],[604364.3915219154,4112952.2163879513],[604360.4875017636,4112953.087379716],[604364.3793223725,4112952.1634033374],[604361.8641683374,4112941.5694871573],[604361.007427861,4112937.9558562096],[604361.9978595792,4112941.491905623],[604365.730199913,4112956.5589805595],[604369.6128484327,4112955.597190316],[604365.7618294712,4112956.6786952666],[604369.9135916348,4112971.462275134],[604376.436637246,4113004.1581240837],[604378.0078081826,4113012.293400075],[604375.8243865207,4113002.0804225793]],[[604233.1663174218,4113269.3658619714],[604232.9532087276,4113269.5166945662],[604232.7569927803,4113269.688930129],[604232.6006083299,4113269.85818034],[604232.4698516617,4113262.342177986],[604234.3560327642,4113264.8735807585],[604234.5084328465,4113265.05884955],[604234.6778889312,4113265.2286581052],[604234.8628406584,4113265.3814428193],[604235.0615849833,4113265.5157968425],[604237.1998068691,4113266.8163260464],[604233.1663174218,4113269.3658619714]],[[604255.6143044326,4113297.8836535076],[604259.1438882067,4113294.4737193123],[604259.2644298557,4113301.3335121856],[604255.4129695385,4113298.0565018696],[604255.4456929375,4113298.0324833924],[604255.6143044326,4113297.8836535076]],[[604236.2859624992,4113273.3090677313],[604241.2411475515,4113270.176935499],[604243.3292859264,4113269.875029689],[604243.3350554912,4113269.8741886485],[604246.4206204516,4113269.420724455],[604252.1773380031,4113271.0792586138],[604255.716474422,4113273.9302850487],[604258.3680564474,4113278.6720803683],[604258.9143802918,4113283.7092629955],[604256.8239691478,4113289.762745615],[604252.5517139673,4113293.890175353],[604249.7511939254,4113294.81266413],[604249.7397051771,4113294.816479372],[604247.0949497093,4113295.7018784317],[604240.2465081001,4113294.5995569066],[604235.5300724511,4113291.0600897283],[604233.155704526,4113286.9155981066],[604232.4351028202,4113283.0092701586],[604232.7492214142,4113281.329064852],[604232.7501412537,4113281.3241171115],[604233.4465021937,4113277.5573554393],[604236.2859624992,4113273.3090677313]],[[604347.4052319078,4112897.922607942],[604349.3970825445,4112897.4160068375],[604349.4067769399,4112897.4480700963],[604347.4052319078,4112897.922607942]],[[604340.2663034254,4112978.0449919538],[604340.1674388034,4112981.952186471],[604331.6615593467,4112981.9490914177],[604329.4382590834,4112981.27145327],[604331.5532537607,4112980.117508698],[604339.1521196017,4112978.329033319],[604339.1978810139,4112978.3178067133],[604340.2663034254,4112978.0449919538]],[[604348.335460845,4112982.474256338],[604345.8342882111,4112982.300582526],[604345.1782495731,4112981.5881857206],[604345.2536890102,4112978.6067698332],[604346.6172578165,4112976.849306002],[604347.6859423408,4112976.859282242],[604349.2020308044,4112979.137558766],[604349.252038353,4112981.2325506397],[604348.335460845,4112982.474256338]],[[604354.2467753645,4112982.3635631357],[604354.2655625424,4112982.2044205302],[604354.2710404333,4112981.9689479126],[604354.1833454816,4112978.2950983485],[604354.166746567,4112978.061065292],[604354.1282813199,4112977.829618926],[604354.0682885234,4112977.602797719],[604353.9872965652,4112977.3825994036],[604353.8860187838,4112977.17096338],[604353.8805202146,4112977.161794978],[604355.2855678548,4112977.244614865],[604361.3333677984,4112978.970961292],[604358.5042732105,4112981.018013435],[604354.2467753645,4112982.3635631357]],[[604372.5748671533,4114521.989314934],[604372.4046738859,4114522.099095479],[604364.0561296846,4114527.976318775],[604363.8486024343,4114528.1394575704],[604361.2384203648,4114530.4242966087],[604359.4488451952,4114531.9837839953],[604331.0893639384,4114556.506248848],[604331.023906989,4114556.5648916527],[604321.3495649495,4114565.543603447],[604304.7226510602,4114580.9717049017],[604304.6820847,4114581.0101996893],[604292.4123712231,4114592.9169688635],[604290.1901279329,4114594.955650922],[604290.1856054192,4114594.948995957],[604286.6639716851,4114586.099308344],[604280.280301668,4114543.8351715677],[604276.9448899789,4114512.739026786],[604278.5919987164,4114493.739744517],[604278.5966691565,4114493.630592296],[604278.5917907846,4114493.52144917],[604278.5774008668,4114493.41314889],[604275.0152724077,4114473.3612759244],[604290.3970175838,4114453.9690135582],[604290.4593331795,4114453.8832121287],[604290.5141521745,4114453.7924377015],[604290.561080043,4114453.6973435692],[604296.7916750717,4114439.593871234],[604296.8331600182,4114439.486946069],[604303.4804078441,4114419.7074969527],[604303.5089030367,4114419.609671092],[604303.5293360904,4114419.5098494245],[604306.7857828209,4114399.476079271],[604315.3750818626,4114377.5483911843],[604315.3967964072,4114377.4885057355],[604320.48244268,4114362.2631885274],[604320.5186130599,4114362.253851974],[604331.7090183587,4114360.239598039],[604341.4286709456,4114363.2387589375],[604346.676235047,4114367.9636206077],[604350.7973375941,4114375.9814804164],[604352.1278369904,4114383.257709515],[604352.1393630494,4114383.3167231637],[604354.1238704785,4114392.865587918],[604359.7938622644,4114420.977867446],[604363.6025805,4114439.979565423],[604365.0923573929,4114450.065496656],[604365.1150858698,4114450.1955229817],[604369.7568500756,4114473.1585318544],[604373.3864103811,4114491.720016449],[604377.1867497446,4114511.6783816977],[604377.253691194,4114511.947634021],[604379.155378231,4114518.112790898],[604372.5748671533,4114521.989314934]],[[604265.9628105134,4114505.5542851635],[604265.8466506706,4114505.507387779],[604265.7263801857,4114505.472352309],[604265.603206957,4114505.449530621],[604265.4783680359,4114505.439151917],[604246.427508302,4114504.8137318757],[604268.1048200609,4114480.3607155536],[604272.8741239917,4114475.6016494427],[604276.0871004565,4114493.688081937],[604274.6153601245,4114510.6645021075],[604266.0736930994,4114505.6125734625],[604265.9628105134,4114505.5542851635]],[[604381.4738779195,4114039.426326901],[604374.5863466476,4114031.6009531664],[604378.0236334818,4114031.5602346268],[604378.3799252837,4114031.540094146],[604378.7330041139,4114031.488278832],[604379.0800596968,4114031.4052011003],[604379.4183296979,4114031.2915221956],[604384.960421009,4114029.149439701],[604384.4483516105,4114037.715355924],[604384.4438087059,4114038.0978387985],[604384.6544906258,4114043.954893945],[604381.7553495478,4114039.785525029],[604381.4738779195,4114039.426326901]],[[604377.2072838658,4114023.569343906],[604371.788693668,4114023.6335332184],[604366.5544308246,4114021.7417111825],[604364.109690615,4114019.9571608487],[604362.0348779821,4114017.63794946],[604360.0819834521,4114013.961286492],[604359.207803275,4114009.9630259983],[604359.4472135119,4114005.884384562],[604360.8059163003,4114001.9428800475],[604362.4350972546,4113999.409619371],[604364.4602700257,4113997.3389705066],[604369.8334428722,4113994.436545178],[604375.7304091405,4113993.827122418],[604381.407828782,4113995.5157688325],[604386.0406634151,4113999.277318448],[604388.5306459185,4114003.618301313],[604389.4551252783,4114008.5844728197],[604388.6807865957,4114013.567856862],[604386.2932671084,4114018.0100334785],[604382.2524336183,4114021.6193350805],[604377.2072838658,4114023.569343906]],[[604376.8690455346,4113985.8394557913],[604376.4810723139,4113985.7839627108],[604376.0895306888,4113985.7667041477],[604375.6981795253,4113985.787845788],[604370.5006573792,4113986.3249844024],[604377.7809834135,4113971.011210262],[604380.1410772144,4113979.4665559656],[604380.2106693989,4113979.690342572],[604382.9350696568,4113987.6236539935],[604377.249725743,4113985.932650647],[604376.8690455346,4113985.8394557913]],[[604351.4931938997,4114004.866461128],[604351.1892497326,4114010.0445157117],[604351.1845100673,4114010.409536921],[604351.2130683681,4114010.7734701172],[604351.274686775,4114011.133284124],[604352.2033813917,4114015.380878721],[604344.5125450835,4114013.0798437106],[604344.391461278,4114013.046903632],[604337.4945217081,4114011.3553340947],[604351.6495888864,4114003.9843950695],[604351.6017789945,4114004.146736302],[604351.5310816136,4114004.504123713],[604351.4931938997,4114004.866461128]],[[604375.0078431594,4114360.525509352],[604374.7790207139,4114360.520449327],[604368.3216193153,4114360.673401827],[604368.0651382509,4114360.692711729],[604367.8119986212,4114360.738271982],[604361.4535103065,4114362.223973932],[604361.2159676418,4114362.292017513],[604360.9863023597,4114362.3831783854],[604360.7667580678,4114362.4965659967],[604360.559479501,4114362.631072659],[604355.6763915861,4114366.1545389798],[604355.4667523308,4114366.3237041812],[604355.276531484,4114366.514443564],[604355.1212977498,4114366.707893349],[604354.6884945175,4114360.3341078702],[604358.9088277385,4114354.716233851],[604370.6771902627,4114352.0043889433],[604378.6433837607,4114351.686935229],[604378.0047769728,4114353.497995823],[604377.9000073404,4114353.844330757],[604377.8269633249,4114354.1987163294],[604377.78624263,4114354.5582526796],[604377.6403894173,4114356.7146843723],[604377.3128755158,4114359.5571648497],[604377.286594305,4114360.0064704306],[604377.3109545301,4114360.455884256],[604377.3852417985,4114360.897304194],[604375.2352438833,4114360.551475216],[604375.0078431594,4114360.525509352]],[[604349.9902803756,4114358.2850472527],[604349.8702625396,4114358.5091397115],[604349.7736221341,4114358.7442616867],[604349.7013583703,4114358.9879821404],[604349.6542184171,4114359.237781131],[604349.6326896772,4114359.4910758696],[604349.6369947462,4114359.745247421],[604349.9375868399,4114364.171992369],[604344.3649491086,4114359.1544371927],[604344.1540633012,4114358.9843150526],[604343.9260052537,4114358.8380143577],[604343.6834538042,4114358.7172535993],[604343.4292580346,4114358.6234512697],[604341.9724468193,4114358.1739278743],[604351.5094483115,4114356.241297024],[604350.132434721,4114358.074301308],[604349.9902803756,4114358.2850472527]],[[604389.6517155066,4113250.029174554],[604389.7521983457,4113249.90869913],[604389.8395487994,4113249.7783878604],[604389.9128114041,4113249.639666126],[604396.0019276992,4113236.487044959],[604396.8345616173,4113235.005756941],[604400.1785338174,4113312.882876306],[604398.423294972,4113309.4012489333],[604398.3572947781,4113309.28377693],[604398.2810191581,4113309.1727016093],[604389.686620858,4113297.7889464134],[604386.430689249,4113291.319903336],[604386.4692725517,4113289.40684189],[604386.4672796531,4113289.2935994086],[604384.5938090082,4113255.48597503],[604389.6517155066,4113250.029174554]],[[604396.4187174324,4113525.708235384],[604399.6801179759,4113524.2193832207],[604398.3818346736,4113531.600975712],[604398.3271920423,4113532.0780475074],[604398.2256092891,4113533.9580569277],[604397.739651808,4113532.8240362215],[604397.5409610672,4113532.4237523503],[604397.298860039,4113532.0481298272],[604397.0163705254,4113531.7018570118],[604392.1702772349,4113526.396533561],[604395.2186559072,4113526.0428018067],[604395.629596482,4113525.9732572725],[604396.0310698943,4113525.861330075],[604396.4187174324,4113525.708235384]],[[604400.4658948882,4113465.3689098344],[604401.5027465591,4113477.7204861646],[604401.5250911165,4113477.924018798],[604402.3728931543,4113484.168505204],[604400.0793189757,4113482.5595926093],[604399.7857277662,4113482.3721669945],[604399.4769443062,4113482.21099338],[604399.1553100264,4113482.077293906],[604398.8232638023,4113481.972082384],[604392.2646752138,4113480.2041824237],[604391.9240754583,4113480.128139304],[604391.5781438447,4113480.0820733914],[604391.2295135775,4113480.066335337],[604390.8808384031,4113480.081044936],[604388.1446082466,4113480.3163888673],[604388.601911604,4113479.6552020013],[604388.6089427125,4113479.645002429],[604397.0829568052,4113467.3114730734],[604397.3188212544,4113466.9225075003],[604397.5089977854,4113466.5092773675],[604400.285947251,4113459.442632421],[604400.4535990335,4113465.1517196433],[604400.4658948882,4113465.3689098344]],[[604401.6201854534,4114345.803420042],[604401.4600568629,4114345.70672271],[604402.4722862744,4114344.819920012],[604402.2901168467,4114346.3208157276],[604401.9060738775,4114346.012683039],[604401.6201854534,4114345.803420042]],[[604401.9017689467,4114317.4917708407],[604397.2399582487,4114313.029032363],[604395.1694818813,4114309.5620906856],[604394.1356804643,4114305.0152519788],[604393.7294970276,4114301.768204591],[604393.7738457326,4114298.1919463966],[604395.8940268795,4114278.4090046566],[604396.4345701983,4114276.255949633],[604397.4470832965,4114274.490817134],[604398.7555906293,4114273.1263287333],[604400.2108180425,4114272.1835480323],[604405.8865433139,4114270.4828117355],[604406.3820380839,4114279.607231637],[604406.5278569601,4114291.8964926666],[604406.2972587124,4114302.7058160803],[604405.6874105502,4114314.343154941],[604405.1968703029,4114320.0772555526],[604401.9017689467,4114317.4917708407]],[[604397.3167237563,4114352.587166973],[604398.8391162608,4114353.808641997],[604399.3572085352,4114354.537514583],[604399.9708784377,4114355.9481846616],[604400.5956638554,4114357.6087889387],[604400.6981373791,4114359.1406213343],[604400.3707691126,4114360.637955431],[604399.7811432127,4114362.128687798],[604399.032353224,4114363.0740503515],[604397.8278911862,4114364.3244578233],[604395.4157336777,4114365.398511475],[604393.2166373546,4114365.888000793],[604390.4991376989,4114365.7554823793],[604388.119102373,4114364.746202425],[604386.4572142655,4114363.2286385912],[604385.9598030426,4114362.5355805852],[604385.3383547761,4114359.7953963834],[604385.5986119423,4114357.53663451],[604385.6157842057,4114357.3487078366],[604385.7311411547,4114355.643161719],[604386.0265290652,4114354.805454675],[604387.2664454905,4114353.4028472262],[604387.3176095636,4114353.3438181775],[604388.3090542698,4114352.177142531],[604389.1941219546,4114351.779980699],[604390.174683081,4114351.6729133558],[604393.1809300939,4114351.536017344],[604395.4974870444,4114351.7956927572],[604397.3167237563,4114352.587166973]]]}}]}
