{"type":"FeatureCollection","name":"mojacar-coast-coastline","crs":{"type":"name","properties":{"name":"EPSG:25830"}},"features":[{"type":"Feature","properties":{"source":"DERA/IECA","id_dera":10125300001151.0},"geometry":{"type":"LineString","coordinates":[[602324.9159674884,4106300.0],[602332.8300000001,4106324.619999999],[602348.71,4106354.2300000004],[602368.3799999999,4106372.3200000003],[602393.6799999997,4106396.039999999]]}},{"type":"Feature","properties":{"source":"DERA/IECA","id_dera":10125300000268.0},"geometry":{"type":"LineString","coordinates":[[602393.6799999997,4106396.039999999],[602401.9199999999,4106403.7699999996]]}},{"type":"Feature","properties":{"source":"DERA/IECA","id_dera":10125300000031.0},"geometry":{"type":"LineString","coordinates":[[602401.9199999999,4106403.7699999996],[602413.7599999998,4106421.8100000005],[602416.0099999998,4106425.25],[602420.1600000001,4106441.25]]}},{"type":"Feature","properties":{"source":"DERA/IECA","id_dera":10125300000467.0},"geometry":{"type":"LineString","coordinates":[[602420.1600000001,4106441.25],[602424.5999999996,4106458.369999999],[602429.6299999999,4106472.9399999995],[602435.0899999999,4106485.5199999996],[602442.2800000003,4106496.6899999995],[602453.1600000001,4106509.3000000007],[602471.7300000004,4106522.41],[602482.0800000001,4106529.1799999997],[602513.0599999996,4106540.380000001],[602523.8799999999,4106541.880000001],[602540.2800000003,4106539.58]]}},{"type":"Feature","properties":{"source":"DERA/IECA","id_dera":10125300000519.0},"geometry":{"type":"LineString","coordinates":[[602540.2800000003,4106539.58],[602534.0300000003,4106498.210000001],[602531.46,4106498.2699999996],[602530.6299999999,4106494.91],[602532.2300000004,4106490.1500000004],[602535.9000000004,4106486.119999999],[602546.5800000001,4106487.119999999],[602548.2599999998,4106490.619999999],[602554.2800000003,4106524.789999999],[602560.3499999996,4106570.789999999],[602560.5199999996,4106596.58],[602556.5599999996,4106602.039999999],[602550.9199999999,4106603.7799999993],[602547.6600000001,4106600.9700000007],[602547.2000000002,4106596.130000001],[602547.0899999999,4106591.8499999996],[602543.2699999996,4106577.789999999]]}},{"type":"Feature","properties":{"source":"DERA/IECA","id_dera":10125300000709.0},"geometry":{"type":"LineString","coordinates":[[602543.2699999996,4106577.789999999],[602531.9900000002,4106581.6999999993],[602524.4000000004,4106587.1999999993],[602518.3499999996,4106596.2699999996],[602514.4299999997,4106605.3599999994],[602511.6500000004,4106635.41],[602519.6799999997,4106706.5700000003],[602538.0599999996,4106783.3599999994],[602543.25,4106814.74],[602548.3099999996,4106882.460000001],[602558.2400000002,4106946.08],[602587.4900000002,4107096.4800000004],[602626.6500000004,4107274.16],[602636.6500000004,4107328.8000000007],[602641.9000000004,4107370.7300000004],[602657.3399999999,4107422.4299999997],[602666.4900000002,4107476.92],[602670.7999999998,4107510.7200000007],[602676.2199999997,4107529.1400000006],[602694.2000000002,4107584.130000001],[602708.0899999999,4107612.880000001],[602718.2999999998,4107627.58]]}},{"type":"Feature","properties":{"source":"DERA/IECA","id_dera":10125300001149.0},"geometry":{"type":"LineString","coordinates":[[602718.2999999998,4107627.58],[602741.0899999999,4107660.42],[602765.0499999998,4107695.789999999],[602789.5800000001,4107750.539999999],[602799.5,4107777.5500000007],[602821.1100000003,4107823.0199999996],[602832.4100000001,4107837.0600000005],[602846.1299999999,4107849.6999999993],[602863.9299999997,4107890.58],[602882.1399999997,4107933.8900000006],[602901.7599999998,4107977.7799999993],[602921.6600000001,4108004.1400000006],[602943.46,4108023.539999999],[602956.4199999999,4108044.289999999],[602961.9400000004,4108067.9800000004],[602961.8799999999,4108076.25],[602980.04,4108107.0199999996],[603001.7400000002,4108139.5199999996],[603016.1399999997,4108157.8599999994],[603032.5800000001,4108170.5199999996],[603050.9100000001,4108177.0700000003],[603069.9500000002,4108183.619999999],[603088.2699999996,4108192.4499999993],[603098.3600000003,4108196.51],[603125.9199999999,4108207.4000000004],[603137.1299999999,4108213.1799999997],[603144.1100000003,4108213.66],[603155.2000000002,4108216.7300000004],[603169.1799999997,4108234.5],[603205.4000000004,4108308.58],[603247.5899999999,4108383.26],[603273.9299999997,4108406.25],[603296.04,4108421.8000000007],[603312.0800000001,4108429.76],[603336.7199999997,4108431.08],[603367.9699999997,4108424.75],[603390.5599999996,4108414.380000001],[603403.6399999997,4108399.6500000004],[603408.4000000004,4108392.1400000006]]}},{"type":"Feature","properties":{"source":"DERA/IECA","id_dera":10125300000520.0},"geometry":{"type":"LineString","coordinates":[[603408.4000000004,4108392.1400000006],[603387.6200000001,4108378.66],[603384.9800000004,4108379.0],[603382.4299999997,4108377.130000001],[603380.0999999996,4108374.119999999],[603379.7000000002,4108370.619999999],[603380.79,4108367.3599999994],[603384.0899999999,4108364.5299999993],[603386.7300000004,4108363.41],[603389.9400000004,4108363.789999999],[603393.4900000002,4108365.4499999993],[603410.5800000001,4108375.41],[603446.6100000003,4108398.539999999],[603454.8300000001,4108403.59],[603470.0199999996,4108412.1099999994],[603472.9800000004,4108415.4800000004],[603475.46,4108418.130000001],[603477.5599999996,4108423.49],[603477.3099999996,4108427.2699999996],[603474.4500000002,4108429.380000001],[603469.8099999996,4108430.630000001],[603466.96,4108430.4700000007],[603464.8200000003,4108430.880000001]]}},{"type":"Feature","properties":{"source":"DERA/IECA","id_dera":10125300001064.0},"geometry":{"type":"LineString","coordinates":[[603464.8200000003,4108430.880000001],[603462.9299999997,4108435.710000001],[603463.6900000004,4108449.3900000006],[603476.8399999999,4108482.6899999995],[603509.1200000001,4108549.75],[603530.2800000003,4108577.6899999995],[603572.4299999997,4108620.0299999993],[603626.4199999999,4108680.130000001],[603651.8099999996,4108716.2200000007],[603668.96,4108748.130000001],[603669.71,4108762.5199999996],[603667.8899999997,4108776.6099999994],[603673.5300000003,4108804.4399999995],[603683.4500000002,4108850.25],[603713.0800000001,4108951.039999999],[603719.3200000003,4108981.539999999],[603726.9800000004,4109039.369999999],[603736.9900000002,4109083.41],[603753.9000000004,4109220.5700000003],[603762.7599999998,4109293.3499999996],[603776.8300000001,4109349.51],[603787.6900000004,4109367.6500000004],[603790.2800000003,4109378.1400000006]]}},{"type":"Feature","properties":{"source":"DERA/IECA","id_dera":10125300000431.0},"geometry":{"type":"LineString","coordinates":[[603790.2800000003,4109378.1400000006],[603801.8600000003,4109388.8100000005],[603819.4800000004,4109401.5],[603823.29,4109419.25],[603826.6900000004,4109436.17],[603831.7400000002,4109442.7799999993],[603833.8200000003,4109447.6999999993],[603834.5,4109452.039999999],[603835.4100000001,4109455.460000001],[603838.1299999999,4109459.460000001],[603841.6600000001,4109463.75],[603846.1200000001,4109468.76],[603848.2599999998,4109474.3900000006],[603851.4199999999,4109482.630000001],[603854.2800000003,4109487.3100000005],[603857.4100000001,4109492.380000001],[603861.0700000003,4109500.58],[603865.7800000003,4109525.09],[603867.3899999997,4109549.9399999995],[603869.8300000001,4109585.6799999997],[603874.6699999999,4109630.2200000007],[603877.3899999997,4109660.369999999],[603877.5199999996,4109661.039999999]]}},{"type":"Feature","properties":{"source":"DERA/IECA","id_dera":10125300001157.0},"geometry":{"type":"LineString","coordinates":[[603877.5199999996,4109661.039999999],[603881.2300000004,4109681.3200000003],[603883.5199999996,4109696.6500000004]]}},{"type":"Feature","properties":{"source":"DERA/IECA","id_dera":10125300001155.0},"geometry":{"type":"LineString","coordinates":[[603883.5199999996,4109696.6500000004],[603884.0099999998,4109699.91],[603889.7300000004,4109728.34],[603896.8099999996,4109757.6899999995]]}},{"type":"Feature","properties":{"source":"DERA/IECA","id_dera":10125300001144.0},"geometry":{"type":"LineString","coordinates":[[603896.8099999996,4109757.6899999995],[603898.8799999999,4109766.2799999993],[603902.9199999999,4109789.3599999994],[603904.9299999997,4109813.1799999997],[603905.21,4109826.2799999993],[603905.8200000003,4109831.9399999995],[603907.9000000004,4109842.59],[603909.0800000001,4109848.4299999997],[603909.7199999997,4109854.9499999993],[603909.6900000004,4109859.5700000003],[603909.5899999999,4109865.3000000007],[603910.2999999998,4109871.460000001],[603913.1500000004,4109890.51],[603915.0199999996,4109901.34],[603917.25,4109909.039999999],[603918.29,4109914.460000001],[603918.8700000001,4109919.9700000007],[603919.1799999997,4109928.1999999993],[603918.7199999997,4109933.8499999996],[603920.1100000003,4109940.369999999],[603922.2400000002,4109947.8599999994],[603924.8499999996,4109959.039999999],[603927.8600000003,4109974.0],[603927.3799999999,4109984.039999999],[603927.4199999999,4109989.84],[603928.3499999996,4109996.210000001],[603927.5999999996,4110003.25],[603928.4299999997,4110013.6500000004],[603929.5199999996,4110022.09],[603932.1900000004,4110035.130000001],[603934.6900000004,4110053.960000001],[603937.3200000003,4110087.0700000003],[603938.4699999997,4110105.4000000004],[603942.96,4110142.539999999],[603945.21,4110161.6999999993],[603947.96,4110192.3499999996],[603948.2999999998,4110214.380000001],[603949.2300000004,4110227.66],[603953.5599999996,4110262.0199999996],[603960.2599999998,4110287.1500000004],[603968.3300000001,4110308.26],[603974.1500000004,4110317.6099999994],[603980.4100000001,4110330.630000001],[603984.9500000002,4110340.34],[603988.79,4110347.4700000007],[603992.4299999997,4110351.869999999],[603996.3300000001,4110356.1500000004],[603997.4199999999,4110357.34],[604004.5199999996,4110366.7699999996],[604017.1600000001,4110391.1799999997],[604020.4900000002,4110406.6799999997],[604024.1399999997,4110416.41],[604024.3600000003,4110422.1799999997],[604022.7000000002,4110433.24],[604021.7800000003,4110452.1999999993],[604022.71,4110476.58],[604024.4400000004,4110492.0700000003],[604029.1299999999,4110520.4499999993],[604032.54,4110541.6799999997],[604034.2699999996,4110562.83],[604035.9299999997,4110579.3499999996],[604038.3899999997,4110596.9800000004],[604042.2999999998,4110624.789999999],[604045.4100000001,4110641.6400000006],[604046.9699999997,4110656.2699999996],[604048.0099999998,4110660.6500000004],[604049.9199999999,4110664.08],[604050.6100000003,4110666.8200000003],[604050.5199999996,4110670.130000001],[604053.04,4110678.9000000004],[604057.3799999999,4110686.08],[604062.3600000003,4110692.2200000007],[604067.21,4110697.16],[604070.0499999998,4110698.3100000005],[604078.0800000001,4110700.0700000003],[604082.0199999996,4110701.4399999995],[604087.8399999999,4110705.710000001],[604093.1699999999,4110714.0600000005],[604097.54,4110727.1099999994],[604100.6600000001,4110756.09],[604104.0899999999,4110772.7300000004],[604103.7400000002,4110779.49],[604103.8600000003,4110789.0600000005],[604101.2699999996,4110808.01],[604101.25,4110830.2200000007],[604104.2199999997,4110861.58],[604105.5499999998,4110883.869999999],[604107.0499999998,4110917.3599999994],[604109.8700000001,4110940.6500000004],[604114.2599999998,4110973.92]]}},{"type":"Feature","properties":{"source":"DERA/IECA","id_dera":10125300001555.0},"geometry":{"type":"LineString","coordinates":[[604114.2599999998,4110973.92],[604115.2400000002,4110981.380000001],[604117.3200000003,4111004.5600000005],[604122.6600000001,4111050.0299999993],[604124.6699999999,4111066.16],[604125.5,4111086.59]]}},{"type":"Feature","properties":{"source":"DERA/IECA","id_dera":10125300001154.0},"geometry":{"type":"LineString","coordinates":[[604125.5,4111086.59],[604126.0800000001,4111101.1099999994],[604127.1200000001,4111125.8499999996],[604128.5700000003,4111154.6500000004],[604134.4800000004,4111180.34],[604144.7999999998,4111213.2699999996],[604152.2699999996,4111233.7699999996],[604169.0300000003,4111266.42],[604176.3099999996,4111275.539999999],[604183.6100000003,4111280.91],[604190.3200000003,4111284.4399999995],[604194.7199999997,4111285.92],[604200.5099999998,4111288.5500000007],[604204.8700000001,4111291.8100000005],[604207.9199999999,4111294.210000001],[604211.4299999997,4111295.869999999],[604216.7199999997,4111298.3200000003],[604220.6100000003,4111302.0],[604226.7199999997,4111304.24],[604234.04,4111306.0999999996],[604240.6600000001,4111312.6400000006],[604252.3300000001,4111326.6899999995],[604262.04,4111347.42],[604274.1200000001,4111369.869999999],[604291.0999999996,4111401.24],[604307.9500000002,4111437.9499999993],[604317.6600000001,4111464.6899999995],[604324.2400000002,4111491.66],[604327.0300000003,4111508.4399999995],[604326.7699999996,4111516.2300000004],[604325.4900000002,4111523.1899999995],[604325.8600000003,4111534.76],[604327.2599999998,4111545.1999999993],[604329.8499999996,4111553.710000001],[604335.1200000001,4111566.0199999996],[604340.3600000003,4111583.59],[604344.2400000002,4111595.67],[604352.6299999999,4111617.8900000006],[604355.3099999996,4111621.25],[604357.8300000001,4111623.7200000007],[604358.2699999996,4111626.5700000003],[604357.96,4111632.4399999995],[604357.7800000003,4111639.3000000007],[604353.3799999999,4111662.869999999],[604351.2300000004,4111686.3100000005],[604352.6900000004,4111724.4299999997],[604354.7300000004,4111742.2300000004],[604357.1900000004,4111753.8100000005],[604360.6699999999,4111761.9800000004],[604363.5599999996,4111768.33],[604365.9100000001,4111774.0],[604367.5899999999,4111778.42],[604371.0499999998,4111783.92],[604374.5899999999,4111787.710000001],[604376.8099999996,4111790.710000001],[604380.0700000003,4111794.5700000003],[604384.0,4111798.26],[604387.75,4111802.4399999995],[604391.2699999996,4111809.789999999],[604393.75,4111823.4700000007],[604393.2000000002,4111834.210000001],[604394.5899999999,4111847.2799999993],[604396.4299999997,4111868.1799999997],[604398.3399999999,4111889.4700000007],[604399.9199999999,4111914.210000001],[604400.71,4111925.2799999993],[604402.2800000003,4111944.75],[604405.6100000003,4111972.880000001],[604409.0,4111998.0199999996],[604412.4400000004,4112013.42],[604417.3399999999,4112028.0],[604424.1799999997,4112040.5199999996],[604427.6399999997,4112045.3499999996],[604431.5999999996,4112050.5999999996],[604437.9500000002,4112059.960000001],[604441.8600000003,4112067.130000001],[604444.5,4112079.2799999993],[604446.0199999996,4112088.4000000004],[604447.5700000003,4112097.2300000004],[604447.6699999999,4112111.7799999993],[604447.5899999999,4112120.539999999],[604447.7400000002,4112131.1099999994],[604447.9500000002,4112138.9000000004],[604445.2599999998,4112149.42],[604445.25,4112157.4299999997],[604446.1399999997,4112164.6500000004],[604446.7300000004,4112172.9800000004],[604446.8499999996,4112176.6899999995],[604450.96,4112200.3000000007],[604458.0300000003,4112228.7699999996],[604470.1699999999,4112274.380000001],[604479.4299999997,4112305.960000001],[604479.71,4112307.119999999]]}},{"type":"Feature","properties":{"source":"DERA/IECA","id_dera":10125300000740.0},"geometry":{"type":"LineString","coordinates":[[604479.71,4112307.119999999],[604489.1399999997,4112345.0500000007],[604496.9400000004,4112383.5999999996],[604504.21,4112408.369999999],[604506.29,4112444.2799999993],[604505.75,4112471.789999999],[604496.75,4112504.0500000007],[604493.4100000001,4112517.6899999995]]}},{"type":"Feature","properties":{"source":"DERA/IECA","id_dera":10125300000468.0},"geometry":{"type":"LineString","coordinates":[[604493.4100000001,4112517.6899999995],[604492.8600000003,4112519.9299999997],[604483.6600000001,4112568.0999999996],[604477.0899999999,4112625.8499999996],[604472.54,4112677.6400000006],[604470.8499999996,4112705.380000001]]}},{"type":"Feature","properties":{"source":"DERA/IECA","id_dera":10125300001152.0},"geometry":{"type":"LineString","coordinates":[[604470.8499999996,4112705.380000001],[604469.3300000001,4112730.3599999994],[604468.4699999997,4112791.630000001],[604468.4400000004,4112843.26],[604466.4500000002,4112862.8599999994],[604461.9100000001,4112878.710000001],[604461.1399999997,4112883.8599999994],[604459.8099999996,4112891.9000000004],[604456.5,4112925.539999999],[604461.2199999997,4112968.130000001],[604462.96,4113001.619999999],[604461.8200000003,4113059.619999999],[604461.5099999998,4113110.0],[604462.4199999999,4113146.8000000007],[604462.3799999999,4113159.76],[604459.71,4113194.01],[604454.1500000004,4113220.74],[604452.1399999997,4113238.130000001],[604451.8799999999,4113252.6099999994],[604453.0999999996,4113263.9299999997],[604454.1500000004,4113274.33],[604453.5899999999,4113298.9499999993],[604453.6699999999,4113317.210000001],[604456.8300000001,4113337.9700000007],[604457.7999999998,4113354.880000001],[604455.7699999996,4113368.49],[604455.6200000001,4113376.5],[604456.7699999996,4113421.84],[604459.8099999996,4113463.2799999993],[604457.7699999996,4113511.880000001],[604451.8300000001,4113596.5299999993],[604453.3700000001,4113629.0],[604449.9100000001,4113663.210000001],[604445.8499999996,4113690.16],[604445.4000000004,4113706.5299999993],[604443.0,4113729.789999999],[604440.7999999998,4113741.369999999],[604438.5199999996,4113755.0999999996],[604436.6100000003,4113765.83],[604438.2699999996,4113776.0199999996],[604442.2000000002,4113784.58],[604448.6699999999,4113799.0600000005],[604449.7400000002,4113812.3100000005],[604450.1600000001,4113826.76],[604448.2599999998,4113836.3499999996],[604442.9400000004,4113845.6500000004],[604440.3300000001,4113855.380000001],[604437.5,4113877.5700000003],[604433.9699999997,4113951.7799999993],[604434.7300000004,4114009.369999999]]}},{"type":"Feature","properties":{"source":"DERA/IECA","id_dera":10125300001430.0},"geometry":{"type":"LineString","coordinates":[[604434.7300000004,4114009.369999999],[604433.8099999996,4114010.8200000003],[604432.5899999999,4114011.9499999993],[604429.7000000002,4114013.58],[604429.5999999996,4114014.1899999995],[604430.0,4114015.9499999993],[604430.6100000003,4114017.289999999],[604435.6299999999,4114020.41],[604436.6500000004,4114021.75],[604437.1500000004,4114023.710000001],[604436.0099999998,4114024.630000001],[604430.6500000004,4114026.1400000006],[604428.9000000004,4114026.2300000004],[604428.1699999999,4114027.67],[604428.1699999999,4114028.59],[604429.2699999996,4114032.92],[604431.6100000003,4114038.08],[604431.5899999999,4114041.380000001],[604430.9500000002,4114044.0500000007],[604430.0099999998,4114045.789999999],[604428.5700000003,4114047.2200000007],[604427.6299999999,4114049.0700000003],[604430.5899999999,4114053.0999999996],[604430.8799999999,4114055.0600000005],[604433.5199999996,4114060.630000001],[604434.1299999999,4114063.0],[604434.3799999999,4114071.5500000007],[604433.5499999998,4114072.5700000003],[604430.1399999997,4114074.710000001],[604428.4800000004,4114077.2699999996],[604427.3200000003,4114082.3100000005],[604424.9699999997,4114095.3599999994],[604425.0300000003,4114102.26],[604426.9299999997,4114110.8100000005],[604429.5700000003,4114116.49],[604431.3799999999,4114122.58],[604431.4699999997,4114125.5600000005],[604428.3200000003,4114135.83],[604428.29,4114139.8499999996],[604428.9000000004,4114141.3900000006],[604430.1299999999,4114142.5299999993],[604431.3600000003,4114143.16],[604434.75,4114143.49],[604435.7800000003,4114144.2200000007],[604436.0800000001,4114145.1400000006],[604434.6200000001,4114148.2200000007],[604433.2800000003,4114147.6999999993],[604432.2599999998,4114146.9700000007],[604431.54,4114146.8599999994],[604430.2000000002,4114147.369999999],[604428.4400000004,4114148.49],[604429.04,4114151.0700000003],[604431.3899999997,4114154.789999999],[604431.79,4114156.539999999],[604431.46,4114159.1099999994],[604430.4299999997,4114159.83],[604429.1799999997,4114161.460000001],[604428.4400000004,4114164.8599999994],[604428.5300000003,4114167.74],[604430.8399999999,4114176.5999999996],[604432.0999999996,4114188.5500000007],[604430.0999999996,4114195.5299999993],[604429.21,4114205.8200000003],[604432.2400000002,4114215.51],[604430.5499999998,4114222.09],[604430.6500000004,4114223.0199999996],[604431.2599999998,4114224.7699999996],[604432.5800000001,4114226.9399999995],[604434.8399999999,4114227.880000001],[604435.3399999999,4114229.630000001],[604435.1299999999,4114230.039999999],[604432.3499999996,4114231.4700000007],[604431.8200000003,4114233.210000001],[604433.6600000001,4114235.3900000006],[604433.6600000001,4114235.8000000007],[604434.0599999996,4114237.24],[604435.1799999997,4114238.59],[604436.1100000003,4114238.49],[604438.2800000003,4114237.58],[604438.8899999997,4114237.4800000004],[604439.4100000001,4114238.0999999996],[604439.4000000004,4114239.130000001],[604438.9800000004,4114240.26],[604437.9500000002,4114240.869999999],[604433.3099999996,4114241.66],[604433.0,4114242.0700000003],[604432.8899999997,4114242.59],[604431.5899999999,4114254.0999999996],[604434.3899999997,4114266.5700000003],[604435.8799999999,4114275.0199999996],[604439.2400000002,4114280.8100000005],[604441.3700000001,4114286.17],[604440.5899999999,4114295.84],[604438.2000000002,4114299.5299999993],[604438.0800000001,4114301.9000000004],[604438.4800000004,4114303.4399999995],[604441.6500000004,4114307.0700000003],[604442.1600000001,4114308.0999999996],[604442.25,4114309.4399999995],[604441.7199999997,4114312.1099999994],[604441.2999999998,4114312.5199999996],[604440.0700000003,4114312.8200000003],[604439.3099999996,4114319.09],[604440.6100000003,4114323.9399999995],[604440.3899999997,4114326.1999999993],[604439.6699999999,4114327.4299999997],[604439.1500000004,4114327.3200000003],[604438.4299999997,4114327.42],[604438.1200000001,4114328.039999999],[604438.1200000001,4114328.4499999993],[604439.1200000001,4114332.5700000003],[604440.04,4114334.119999999],[604439.9299999997,4114334.33],[604439.6100000003,4114335.7699999996],[604439.71,4114337.3100000005],[604441.0300000003,4114340.0],[604441.5199999996,4114344.3200000003],[604441.4000000004,4114345.5600000005],[604440.5700000003,4114346.6799999997],[604439.8499999996,4114346.99],[604439.2300000004,4114347.91],[604437.3300000001,4114355.41],[604437.9199999999,4114359.630000001],[604440.1500000004,4114364.4800000004],[604440.3499999996,4114366.75],[604439.5099999998,4114368.5999999996],[604439.1900000004,4114370.6500000004],[604439.4900000002,4114371.8900000006],[604439.79,4114372.51],[604439.8799999999,4114374.7699999996],[604438.0,4114380.1099999994],[604437.8799999999,4114382.58],[604438.3899999997,4114383.41],[604440.75,4114384.66],[604441.5599999996,4114386.5199999996],[604441.6399999997,4114389.4000000004],[604441.54,4114389.91],[604441.0199999996,4114390.9399999995],[604439.4699999997,4114391.4399999995],[604438.2400000002,4114391.33],[604436.3899999997,4114390.4000000004],[604435.8700000001,4114390.3900000006],[604435.5599999996,4114390.6999999993],[604434.6200000001,4114393.99],[604433.8200000003,4114405.710000001],[604433.0800000001,4114409.9299999997],[604433.6900000004,4114410.960000001],[604438.5,4114414.3900000006],[604437.7800000003,4114415.0999999996],[604436.54,4114415.0999999996],[604436.3300000001,4114416.119999999],[604437.96,4114419.0199999996],[604439.3300000001,4114430.1400000006],[604439.8700000001,4114442.289999999],[604439.5,4114452.2699999996],[604439.6500000004,4114461.33],[604440.75,4114465.4499999993],[604441.2599999998,4114466.2799999993],[604447.5300000003,4114468.4800000004],[604447.8300000001,4114468.99],[604447.7199999997,4114469.92],[604447.0,4114469.8100000005],[604446.5899999999,4114469.5999999996],[604445.1500000004,4114469.3900000006],[604444.0199999996,4114470.0],[604443.2800000003,4114473.08],[604443.96,4114479.5700000003],[604445.3799999999,4114482.1500000004],[604445.7800000003,4114484.01],[604445.7800000003,4114484.9299999997],[604444.3200000003,4114487.1899999995],[604444.4100000001,4114489.3499999996],[604444.9199999999,4114490.1799999997],[604446.0499999998,4114491.01],[604447.0800000001,4114490.6999999993],[604447.5999999996,4114490.1899999995],[604448.0099999998,4114489.99],[604448.3200000003,4114489.99],[604448.9299999997,4114490.51],[604449.6500000004,4114490.7200000007],[604450.4800000004,4114490.619999999],[604450.79,4114490.01],[604451.0999999996,4114489.91],[604451.5099999998,4114490.01],[604451.71,4114490.2200000007],[604452.0199999996,4114490.84],[604452.1200000001,4114491.5600000005],[604451.6900000004,4114493.41],[604450.8600000003,4114494.33],[604448.2800000003,4114495.6500000004],[604447.4500000002,4114497.1899999995],[604447.4000000004,4114504.6999999993],[604449.3200000003,4114509.960000001],[604448.6699999999,4114516.0299999993],[604448.8700000001,4114517.0600000005],[604451.9299999997,4114520.6799999997],[604452.2999999998,4114527.58],[604450.6900000004,4114538.2699999996],[604451.0899999999,4114539.41],[604451.5,4114539.8200000003],[604452.3200000003,4114540.34],[604454.3799999999,4114541.1799999997],[604456.54,4114541.1899999995],[604460.9699999997,4114539.4700000007],[604461.3899999997,4114539.4700000007],[604461.3700000001,4114541.33],[604461.0599999996,4114542.869999999],[604460.8499999996,4114543.380000001],[604459.5999999996,4114544.8100000005],[604458.9699999997,4114547.2799999993],[604458.96,4114548.41],[604460.4900000002,4114550.99],[604461.9299999997,4114551.83],[604465.9100000001,4114557.0999999996],[604467.3300000001,4114560.51],[604466.9100000001,4114561.84],[604466.29,4114562.1500000004],[604462.8899999997,4114562.33],[604462.4699999997,4114562.74],[604462.6799999997,4114563.460000001],[604470.2400000002,4114571.6400000006],[604474.4100000001,4114580.0],[604475.8799999999,4114591.0199999996],[604478.1100000003,4114596.49],[604479.8499999996,4114598.3499999996],[604483.8499999996,4114600.539999999],[604485.1799999997,4114602.1999999993],[604487.5300000003,4114604.17]]}},{"type":"Feature","properties":{"source":"DERA/IECA","id_dera":10125300001126.0},"geometry":{"type":"LineString","coordinates":[[604487.5300000003,4114604.17],[604485.1799999997,4114602.1999999993],[604483.8499999996,4114600.539999999],[604479.8499999996,4114598.3499999996],[604478.1100000003,4114596.49],[604475.8799999999,4114591.0199999996],[604474.4100000001,4114580.0],[604470.2400000002,4114571.6400000006],[604462.6799999997,4114563.460000001],[604462.4699999997,4114562.74],[604462.8899999997,4114562.33],[604466.29,4114562.1500000004],[604466.9100000001,4114561.84],[604467.3300000001,4114560.51],[604465.9100000001,4114557.0999999996],[604461.9299999997,4114551.83],[604460.4900000002,4114550.99],[604458.96,4114548.41],[604458.9699999997,4114547.2799999993],[604459.5999999996,4114544.8100000005],[604460.8499999996,4114543.380000001],[604461.0599999996,4114542.869999999],[604461.3700000001,4114541.33],[604461.3899999997,4114539.4700000007],[604460.9699999997,4114539.4700000007],[604456.54,4114541.1899999995],[604454.3799999999,4114541.1799999997],[604452.3200000003,4114540.34],[604451.5,4114539.8200000003],[604451.0899999999,4114539.41],[604450.6900000004,4114538.2699999996],[604452.2999999998,4114527.58],[604451.9299999997,4114520.6799999997],[604448.8700000001,4114517.0600000005],[604448.6699999999,4114516.0299999993],[604449.3200000003,4114509.960000001],[604447.4000000004,4114504.6999999993],[604447.4500000002,4114497.1899999995],[604448.2800000003,4114495.6500000004],[604450.8600000003,4114494.33],[604451.6900000004,4114493.41],[604452.1200000001,4114491.5600000005],[604452.0199999996,4114490.84],[604451.71,4114490.2200000007],[604451.5099999998,4114490.01],[604451.0999999996,4114489.91],[604450.79,4114490.01],[604450.4800000004,4114490.619999999],[604449.6500000004,4114490.7200000007],[604448.9299999997,4114490.51],[604448.3200000003,4114489.99],[604448.0099999998,4114489.99],[604447.5999999996,4114490.1899999995],[604447.0800000001,4114490.6999999993],[604446.0499999998,4114491.01],[604444.9199999999,4114490.1799999997],[604444.4100000001,4114489.3499999996],[604444.3200000003,4114487.1899999995],[604445.7800000003,4114484.9299999997],[604445.7800000003,4114484.01],[604445.3799999999,4114482.1500000004],[604443.96,4114479.5700000003],[604443.2800000003,4114473.08],[604444.0199999996,4114470.0],[604445.1500000004,4114469.3900000006],[604446.5899999999,4114469.5999999996],[604447.0,4114469.8100000005],[604447.7199999997,4114469.92],[604447.8300000001,4114468.99],[604447.5300000003,4114468.4800000004],[604441.2599999998,4114466.2799999993],[604440.75,4114465.4499999993],[604439.6500000004,4114461.33],[604439.5,4114452.2699999996],[604439.8700000001,4114442.289999999],[604439.3300000001,4114430.1400000006],[604437.96,4114419.0199999996],[604436.3300000001,4114416.119999999],[604436.54,4114415.0999999996],[604437.7800000003,4114415.0999999996],[604438.5,4114414.3900000006],[604433.6900000004,4114410.960000001],[604433.0800000001,4114409.9299999997],[604433.8200000003,4114405.710000001],[604434.6200000001,4114393.99],[604435.5599999996,4114390.6999999993],[604435.8700000001,4114390.3900000006],[604436.3899999997,4114390.4000000004],[604438.2400000002,4114391.33],[604439.4699999997,4114391.4399999995],[604441.0199999996,4114390.9399999995],[604441.54,4114389.91],[604441.6399999997,4114389.4000000004],[604441.5599999996,4114386.5199999996],[604440.75,4114384.66],[604438.3899999997,4114383.41],[604437.8799999999,4114382.58],[604438.0,4114380.1099999994],[604439.8799999999,4114374.7699999996],[604439.79,4114372.51],[604439.4900000002,4114371.8900000006],[604439.1900000004,4114370.6500000004],[604439.5099999998,4114368.5999999996],[604440.3499999996,4114366.75],[604440.1500000004,4114364.4800000004],[604437.9199999999,4114359.630000001],[604437.3300000001,4114355.41],[604439.2300000004,4114347.91],[604439.8499999996,4114346.99],[604440.5700000003,4114346.6799999997],[604441.4000000004,4114345.5600000005],[604441.5199999996,4114344.3200000003],[604441.0300000003,4114340.0],[604439.71,4114337.3100000005],[604439.6100000003,4114335.7699999996],[604439.9299999997,4114334.33],[604440.04,4114334.119999999],[604439.1200000001,4114332.5700000003],[604438.1200000001,4114328.4499999993],[604438.1200000001,4114328.039999999],[604438.4299999997,4114327.42],[604439.1500000004,4114327.3200000003],[604439.6699999999,4114327.4299999997],[604440.3899999997,4114326.1999999993],[604440.6100000003,4114323.9399999995],[604439.3099999996,4114319.09],[604440.0700000003,4114312.8200000003],[604441.2999999998,4114312.5199999996],[604441.7199999997,4114312.1099999994],[604442.25,4114309.4399999995],[604442.1600000001,4114308.0999999996],[604441.6500000004,4114307.0700000003],[604438.4800000004,4114303.4399999995],[604438.0800000001,4114301.9000000004],[604438.2000000002,4114299.5299999993],[604440.5899999999,4114295.84],[604441.3700000001,4114286.17],[604439.2400000002,4114280.8100000005],[604435.8799999999,4114275.0199999996],[604434.3899999997,4114266.5700000003],[604431.5899999999,4114254.0999999996],[604432.8899999997,4114242.59],[604433.0,4114242.0700000003],[604433.3099999996,4114241.66],[604437.9500000002,4114240.869999999],[604438.9800000004,4114240.26],[604439.4000000004,4114239.130000001],[604439.4100000001,4114238.0999999996],[604438.8899999997,4114237.4800000004],[604438.2800000003,4114237.58],[604436.1100000003,4114238.49],[604435.1799999997,4114238.59],[604434.0599999996,4114237.24],[604433.6600000001,4114235.8000000007],[604433.6600000001,4114235.3900000006],[604431.8200000003,4114233.210000001],[604432.3499999996,4114231.4700000007],[604435.1299999999,4114230.039999999],[604435.3399999999,4114229.630000001],[604434.8399999999,4114227.880000001],[604432.5800000001,4114226.9399999995],[604431.2599999998,4114224.7699999996],[604430.6500000004,4114223.0199999996],[604430.5499999998,4114222.09],[604432.2400000002,4114215.51],[604429.21,4114205.8200000003],[604430.0999999996,4114195.5299999993],[604432.0999999996,4114188.5500000007],[604430.8399999999,4114176.5999999996],[604428.5300000003,4114167.74],[604428.4400000004,4114164.8599999994],[604429.1799999997,4114161.460000001],[604430.4299999997,4114159.83],[604431.46,4114159.1099999994],[604431.79,4114156.539999999],[604431.3899999997,4114154.789999999],[604429.04,4114151.0700000003],[604428.4400000004,4114148.49],[604430.2000000002,4114147.369999999],[604431.54,4114146.8599999994],[604432.2599999998,4114146.9700000007],[604433.2800000003,4114147.6999999993],[604434.6200000001,4114148.2200000007],[604436.0800000001,4114145.1400000006],[604435.7800000003,4114144.2200000007],[604434.75,4114143.49],[604431.3600000003,4114143.16],[604430.1299999999,4114142.5299999993],[604428.9000000004,4114141.3900000006],[604428.29,4114139.8499999996],[604428.3200000003,4114135.83],[604431.4699999997,4114125.5600000005],[604431.3799999999,4114122.58],[604429.5700000003,4114116.49],[604426.9299999997,4114110.8100000005],[604425.0300000003,4114102.26],[604424.9699999997,4114095.3599999994],[604427.3200000003,4114082.3100000005],[604428.4800000004,4114077.2699999996],[604430.1399999997,4114074.710000001],[604433.5499999998,4114072.5700000003],[604434.3799999999,4114071.5500000007],[604434.1299999999,4114063.0],[604433.5199999996,4114060.630000001],[604430.8799999999,4114055.0600000005],[604430.5899999999,4114053.0999999996],[604427.6299999999,4114049.0700000003],[604428.5700000003,4114047.2200000007],[604430.0099999998,4114045.789999999],[604430.9500000002,4114044.0500000007],[604431.5899999999,4114041.380000001],[604431.6100000003,4114038.08],[604429.2699999996,4114032.92],[604428.1699999999,4114028.59],[604428.1699999999,4114027.67],[604428.9000000004,4114026.2300000004],[604430.6500000004,4114026.1400000006],[604436.0099999998,4114024.630000001],[604437.1500000004,4114023.710000001],[604436.6500000004,4114021.75],[604435.6299999999,4114020.41],[604430.6100000003,4114017.289999999],[604430.0,4114015.9499999993],[604429.5999999996,4114014.1899999995],[604429.7000000002,4114013.58],[604432.5899999999,4114011.9499999993],[604433.8099999996,4114010.8200000003],[604434.7300000004,4114009.369999999]]}},{"type":"Feature","properties":{"source":"DERA/IECA","id_dera":10125300000252.0},"geometry":{"type":"LineString","coordinates":[[604487.5300000003,4114604.17],[604493.2800000003,4114606.5700000003],[604503.7699999996,4114608.1799999997],[604512.3799999999,4114613.0700000003],[604514.54,4114613.1899999995],[604516.5,4114612.8900000006],[604526.5199999996,4114615.7300000004],[604536.5300000003,4114618.5700000003],[604553.1799999997,4114622.49],[604565.3499999996,4114626.4299999997],[604577.5199999996,4114630.3599999994],[604593.8600000003,4114634.6799999997],[604599.21,4114634.710000001],[604600.0300000003,4114635.4399999995],[604601.7599999998,4114637.92],[604606.9000000004,4114639.8100000005],[604622.9199999999,4114643.92],[604636.29,4114645.8599999994],[604643.1699999999,4114648.0600000005],[604647.0599999996,4114651.789999999],[604662.6799999997,4114655.8000000007],[604676.6100000003,4114658.1500000004],[604690.54,4114660.5],[604691.2599999998,4114660.92],[604691.8600000003,4114662.4700000007],[604691.4500000002,4114662.880000001],[604690.8300000001,4114663.2799999993],[604689.9000000004,4114663.59],[604692.1600000001,4114664.630000001],[604693.3899999997,4114665.9800000004],[604694.2000000002,4114667.7300000004],[604694.5999999996,4114669.8900000006],[604694.2800000003,4114671.8499999996],[604693.6600000001,4114672.1500000004],[604692.9400000004,4114672.1500000004],[604690.6799999997,4114670.2799999993],[604686.0499999998,4114671.08],[604683.1699999999,4114671.0600000005],[604671.25,4114667.9000000004],[604670.6399999997,4114667.0700000003],[604670.4400000004,4114664.5999999996],[604668.71,4114662.9399999995],[604667.4699999997,4114662.619999999],[604664.5899999999,4114662.5],[604653.6799999997,4114663.5600000005],[604637.2199999997,4114661.09],[604624.0099999998,4114658.9499999993],[604610.7999999998,4114656.8100000005],[604592.5199999996,4114650.619999999],[604591.29,4114650.8200000003],[604588.29,4114652.24]]}},{"type":"Feature","properties":{"source":"DERA/IECA","id_dera":10125300001138.0},"geometry":{"type":"LineString","coordinates":[[604553.0709585121,4114800.0],[604554.7000000002,4114790.3499999996],[604554.54,4114782.4299999997],[604555.1699999999,4114772.25],[604555.7999999998,4114762.0600000005],[604556.2000000002,4114751.7200000007],[604556.5999999996,4114741.380000001],[604557.0,4114731.039999999],[604557.4000000004,4114720.6999999993],[604559.1100000003,4114710.1099999994],[604560.8200000003,4114699.5199999996],[604563.9900000002,4114686.880000001],[604570.8899999997,4114670.039999999],[604574.21,4114666.3599999994],[604588.29,4114652.24]]}}]}
