{"type":"FeatureCollection","name":"piedra-villazar-roads","crs":{"type":"name","properties":{"name":"EPSG:25830"}},"source":"\u00a9 OpenStreetMap contributors, ODbL 1.0","features":[{"type":"Feature","properties":{"classes":["residential","service","tertiary"]},"geometry":{"type":"MultiPolygon","coordinates":[[[[603780.5904147242,4110218.4126308933],[603792.8057169839,4110222.7572819944],[603792.9430042236,4110222.7988323914],[603793.0836324829,4110222.8270797697],[603793.2263158429,4110222.841765833],[603793.3697495931,4110222.8427562905],[603813.3688020224,4110222.0238297],[603813.50674683,4110222.0117844567],[603813.6429931252,4110221.987069991],[603813.7763798563,4110221.9498969126],[603837.1739407298,4110214.249046366],[603837.3196273671,4110214.192527245],[603846.1190586189,4110210.2398315133],[603846.2195741477,4110210.190083719],[603846.3160917556,4110210.132964843],[603853.8905940336,4110205.2591249966],[603859.6122685729,4110239.712067444],[603862.5717351614,4110239.2205824377],[603856.6486358538,4110203.554765001],[603862.9591333766,4110200.0],[603856.8466279376,4110200.0],[603854.2605204553,4110201.456779649],[603854.1850475378,4110201.50226506],[603844.7872676365,4110207.549299237],[603836.1617257932,4110211.4238840197],[603813.0371176094,4110219.034897515],[603793.5373017776,4110219.833381231],[603781.5957548934,4110215.5860974784],[603772.1405505631,4110212.223059256],[603768.3929422136,4110209.210767738],[603760.0,4110201.9297806555],[603760.0,4110205.9013307774],[603766.448317556,4110211.4953305493],[603766.4915187216,4110211.5314101065],[603770.4589420061,4110214.7203867533],[603771.3986842012,4110213.5512483497],[603770.8960120892,4110214.964514336],[603780.5904147242,4110218.4126308933]]],[[[603778.1077091494,4110246.2092578053],[603777.910498702,4110246.050956796],[603777.6983048718,4110245.913388818],[603777.473298866,4110245.797961493],[603777.237782988,4110245.7058558944],[603776.9941670804,4110245.6380144637],[603776.7449438669,4110245.595131368],[603776.4926634458,4110245.577645395],[603776.2399071979,4110245.5857354635],[603775.9892613722,4110245.6193187954],[603775.7432906239,4110245.6780517595],[603775.5045117717,4110245.761333389],[603775.2753680454,4110245.868311531],[603760.0,4110253.9647734887],[603760.0,4110259.6236953605],[603775.5217800344,4110251.39662671],[603803.7199347207,4110298.4148561903],[603802.2437734666,4110298.587555457],[603802.2404677349,4110298.587944432],[603785.4253936639,4110300.5778737827],[603786.0130032419,4110305.5432252293],[603800.2118234341,4110303.862908573],[603801.9377151068,4110330.2103965487],[603800.6185994858,4110336.019173469],[603800.5769871562,4110336.2536193095],[603800.5578678063,4110336.490960601],[603800.5614148761,4110336.729044318],[603802.85537427,4110373.362637212],[603802.8555533445,4110373.3654711554],[603802.9496998693,4110374.842061997],[603771.278306152,4110380.901967945],[603760.0,4110381.1045282343],[603760.0,4110386.105334588],[603771.5824483193,4110385.897311854],[603771.7958560708,4110385.884335289],[603772.0073746605,4110385.8531720755],[603805.0797901148,4110379.5251989863],[603805.2172733761,4110379.494856993],[603806.1822783567,4110379.253198274],[603903.5434068771,4110355.4109977693],[603906.096548254,4110354.7845555283],[603907.306491444,4110362.8051786716],[603900.0581819367,4110366.3868760895],[603899.8361945986,4110366.5109997457],[603899.6279671306,4110366.6570352954],[603899.4356546057,4110366.8234713282],[603899.2612473837,4110367.0085852966],[603899.106550511,4110367.2104613422],[603898.97316504,4110367.4270101273],[603898.8624714582,4110367.6559904567],[603898.7756154009,4110367.8950324734],[603898.7134957945,4110368.141662185],[603897.4441991328,4110374.539443295],[603897.4078763047,4110374.786725568],[603897.396425962,4110375.0363988755],[603897.4099625495,4110375.2859677663],[603902.2789615893,4110421.846519215],[603875.4030024797,4110425.8521196893],[603864.54164968,4110426.417097786],[603854.7813969782,4110425.1365246396],[603854.5744013085,4110425.1180777396],[603854.3665887094,4110425.116886511],[603854.1593951657,4110425.1329591847],[603800.226577738,4110431.5810696688],[603799.997894669,4110431.619237716],[603799.7737308295,4110431.6784265577],[603799.556014127,4110431.7581271436],[603799.346617021,4110431.857654014],[603799.1473404184,4110431.9761511935],[603798.9598981858,4110432.112599555],[603793.4239816766,4110436.5493582357],[603793.2384853861,4110436.7137718154],[603793.0701822456,4110436.8957464066],[603792.9207267608,4110437.093493106],[603792.7915881556,4110437.305067962],[603792.6840359288,4110437.5283910856],[603792.5991273737,4110437.7612670963],[603792.5376971848,4110438.001406703],[603791.5259381969,4110442.9710028125],[603791.49210145,4110443.1837092936],[603791.4766984388,4110443.398538807],[603791.4798434882,4110443.613896837],[603793.2946458008,4110475.035560414],[603760.7286190222,4110476.14008145],[603760.0,4110475.9287856533],[603760.0,4110481.116247659],[603760.2365172324,4110481.1457689987],[603760.4998122432,4110481.150716714],[603793.5821805325,4110480.0286832545],[603793.799783385,4110483.8191674096],[603793.5108680552,4110483.8391238567],[603767.2168624293,4110483.989702635],[603760.0,4110483.929527434],[603760.0,4110491.9298055274],[603767.1782883549,4110491.9896590924],[603767.2345463115,4110491.989732545],[603793.6831962161,4110491.83826816],[603793.935927631,4110491.8288254114],[603793.9715410331,4110491.8263654625],[603793.8956595245,4110497.9881811147],[603793.4549093988,4110505.167108685],[603792.8771760202,4110514.5692459787],[603792.8734629512,4110514.793040008],[603792.889780942,4110515.0162692117],[603792.9259991943,4110515.2371442723],[603807.194360165,4110583.074619084],[603760.0,4110581.7163746883],[603760.0,4110586.7184449425],[603808.3041721537,4110588.1086295187],[603829.6072289535,4110677.917719293],[603829.6750863343,4110678.1521695037],[603829.7654822052,4110678.3788854317],[603829.8775549629,4110678.595706146],[603830.0102363921,4110678.8005650337],[603830.1622618475,4110678.9915094925],[603830.3321823067,4110679.1667195465],[603846.4047096735,4110694.1966504897],[603850.1392435656,4110700.803973829],[603841.6429939998,4110703.5841017268],[603816.9726318794,4110710.0],[603836.8381190405,4110710.0],[603842.9762545199,4110708.40368566],[603843.1245032597,4110708.3601987963],[603851.3387933971,4110705.6723331683],[603851.365726144,4110710.0],[603856.3658229696,4110710.0],[603856.3289389721,4110704.0733244736],[603862.3127138426,4110702.230774444],[603908.6457457512,4110692.3333688034],[603962.4702665719,4110694.651738594],[603968.801715138,4110694.9184967787],[603972.7334597296,4110695.089007064],[603973.6772588706,4110695.129683714],[603975.3182833233,4110702.99375352],[603976.7824956347,4110710.0],[603981.8905172636,4110710.0],[603980.2127759805,4110701.9720188323],[603978.8414308599,4110695.400298503],[603994.8107171123,4110696.3253474687],[603994.8141570524,4110696.325544355],[604010.2718452606,4110697.1995840915],[604011.7584881516,4110710.0],[604019.812261613,4110710.0],[604018.0059075835,4110694.4467807263],[604017.9956188863,4110694.365470384],[604015.6893981291,4110677.526711974],[604015.6757040172,4110677.4346973617],[604014.1907139992,4110668.195828611],[604012.3510314778,4110656.7444985257],[604012.3473579773,4110656.722040471],[604009.0226003998,4110636.7527672704],[604008.9912543986,4110636.586328075],[604004.9382572159,4110617.3182089925],[604004.8874103101,4110617.105520831],[603996.4625352484,4110585.6889272216],[603996.4534707073,4110585.6556978296],[603995.8671722914,4110583.542287416],[603990.7739344817,4110565.1066781306],[603990.7500201111,4110565.0236235065],[603985.9207012103,4110548.9082723064],[603985.8649485592,4110548.736437801],[603981.0339261978,4110534.9179209378],[603980.930380385,4110534.6524883467],[603976.2923725024,4110523.9099206035],[603976.1156755384,4110523.551102835],[603975.9040281354,4110523.211724897],[603969.5843476937,4110514.1238975925],[603969.5480056042,4110514.0725043924],[603962.7876795912,4110504.670194415],[603961.7589504613,4110498.851769043],[603961.6610155647,4110498.4315322246],[603961.5183836858,4110498.0242898213],[603961.3327146163,4110497.6347808684],[603961.1061689663,4110497.2675380385],[603943.4743875522,4110471.862396579],[603943.2380580716,4110471.554856233],[603942.9730542653,4110471.2716501765],[603942.6818677104,4110471.015441125],[603942.3672361554,4110470.788637967],[603939.0609181187,4110468.640902342],[603938.9593037853,4110466.711416849],[603938.9180853064,4110466.311989639],[603938.8370277288,4110465.918707643],[603938.7169479155,4110465.535534187],[603937.3414586544,4110461.81254302],[603937.1811506303,4110461.4384013223],[603936.9836493597,4110461.082488523],[603936.7509999764,4110460.748490114],[603934.9433912371,4110458.4161118497],[603934.1472014397,4110453.2990666647],[603934.0793173962,4110452.9599995767],[603933.9824024176,4110452.628062504],[603933.8571807903,4110452.3057361515],[603928.9812711021,4110441.2024040218],[603924.0680922348,4110421.562770315],[603923.9637630801,4110421.213993137],[603923.8281560882,4110420.8761457796],[603923.66239451,4110420.5520266783],[603920.8368534747,4110415.5971981343],[603915.441622371,4110363.1308620237],[603915.4178535535,4110362.9433681956],[603913.5916042596,4110350.837297865],[603909.6515073577,4110313.388595837],[603907.5463448887,4110290.5199330794],[603907.5354155316,4110290.4160771198],[603897.4449173054,4110205.2305888413],[603897.433451275,4110205.1422274685],[603896.7078555156,4110200.0],[603888.6286051854,4110200.0],[603889.5056991089,4110206.2158804107],[603899.2906979719,4110288.822297583],[603897.4484052848,4110289.0161191504],[603897.4326350451,4110289.0178288883],[603893.1431071308,4110289.496653407],[603889.4518815534,4110289.886699149],[603888.6200126515,4110278.8209825624],[603885.6284538858,4110279.045873981],[603886.4655734097,4110290.1814355813],[603837.1770652736,4110294.6752729365],[603834.1906516171,4110268.513372269],[603829.2229129408,4110269.080445847],[603832.2026014447,4110295.183432112],[603809.1716124739,4110297.7836120427],[603778.590149922,4110246.7914020875],[603778.4492822794,4110246.581384285],[603778.2879183198,4110246.3866720805],[603778.1077091494,4110246.2092578053]],[[603902.3535801347,4110350.554629513],[603807.8862816984,4110373.688176799],[603807.8455114163,4110373.048737105],[603805.5741241089,4110336.775611197],[603806.8940519862,4110330.9632574744],[603806.9359689738,4110330.7264359468],[603806.9549358977,4110330.4866824783],[603806.9507772259,4110330.2462159],[603805.1842018598,4110303.277650052],[603808.1399946836,4110302.931845519],[603835.2241176261,4110299.8740700586],[603888.37399305,4110295.0281758606],[603888.4097075048,4110295.0246609827],[603892.1865609514,4110294.625567084],[603895.3140602991,4110323.9504694184],[603898.2971431598,4110323.632323783],[603895.1690189946,4110294.301562866],[603897.9794394367,4110293.987845776],[603899.8139899799,4110293.794838734],[603901.6875787316,4110314.147885086],[603901.6926951351,4110314.1997600207],[603905.4380793168,4110349.7978124777],[603902.3535801347,4110350.554629513]],[[603850.5688117949,4110691.40248541],[603850.4329853395,4110691.188316785],[603850.2761597736,4110690.9890110707],[603850.0999489452,4110690.806619267],[603834.2981623877,4110676.0298666554],[603813.478333769,4110588.257962601],[603888.4849385365,4110590.4263514373],[603888.6904808327,4110590.4238392026],[603888.8951219419,4110590.404449431],[603889.0974783612,4110590.3683132115],[603947.4396026282,4110577.4542935374],[603969.2213413051,4110675.045970577],[603972.1844057033,4110688.3308567866],[603972.5752205187,4110690.07744495],[603969.0168090983,4110689.9231252247],[603969.0137287672,4110689.9229935408],[603962.6842580016,4110689.6563197877],[603908.5426252328,4110687.3242911156],[603908.3314401434,4110687.3241228987],[603908.1209943511,4110687.3417790253],[603907.9127895691,4110687.377133502],[603861.1602464666,4110697.3641528008],[603860.9467789332,4110697.4197029322],[603855.0040905375,4110699.2496014354],[603850.5688117949,4110691.40248541]],[[603931.3237945656,4110531.5144177927],[603931.2032701354,4110531.294283527],[603931.0612821471,4110531.087342365],[603930.8992615037,4110530.8956797854],[603930.7188409907,4110530.7212272943],[603930.5218388205,4110530.5657429597],[603930.3102403096,4110530.4307936975],[603907.8765208509,4110517.6602192926],[603907.647391792,4110517.5449268995],[603907.4076552873,4110517.453719061],[603907.1598349933,4110517.387555903],[603906.9065396633,4110517.3471339117],[603881.9142892798,4110514.6645452343],[603881.7228777561,4110514.651404231],[603850.0199379268,4110513.694834478],[603850.0119090877,4110513.6946051335],[603798.0264620534,4110512.2932109595],[603798.4455006988,4110505.473700403],[603798.8900171425,4110498.233427187],[603798.8945259977,4110498.1110128495],[603798.9762134603,4110491.4777355925],[603809.8109524986,4110490.714698567],[603822.7997250289,4110489.809597478],[603823.0524727248,4110489.7838978763],[603852.0434192531,4110485.9024223792],[603867.9945642048,4110483.76407399],[603882.5366259655,4110483.813548619],[603916.3604773792,4110485.7602724624],[603918.5658109062,4110486.3576229606],[603924.335076725,4110489.613353102],[603949.224580066,4110506.560003391],[603949.5966505036,4110506.7847627895],[603949.9909128853,4110506.9678211743],[603956.4403572609,4110509.546235996],[603963.0343003775,4110518.7171394457],[603969.1068015522,4110527.4495180035],[603973.5291729863,4110537.692627959],[603978.2833350678,4110551.291295897],[603982.2822840763,4110564.6357175494],[603966.5412094924,4110568.11297481],[603950.7257230891,4110571.606739521],[603931.3237945656,4110531.5144177927]],[[603904.9436409241,4110469.456616759],[603904.8825090871,4110471.2699169815],[603904.8858754028,4110471.616985583],[603904.9193162589,4110471.962455778],[603904.9825798707,4110472.303726435],[603905.0751899111,4110472.638228045],[603906.4873043,4110476.994132572],[603906.5578049001,4110477.182842695],[603885.1382857936,4110475.9500472913],[603904.9436409241,4110469.456616759]],[[603903.2158707521,4110461.604085333],[603880.5209303456,4110469.044902122],[603879.9985357097,4110469.2580507942],[603866.5535406293,4110475.8856879314],[603850.9814747849,4110477.9732185057],[603822.1168247244,4110481.837784702],[603809.2533616784,4110482.734153807],[603798.7880382097,4110483.4711738443],[603798.5696314814,4110479.6666867556],[603822.9417577375,4110476.920898062],[603823.0728364536,4110476.9026051853],[603861.5116775143,4110470.4967211382],[603861.7329757621,4110470.449458924],[603861.949093874,4110470.3823799174],[603887.0492820118,4110461.3272800134],[603897.6130870646,4110457.5300452607],[603897.817649852,4110457.446123448],[603898.0139975158,4110457.344455363],[603906.8896117582,4110452.2387942844],[603907.10029371,4110452.1031112503],[603907.2963338635,4110451.9470182364],[603907.4757625085,4110451.772083586],[603907.6367768387,4110451.580064951],[603907.7777590652,4110451.372891636],[603907.8972926716,4110451.152645211],[603907.9941766459,4110450.9215385993],[603908.067437548,4110450.6818938395],[603908.1163392903,4110450.4361187587],[603908.1403905331,4110450.1866827784],[603908.4680184129,4110443.067156079],[603908.4674954858,4110442.826458161],[603907.6300303731,4110426.201310665],[603912.4014480006,4110425.6917135883],[603914.2159079792,4110441.7418832565],[603912.4640499066,4110455.402725339],[603910.9009625127,4110456.4503308306],[603910.5993291432,4110456.673688201],[603910.3199586294,4110456.9243340073],[603910.0653106751,4110457.200061452],[603908.2816126487,4110459.3231599955],[603903.2158707521,4110461.604085333]],[[603822.3162122801,4110471.959741441],[603798.2817199131,4110474.6674919548],[603796.4902634512,4110443.6500382903],[603797.2567350599,4110439.8852540185],[603801.5294186916,4110436.460912961],[603854.4417345438,4110430.134811807],[603864.1179364313,4110431.404357245],[603864.3450724602,4110431.4236762733],[603864.5730239821,4110431.422225705],[603875.7826437904,4110430.839131704],[603876.0213062549,4110430.8151950263],[603902.6561422904,4110426.8455316024],[603903.4677653848,4110442.9576698295],[603903.2086679782,4110448.5879931864],[603895.7130648353,4110452.89980848],[603885.3565912261,4110456.622516473],[603885.3538820684,4110456.6234920607],[603860.4658571954,4110465.602052317],[603822.3162122801,4110471.959741441]],[[603905.8553342116,4110522.2630213574],[603927.161514283,4110534.391734939],[603945.70808609,4110572.7165397615],[603888.319556441,4110585.4194814228],[603812.3349327566,4110583.222818739],[603798.4707576161,4110517.3070044555],[603849.8731563189,4110518.6926811435],[603881.4761237898,4110519.6462344397],[603905.8553342116,4110522.2630213574]],[[603917.9395280791,4110461.3635556186],[603920.6382970689,4110460.5320105595],[603923.4282000812,4110460.543279639],[603926.0948036312,4110461.3947166335],[603928.3591364183,4110462.979998526],[603930.0505898477,4110465.1625002637],[603931.0023067486,4110467.738480837],[603931.1444872295,4110470.4382493263],[603930.291745017,4110473.474911947],[603928.4868113223,4110476.0291880276],[603925.9219625207,4110477.827704689],[603922.7966450267,4110478.6881589927],[603920.6720160081,4110478.639842822],[603918.624140157,4110478.0851422995],[603915.8317073819,4110476.3371955627],[603913.8778140126,4110473.849710797],[603912.9016012027,4110470.8384180637],[603913.0080398571,4110467.681221334],[603914.2251023267,4110464.685505169],[603915.8258366542,4110462.7801844985],[603917.9395280791,4110461.3635556186]],[[603903.3780786124,4110370.3235077974],[603907.9088462144,4110368.0846631946],[603912.914956872,4110416.7669678666],[603912.3590438166,4110420.6678066184],[603907.2401355505,4110421.2145164],[603902.4221496448,4110375.1417858843],[603903.3780786124,4110370.3235077974]],[[603924.8828010791,4110452.631508584],[603924.4812472265,4110452.5681259106],[603924.0753338408,4110452.545828304],[603920.8975758057,4110452.5329925856],[603921.874440611,4110444.915482897],[603925.3137543547,4110452.7474250854],[603925.2758477775,4110452.7353216507],[603924.8828010791,4110452.631508584]],[[603934.1757213441,4110481.7387331747],[603934.4087300269,4110481.4856872284],[603934.6191362799,4110481.213557653],[603937.223087813,4110477.5285407826],[603937.4342559973,4110477.1904191063],[603952.7810658417,4110499.303208841],[603930.6850516209,4110484.2585765454],[603933.648943803,4110482.180243714],[603933.9218334076,4110481.9708241327],[603934.1757213441,4110481.7387331747]],[[603988.1577452308,4110585.6788123823],[603988.7400091396,4110587.7776797423],[603997.1320919868,4110619.0719902706],[604001.1451385325,4110638.1501823445],[604004.4541166256,4110658.024680264],[604006.2920192857,4110669.4649313833],[604007.7697019746,4110678.658337647],[604009.6181422808,4110692.1546344156],[603995.0981462507,4110691.3336155587],[603977.7551476872,4110690.3289918937],[603977.0643078538,4110687.241565396],[603974.1013902539,4110673.9573373557],[603952.3216755824,4110576.3747286242],[603967.619735406,4110572.9952674937],[603983.67386447,4110569.4488554266],[603988.1566088308,4110585.674707556],[603988.1577452308,4110585.6788123823]]],[[[603760.0,4110643.76753452],[603775.0340555371,4110710.0],[603780.1612480073,4110710.0],[603760.0,4110621.1797106653],[603760.0,4110643.76753452]]]]}}]}
