{"type":"FeatureCollection","name":"piedra-villazar-coastline","crs":{"type":"name","properties":{"name":"EPSG:25830"}},"features":[{"type":"Feature","properties":{"source":"DERA/IECA","id_dera":10125300001144.0},"geometry":{"type":"LineString","coordinates":[[603948.0780662731,4110200.0],[603948.2999999998,4110214.380000001],[603949.2300000004,4110227.66],[603953.5599999996,4110262.0199999996],[603960.2599999998,4110287.1500000004],[603968.3300000001,4110308.26],[603974.1500000004,4110317.6099999994],[603980.4100000001,4110330.630000001],[603984.9500000002,4110340.34],[603988.79,4110347.4700000007],[603992.4299999997,4110351.869999999],[603996.3300000001,4110356.1500000004],[603997.4199999999,4110357.34],[604004.5199999996,4110366.7699999996],[604017.1600000001,4110391.1799999997],[604020.4900000002,4110406.6799999997],[604024.1399999997,4110416.41],[604024.3600000003,4110422.1799999997],[604022.7000000002,4110433.24],[604021.7800000003,4110452.1999999993],[604022.71,4110476.58],[604024.4400000004,4110492.0700000003],[604029.1299999999,4110520.4499999993],[604032.54,4110541.6799999997],[604034.2699999996,4110562.83],[604035.9299999997,4110579.3499999996],[604038.3899999997,4110596.9800000004],[604042.2999999998,4110624.789999999],[604045.4100000001,4110641.6400000006],[604046.9699999997,4110656.2699999996],[604048.0099999998,4110660.6500000004],[604049.9199999999,4110664.08],[604050.6100000003,4110666.8200000003],[604050.5199999996,4110670.130000001],[604053.04,4110678.9000000004],[604057.3799999999,4110686.08],[604062.3600000003,4110692.2200000007],[604067.21,4110697.16],[604070.0499999998,4110698.3100000005],[604078.0800000001,4110700.0700000003],[604082.0199999996,4110701.4399999995],[604087.8399999999,4110705.710000001],[604090.578407185,4110710.0]]}}]}
