{"type":"FeatureCollection","name":"venta-del-bancal-coastline","crs":{"type":"name","properties":{"name":"EPSG:25830"}},"features":[{"type":"Feature","properties":{"source":"DERA/IECA","id_dera":10125300000467.0},"geometry":{"type":"LineString","coordinates":[[602445.1358921495,4106500.0],[602453.1600000001,4106509.3000000007],[602471.7300000004,4106522.41],[602482.0800000001,4106529.1799999997],[602513.0599999996,4106540.380000001],[602523.8799999999,4106541.880000001],[602540.2800000003,4106539.58]]}},{"type":"Feature","properties":{"source":"DERA/IECA","id_dera":10125300000519.0},"geometry":{"type":"MultiLineString","coordinates":[[[602540.2800000003,4106539.58],[602534.3004254291,4106500.0]],[[602549.9125490197,4106500.0],[602554.2800000003,4106524.789999999],[602560.3499999996,4106570.789999999],[602560.5199999996,4106596.58],[602556.5599999996,4106602.039999999],[602550.9199999999,4106603.7799999993],[602547.6600000001,4106600.9700000007],[602547.2000000002,4106596.130000001],[602547.0899999999,4106591.8499999996],[602543.2699999996,4106577.789999999]]]}},{"type":"Feature","properties":{"source":"DERA/IECA","id_dera":10125300000709.0},"geometry":{"type":"LineString","coordinates":[[602543.2699999996,4106577.789999999],[602531.9900000002,4106581.6999999993],[602524.4000000004,4106587.1999999993],[602518.3499999996,4106596.2699999996],[602514.4299999997,4106605.3599999994],[602511.6500000004,4106635.41],[602519.6799999997,4106706.5700000003],[602538.0599999996,4106783.3599999994],[602543.25,4106814.74],[602548.3099999996,4106882.460000001],[602558.2400000002,4106946.08],[602587.4900000002,4107096.4800000004],[602626.6500000004,4107274.16],[602636.6500000004,4107328.8000000007],[602641.9000000004,4107370.7300000004],[602657.3399999999,4107422.4299999997],[602666.4900000002,4107476.92],[602666.8827455624,4107480.0]]}}]}
