{"type":"FeatureCollection","name":"venta-del-bancal-roads","crs":{"type":"name","properties":{"name":"EPSG:25830"}},"source":"\u00a9 OpenStreetMap contributors, ODbL 1.0","features":[{"type":"Feature","properties":{"class":"cycleway","widthMeters":2.5},"geometry":{"type":"Polygon","coordinates":[[[602580.1070364786,4107476.915727652],[602579.4067741736,4107473.258596651],[602579.9283991012,4107468.797654556],[602582.6844146792,4107464.206979604],[602587.4891448447,4107460.174439754],[602587.5791111791,4107460.0910765147],[602587.6604745805,4107459.999297607],[602587.7324517019,4107459.8999866564],[602587.7943495652,4107459.794099804],[602587.8455722326,4107459.682656503],[602587.8856265448,4107459.5667297025],[602587.9141268685,4107459.447435518],[602587.9307988096,4107459.325922484],[602588.2197926088,4107456.02289216],[602588.2245496087,4107455.914562111],[602588.219900187,4107455.806227391],[602588.205879331,4107455.6987032345],[602588.1825925498,4107455.5927987755],[602579.7014184454,4107423.6891570324],[602579.693819748,4107423.661825921],[602556.8145053593,4107344.8457487514],[602555.1416410363,4107338.259610641],[602540.975518133,4107280.6159824342],[602540.9738811799,4107280.609398622],[602522.7642602142,4107208.2100710804],[602522.7522623038,4107208.1658165115],[602516.0550650675,4107185.1436306075],[602510.1808017686,4107160.844693585],[602510.1691657342,4107160.800166532],[602493.1566957033,4107100.2768618017],[602493.1406340003,4107100.2242014403],[602481.5299340561,4107064.9595894706],[602473.9311312162,4107030.129353093],[602473.2644066354,4107026.1892085085],[602459.8408919604,4106946.761160631],[602445.3704176903,4106858.4963272787],[602438.2108347572,4106810.8372507184],[602434.6792884077,4106784.6379099707],[602432.8750889832,4106757.124322401],[602431.0140426328,4106724.4965772983],[602431.0120157244,4106724.4671522807],[602429.6676495016,4106707.8182811667],[602429.653690711,4106707.707439569],[602423.5279834458,4106672.0166991176],[602419.4054256285,4106647.75672325],[602419.4006877457,4106647.730533543],[602414.9118382881,4106624.341665592],[602414.9108079778,4106624.336359234],[602407.8526406416,4106588.4004520224],[602405.3298253154,4106570.406286673],[602405.3059079094,4106570.2819092986],[602405.269526939,4106570.1605907157],[602405.2210559181,4106570.04357647],[602405.1609924859,4106569.932067916],[602405.0899532977,4106569.827209882],[602405.0086676942,4106569.730078918],[602404.9179702126,4106569.6416722415],[602400.9695480575,4106566.1651720735],[602400.8692539016,4106566.0856006234],[602400.7613467381,4106566.016705214],[602400.6469585065,4106565.9592085546],[602400.527289133,4106565.913713781],[602400.4035939422,4106565.8806981314],[602400.2771704892,4106565.8605079376],[602400.1493449488,4106565.8533549937],[602400.0214582034,4106565.8593143336],[602392.5735338838,4106566.5900338665],[602392.8176380987,4106569.078087952],[602399.7250751156,4106568.4003958954],[602402.9183356543,4106571.21199262],[602405.3815982713,4106588.7813939024],[602405.3929257599,4106588.8487485903],[602412.4571563631,4106624.8155262806],[602416.9429880481,4106648.188670317],[602421.0634893554,4106672.436544261],[602421.0638370481,4106672.438580141],[602427.1802605368,4106708.0752297183],[602428.518939378,4106724.653667282],[602430.3794485362,4106757.271994367],[602430.3800989981,4106757.282604504],[602432.1874489809,4106784.8442372964],[602432.19597373,4106784.9294282477],[602435.7345046753,4106811.1805853345],[602435.7371714076,4106811.199299011],[602442.899401563,4106858.8759972923],[602442.9019984491,4106858.892529841],[602457.3743241832,4106947.168656476],[602457.3753344894,4106947.174725402],[602470.7993831654,4107026.605933008],[602471.4710920942,4107030.575533769],[602471.4822982481,4107030.633423298],[602479.1011563786,4107065.555586066],[602479.1351276144,4107065.6800581063],[602490.7574186138,4107100.9798750216],[602507.7562098452,4107161.4545162627],[602513.6318058171,4107185.7589658983],[602513.6465593873,4107185.814393832],[602520.345364565,4107208.842107171],[602538.548565068,4107281.2159077018],[602552.7150358587,4107338.8609515037],[602552.7173872305,4107338.870361823],[602554.396644217,4107345.481668122],[602554.40773006,4107345.5224160315],[602577.2889771442,4107424.3451510696],[602585.7102064199,4107456.0232982864],[602585.4854347097,4107458.5923076463],[602580.9168809968,4107462.4266280495],[602580.8160881955,4107462.521197546],[602580.7263520483,4107462.626316537],[602580.6487696382,4107462.740699875],[602577.6464253773,4107467.741682709],[602577.5843320887,4107467.8587593334],[602577.5349826483,4107467.9817517935],[602577.4989317445,4107468.109277653],[602577.4765845895,4107468.23990352],[602576.9013356847,4107473.1594384536],[602576.8930088257,4107473.2864405597],[602576.8976396942,4107473.4136310723],[602576.9151802808,4107473.539691373],[602577.6839526261,4107477.554617147],[602577.710414316,4107477.6652780385],[602577.7468288059,4107477.773074323],[602577.7928943844,4107477.877112856],[602578.8509147097,4107480.0],[602581.6441991309,4107480.0],[602580.1070364786,4107476.915727652]]]}},{"type":"Feature","properties":{"class":"footway","widthMeters":2},"geometry":{"type":"MultiPolygon","coordinates":[[[[602424.0485869693,4106553.455221669],[602423.9771228337,4106553.479140476],[602406.6387550054,4106560.0185442115],[602406.259829726,4106559.1131277764],[602406.2137788427,4106559.017646154],[602406.1578792406,4106558.9275758564],[602406.092759087,4106558.843929041],[602406.0191501647,4106558.767645684],[602398.0217124812,4106551.314116776],[602396.6581270319,4106552.777207587],[602404.4980247602,4106560.083910892],[602405.1659522068,4106561.6798785417],[602407.2294378714,4106566.637941149],[602408.2479517345,4106572.575525687],[602408.2503574393,4106572.5889963545],[602412.1546316491,4106593.6184628373],[602412.1554035902,4106593.6225728164],[602416.8563319661,4106618.366034725],[602417.7384315251,4106623.7728643613],[602418.1406735142,4106626.4349291567],[602418.1461543863,4106626.4675419815],[602421.0212425201,4106641.999272397],[602418.9219132714,4106642.341043428],[602418.8239515391,4106642.3620771505],[602418.7285863367,4106642.392808188],[602418.6367750278,4106642.432928034],[602418.5494392987,4106642.482033929],[602418.4674559054,4106642.539632902],[602418.3916478727,4106642.6051467224],[602418.3227762313,4106642.677917702],[602418.2615323779,4106642.757215299],[602418.2085311346,4106642.8422434516],[602418.1643045766,4106642.9321485683],[602418.1292966905,4106643.0260281],[602418.1038589178,4106643.122939597],[602418.0882466263,4106643.221910172],[602418.0826165463,4106643.3219462694],[602418.0870251979,4106643.422043633],[602418.101428323,4106643.521197395],[602418.7571614571,4106646.8522432754],[602418.0051721416,4106646.9803361073],[602417.9919758155,4106646.982675052],[602407.3652252682,4106648.939718544],[602407.7274577863,4106650.906641929],[602418.3476180139,4106648.9508121233],[602420.1044181464,4106648.65156119],[602420.20178098,4106648.629931209],[602420.2965049457,4106648.5987102585],[602420.3876477886,4106648.5582089047],[602420.4743028764,4106648.508830031],[602420.5556082183,4106648.4510648265],[602420.6307550392,4106648.3854879043],[602420.6989958254,4106648.312751582],[602420.7596517601,4106648.2335793963],[602420.8121194758,4106648.1487589017],[602420.8558770563,4106648.0591338407],[602420.8904892283,4106647.965595747],[602420.9156116918,4106647.8690750794],[602420.9309945438,4106647.7705319654],[602420.9364847655,4106647.6709466507],[602420.9320277435,4106647.5713097476],[602420.9176678136,4106647.472612383],[602420.2633942086,4106644.148980736],[602421.383969905,4106643.96655089],[602428.7676352329,4106684.1784479185],[602433.587553706,4106711.5606840155],[602434.2938792474,4106723.649521854],[602429.7841619605,4106723.5679237107],[602429.7574032389,4106723.5677976236],[602421.2244095778,4106723.6417629723],[602421.2191264792,4106723.641822725],[602415.6901033537,4106723.71896526],[602415.704054286,4106724.718867941],[602414.7041744078,4106724.734367263],[602414.9184303209,4106738.556273543],[602414.9458308986,4106746.476398561],[602414.6782732834,4106749.1286718748],[602414.1996354548,4106753.911680271],[602412.9215949245,4106755.6566714733],[602410.9142393507,4106757.696772564],[602408.4243832305,4106760.194023574],[602408.3557839965,4106760.2702766387],[602408.2953565107,4106760.3531554886],[602408.2437364934,4106760.4417882063],[602408.2014670072,4106760.5352423415],[602408.1689927434,4106760.6325347205],[602408.1466553435,4106760.73264179],[602408.1346898058,4106760.834510385],[602408.1332220123,4106760.9370688098],[602408.1422674047,4106761.039238109],[602410.3429678655,4106776.6998797827],[602410.3459746601,4106776.7198161753],[602411.9449339632,4106786.6422516652],[602412.9498826189,4106796.3076073467],[602413.3526017786,4106804.7285070675],[602413.3655434096,4106804.8479746184],[602417.6618716617,4106830.176275563],[602419.6337052025,4106829.841802115],[602415.3474432603,4106804.572845455],[602414.9462659649,4106796.1841862793],[602414.9420456705,4106796.128538645],[602413.9313049384,4106786.4074761583],[602413.9239303642,4106786.3517995444],[602412.3221056171,4106776.4115823745],[602410.1920590157,4106761.253728242],[602412.3328809713,4106759.1065480313],[602412.3375306951,4106759.101853581],[602414.3981989294,4106757.007570153],[602414.4921566533,4106756.897083698],[602415.9742765597,4106754.873449755],[602415.1675146102,4106754.282573154],[602416.1625448632,4106754.3821462216],[602416.6682139698,4106749.3290121476],[602416.940955235,4106746.6253538006],[602415.946004972,4106746.524984612],[602416.9459989875,4106746.5215250184],[602416.9183975244,4106738.5433341484],[602416.9182833871,4106738.53129442],[602416.7194575064,4106725.704798069],[602421.2443868526,4106725.641664942],[602429.7613587014,4106725.567838473],[602434.3738578637,4106725.6512963357],[602434.7095271118,4106743.100298211],[602434.7113254988,4106743.144015428],[602435.6876998582,4106758.6233667606],[602435.6907498065,4106758.6606222363],[602440.8621131413,4106810.0080373613],[602440.862380502,4106810.0106574255],[602441.3952653279,4106815.1655630195],[602441.4037861988,4106815.228423304],[602448.4225180391,4106857.004404393],[602443.9803032489,4106857.702421087],[602443.9386220888,4106857.7098780177],[602438.4683850536,4106858.8085270445],[602434.8861207161,4106859.530807548],[602435.2814194101,4106861.4913531207],[602438.8625735113,4106860.7692961795],[602444.3116786391,4106859.6748913107],[602448.7487644703,4106858.9776805434],[602462.7846142717,4106945.2909519393],[602458.4510942961,4106945.9787900927],[602458.4489073547,4106945.979139698],[602450.3099446691,4106947.2894830103],[602450.3043107219,4106947.2904065624],[602436.1090969387,4106949.659004833],[602436.2736804452,4106950.645367986],[602435.2917017861,4106950.83435982],[602436.1774278433,4106955.436485046],[602440.6168411678,4106979.0949668065],[602443.7517033909,4106996.781453519],[602443.7528376335,4106996.7877360065],[602447.1784934272,4107015.421800322],[602448.1253224408,4107020.8217948307],[602448.1464956917,4107020.9157151366],[602448.176602728,4107021.007164012],[602448.2153644772,4107021.095293787],[602448.2624216442,4107021.1792875575],[602448.3173380403,4107021.2583667575],[602448.3796046275,4107021.3317983756],[602448.448644236,4107021.3989017503],[602448.523816915,4107021.459054878],[602448.6044258642,4107021.5117001794],[602452.9635018748,4107024.068044654],[602455.7725964799,4107025.9579606964],[602456.4141275075,4107029.7594786417],[602456.416551828,4107029.77325639],[602457.5082454778,4107035.732950867],[602457.8192943996,4107037.448667867],[602460.8836376799,4107062.887904794],[602460.8921229218,4107062.9446047083],[602462.5558393949,4107072.234033527],[602464.1214717389,4107093.6403281656],[602464.3605536611,4107097.9684912884],[602464.5795627212,4107106.965505246],[602464.5802702003,4107106.9859611196],[602465.0065599274,4107116.493699762],[602465.2249266386,4107123.3686553002],[602465.4222319262,4107129.806045517],[602466.4217625491,4107129.7754100156],[602465.4243717092,4107129.847600822],[602466.8387098731,4107149.3881489728],[602467.515379929,4107166.4810139863],[602464.902305858,4107172.098982188],[602462.0132848984,4107176.0791872423],[602458.0610372939,4107179.586173073],[602457.9905664659,4107179.655210297],[602457.9272409489,4107179.730855223],[602455.615022982,4107182.787403962],[602455.5529055108,4107182.879789285],[602455.5014419749,4107182.978506723],[602453.3097101847,4107187.8229389293],[602453.2786070994,4107187.90007815],[602453.2540220002,4107187.9795352714],[602452.0989723897,4107192.348341567],[602452.0807697446,4107192.4313015216],[602452.0696724722,4107192.515506871],[602451.6702857625,4107197.013824492],[602451.1747178776,4107200.621793588],[602449.2506986444,4107203.8543456555],[602446.1667706679,4107206.643629191],[602441.4564743956,4107210.6254311046],[602441.432914442,4107210.645987344],[602438.6293431227,4107213.1703979718],[602435.6371221878,4107215.1678881897],[602432.8992741375,4107216.427592377],[602430.0080372415,4107217.0236602444],[602398.857531118,4107217.1984401476],[602359.439139045,4107216.7645232417],[602359.417124417,4107218.7644020766],[602398.84382534,4107219.1984104463],[602398.8604433864,4107219.1984552885],[602430.1184325299,4107219.0230723172],[602430.2170948066,4107219.017636769],[602430.3147389835,4107219.002490656],[602433.4152031293,4107218.3632877413],[602433.5252610741,4107218.333975411],[602433.6312720887,4107218.292338544],[602436.5447350646,4107216.9518326274],[602436.6148602482,4107216.916160602],[602436.6819640056,4107216.87508603],[602439.7999393272,4107214.793647079],[602439.913864168,4107214.705076708],[602442.7595750224,4107212.1427225154],[602446.6571925851,4107208.8479104326],[602446.695509525,4107208.8995236484],[602447.4984343385,4107208.3034433317],[602446.71660743,4107208.926938869],[602448.441108477,4107211.0893622404],[602448.4460864521,4107211.0955537166],[602450.366854996,4107213.465218269],[602450.4606165885,4107213.5999491448],[602442.9734937794,4107219.6495778924],[602439.8839440069,4107221.797684767],[602435.6405987754,4107223.6518255966],[602432.3046681521,4107224.3895118968],[602413.8866729476,4107225.0593181713],[602365.2432860936,4107224.879407281],[602365.2239354968,4107224.8795229425],[602343.2598177319,4107225.223348613],[602343.1707249349,4107225.2287269835],[602343.082466583,4107225.2420279854],[602342.9957457819,4107225.263145656],[602322.4116646607,4107231.26041552],[602322.9711126682,4107233.180576432],[602343.4258388125,4107227.220994755],[602365.2455648575,4107226.879429389],[602413.8993031468,4107227.0593785644],[602413.939344613,4107227.058724782],[602432.46818318,4107226.3848874727],[602432.5584903208,4107226.377495554],[602432.647757662,4107226.361959726],[602436.1676012004,4107225.5836041034],[602436.261301644,4107225.558053549],[602436.3520815851,4107225.5235338984],[602440.7746451892,4107223.591083131],[602440.8622077928,4107223.5476074754],[602440.945106792,4107223.4957895433],[602444.1448038291,4107221.271099311],[602444.2024284804,4107221.2278739493],[602452.4128457395,4107214.593820048],[602455.7479370602,4107212.2841629083],[602459.225169241,4107210.635524094],[602461.1793362688,4107210.2945476654],[602464.1290058476,4107210.451854905],[602467.0579235821,4107211.656293522],[602467.068029601,4107211.660385085],[602469.1990721981,4107212.5096755363],[602470.6840025899,4107214.017572518],[602471.8820452848,4107215.8606053465],[602472.4459714155,4107218.4243687824],[602471.9525944508,4107220.847502088],[602471.030222563,4107221.9538076418],[602468.9599201859,4107223.291085384],[602467.0575641565,4107223.982636045],[602467.3992133326,4107224.9224636042],[602467.0398326752,4107223.98927255],[602465.950514975,4107224.4087790484],[602465.8596591132,4107224.4490607693],[602465.7732504198,4107224.4981621173],[602465.6921423882,4107224.555598098],[602465.6171361554,4107224.6208013934],[602465.5489725883,4107224.6931279637],[602465.488324966,4107224.7718634102],[602465.4357923297,4107224.8562300317],[602465.3918935654,4107224.9453945043],[602465.357062279,4107225.038476114],[602465.3316425132,4107225.1345554576],[602465.3158853493,4107225.232683519],[602465.3099464272,4107225.3318910482],[602465.3138844082,4107225.4311981327],[602465.327660395,4107225.5296238754],[602465.3511383167,4107225.626196086],[602476.755627906,4107264.096070249],[602484.1841256656,4107290.057446295],[602485.0690864918,4107294.7388443043],[602485.089591741,4107294.8258208307],[602485.1177796628,4107294.910619548],[602488.8647346047,4107304.6982274693],[602489.7986388528,4107304.3407042455],[602489.9558891446,4107305.328263026],[602493.7757978863,4107304.720013901],[602493.6185475945,4107303.7324551204],[602493.9013883237,4107304.69162201],[602502.2196234104,4107302.2387269996],[602507.6992978415,4107300.987827241],[602508.6291558247,4107304.6393797356],[602508.6605749808,4107304.740176737],[602508.7024463572,4107304.837099318],[602508.7543032054,4107304.9290670636],[602508.8155674668,4107305.0150547903],[602510.1646334225,4107306.71136392],[602514.8968209424,4107326.698469106],[602516.1815028718,4107332.3133410593],[602515.5755508926,4107333.4879613314],[602516.4642651627,4107333.9464228307],[602515.4917715202,4107334.1793522523],[602516.5659247796,4107338.6640034798],[602516.5694505468,4107338.6782607418],[602518.6223143511,4107346.72545426],[602519.5912822265,4107346.4782675765],[602519.8031579909,4107347.4555641846],[602522.8291079769,4107346.7995448546],[602523.5757676767,4107349.8009509514],[602528.6745832128,4107371.8646701905],[602528.0200457968,4107372.3833507155],[602524.5342841174,4107373.33875896],[602525.0629628925,4107375.2676184033],[602528.7455268834,4107374.258268849],[602528.841093776,4107374.226827589],[602528.9330178471,4107374.185943008],[602529.0203686794,4107374.1360289226],[602529.1022621442,4107374.077590543],[602530.4123688933,4107373.0394117627],[602530.4893220569,4107372.971730996],[602530.5589442005,4107372.8965297146],[602530.6205041191,4107372.814597718],[602530.6733552814,4107372.7267954955],[602530.716942619,4107372.634045188],[602530.7508083571,4107372.5373209026],[602530.7745968219,4107372.437638484],[602530.7880581751,4107372.3360448447],[602530.7910510396,4107372.233606969],[602530.7835439828,4107372.1314007086],[602530.7656158472,4107372.0304994816],[602525.5225293359,4107349.3424873515],[602525.5186304423,4107349.3262361907],[602524.7842086125,4107346.374023612],[602527.3875404784,4107345.805332959],[602527.3963678995,4107345.8033627663],[602549.5328871373,4107340.757509157],[602549.088403116,4107338.807526092],[602526.9562931417,4107343.8523746426],[602523.3526856943,4107344.6395727326],[602520.3218729633,4107345.296646295],[602518.5092015314,4107338.1910030628],[602517.5232861008,4107334.074749812],[602518.1265925171,4107332.9052578863],[602518.1679849577,4107332.8140857914],[602518.2000524416,4107332.719231369],[602518.2224734699,4107332.621645599],[602518.2350232569,4107332.522306846],[602518.237575982,4107332.422211049],[602518.2301060525,4107332.322361737],[602518.2126883597,4107332.2237599674],[602516.8455988833,4107326.2487149523],[602516.8438865311,4107326.2413587747],[602512.0593831571,4107306.033289716],[602512.028261426,4107305.9280021675],[602511.9857850877,4107305.826760918],[602511.932466153,4107305.7307863315],[602511.8689473303,4107305.641235289],[602510.5143805613,4107303.938009463],[602509.3967456821,4107299.5490570585],[602509.3908576226,4107299.5269914162],[602506.0181208308,4107287.443223783],[602504.66214702,4107281.109852198],[602504.6575675798,4107281.089502064],[602503.7278513266,4107277.150301377],[602502.7545911295,4107277.380006816],[602502.6912564663,4107276.382014471],[602502.1309707534,4107276.417571364],[602501.1712136097,4107275.8190894653],[602497.9925145176,4107262.673001795],[602497.9866146663,4107262.649819283],[602494.2393237613,4107248.629251984],[602491.2803344646,4107237.014968648],[602491.2777684776,4107237.0051072165],[602488.4515363298,4107226.3662341116],[602486.3625765356,4107217.4586027535],[602484.9501661382,4107210.58605467],[602484.758876002,4107208.4785529734],[602501.5357466654,4107194.087073473],[602508.7544584003,4107188.272181423],[602512.1745593667,4107187.10782347],[602511.5299979073,4107185.2145351865],[602507.942538551,4107186.4358695485],[602507.8610534971,4107186.4676513006],[602507.7826572085,4107186.506431653],[602507.7079494086,4107186.55191394],[602507.637501604,4107186.6037502266],[602500.2690743679,4107192.5392426704],[602500.2453058932,4107192.559002298],[602483.0652648299,4107207.2963280925],[602482.9960441316,4107207.361676364],[602482.9333507832,4107207.4333104743],[602482.8777529056,4107207.5105812815],[602482.8297543213,4107207.592788566],[602482.7897899887,4107207.679187373],[602482.7582220607,4107207.7689947644],[602482.7353366029,4107207.8613969153],[602482.7213410009,4107207.9555564863],[602482.7163620815,4107208.050620212],[602482.7204449631,4107208.1457266356],[602482.9634294074,4107210.822760272],[602482.9798073354,4107210.933673092],[602484.4063044421,4107217.8747647004],[602484.4122461877,4107217.901776313],[602486.5077091511,4107226.8371381396],[602486.5148167138,4107226.865565497],[602489.3435027957,4107237.5136760217],[602492.3026787672,4107249.1286920724],[602492.3056341024,4107249.1400146866],[602496.0513472242,4107263.1546786767],[602499.3232911025,4107276.686397103],[602499.3506210033,4107276.7794247475],[602499.3868317095,4107276.869368346],[602499.4315828019,4107276.9553823327],[602499.4844535723,4107277.036658084],[602499.5449469791,4107277.1124315215],[602499.6124943201,4107277.1819902943],[602499.686460578,4107277.2446804754],[602499.7661503912,4107277.2999127107],[602501.3449671392,4107278.284425565],[602501.4354587665,4107278.3345484543],[602501.5306442799,4107278.3750547087],[602501.6295050957,4107278.4055108693],[602501.7309833003,4107278.425591024],[602501.8339929715,4107278.4350802945],[602501.9374317989,4107278.4338771347],[602501.975280519,4107278.4314751765],[602502.7086513382,4107281.538761755],[602504.0688572053,4107287.891900082],[602505.0466968426,4107287.682544777],[602504.0835113265,4107287.951382389],[602507.1824949135,4107299.054353026],[602501.744125439,4107300.2958236914],[602501.6838394357,4107300.3115770007],[602493.3975862494,4107302.755041135],[602490.4425138779,4107303.2255812204],[602487.0176328161,4107294.279278548],[602486.1407833791,4107289.6407893775],[602485.15818596,4107289.8265373576],[602486.1196026045,4107289.5514409463],[602478.6771532318,4107263.541306311],[602478.674493903,4107263.5321767386],[602467.5311607901,4107225.943241324],[602467.7497596602,4107225.8590568416],[602469.7493213763,4107225.1321696523],[602469.8525977876,4107225.0879096347],[602469.9502570285,4107225.0323431077],[602472.2433369844,4107223.551165856],[602472.3250872534,4107223.492321475],[602472.4005031636,4107223.425551661],[602472.4688195627,4107223.3515338437],[602473.6502360633,4107221.9345266116],[602473.7096686774,4107221.8556232946],[602473.761026572,4107221.771241213],[602473.8038085982,4107221.6822037646],[602473.8375972904,4107221.5893797735],[602473.8620629396,4107221.4936750135],[602474.4480122154,4107218.6158892484],[602474.4634634017,4107218.512742988],[602474.4680873292,4107218.4085484124],[602474.4618336993,4107218.30443894],[602474.4447705385,4107218.2015470606],[602473.7962711366,4107215.253290251],[602473.7730185189,4107215.1664057993],[602473.7420532843,4107215.0819620527],[602473.7036259287,4107215.000642126],[602473.6580473138,4107214.9231038643],[602472.3058127352,4107212.842866882],[602472.2467998058,4107212.7613711273],[602472.179896005,4107212.686218181],[602470.4768039357,4107210.956785337],[602470.4005314347,4107210.8869536445],[602470.3174550137,4107210.8253722517],[602470.2284630885,4107210.7726997077],[602470.134507335,4107210.72949929],[602467.8135246773,4107209.8045114875],[602464.732383791,4107208.537475195],[602464.6263567401,4107208.500683788],[602464.5168748569,4107208.4760046406],[602464.4053171033,4107208.463748593],[602461.1725094301,4107208.291341468],[602461.059556302,4107208.2917059623],[602460.9473648377,4107208.3048062427],[602458.747592337,4107208.6886375938],[602458.6597518597,4107208.7080725776],[602458.5740135532,4107208.735323464],[602458.4910713548,4107208.7701696944],[602454.8173267378,4107210.5119797476],[602454.7452041862,4107210.5498465705],[602454.6764029531,4107210.5934579116],[602452.0640131102,4107212.4026212213],[602451.9875541612,4107212.2927534077],[602451.1667511177,4107212.86396472],[602451.943600051,4107212.2342777066],[602450.0022855884,4107209.839265522],[602448.2910473342,4107207.6934729167],[602448.1691421482,4107207.5292656845],[602450.7038508094,4107205.2367279897],[602450.7742366629,4107205.166391691],[602450.837283871,4107205.0894084927],[602450.8923681802,4107205.0065406333],[602452.9971118534,4107201.4703527433],[602453.0439203668,4107201.3819230516],[602453.0816578981,4107201.289258463],[602453.1099466631,4107201.193286628],[602453.1285034671,4107201.0949683064],[602453.6549453171,4107197.2622221108],[602453.6603286192,4107197.2145839324],[602454.05430413,4107192.7772129835],[602455.1662707542,4107188.5713617853],[602457.2775258021,4107183.9048090638],[602459.4625307225,4107181.0164247807],[602463.4222529929,4107177.502806383],[602463.499399939,4107177.4264778914],[602463.5678212284,4107177.342238844],[602466.577589059,4107173.1956807887],[602466.6302950578,4107173.1151883435],[602466.6750216486,4107173.0300033204],[602469.4308883273,4107167.10503872],[602469.4668001852,4107167.01714162],[602469.4942137137,4107166.9262347436],[602469.5128817647,4107166.833137667],[602469.5226360351,4107166.738689713],[602469.5233885846,4107166.6437423835],[602468.836497969,4107149.2927033207],[602468.8346714886,4107149.2600693963],[602467.4206556568,4107129.7239745976],[602467.2239708566,4107123.306828744],[602467.2239361826,4107123.3057176187],[602467.0053446098,4107116.4236826454],[602466.0058486611,4107116.455429272],[602467.004845037,4107116.410638191],[602466.5787213704,4107106.9066032735],[602466.3842722743,4107098.918526291],[602469.8762613283,4107098.8835487342],[602469.932829733,4107098.881379691],[602475.2783747799,4107098.524658057],[602475.1452059477,4107096.5290964665],[602469.8279143957,4107096.883932674],[602466.305641953,4107096.9192135646],[602466.1179357804,4107093.521119193],[602466.1167939879,4107093.503329731],[602464.5467072711,4107072.036132151],[602464.5337090158,4107071.932783435],[602462.8658541071,4107062.620247492],[602459.8013835341,4107037.1799538205],[602458.8085605121,4107037.299546659],[602459.7925210996,4107037.1211606665],[602459.6718030389,4107036.455291042],[602464.7614310778,4107036.0147548565],[602464.6751978259,4107035.0184798813],[602464.7790570282,4107036.0130718914],[602471.061440105,4107035.3570407867],[602471.1610238779,4107035.3415355734],[602471.2585412115,4107035.3160854434],[602471.3530015891,4107035.280948902],[602471.4434455445,4107035.2364828433],[602471.5289544078,4107035.1831389237],[602471.6086596363,4107035.1214589756],[602471.6817516374,4107035.0520695033],[602471.7474879903,4107034.9756753193],[602471.8052009889,4107034.893052385],[602471.8543044224,4107034.80503993],[602471.8942995308,4107034.712531926],[602471.9247800701,4107034.616468009],[602471.9454364391,4107034.517823932],[602471.9560588241,4107034.417601657],[602471.95653933,4107034.3168191756],[602471.9468730759,4107034.2165001696],[602470.9668950927,4107027.573856779],[602472.1719709544,4107027.387856731],[602472.889443006,4107027.2955930606],[602473.7875293744,4107031.797144712],[602473.8118843723,4107031.893820423],[602473.8457445655,4107031.9875906017],[602473.8887734053,4107032.077523232],[602473.9405432128,4107032.1627244414],[602474.0005394291,4107032.2423473843],[602474.0681657306,4107032.31560066],[602474.1427499547,4107032.381756178],[602474.2235507824,4107032.4401563946],[602474.3097651053,4107032.490220849],[602474.400536008,4107032.5314519326],[602474.4949612861,4107032.563439835],[602474.5921024127,4107032.585866617],[602474.6909938675,4107032.598509371],[602474.7906527327,4107032.6012424356],[602474.890088463,4107032.5940386457],[602477.5190599272,4107032.271198499],[602483.4307825069,4107050.938484689],[602483.4508372353,4107050.9957196987],[602491.7844066967,4107072.6514406074],[602495.7562848184,4107084.1131368177],[602520.0660002239,4107183.119134769],[602518.5958276286,4107183.4900456327],[602519.0850786413,4107185.4292809065],[602520.5367554129,4107185.0630363664],[602556.7639678811,4107336.7229282553],[602553.6611493889,4107337.5991435004],[602552.0334189524,4107338.0442373953],[602552.5609414681,4107339.973413384],[602554.192678421,4107339.5272239293],[602554.2006822316,4107339.5249995603],[602557.2921349023,4107338.651993947],[602558.8650357847,4107343.7458962244],[602586.1959674708,4107439.3795915022],[602590.7357295303,4107456.96710564],[602589.6296562214,4107461.1268463717],[602589.6082965934,4107461.227955115],[602589.5974856652,4107461.3307283386],[602589.5061829885,4107463.0481231078],[602587.2883194755,4107463.8336277893],[602587.1839341414,4107463.877393919],[602587.085163397,4107463.932676033],[602586.9932726703,4107463.998765869],[602584.8096776538,4107465.7650435623],[602578.4660653282,4107467.4173673186],[602578.3722067318,4107467.44681443],[602578.2816954432,4107467.485340721],[602578.1954073011,4107467.53257339],[602577.2194679268,4107468.130975874],[602577.217152332,4107468.132400028],[602574.8792992071,4107469.574626708],[602570.5640858467,4107472.1247378164],[602570.4910145387,4107472.172336806],[602570.4223681098,4107472.226121076],[602564.405555966,4107477.379089116],[602564.3376278455,4107477.4429903645],[602564.2759481373,4107477.5129418666],[602564.2210533067,4107477.5883352133],[602564.173420807,4107477.6685146624],[602564.1334649265,4107477.7527828454],[602563.1936484347,4107480.0],[602565.3615068338,4107480.0],[602565.8869457673,4107478.743610699],[602571.6568994509,4107473.802059224],[602575.9050039365,4107471.2916066614],[602575.9212771415,4107471.281779993],[602578.2660633317,4107469.83527629],[602579.11408023,4107469.3153101606],[602583.0444708618,4107468.2915594205],[602582.9712202694,4107468.405476996],[602582.9199103881,4107468.4951387797],[602582.8781244479,4107468.5896156263],[602582.846308386,4107468.687899285],[602582.1480605328,4107471.2980149025],[602582.1269724249,4107471.396452454],[602582.1158884268,4107471.4965114603],[602582.1149208711,4107471.597177858],[602582.224445011,4107474.283689823],[602582.2336699113,4107474.3844075217],[602582.2530211122,4107474.4836782864],[602582.2823006674,4107474.5804866604],[602583.193408399,4107477.121404058],[602583.2322976588,4107477.214719677],[602583.280409865,4107477.303631965],[602583.337253302,4107477.387232222],[602584.1803768002,4107478.50160174],[602580.5262874466,4107480.0],[602585.5458998117,4107480.0],[602585.797750373,4107480.0],[602589.7225908809,4107480.0],[602588.63167934,4107479.698123409],[602586.4617768152,4107478.2021894827],[602585.0244347872,4107476.302432038],[602584.2165547283,4107474.0493982574],[602584.1194618932,4107471.6678131265],[602584.7379817084,4107469.3557283534],[602586.0247489907,4107467.3545785444],[602588.1177086021,4107465.6616144883],[602590.6423925348,4107464.767442671],[602593.3450471369,4107464.7607249687],[602595.4753951841,4107465.44195956],[602597.3451090893,4107466.7055299953],[602598.7804240901,4107468.4331850796],[602599.0685762418,4107469.1120948014],[602599.0725454508,4107469.121317561],[602599.6711684575,4107470.4932544567],[602599.9429700644,4107472.726352001],[602599.5695940723,4107474.934278147],[602598.5911665955,4107476.959669192],[602597.0739399521,4107478.632186969],[602595.5264656178,4107479.6305356314],[602594.4861358156,4107480.0],[602597.0741453301,4107480.0],[602598.5334402546,4107480.0],[602599.6333140067,4107480.0],[602599.0801392689,4107479.3973452654],[602600.1694667457,4107478.196522977],[602600.2302055474,4107478.1227746005],[602600.283629209,4107478.04356641],[602600.3292500782,4107477.9596214197],[602601.4323232782,4107475.676207846],[602601.469234327,4107475.5896151247],[602601.4978397833,4107475.499935401],[602601.5178861823,4107475.407963303],[602601.9392044267,4107472.9165348564],[602601.9506621226,4107472.821043053],[602601.9528933626,4107472.724892209],[602601.9458775079,4107472.628971715],[602601.6388540198,4107470.1064943634],[602601.6225357318,4107470.0111477086],[602601.5970814185,4107469.9178238157],[602601.5627292629,4107469.827395941],[602601.315589354,4107469.2609954597],[602637.2515086648,4107454.6286707334],[602636.4972789558,4107452.7763377326],[602600.519716614,4107467.425618595],[602600.471136892,4107467.3459030758],[602600.4127062833,4107467.268172665],[602598.7923612035,4107465.3178012036],[602598.7286884463,4107465.2481299876],[602598.6587307908,4107465.1847720775],[602598.5831114406,4107465.128291884],[602596.4764721178,4107463.7046049987],[602596.3954114616,4107463.655258272],[602596.3100381101,4107463.613817708],[602596.2211209296,4107463.580656519],[602593.8044139006,4107462.8078511427],[602593.7038928622,4107462.781379039],[602593.6011668901,4107462.7654848234],[602593.4973459641,4107462.760340238],[602591.5240461299,4107462.7652450604],[602591.5891570229,4107461.5405152827],[602592.7358963998,4107457.2278368585],[602592.7571173813,4107457.1276042676],[602592.7679711997,4107457.0257264143],[602592.7683439235,4107456.9232727005],[602592.7582316403,4107456.8213185733],[602592.7377404977,4107456.7209342346],[602588.1292752055,4107438.8672565715],[602588.122517158,4107438.842402354],[602560.7851437525,4107343.186166848],[602560.7791245605,4107343.1659171386],[602559.2369131204,4107338.1714038444],[602560.6774199682,4107337.8600480785],[602569.9898050827,4107353.4305010424],[602574.7828608304,4107369.84345066],[602574.8156431963,4107369.9378846413],[602574.8576898131,4107370.0285739037],[602574.9085805317,4107370.114612239],[602574.9678068287,4107370.1951399115],[602575.0347768875,4107370.2693522526],[602575.1088215124,4107370.336507698],[602575.1892008157,4107370.3959351997],[602575.2751116102,4107370.4470409304],[602575.3656954358,4107370.4893142185],[602575.460047137,4107370.52233265],[602575.5572239085,4107370.545766289],[602575.6562547149,4107370.559380976],[602575.7561499951,4107370.5630406667],[602575.8559115493,4107370.556708792],[602575.9545425143,4107370.5404486232],[602618.1364367427,4107361.4000505623],[602617.7128863351,4107359.445413754],[602576.4415127048,4107368.388511033],[602571.873699482,4107352.7468635673],[602571.8464498994,4107352.6664193873],[602571.812472311,4107352.5885776933],[602571.7720118247,4107352.51390002],[602562.179995509,4107336.475899332],[602563.0768825021,4107316.7040678924],[602563.0750650944,4107316.58337856],[602563.0587199135,4107316.463787369],[602562.7075154032,4107314.6969857397],[602606.7102318512,4107307.456543749],[602606.3855077891,4107305.4830812383],[602561.362807726,4107312.8913567807],[602561.2648726769,4107312.9125594604],[602561.1695512258,4107312.9434568468],[602561.0778004793,4107312.983738703],[602560.9905416903,4107313.033000567],[602560.9086510096,4107313.0907478086],[602560.8329506872,4107313.156400597],[602560.764200817,4107313.229299725],[602560.7030917048,4107313.3087132247],[602560.6502369364,4107313.3938437183],[602560.6061672176,4107313.4838364255],[602560.5713250447,4107313.5777877453],[602560.546060262,4107313.6747543286],[602560.5306265489,4107313.77376255],[602560.5251788725,4107313.873818286],[602560.529771932,4107313.9739168943],[602560.5443596096,4107314.073053301],[602561.073437248,4107316.734679807],[602560.2033216743,4107335.916336573],[602558.7049269817,4107336.2402044036],[602522.4736326201,4107184.5632242686],[602524.1503913895,4107184.12049427],[602534.6678410654,4107200.990300238],[602535.5442706825,4107204.5632912507],[602535.5720858619,4107204.6567364074],[602535.6088686389,4107204.7470287597],[602535.6542693678,4107204.833310017],[602535.7078564841,4107204.9147600173],[602535.7691206055,4107204.9906045226],[602535.837479375,4107205.060122579],[602535.9122829956,4107205.1226533703],[602535.9928204082,4107205.1776024993],[602536.0783260496,4107205.224447636],[602536.1679871305,4107205.2627434856],[602536.2609513612,4107205.292126021],[602536.3563350532,4107205.31231594],[602536.4532315198,4107205.323121324],[602536.5507196938,4107205.324439461],[602536.6478728836,4107205.31625782],[602580.5058410326,4107199.45817634],[602580.2410538415,4107197.4757818934],[602537.2728389326,4107203.2150195874],[602536.5721867613,4107200.358630595],[602536.5416504989,4107200.2575449613],[602536.5006250169,4107200.1602429654],[602536.449567781,4107200.067809599],[602525.626363286,4107182.70757823],[602526.9902523883,4107160.5857363837],[602526.991359466,4107160.4845061954],[602526.9822258439,4107160.3836828168],[602526.9629451308,4107160.284299565],[602526.5837170543,4107158.7496874253],[602567.1621004072,4107151.48797211],[602566.8097868398,4107149.519247866],[602525.1806926058,4107156.9689934244],[602525.0869246812,4107156.9904741147],[602524.9956545976,4107157.020865159],[602524.9077269542,4107157.0598853244],[602524.8239554197,4107157.107173523],[602524.7451152026,4107157.162292158],[602524.6719358782,4107157.22473117],[602524.6050946363,4107157.293912758],[602524.5452100156,4107157.369196727],[602524.4928361787,4107157.44988641],[602524.4484577851,4107157.5352351177],[602524.4124855055,4107157.624453047],[602524.3852522216,4107157.716714588],[602524.3670099461,4107157.8111659675],[602524.3579274903,4107157.9069331475],[602524.3580889015,4107158.003129913],[602524.3674926863,4107158.0988660743],[602524.3860518233,4107158.193255704],[602524.9846215447,4107160.6154718264],[602523.6549216643,4107182.182775509],[602522.0026167274,4107182.619048738],[602497.6875185043,4107083.5911282254],[602497.6612396489,4107083.5021510464],[602493.6686272162,4107071.980621587],[602493.6570338961,4107071.948907692],[602485.3282955644,4107050.305741019],[602479.1891343273,4107030.9202779443],[602478.798011219,4107029.1103668436],[602480.4785705558,4107028.8308774927],[602482.0164260432,4107032.325355117],[602482.0646077399,4107032.420677931],[602482.1226813054,4107032.5103181885],[602492.4796957157,4107046.766302041],[602494.2680164193,4107050.2378450725],[602494.3168917756,4107050.3223233186],[602494.373769441,4107050.401634766],[602494.4381076345,4107050.4750239435],[602494.5092935108,4107050.5417917916],[602494.5866489975,4107050.6013023215],[602494.6694372548,4107050.6529886737],[602494.7568696935,4107050.6963585154],[602494.8481134869,4107050.7309987335],[602494.9422995036,4107050.756579366],[602495.0385305865,4107050.7728567487],[602495.1358900986,4107050.779675833],[602495.2334506542,4107050.7769716647],[602495.3302829522,4107050.764770002],[602495.4254646288,4107050.7431870704],[602495.5180890431,4107050.712428455],[602495.6072739125,4107050.6727871434],[602540.3175771189,4107028.125680028],[602539.4170216596,4107026.339902924],[602495.5919543658,4107048.4405914843],[602494.222643939,4107045.782444061],[602494.1851477859,4107045.716009325],[602494.1426963935,4107045.652626244],[602483.8037936147,4107031.4215722717],[602482.096756769,4107027.5426629],[602483.5102904199,4107008.657697756],[602483.5116035753,4107008.528737874],[602483.2573189611,4107003.8543288377],[602483.2510787467,4107003.7846574457],[602483.1326831601,4107002.837148684],[602536.1506944969,4106996.478433194],[602535.9125312879,4106994.492664254],[602481.8967130408,4107000.9710517214],[602481.7996649594,4107000.987571527],[602481.7047114415,4107001.0135535104],[602481.6127727036,4107001.0487458752],[602481.5247397459,4107001.092807564],[602481.441465716,4107001.1453115637],[602481.3637576422,4107001.2057490465],[602481.2923686117,4107001.2735342984],[602481.2279904721,4107001.3480103966],[602481.1712471271,4107001.428455576],[602481.1226884898,4107001.5140902232],[602481.0827851534,4107001.604084433],[602481.0519238303,4107001.6975660506],[602481.0304036048,4107001.7936291234],[602481.0184330347,4107001.891342682],[602481.0161281293,4107001.989759761],[602481.023511226,4107002.087926578],[602481.2621726717,4107003.9979117154],[602481.511046336,4107008.572853495],[602480.1423093163,4107026.859330716],[602478.4138714221,4107027.1467826227],[602475.2119742068,4107008.7595950337],[602464.9197006804,4106945.9601098653],[602450.563182853,4106857.6748947147],[602450.5623265768,4106857.6697149193],[602443.3814009252,4106814.928344961],[602442.9588236846,4106810.840508949],[602444.6328071669,4106810.735217513],[602445.7804809593,4106815.4413802777],[602445.8082771972,4106815.5351679777],[602445.8451037854,4106815.6257911865],[602452.2403750323,4106829.3913787627],[602453.6444130335,4106836.1417872123],[602453.6690108477,4106836.2365261368],[602453.7027527769,4106836.3284064853],[602453.7453155557,4106836.416547997],[602453.796291411,4106836.500106231],[602453.8551919677,4106836.5782806557],[602453.9214529279,4106836.65032232],[602453.9944394776,4106836.7155410275],[602454.0734523678,4106836.7733119493],[602454.1577346143,4106836.8230816103],[602454.2464787498,4106836.8643731917],[602454.3388345594,4106836.896791098],[602454.4339172271,4106836.92002475],[602454.5308158115,4106836.9338515564],[602454.6286019743,4106836.9381390493],[602454.7263388737,4106836.932846153],[602512.0426470645,4106831.0047492865],[602511.8368891614,4106829.01536152],[602455.4186525118,4106834.850572867],[602454.1749628641,4106828.8710957454],[602454.1451537875,4106828.760171351],[602454.1028216039,4106828.6533968756],[602447.7002785117,4106814.8721569185],[602446.3862579502,4106809.4838709095],[602445.5634317612,4106804.534818081],[602448.3525777189,4106792.4125637007],[602448.370349826,4106792.3121210723],[602448.3777973825,4106792.2103905296],[602448.3748429,4106792.108430535],[602447.4765990691,4106780.9032637407],[602448.3621247447,4106780.855503276],[602449.3713165731,4106790.0151039455],[602449.3866136946,4106790.110941295],[602449.4111288815,4106790.204844464],[602449.4446312301,4106790.2959289975],[602449.4868051886,4106790.383336988],[602449.5372535288,4106790.4662451567],[602449.5955010881,4106790.5438726093],[602449.6609992442,4106790.615488188],[602449.7331310833,4106790.6804173593],[602449.8112172099,4106790.7380485693],[602449.8945221466,4106790.787839001],[602449.9822612606,4106790.829319688],[602450.0736081551,4106790.862099932],[602450.1677024518,4106790.885870983],[602450.2636578956,4106790.9004089455],[602450.3605707012,4106790.90557689],[602450.4575280664,4106790.90132614],[602506.3785929233,4106785.7218504893],[602506.1941400326,4106783.7303743707],[602451.2516576542,4106788.819212546],[602450.246531152,4106779.696509486],[602450.2304241318,4106779.5968494373],[602450.2043510077,4106779.499321217],[602450.1685775054,4106779.4049187917],[602450.1234682128,4106779.314604268],[602450.0694828639,4106779.2292980924],[602450.0071716539,4106779.1498696683],[602449.9371696312,4106779.077128495],[602449.8601902258,4106779.011815919],[602449.7770179779,4106778.9545975775],[602449.6885005428,4106778.906056614],[602449.5955400511,4106778.8666877374],[602449.4990839156,4106778.836892178],[602449.4001151748,4106778.816973598],[602449.2996424749,4106778.807135001],[602449.1986897893,4106778.8074766556],[602446.3439193232,4106778.9614475314],[602446.2446909299,4106778.9717831565],[602446.146986204,4106778.9919545646],[602446.0517776102,4106779.021760987],[602445.960012769,4106779.0609057583],[602445.8726050251,4106779.108999266],[602445.7904243564,4106779.165562831],[602445.7142887153,4106779.23003347],[602445.6449558872,4106779.3017695006],[602445.5831159488,4106779.3800569274],[602445.5293843991,4106779.4641165477],[602445.4842960335,4106779.5531117073],[602445.448299621,4106779.646156629],[602445.4217534374,4106779.7423252277],[602445.4049216997,4106779.840660327],[602445.3979719356,4106779.9401831883],[602445.4009733169,4106780.039903251],[602446.3689104081,4106792.1144604934],[602443.5699656316,4106804.2793027405],[602443.5527377528,4106804.3754580137],[602443.544973927,4106804.4728354206],[602443.5467482414,4106804.570505724],[602443.5580437646,4106804.6675368915],[602444.2378072024,4106808.7561101643],[602442.7555348872,4106808.849343211],[602437.682556359,4106758.478808878],[602436.7087362702,4106743.039952723],[602436.3549591494,4106724.6496542986],[602436.3534415797,4106724.6105594663],[602435.5807653505,4106711.3861224474],[602435.5673267168,4106711.2710925345],[602430.7367151215,4106683.8281081906],[602430.7354130044,4106683.820866914],[602423.1740975176,4106642.641476157],[602423.1738359521,4106642.6400574166],[602420.4339813971,4106627.838882515],[602434.235665864,4106632.9824766284],[602433.5715538149,4106635.1216801163],[602431.119784235,4106639.827251225],[602431.0746165316,4106639.9268897967],[602431.0406030726,4106640.0308660013],[602431.0181509298,4106640.137935454],[602431.00752881,4106640.246816752],[602430.7961341342,4106645.2151537035],[602430.7967080601,4106645.312010449],[602430.8066496798,4106645.408357336],[602430.8258657253,4106645.503290482],[602430.8541759201,4106645.595919265],[602430.8913146706,4106645.6853746823],[602430.9369335573,4106645.770817504],[602430.990604604,4106645.8514461415],[602431.0518242926,4106645.9265041742],[602431.1200182871,4106645.99528744],[602431.1945468215,4106646.0571506447],[602431.2747107019,4106646.111513415],[602431.3597578664,4106646.1578657436],[602431.4488904397,4106646.195772773],[602431.5412722196,4106646.224878877],[602431.6360365209,4106646.244910994],[602432.9754552267,4106646.460892286],[602433.0718426957,4106646.4716706537],[602433.1688209648,4106646.473060875],[602433.2654777868,4106646.465049873],[602433.3609039382,4106646.447713005],[602433.4542017723,4106646.421213353],[602433.5444936627,4106646.385800193],[602433.6309302591,4106646.341806646],[602433.7126984769,4106646.289646547],[602433.7890291455,4106646.229810551],[602433.859204244,4106646.1628615186],[602433.922563655,4106646.08942922],[602433.9785113743,4106646.010204413],[602434.0265211178,4106645.925932342],[602434.0661412713,4106645.8374057314],[602434.0969991391,4106645.745457325],[602434.1188044499,4106645.6509520565],[602434.1313520876,4106645.55477891],[602434.4591867822,4106641.52744269],[602436.2230995736,4106638.227525564],[602439.0892188543,4106634.1866015745],[602439.1340061142,4106634.117608771],[602439.1729716508,4106634.0451685023],[602440.9799714052,4106630.326881087],[602461.3998483185,4106635.3509611995],[602489.4189101272,4106642.248774604],[602489.8970013891,4106640.3067579344],[602462.5159420947,4106633.566009828],[602454.817413592,4106587.8085105363],[602478.8512587448,4106583.9249370787],[602479.8084711316,4106589.155622947],[602481.7758006684,4106588.795602818],[602480.6422829172,4106582.60149651],[602480.6258115856,4106582.527465523],[602479.09670796,4106576.705811966],[602477.1623210864,4106577.213894069],[602478.4115618018,4106581.970044361],[602454.4696180292,4106585.838767687],[602447.9102001797,4106550.413599588],[602454.1044552521,4106549.094283448],[602453.687820169,4106547.1381609547],[602446.5413378841,4106548.660292238],[602424.1216494316,4106553.4367525433],[602424.0485869693,4106553.455221669]],[[602445.9533870596,4106550.8304393264],[602452.4947852823,4106586.158289595],[602432.1612589946,4106589.452256949],[602413.9436412009,4106592.297927313],[602410.2180039561,4106572.2306473646],[602409.1815889594,4106566.1887053913],[602409.1564481864,4106566.0793676004],[602409.1192182378,4106565.9735340425],[602407.4094573507,4106561.8653874886],[602424.6122556251,4106555.377115674],[602445.9533870596,4106550.8304393264]],[[602432.4782949011,4106591.42697116],[602452.8430479891,4106588.1279450855],[602460.4002375542,4106633.045372624],[602440.6771105903,4106628.192719959],[602419.6079054261,4106622.810730523],[602419.0051850062,4106619.1163554434],[602421.2703947021,4106618.9644383867],[602421.3304676237,4106618.9585839687],[602427.2677971977,4106618.1984609244],[602427.3647162983,4106618.1811671685],[602427.4594652053,4106618.1544271107],[602427.5511255759,4106618.1184999268],[602427.6388090022,4106618.073733837],[602427.7216656227,4106618.0205627307],[602427.798892359,4106617.959501964],[602427.8697406998,4106617.89114336],[602427.9335239555,4106617.8161494783],[602427.9896239142,4106617.7352471873],[602428.0374968336,4106617.6492206235],[602428.0766787108,4106617.55890359],[602428.1067897798,4106617.4651714736],[602428.1275381927,4106617.368932763],[602428.1387228477,4106617.2711202404],[602428.1402353388,4106617.172681943],[602428.1320610066,4106617.0745719722],[602426.2586506421,4106603.004597002],[602426.2410038523,4106602.9083419684],[602426.2140333924,4106602.8142726594],[602426.1779975432,4106602.7232899233],[602426.1332414,4106602.636265051],[602426.0801935674,4106602.554031432],[602426.0193620548,4106602.4773765705],[602425.9513294115,4106602.407034548],[602425.876747148,4106602.343678991],[602425.7963294971,4106602.287916619],[602425.7108465737,4106602.240281438],[602425.6211169997,4106602.201229623],[602425.5280000652,4106602.1711351518],[602425.432387499,4106602.1502862223],[602425.3351949292,4106602.1388824927],[602425.2373531145,4106602.1370331706],[602425.1397990314,4106602.144755965],[602418.6772187162,4106602.97617654],[602418.578074894,4106602.994047802],[602418.4812322661,4106603.02180361],[602418.3876736766,4106603.0591622745],[602418.2983486403,4106603.1057446464],[602418.2141637063,4106603.161077967],[602418.1359732575,4106603.224600665],[602418.064570839,4106603.2956680562],[602418.0006811057,4106603.373558887],[602417.9449524664,4106603.4574826513],[602417.8979505048,4106603.546587618],[602417.8601522378,4106603.639969471],[602417.8319412756,4106603.7366804895],[602417.8136039278,4106603.8357391646],[602417.8053262981,4106603.9361401624],[602417.8071923949,4106604.0368645247],[602417.8191832795,4106604.1368900123],[602420.0306492668,4106617.0430896212],[602418.6582514236,4106617.135129948],[602414.313129425,4106594.264464398],[602432.4727155482,4106591.427858831],[602432.4782949011,4106591.42697116]],[[602437.4101854337,4106633.096809316],[602435.409097664,4106635.9181306856],[602435.4245878453,4106635.884839934],[602435.4549715277,4106635.800517258],[602436.4261510384,4106632.6722038966],[602436.4511795712,4106632.5743931727],[602436.4662179468,4106632.4745572456],[602436.4711128735,4106632.373713779],[602436.4658144555,4106632.272890707],[602436.4503767015,4106632.173115756],[602436.4249569742,4106632.0754059684],[602436.389814386,4106631.980757336],[602436.3453071584,4106631.890134647],[602436.2918889697,4106631.804461651],[602436.2301043309,4106631.7246116446],[602436.1605830356,4106631.651398568],[602436.0840337395,4106631.585568709],[602436.0012367377,4106631.5277930945],[602435.9130360101,4106631.4786606533],[602435.8203306191,4106631.4386722106],[602420.0302748273,4106625.5540544153],[602419.9404986437,4106624.959909537],[602438.9986569666,4106629.8281903267],[602437.4101854337,4106633.096809316]],[[602426.0169060299,4106616.342281882],[602422.0272354719,4106616.853057054],[602419.9665444952,4106604.826786141],[602424.4075494425,4106604.2554442454],[602426.0169060299,4106616.342281882]],[[602454.0542602334,4107022.3913804884],[602454.0019210171,4107022.358470963],[602450.0153490459,4107020.0205784356],[602449.1477298822,4107015.072336828],[602449.1462744854,4107015.064232627],[602445.7204514609,4106996.4292586497],[602442.5852680692,4106978.7409599447],[602442.5834617191,4106978.7310589454],[602438.1426918214,4106955.065347748],[602438.1418242487,4106955.060782823],[602437.449396959,4106951.463014561],[602450.6306620594,4106949.263602689],[602458.765713229,4106947.9538891166],[602463.1068522487,4106947.26484163],[602473.2391107889,4107009.087977042],[602473.2407708685,4107009.0977994218],[602476.6137777877,4107028.467600134],[602476.6215147297,4107028.5072693643],[602477.012886981,4107030.3183333674],[602475.5673274689,4107030.495849423],[602474.6681998103,4107025.9890784277],[602474.6437335734,4107025.892039055],[602474.6096906922,4107025.7979310383],[602474.5664121141,4107025.707696892],[602474.5143312844,4107025.622240331],[602474.453969805,4107025.5424172245],[602474.3859322103,4107025.4690270186],[602474.3108999128,4107025.4028047347],[602474.229624379,4107025.3444136037],[602474.1429196022,4107025.2944384273],[602474.0516539516,4107025.2533797184],[602473.9567414742,4107025.2216486894],[602473.8591327409,4107025.1995631345],[602473.7598053261,4107025.1873442456],[602473.6597540175,4107025.1851143977],[602473.5599808526,4107025.1928959233],[602471.9043603695,4107025.4058012525],[602471.8793647207,4107025.4093368454],[602469.6800832452,4107025.748789715],[602469.5843513255,4107025.7683967208],[602469.4909901713,4107025.7972537824],[602469.4008912918,4107025.835085343],[602469.314915044,4107025.8815301484],[602469.2338824184,4107025.936144695],[602469.1585671982,4107025.998407467],[602469.0896885713,4107026.067723914],[602469.0279042618,4107026.1434321315],[602468.9738042506,4107026.224809179],[602468.9279051403,4107026.3110779845],[602468.8906452233,4107026.4014147636],[602468.8623802958,4107026.494956888],[602468.8433802606,4107026.59081112],[602468.8338265497,4107026.688062144],[602468.8338103918,4107026.785781307],[602468.8433319412,4107026.8830354856],[602469.8160130996,4107033.4762183726],[602464.5801441334,4107034.0229683653],[602459.311820107,4107034.4789717025],[602458.3850789581,4107029.419773906],[602457.6732379037,4107025.2016201057],[602456.6871801916,4107025.3680237965],[602457.2453897205,4107024.5383237773],[602454.0542602334,4107022.3913804884]]],[[[602499.4997219325,4107361.275146977],[602501.2099650926,4107368.996396166],[602501.2383566843,4107369.0985736777],[602502.0617234997,4107371.549648504],[602502.1024078785,4107371.6517831963],[602502.1540580561,4107371.748834591],[602502.2160497515,4107371.8396296557],[602502.2876336888,4107371.9230709765],[602504.6219578894,4107374.3592154514],[602504.6877333258,4107374.4218940856],[602504.7589261952,4107374.478344015],[602504.8349487991,4107374.528099245],[602507.0631499208,4107375.8458621213],[602509.6961468052,4107377.51212266],[602512.0975147492,4107379.0315267253],[602512.9254863779,4107380.472953449],[602513.4316706487,4107382.7385045495],[602518.7751306313,4107406.770814729],[602520.2442710869,4107416.3316030363],[602520.254471554,4107416.3873951235],[602521.0362070921,4107420.0695983213],[602522.0144054973,4107419.8619257906],[602521.0466618745,4107420.1138628474],[602529.0518809407,4107450.863605671],[602536.2442382693,4107479.761565217],[602537.2146341235,4107479.5200452674],[602536.2862197229,4107479.891591632],[602536.3296041589,4107480.0],[602538.4838146049,4107480.0],[602538.1684912143,4107479.21207471],[602530.9913745243,4107450.375350075],[602530.9887222929,4107450.3649329673],[602522.9878799558,4107419.632002088],[602522.2167600046,4107415.9998014118],[602520.7468905331,4107406.4342688564],[602519.7584916608,4107406.5861493],[602520.7346533687,4107406.3691047886],[602515.3838822233,4107382.3039125185],[602515.3836580352,4107382.302906675],[602514.8442306329,4107379.8885678356],[602514.8174210753,4107379.791727557],[602514.78102837,4107379.698066663],[602514.7354199669,4107379.608530829],[602513.7084861975,4107377.8207282918],[602512.8413593437,4107378.318815653],[602513.3760441012,4107377.473764051],[602510.7656214582,4107375.822085983],[602508.119920381,4107374.1477857484],[602507.5851670553,4107374.992793962],[602508.094210877,4107374.1320533575],[602505.9711159407,4107372.8764505023],[602503.8864085581,4107370.7008108157],[602503.1511550855,4107368.5120399743],[602501.4633485957,4107360.8920858093],[602501.0182877001,4107357.097773332],[602499.031905886,4107357.330769659],[602499.4828675376,4107361.1753883143],[602499.4997219325,4107361.275146977]]],[[[602514.6138336277,4107184.492341539],[602513.3408086831,4107184.7591981124],[602513.751138198,4107186.7166530136],[602515.0519705858,4107186.4439673326],[602515.1072096488,4107186.430739675],[602517.193632616,4107185.868012976],[602516.6728249751,4107183.9370133895],[602514.6138336277,4107184.492341539]]]]}},{"type":"Feature","properties":{"class":"residential","widthMeters":5},"geometry":{"type":"MultiPolygon","coordinates":[[[[602406.2527203105,4106761.1096637947],[602411.7211327982,4106760.8986309976],[602422.1081252157,4106760.492023664],[602421.9125457274,4106755.4958502618],[602411.5276283516,4106755.9023767496],[602406.1646252737,4106756.1093416675],[602392.8653400437,4106755.507600241],[602392.6517541985,4106755.5070694773],[602392.4389025383,4106755.5247716163],[602381.3835997068,4106756.9218550976],[602381.1378759167,4106756.9654632052],[602380.8977242248,4106757.0333529166],[602380.6655377657,4106757.1248477045],[602380.4436302996,4106757.239035815],[602380.2342131558,4106757.374779352],[602380.039373196,4106757.530725619],[602379.861052019,4106757.7053205958],[602379.7010266127,4106757.896824427],[602379.5608916454,4106758.1033287584],[602379.4420435753,4106758.322775755],[602379.345666735,4106758.5529786064],[602379.2727215289,4106758.7916433187],[602379.2239348629,4106759.036391576],[602379.1997929009,4106759.284784437],[602379.2005362198,4106759.5343466448],[602379.2261574123,4106759.7825912875],[602390.6774866275,4106834.1522041224],[602390.7264331368,4106834.391610788],[602390.798518339,4106834.62509534],[602390.8930535455,4106834.850427111],[602391.009135585,4106835.0654533245],[602391.1456554318,4106835.2681196607],[602391.301308801,4106835.456489884],[602391.4746086103,4106835.6287643407],[602391.6638991857,4106835.7832971537],[602391.8673720815,4106835.918611946],[602392.0830833561,4106836.0334159457],[602392.3089721451,4106836.126612337],[602392.5428803497,4106836.1973107397],[602392.7825732556,4106836.2448357143],[602393.0257608822,4106836.2687332164],[602393.2701198611,4106836.2687749336],[602393.5133156332,4106836.244960468],[602419.0127373994,4106832.482257845],[602430.8728609064,4106830.728721539],[602430.1415536716,4106825.782491689],[602418.2824868925,4106827.5358718587],[602395.2411642217,4106830.9358566133],[602384.5588223308,4106761.560361798],[602392.853294804,4106760.512170658],[602406.0433142203,4106761.108968227],[602406.2527203105,4106761.1096637947]]],[[[602406.5540258351,4107025.9331003074],[602406.658379437,4107026.1394331637],[602406.781349654,4107026.3352423757],[602406.9218845904,4107026.5188529785],[602407.0787821009,4107026.6886943546],[602411.9168588105,4107031.462696154],[602403.1258009592,4107036.4876437373],[602402.915021106,4107036.622552543],[602402.7187851387,4107036.7778586196],[602402.5390594526,4107036.9520057123],[602402.3776450007,4107037.14324877],[602392.8226915469,4107049.687569732],[602392.7617110446,4107049.771162439],[602386.0778794846,4107059.3433778225],[602385.9212789568,4107059.5990569904],[602381.774255706,4107067.382351384],[602381.6741483745,4107067.593453258],[602381.5941849905,4107067.81297851],[602377.5779900026,4107080.678847504],[602355.1304162313,4107043.9759886963],[602355.0017087979,4107043.7857661596],[602354.8560872787,4107043.608158193],[602354.6947807244,4107043.444663813],[602354.5191505678,4107043.296662918],[602339.9374899263,4107032.1127994405],[602339.7367026579,4107031.9738288005],[602339.5233153445,4107031.8551097186],[602339.2993638163,4107031.7577748382],[602339.0669846912,4107031.682752787],[602338.8283949913,4107031.6307593156],[602322.3758756077,4107028.8792104833],[602322.124935272,4107028.8501827586],[602321.8723466359,4107028.8466272233],[602321.6206886764,4107028.86858018],[602321.3725308679,4107028.9158174857],[602321.1304069479,4107028.987856838],[602311.6604282574,4107032.334906726],[602311.4233914948,4107032.4326287233],[602311.1976100866,4107032.554114407],[602310.9854587483,4107032.6980860196],[602310.789168837,4107032.8630293016],[602310.6108048836,4107033.0472094193],[602310.4522428777,4107033.2486892096],[602310.3151505368,4107033.465349556],[602310.2009697657,4107033.694911676],[602310.1109014904,4107033.934961091],[602310.045893028,4107034.1829730165],[602310.0,4107034.4036405482],[602310.0,4107049.399496805],[602311.4395852427,4107052.2538321535],[602311.5512597752,4107052.4522334817],[602311.6805206086,4107052.6396525977],[602311.8262957197,4107052.8145351447],[602321.3538817966,4107063.240142448],[602324.2404006752,4107078.589024742],[602319.3328605255,4107110.0941130216],[602310.0,4107135.6243213094],[602310.0,4107150.187166946],[602324.1132808741,4107111.5800325787],[602324.1859802438,4107111.3462452698],[602324.235463206,4107111.106467997],[602329.2469556578,4107078.934033888],[602329.2746382604,4107078.6518596187],[602329.2701925011,4107078.368365562],[602329.2336755621,4107078.087198071],[602326.1362446019,4107061.61680407],[602326.0831156764,4107061.3920244407],[602326.0094684515,4107061.1731074452],[602325.9159315629,4107060.9619217096],[602325.8033034201,4107060.7602698663],[602325.6725453908,4107060.5698731695],[602325.5247735959,4107060.392356801],[602315.7491205769,4107049.695301043],[602313.0427309389,4107044.329211295],[602314.6543973044,4107036.579832925],[602322.1878841065,4107033.9172127666],[602337.3890153702,4107036.4594772067],[602351.1074293863,4107046.9812465208],[602375.9127217287,4107087.539088174],[602377.718605801,4107101.1870314307],[602374.9531994744,4107115.1887979773],[602361.7264001904,4107140.171364682],[602320.678638637,4107191.834812467],[602310.0,4107199.9175740783],[602310.0,4107205.6899432703],[602310.8303135544,4107205.404196279],[602311.0746928258,4107205.3053984083],[602311.3073111374,4107205.1814186973],[602311.5255824344,4107205.0336354487],[602323.948230612,4107195.63081668],[602324.1098443845,4107195.49747869],[602324.2597256962,4107195.351076424],[602324.396821828,4107195.1926381662],[602365.7850338361,4107143.100693342],[602365.9199532615,4107142.9137989446],[602366.0370854454,4107142.7152723256],[602379.5440524769,4107117.2035292657],[602379.6472498889,4107116.983335267],[602379.7285659849,4107116.7541567436],[602379.7872313834,4107116.5181620955],[602382.7036506016,4107101.7517891936],[602382.7417583666,4107101.4824818075],[602382.7503843935,4107101.210628425],[602382.7294265795,4107100.939446862],[602380.8723967272,4107086.9049700983],[602386.2972009651,4107069.526625458],[602390.263380214,4107062.082746115],[602396.8316066515,4107052.67609402],[602406.0476743111,4107040.5766828307],[602416.6764388559,4107034.501306509],[602427.3180849737,4107034.557412171],[602427.5354744056,4107034.5490927],[602457.6030023481,4107032.0848348034],[602463.9266753708,4107031.5736740204],[602463.5238248684,4107026.5899292966],[602457.1987599684,4107027.101202589],[602457.1959762867,4107027.101429167],[602427.2355700968,4107029.556907638],[602417.0497469008,4107029.5032051993],[602411.1879432313,4107023.719034557],[602409.5451099022,4107012.422507819],[602409.4727027914,4107012.0876930915],[602403.0671085594,4106989.9404693996],[602402.9928701767,4106989.7220881796],[602402.898820931,4106989.511478507],[602402.7857613948,4106989.3104331493],[602402.6546539615,4106989.120663458],[602389.5153059869,4106971.8626429825],[602385.5370786274,4106974.891455799],[602398.3936642922,4106991.778079022],[602404.6218664346,4107013.311972842],[602406.3607505711,4107025.2689685975],[602406.4045721838,4107025.495998525],[602406.469181496,4107025.718008792],[602406.5540258351,4107025.9331003074]]],[[[602357.0007157197,4107219.364717046],[602352.5644308474,4107219.4995293478],[602352.5398734334,4107219.5003964314],[602347.4539859239,4107219.705001778],[602347.3180227128,4107219.7141886633],[602342.1397792215,4107220.206166902],[602341.9440855315,4107220.2325935042],[602337.5088829342,4107221.0109813623],[602337.4524469906,4107221.021555438],[602333.0961407232,4107221.889668649],[602332.9188215222,4107221.9317780295],[602314.7639113041,4107226.9488125723],[602316.0957229072,4107231.7681774534],[602334.162741484,4107226.775431403],[602338.4014629333,4107225.930750184],[602342.7110622538,4107225.174405979],[602347.7230802835,4107224.698220607],[602352.7285843863,4107224.4968490866],[602357.1186441125,4107224.3634415],[602428.6550909455,4107224.133599757],[602428.8596732625,4107224.1245552595],[602429.0628289956,4107224.098797243],[602434.1566668492,4107223.2396864467],[602434.3584957168,4107223.197015274],[602434.5561194038,4107223.137849413],[602434.7481923072,4107223.062591718],[602439.8499819536,4107220.8166085635],[602440.0337810593,4107220.7265389403],[602440.2095960848,4107220.6217356715],[602440.3762485165,4107220.5029012687],[602450.756497745,4107212.440249262],[602450.7788069966,4107212.4227171135],[602452.1506876821,4107211.331948907],[602455.8901595148,4107210.1430641],[602459.27332831,4107209.1426794655],[602462.3817517556,4107208.468814668],[602462.4097611449,4107208.462574085],[602465.7249732785,4107207.7039369335],[602464.6096276246,4107202.8299237955],[602461.3084023033,4107203.585360273],[602458.1235368741,4107204.275796674],[602457.9443057482,4107204.321655977],[602456.3321717904,4107204.7983552306],[602457.5340397087,4107202.4815660026],[602457.6263001018,4107202.282876824],[602459.8056464811,4107196.9944634624],[602455.1827991934,4107195.0893957587],[602453.0452262464,4107200.2764414903],[602450.9350810811,4107204.344077804],[602449.0547349136,4107207.4056932586],[602447.6781686546,4107208.5001869164],[602437.552891129,4107216.3647947274],[602433.0183440865,4107218.361058191],[602428.4337283592,4107219.134285173],[602357.0686197729,4107219.3635764173],[602357.0007157197,4107219.364717046]]],[[[602352.7325242887,4107294.15329111],[602313.6450750243,4107295.088379415],[602313.7646557156,4107300.0869492567],[602352.833071012,4107299.1523163007],[602411.578590528,4107298.641970994],[602411.6126541645,4107320.222339696],[602333.5901523415,4107321.4266337436],[602310.0,4107321.6464451193],[602310.0,4107326.646662174],[602330.927494533,4107326.4516612557],[602329.6437037394,4107343.809209182],[602316.3156027078,4107380.7386709214],[602316.2413079054,4107380.9829279697],[602316.1923121035,4107381.23348861],[602313.5996195789,4107399.365827586],[602313.576853463,4107399.6100588976],[602313.5781310843,4107399.8553456627],[602313.6034401435,4107400.099326566],[602313.6525369963,4107400.339652862],[602313.7249489995,4107400.574010988],[602313.81997906,4107400.800144836],[602313.9367123469,4107401.0158774694],[602314.074025097,4107401.219132084],[602314.2305954339,4107401.4079519957],[602314.4049160931,4107401.5805194816],[602314.595308932,4107401.735173277],[602314.7999410852,4107401.8704245673],[602315.0168426085,4107401.9849713203],[602315.2439254437,4107402.0777108236],[602315.4790035199,4107402.1477502957],[602315.7198137974,4107402.1944154836],[602315.9640380542,4107402.2172571537],[602316.209325203,4107402.2160554137],[602351.6650420314,4107400.300401521],[602357.5506345127,4107402.064946705],[602365.1200323378,4107408.7303736997],[602368.0289792971,4107420.8120495714],[602364.362090189,4107430.518456262],[602364.2890202199,4107430.7435781937],[602364.2375668873,4107430.974601264],[602364.2081913702,4107431.2094548005],[602364.2011569632,4107431.446033797],[602364.906557922,4107471.454866541],[602369.9057809613,4107471.3667245866],[602369.2088291136,4107431.837107347],[602372.9784182603,4107421.858849419],[602373.0546669484,4107421.621970785],[602373.1069884048,4107421.378685326],[602373.1348642256,4107421.1314035268],[602373.1380182158,4107420.8825754696],[602373.1164191253,4107420.6346665574],[602373.0702809594,4107420.3901330847],[602369.7960591692,4107406.7913679807],[602369.7237636921,4107406.5467114495],[602369.6269109728,4107406.3106966093],[602369.5065095726,4107406.0857811654],[602369.3638132742,4107405.8743072413],[602369.2003080241,4107405.6784769897],[602369.0176964602,4107405.5003296607],[602360.4445780263,4107397.9510507933],[602360.2333753738,4107397.784362466],[602360.0054824055,4107397.6413367554],[602359.7635387263,4107397.5236302773],[602359.5103466845,4107397.4326063856],[602352.6833874515,4107395.3858323228],[602352.4742750276,4107395.33285503],[602352.2613740582,4107395.298101951],[602352.0462697048,4107395.28183184],[602351.8305635349,4107395.284165838],[602318.9803143317,4107397.0590476734],[602321.1056894072,4107382.194955246],[602334.4631477435,4107345.1841503764],[602334.5304431306,4107344.967322082],[602334.5777906197,4107344.74528291],[602334.6047997401,4107344.519863998],[602335.9456477361,4107326.390871746],[602411.4431565789,4107325.2255515065],[602408.1782568814,4107374.6372609013],[602404.5842005427,4107397.5060686185],[602404.5673660695,4107397.6349475225],[602403.0687656412,4107412.0079812226],[602403.0553959899,4107412.243842994],[602403.0643491703,4107412.4799136682],[602403.0955452347,4107412.7140852474],[602403.1487056171,4107412.94426669],[602403.2233556206,4107413.1684025857],[602405.0672328406,4107417.9397758045],[602405.1735597235,4107418.177332398],[602405.3040080736,4107418.4025473376],[602405.4571640699,4107418.6129797064],[602405.631367782,4107418.8063488035],[602405.8247311614,4107418.9805588624],[602406.0351585032,4107419.1337217656],[602406.2603691613,4107419.2641775073],[602411.480089392,4107421.9350429885],[602411.6765195766,4107422.025064678],[602411.8799894075,4107422.09778847],[602412.0889789253,4107422.1526711034],[602422.5479448544,4107424.4211185332],[602422.8346827165,4107424.466069612],[602443.1881147375,4107426.455216218],[602443.2406725711,4107426.4597934023],[602445.8147884642,4107426.656626571],[602433.2316811094,4107442.6486351644],[602433.0762349595,4107442.8698338154],[602423.3607692203,4107458.419121618],[602423.2513383444,4107458.6129643046],[602417.8704380633,4107469.2217805027],[602417.7542645574,4107469.4881662764],[602417.1681330168,4107471.078620069],[602410.1845854319,4107470.43629635],[602409.9363303856,4107470.425862673],[602409.6882657907,4107470.4401240344],[602409.442842106,4107470.478939555],[602409.2024837025,4107470.5419258033],[602408.9695649144,4107470.6284605814],[602408.7463865858,4107470.7376890727],[602402.0273219851,4107474.450889579],[602401.7656546119,4107474.6174844867],[602396.950919449,4107478.120791485],[602396.7694762249,4107478.266185016],[602396.6023252744,4107478.4278064324],[602396.4509124109,4107478.6042577494],[602396.3165473174,4107478.794012707],[602396.2003922181,4107478.995429974],[602396.1034518254,4107479.206767341],[602395.7833582187,4107480.0],[602402.8664986162,4107480.0],[602404.581780546,4107478.7519232137],[602410.4920682611,4107475.4856823543],[602415.3788278749,4107475.935150418],[602413.8814391261,4107480.0],[602419.2099006667,4107480.0],[602421.1960977946,4107474.608218729],[602422.3954807323,4107471.3537220666],[602427.6601433076,4107460.9740765262],[602437.2448403413,4107445.634079796],[602451.816806034,4107427.1144094146],[602457.891487206,4107427.5735817337],[602476.0852317101,4107430.676311496],[602471.2116076107,4107457.1818909682],[602465.3163556106,4107480.0],[602470.4805329529,4107480.0],[602476.0748560773,4107458.346663551],[602476.1131163193,4107458.1734015313],[602481.0144579995,4107431.517077865],[602494.3447766516,4107433.7911998746],[602491.2632560927,4107452.8164641224],[602491.2454205321,4107452.9489272386],[602490.5841767282,4107459.099053359],[602490.5839081212,4107459.1015635543],[602488.9588735484,4107474.360714544],[602488.9451997858,4107474.5816717143],[602488.8502883122,4107480.0],[602493.8510553442,4107480.0],[602493.9424923386,4107474.7800235953],[602494.6285750234,4107468.3376749502],[602498.8920633419,4107477.1603904055],[602499.9578400112,4107480.0],[602505.2984132669,4107480.0],[602503.5331690299,4107475.296759052],[602503.4435510824,4107475.087483467],[602495.6319777899,4107458.922483526],[602496.2096222126,4107453.5499022915],[602499.4436192071,4107433.5832506907],[602504.2975012874,4107431.789857628],[602504.5082478873,4107431.7008322296],[602504.7099737446,4107431.592914069],[602504.900989538,4107431.4670068906],[602505.079695635,4107431.324165084],[602514.7774970296,4107422.816946231],[602522.4876270297,4107418.3419165597],[602528.6457088024,4107414.765963219],[602526.13487735,4107410.442107831],[602519.9774836057,4107414.0176617038],[602512.0569685688,4107418.614800766],[602511.8532580188,4107418.7466526995],[602511.6632899664,4107418.897633028],[602502.1304075654,4107427.2601797115],[602496.9700124608,4107429.1668219888],[602479.4224159668,4107426.173241982],[602458.6167857735,4107422.6250857413],[602458.3849396857,4107422.5966172726],[602450.8657575345,4107422.028259146],[602443.6481943418,4107421.4763586526],[602423.4656928901,4107419.5039171395],[602413.4674250816,4107417.3353906265],[602409.3872171562,4107415.2475993233],[602408.1042437904,4107411.9276685314],[602409.5336662553,4107398.2181186927],[602413.1350891542,4107375.302437907],[602413.1599630961,4107375.0791317183],[602416.611103235,4107322.8488185615],[602416.6165397675,4107322.680043294],[602416.5785048476,4107298.583743587],[602445.9857225292,4107298.1525059673],[602446.017593873,4107298.1518353266],[602486.1202121788,4107297.052156923],[602486.3518792067,4107297.0350074396],[602489.1883560768,4107296.691926252],[602491.1985836092,4107304.3600045643],[602508.8543496759,4107373.1954972814],[602508.9257266152,4107373.4266611445],[602509.0191135614,4107373.6498433067],[602509.1336359432,4107373.8629536615],[602509.2682212559,4107374.063996425],[602509.4216091048,4107374.251088827],[602509.5923630092,4107374.4224787434],[602509.7788838545,4107374.5765611026],[602509.9794248686,4107374.71189292],[602510.1921079801,4107374.82720681],[602511.5868479764,4107375.4982256014],[602518.0264228215,4107378.605038179],[602520.1990634713,4107374.101746871],[602513.7582554409,4107370.9943393357],[602513.7557887352,4107370.993150923],[602513.4084550549,4107370.8260463537],[602496.040159518,4107303.1113305823],[602496.0368295792,4107303.09848963],[602494.1196989928,4107295.7855326463],[602499.5851154465,4107294.478926049],[602498.4225362269,4107289.615963006],[602492.7930371414,4107290.961796522],[602476.0984095974,4107233.173607047],[602483.4971906714,4107228.451775409],[602480.8073350255,4107224.23695909],[602471.8329281277,4107229.9643401275],[602471.6316734542,4107230.1072331592],[602471.4454901915,4107230.269275298],[602471.2761931603,4107230.4488870385],[602471.1254325834,4107230.644317616],[602470.9946779989,4107230.8536620704],[602470.8852039371,4107231.074879818],[602470.7980774959,4107231.305814539],[602470.7341479404,4107231.5442151977],[602470.6940384236,4107231.787757984],[602470.678139913,4107232.034068965],[602470.6866073795,4107232.280747225],[602470.7193582861,4107232.5253882688],[602470.7760733936,4107232.7656074576],[602487.8362185241,4107291.8190302835],[602485.8669233125,4107292.0572230034],[602445.8964708709,4107293.1532772062],[602414.0454255872,4107293.6203519595],[602352.7705969759,4107294.152670364],[602352.7325242887,4107294.15329111]]],[[[602471.8027365018,4107125.2553554797],[602471.271234227,4107120.283685204],[602465.9898036219,4107120.8483027723],[602409.3534928843,4107125.472672172],[602409.7603900848,4107130.456088136],[602466.427888834,4107125.829172227],[602466.4901913712,4107125.823299383],[602471.8027365018,4107125.2553554797]]]]}},{"type":"Feature","properties":{"class":"service","widthMeters":3},"geometry":{"type":"MultiPolygon","coordinates":[[[[602381.187702211,4106509.3198885587],[602381.2224750313,4106509.1783514027],[602381.2433476254,4106509.0341076846],[602381.2501229384,4106508.888519187],[602381.2427370057,4106508.7429603897],[602381.2212595565,4106508.5988054913],[602381.1858933563,4106508.4574154373],[602381.1369722923,4106508.32012507],[602381.0749582209,4106508.188230527],[602381.0004366076,4106508.0629770057],[602375.6564089907,4106500.0],[602372.0573026353,4106500.0],[602378.1123040747,4106509.1356820874],[602374.1432427414,4106522.4600977763],[602377.0183946885,4106523.316544669],[602381.187702211,4106509.3198885587]]],[[[602400.7165393534,4106500.0],[602405.0903851988,4106510.02977753],[602410.1805157071,4106529.595567588],[602406.0545518025,4106536.2316969982],[602396.3218225723,4106550.867768889],[602390.2449082995,4106553.7402309556],[602391.5269519207,4106556.452492771],[602397.9809415671,4106553.401793089],[602398.1007521541,4106553.338385687],[602398.2143492511,4106553.2644210006],[602398.3208051447,4106553.1805030755],[602398.4192504414,4106553.0873172455],[602398.508881168,4106552.985624531],[602398.5889653373,4106552.8762554256],[602408.5653446297,4106537.8737827297],[602408.5901579731,4106537.835201759],[602413.0681281348,4106530.6329115373],[602413.1296585379,4106530.5240795803],[602413.1819122077,4106530.4105016803],[602413.2245261465,4106530.2929668445],[602416.4317298727,4106520.145976499],[602416.4723075756,4106519.9882649365],[602416.4955493764,4106519.8270839644],[602416.5011813367,4106519.664333333],[602416.489137076,4106519.501931292],[602415.0837059417,4106508.6110293847],[602415.0581506322,4106508.467987952],[602415.0188749421,4106508.328090327],[602412.2391048229,4106500.0],[602409.0764008661,4106500.0],[602412.1270404429,4106509.139605385],[602413.4714353862,4106519.5575284665],[602411.9342002396,4106524.4210518105],[602407.9640910034,4106509.160475741],[602407.930075594,4106509.0480044144],[602407.8873608663,4106508.938540724],[602403.9893881453,4106500.0],[602400.7165393534,4106500.0]]],[[[602396.6353277748,4106713.509433891],[602394.7514519901,4106710.1170579307],[602394.6630165413,4106709.9767035535],[602394.5596232259,4106709.8469730555],[602394.4425366675,4106709.7294531954],[602390.4862344479,4106706.175189248],[602390.3566645844,4106706.071158428],[602390.2163832389,4106705.9820971848],[602390.067111867,4106705.909098428],[602385.1684592224,4106703.8413316933],[602385.0128033598,4106703.7855211594],[602384.8519501576,4106703.747183051],[602384.6878544155,4106703.7267832784],[602379.3863610895,4106703.362879976],[602379.2211601534,4106703.360660478],[602379.0567172065,4106703.376622704],[602378.8950272175,4106703.4105730047],[602373.7501301242,4106704.79060763],[602373.593468891,4106704.842011476],[602373.4433958071,4106704.91029886],[602373.3017240951,4106704.994644716],[602368.893054835,4106707.9592116713],[602368.7602365382,4106708.059663342],[602368.6393714825,4106708.1742184656],[602368.5319493291,4106708.3014651514],[602365.3432723935,4106712.534654253],[602365.2507671334,4106712.6727708355],[602365.1741127665,4106712.820275145],[602365.1142507243,4106712.975355606],[602363.4798759712,4106718.0262943897],[602363.4375340046,4106718.187082728],[602363.4132476283,4106718.351569517],[602363.4073152489,4106718.5177337094],[602363.5119638313,4106723.811682335],[602363.5246100157,4106723.9786329786],[602363.5557832883,4106724.143134257],[602363.6050952658,4106724.30313667],[602365.446740932,4106729.274186785],[602365.5123354692,4106729.425225118],[602365.5940904501,4106729.568163373],[602365.6910206282,4106729.7012789696],[602369.0188220191,4106733.7805049433],[602369.1298398307,4106733.90227284],[602369.2535441741,4106734.011128756],[602369.3884422197,4106734.1057590493],[602373.8606786077,4106736.8895696364],[602374.0045973306,4106736.968570984],[602374.1562878191,4106737.0313707236],[602374.3139329016,4106737.0772165484],[602379.4542457968,4106738.2713445146],[602379.6156058036,4106738.2996452744],[602379.7790897253,4106738.310180554],[602379.942747527,4106738.302824689],[602385.1927847299,4106737.7784435283],[602385.3544493254,4106737.753329798],[602385.5124172796,4106737.710759077],[602385.6648093961,4106737.6512377895],[602390.4639308433,4106735.4681199],[602390.6099049187,4106735.3917789827],[602390.7466275546,4106735.299891622],[602390.872449793,4106735.1935660336],[602394.7024265754,4106731.578433715],[602394.8156515318,4106731.4591633133],[602394.9151392821,4106731.3282148237],[602394.9996939695,4106731.187162265],[602397.4467766553,4106726.5455371574],[602397.5156525744,4106726.3953888854],[602397.5676003826,4106726.238577467],[602397.6019900476,4106726.0770047377],[602398.4115724593,4106720.8829142526],[602398.4279690575,4106720.718939784],[602398.4262794271,4106720.554156229],[602398.4065239616,4106720.3905524504],[602397.6886691881,4106716.3335260525],[602410.6625665062,4106710.0039862464],[602420.6502889803,4106709.5440568677],[602420.5122867977,4106706.547232649],[602410.214671879,4106707.021432412],[602410.0625028212,4106707.036239532],[602409.9126314435,4106707.066459443],[602409.7666147209,4106707.1117781997],[602409.6259695839,4106707.1717249956],[602396.6353277748,4106713.509433891]],[[602371.1856604118,4106731.6907463023],[602368.1732557265,4106727.9981342764],[602366.5063647783,4106723.4987896997],[602366.4117069877,4106718.710253924],[602367.8910225075,4106714.138516556],[602370.7764244947,4106710.3079459174],[602374.7685428552,4106707.623484581],[602379.430564579,4106706.372973388],[602384.2325474384,4106706.7025894625],[602388.6685745509,4106708.575077668],[602392.2507173147,4106711.793204134],[602394.5812739283,4106715.9899374293],[602395.4089262686,4106720.667495504],[602394.6763123375,4106725.367774307],[602392.4620619763,4106729.567763188],[602388.9946290762,4106732.840688705],[602384.6481069117,4106734.817919412],[602379.8914409424,4106735.2930219546],[602375.2349542223,4106734.2112899413],[602371.1856604118,4106731.6907463023]]],[[[602324.215459119,4106738.958504787],[602321.2236722467,4106738.736668561],[602320.9367963247,4106742.6056111287],[602320.933110842,4106742.752068885],[602320.9437303139,4106742.898187618],[602320.9685534381,4106743.042573454],[602321.0073434188,4106743.183849052],[602321.0597302262,4106743.3206667397],[602321.1252141262,4106743.4517213698],[602321.2031704471,4106743.5757627706],[602321.2928555394,4106743.691607673],[602321.3934138685,4106743.798150996],[602321.503886177,4106743.894376389],[602321.6232186347,4106743.979365928],[602321.7502728921,4106744.052308871],[602321.8838369384,4106744.1125093917],[602322.0226366643,4106744.1593932193],[602322.1653480156,4106744.192513114],[602322.3106096238,4106744.2115531345],[602346.0879918432,4106746.153158277],[602346.107193897,4106746.154602259],[602413.330064298,4106750.7759911786],[602413.4667346319,4106750.779142617],[602415.7070157971,4106750.7286603763],[602415.7479224864,4106750.7271799315],[602421.4749857051,4106750.4416219234],[602421.3255878253,4106747.445344187],[602415.6189678514,4106747.7298828713],[602413.4675571766,4106747.778362514],[602346.3225557042,4106743.162326871],[602324.0386765011,4106741.3426776743],[602324.215459119,4106738.958504787]]],[[[602501.151079839,4107182.9439702653],[602501.2212061698,4107182.8053605696],[602501.2766213475,4107182.6602416253],[602501.3167310664,4107182.5101697743],[602501.3411051658,4107182.3567544776],[602501.6622434054,4107179.33150836],[602501.670379728,4107179.2002356467],[602501.666985445,4107179.0687548355],[602501.6520866527,4107178.9380767923],[602501.6257978979,4107178.809206213],[602500.1086858468,4107172.743577984],[602500.0965601486,4107172.6981364563],[602486.6871922208,4107125.4334346377],[602485.7726386942,4107105.711756394],[602485.7720146435,4107105.6994005623],[602485.2993983038,4107097.0500512617],[602485.2840565077,4107096.902939193],[602485.2543007209,4107096.7580532907],[602485.2104202664,4107096.616802318],[602485.1528418052,4107096.480559695],[602485.0821251879,4107096.350650144],[602481.535628914,4107090.537773438],[602481.4134926954,4107090.366014428],[602477.0520409093,4107085.0647434667],[602476.9598678728,4107084.962636166],[602476.8587285804,4107084.869401981],[602476.749473581,4107084.785824983],[602476.6330216734,4107084.7126080254],[602476.5103521807,4107084.6503668404],[602476.3824967133,4107084.5996248554],[602476.2505304941,4107084.560808794],[602469.3390547892,4107082.8679869813],[602468.6253628803,4107085.781857922],[602475.0522826373,4107087.3559978628],[602479.0296636746,4107092.1904373174],[602482.3244695358,4107097.590781421],[602482.7761457324,4107105.856905266],[602483.6984425383,4107125.7455616645],[602483.7163253987,4107125.917114863],[602483.7537840453,4107126.0854809717],[602497.2040445625,4107173.494319043],[602498.6509397298,4107179.279210254],[602498.4275199723,4107181.3839105684],[602480.1891523371,4107194.8555215043],[602481.9715620591,4107197.2686140393],[602500.7406905735,4107183.4049612163],[602500.8606935517,4107183.306322303],[602500.9698517304,4107183.195801527],[602501.0669944317,4107183.074584178],[602501.151079839,4107182.9439702653]]],[[[602517.0669105452,4107337.007107653],[602510.4729203532,4107339.190528768],[602511.4159361069,4107342.038461578],[602518.0029249036,4107339.8573587853],[602523.9377373585,4107337.9567578924],[602523.9446268319,4107337.95453322],[602533.7680373885,4107334.7562670982],[602533.90801789,4107334.702822552],[602534.041968065,4107334.6356793405],[602534.1685513373,4107334.5555074285],[602534.2865046388,4107334.463106785],[602534.3946510126,4107334.359399398],[602534.4919113568,4107334.245420076],[602534.577315192,4107334.122306124],[602534.6500103452,4107333.991285992],[602534.7092714525,4107333.85366702],[602534.7545071971,4107333.7108223923],[602534.7852662093,4107333.564177435],[602534.8012415711,4107333.4151953952],[602534.8022738774,4107333.26536284],[602534.788352828,4107333.116174822],[602534.7596173292,4107332.9691199637],[602520.993223868,4107277.4227955234],[602520.9515813759,4107277.28390461],[602520.8967230839,4107277.1496833353],[602520.8291616071,4107277.0213859086],[602520.7495282631,4107276.900211186],[602520.658567174,4107276.7872914663],[602520.5571283115,4107276.6836819104],[602520.4461595558,4107276.5903506824],[602520.3266978374,4107276.5081699016],[602520.1998594485,4107276.437907494],[602520.0668296108,4107276.3802200155],[602519.9288514015,4107276.3356465185],[602519.7872141371,4107276.304603513],[602519.6432413254,4107276.287381076],[602519.4982782984,4107276.284140139],[602519.3536796411,4107276.2949109874],[602519.2107965337,4107276.3195929746],[602509.3015813369,4107278.529309948],[602503.3581807766,4107279.8550894586],[602496.4525304479,4107281.3910761466],[602497.1038866411,4107284.3195117544],[602504.0099854793,4107282.783425307],[602508.5207702233,4107281.7772160424],[602521.690410947,4107335.526373256],[602517.0809358602,4107337.0025399476],[602517.0669105452,4107337.007107653]],[[602531.5119002269,4107332.335815475],[602524.5525645533,4107334.6016077255],[602511.4494653784,4107281.1240260424],[602518.433763747,4107279.5665543005],[602531.5119002269,4107332.335815475]]],[[[602435.0305048918,4107374.109686491],[602435.0913957363,4107374.245028382],[602437.6521703306,4107379.2581238193],[602437.7186748572,4107379.3750562808],[602437.7953880236,4107379.4855603203],[602437.8816928498,4107379.5887471875],[602437.9768952128,4107379.6837869827],[602438.0802294293,4107379.7699153307],[602445.2744331205,4107385.238718901],[602445.3894260377,4107385.317966523],[602445.5112907873,4107385.386176049],[602445.6389710156,4107385.4427562216],[602445.7713599588,4107385.4872165895],[602453.0157983942,4107387.5502324775],[602453.0869410983,4107387.568620596],[602464.9707266695,4107390.33153968],[602465.1278811159,4107390.359360326],[602465.2871019025,4107390.370326157],[602465.4465865435,4107390.364313033],[602465.6045295655,4107390.3413890256],[602508.1339313296,4107381.837127698],[602508.279233878,4107381.800438201],[602508.4201502143,4107381.749432947],[602508.5552737463,4107381.6846210584],[602508.6832557037,4107381.6066494714],[602508.802818602,4107381.51629648],[602508.9127689936,4107381.4144639648],[602509.0120093806,4107381.302168393],[602509.0995491697,4107381.1805306724],[602511.4719448609,4107377.510318914],[602513.8929789512,4107374.117220866],[602511.4508912807,4107372.3747491133],[602509.0098562957,4107375.79587857],[602508.9711619288,4107375.8528296915],[602506.9241561721,4107379.0196473626],[602465.3342548743,4107387.3360443623],[602453.8021027804,4107384.6548782554],[602446.864889661,4107382.679351648],[602440.1681369147,4107377.5886943773],[602437.9718084631,4107373.2890562275],[602447.4379869456,4107295.834745169],[602444.4601442645,4107295.4708042867],[602434.9382855708,4107373.380702825],[602434.9275911079,4107373.52872563],[602434.9315762991,4107373.6770807467],[602434.9502021336,4107373.8243159354],[602434.9832862841,4107373.9689899185],[602435.0305048918,4107374.109686491]]]]}},{"type":"Feature","properties":{"class":"tertiary","widthMeters":8},"geometry":{"type":"Polygon","coordinates":[[[602377.6264631517,4106531.873896936],[602381.8625245732,4106539.8026469657],[602385.0715285182,4106547.3757680613],[602386.9475579256,4106555.8128663204],[602388.7353532526,4106568.3966945875],[602392.6955859913,4106567.834060909],[602388.7545265846,4106568.5182032585],[602390.5225634612,4106578.703128038],[602393.2038743325,4106597.2539723883],[602393.225765808,4106597.389064495],[602397.2552768101,4106619.818111372],[602397.2746785757,4106619.9186883466],[602403.6287740325,4106650.7310570367],[602403.6574401049,4106650.8593670377],[602413.6745120377,4106692.470085364],[602416.1124035614,4106705.8596882923],[602416.1136319845,4106705.8664026335],[602416.5955767427,4106708.4879894177],[602417.2329445323,4106724.716859128],[602417.2143621206,4106735.6972077824],[602417.2147507799,4106735.7601459823],[602417.4006811525,4106748.9996519308],[602417.4052586674,4106749.142858324],[602417.6983665951,4106755.0160762696],[602417.7131489548,4106755.2137449086],[602418.0298293649,4106758.388370753],[602420.1104143194,4106779.526260118],[602420.1218514605,4106779.6288574957],[602425.1104553285,4106819.6785540543],[602425.128400341,4106819.8058962026],[602426.5511228179,4106828.8474776275],[602431.123434797,4106861.0729918755],[602431.1438475249,4106861.201739724],[602446.524775524,4106948.9434917346],[602457.7770210749,4107018.0607829303],[602457.7825954293,4107018.094134127],[602459.77902523,4107029.73587206],[602460.7138779667,4107035.578214588],[602462.4752065408,4107049.934925608],[602463.7264906666,4107064.5008565406],[602464.9901092123,4107084.5762003954],[602464.9906841094,4107084.585173037],[602465.8747205916,4107098.143849481],[602465.8752294305,4107098.1515395497],[602467.5459612486,4107123.037338417],[602470.4085871071,4107165.7154575936],[602462.5254270876,4107179.7873227675],[602459.9499729563,4107181.155735378],[602459.5724505943,4107181.3838644386],[602459.2223420953,4107181.652174038],[602458.9039049101,4107181.9574014302],[602456.3107091091,4107184.7331430055],[602456.0389743277,4107185.056695194],[602455.8028849072,4107185.4071058035],[602455.605075101,4107185.7804650012],[602454.0080283462,4107189.222954168],[602453.8559196902,4107189.5999072525],[602453.7428534754,4107189.9903514893],[602453.6699973273,4107190.3902547937],[602453.6381036252,4107190.795487397],[602453.4957584451,4107195.9311031466],[602453.5098515159,4107196.3951790594],[602453.5776252912,4107196.8544957074],[602454.0645764075,4107199.201617443],[602454.1730244717,4107199.612978437],[602454.3245471931,4107200.0104953735],[602454.517430671,4107200.389671868],[602456.4149262966,4107203.6748714624],[602456.6468578057,4107204.031238989],[602456.9153067756,4107204.3609740175],[602457.2172399004,4107204.6603507483],[602460.0570373423,4107207.1913851006],[602462.7184670211,4107204.2052852926],[602461.1274267174,4107207.8752431604],[602463.5699494841,4107208.9341523643],[602464.2174882495,4107209.217529913],[602471.8156180866,4107214.690097527],[602476.8357494889,4107220.6997210504],[602478.2430568642,4107227.19178012],[602478.2730063185,4107227.3197485977],[602479.4259530478,4107231.9052126687],[602479.4334184508,4107231.9344374463],[602492.8982197663,4107283.8283060095],[602495.1161560868,4107292.9887329615],[602495.1954978196,4107293.270815981],[602498.1054408293,4107302.329403591],[602503.711805638,4107326.8950783177],[602507.0446232378,4107341.504169845],[602515.2132053094,4107377.2442375296],[602523.4906649274,4107413.494485019],[602526.1739254367,4107425.244326296],[602526.1775744336,4107425.260156859],[602537.6298699757,4107474.4870859403],[602537.7143563322,4107474.7942566774],[602537.8230197678,4107475.0937296543],[602539.8277788456,4107480.0],[602548.46986547,4107480.0],[602545.3494291003,4107472.363319565],[602533.971333485,4107423.4553339235],[602531.2899108265,4107411.7135404926],[602523.0123712951,4107375.4629430315],[602514.8440546681,4107339.7240378256],[602511.5113788642,4107325.115567847],[602505.8664121365,4107300.380749199],[602505.775008182,4107300.0473724366],[602502.8569943446,4107290.9636605205],[602500.6658782944,4107281.9140055166],[602500.6499996715,4107281.8506878247],[602487.180788503,4107229.939823516],[602486.0475454002,4107225.4327240996],[602484.4925223652,4107218.2592369313],[602483.7100418587,4107210.6917890618],[602483.7428361614,4107200.5882787574],[602484.8589839287,4107197.374310139],[602484.957714629,4107197.0449713035],[602485.027798487,4107196.708370542],[602485.0687177063,4107196.366994742],[602485.080169966,4107196.023366068],[602485.0407637036,4107191.950737323],[602485.0226658739,4107191.607410033],[602484.9751528363,4107191.2669050097],[602484.898575597,4107190.9317377587],[602484.7934998759,4107190.6043843525],[602483.3824457964,4107186.7813948435],[602483.2016292192,4107186.36569192],[602482.9749374108,4107185.973117877],[602482.7052819944,4107185.608714924],[602480.8257069229,4107183.3487395323],[602478.460779721,4107166.225585176],[602475.5280175582,4107122.501822698],[602473.8575193284,4107097.619503053],[602472.9740260503,4107084.0691578593],[602471.7078209979,4107063.9527216894],[602471.7010432783,4107063.861641149],[602470.4396223616,4107049.1777100004],[602470.4245336792,4107049.032987202],[602468.6454310463,4107034.531398599],[602468.6249521337,4107034.3864665055],[602467.6750044274,4107028.4497882826],[602467.6676994684,4107028.4057150283],[602465.6703517875,4107016.75862468],[602454.4169179316,4106947.6340342816],[602454.4088167666,4106947.586110326],[602439.0349480456,4106859.8846285404],[602434.4675425551,4106827.693695073],[602434.458588199,4106827.6338438746],[602433.0411583149,4106818.6258975468],[602428.0668838948,4106778.6912411987],[602425.9910985352,4106757.6021137494],[602425.9905812097,4106757.596893055],[602425.6834812376,4106754.5183082195],[602425.3988862352,4106748.815669985],[602425.2144039235,4106735.679275803],[602425.2330716836,4106724.6484947302],[602425.2299961282,4106724.4847516124],[602424.5782066057,4106707.8886709646],[602424.5153621673,4106707.322416182],[602423.9823976152,4106704.4233021187],[602421.5250005673,4106690.926569229],[602421.4785992884,4106690.7068966627],[602411.4506304618,4106649.0509128557],[602405.1201583896,4106618.353099013],[602401.1118057318,4106596.0418236214],[602398.4321772734,4106577.5026191673],[602398.4143759442,4106577.390684537],[602396.6471663638,4106567.210525467],[602394.8461628488,4106554.533728185],[602394.7905686849,4106554.2281466825],[602392.8015774199,4106545.283023182],[602392.7065202512,4106544.931775567],[602392.5799362364,4106544.5906198267],[602389.1583350712,4106536.515777786],[602389.0033822479,4106536.191482126],[602384.5104113212,4106527.7818676694],[602384.3243625532,4106527.4688136964],[602384.1106134581,4106527.173977711],[602378.7090654199,4106520.395517068],[602378.4394586497,4106520.09043314],[602378.1402356528,4106519.8143360345],[602369.1741069171,4106512.349088043],[602368.6954751051,4106512.006886284],[602355.9820456745,4106504.2631897987],[602355.5960642303,4106504.056168157],[602346.9246508598,4106500.0],[602328.0434079504,4106500.0],[602352.0077904781,4106511.2096565072],[602364.281970742,4106518.685808169],[602372.7072935589,4106525.7007781845],[602377.6264631517,4106531.873896936]],[[602466.7709526307,4107201.602465917],[602466.7583407552,4107201.5969724967],[602464.8996890956,4107200.7911894857],[602463.0205329584,4107199.1163486447],[602461.7669682251,4107196.9460088043],[602461.5056165449,4107195.6862843903],[602461.612182245,4107191.8415424186],[602462.5930505214,4107189.7272471385],[602464.2936304243,4107187.9069563854],[602466.706702357,4107186.6248220913],[602469.389064265,4107186.2303162054],[602472.0610337948,4107186.7499559643],[602474.389694684,4107188.1212376803],[602476.1152274542,4107190.1959947133],[602477.0478594945,4107192.7227883753],[602477.0738227945,4107195.4060898623],[602476.1925476934,4107197.9437381937],[602474.502321577,4107200.0529246726],[602472.183256583,4107201.4838372534],[602469.7395593724,4107202.03787561],[602467.2251958428,4107201.8012529775],[602466.7709526307,4107201.602465917]]]}}]}
