{"type":"FeatureCollection","name":"ventanicas-buildings","crs":{"type":"name","properties":{"name":"EPSG:25830"}},"source":"Direcci\u00f3n General del Catastro, INSPIRE BU","features":[{"type":"Feature","properties":{"id":"2777001XG0027H_part1","floors":1,"height":3.1,"heightSource":"Catastro:numberOfFloorsAboveGround"},"geometry":{"type":"Polygon","coordinates":[[[602733.41,4107754.97],[602733.46,4107755.08],[602734.66,4107757.72],[602736.76,4107762.33],[602737.3,4107763.51],[602737.72,4107764.45],[602742.49,4107762.31],[602741.46,4107760.07],[602738.1,4107752.76],[602735.52,4107753.95],[602733.41,4107754.97]]]}},{"type":"Feature","properties":{"id":"2777001XG0027H_part2","floors":2,"height":6.2,"heightSource":"Catastro:numberOfFloorsAboveGround"},"geometry":{"type":"Polygon","coordinates":[[[602717.29,4107745.2],[602719.11,4107749.2],[602719.41,4107749.86],[602720.03,4107751.2],[602723.39,4107758.56],[602723.72,4107759.29],[602724.98,4107762.05],[602727.21,4107766.92],[602728.07,4107768.8],[602729.0,4107768.38],[602729.18,4107768.3],[602737.08,4107764.74],[602737.72,4107764.45],[602737.3,4107763.51],[602736.76,4107762.33],[602734.66,4107757.72],[602733.46,4107755.08],[602733.41,4107754.97],[602733.12,4107754.36],[602733.07,4107754.23],[602728.98,4107745.57],[602726.76,4107740.86],[602719.37,4107744.25],[602719.19,4107744.33],[602717.29,4107745.2]]]}},{"type":"Feature","properties":{"id":"2777001XG0027H_part3","floors":2,"height":6.2,"heightSource":"Catastro:numberOfFloorsAboveGround"},"geometry":{"type":"Polygon","coordinates":[[[602728.71,4107739.97],[602728.63,4107740.01],[602726.76,4107740.86],[602728.98,4107745.57],[602733.07,4107754.23],[602733.12,4107754.36],[602733.41,4107754.97],[602735.52,4107753.95],[602729.12,4107739.78],[602728.71,4107739.97]]]}},{"type":"Feature","properties":{"id":"2777002XG0027H_part1","floors":1,"height":3.1,"heightSource":"Catastro:numberOfFloorsAboveGround"},"geometry":{"type":"Polygon","coordinates":[[[602710.03,4107735.38],[602714.93,4107746.19],[602717.29,4107745.2],[602719.19,4107744.33],[602714.27,4107733.46],[602710.03,4107735.38]]]}},{"type":"Feature","properties":{"id":"2777002XG0027H_part2","floors":1,"height":3.1,"heightSource":"Catastro:numberOfFloorsAboveGround"},"geometry":{"type":"Polygon","coordinates":[[[602722.94,4107716.71],[602719.42,4107718.32],[602729.12,4107739.78],[602732.75,4107738.12],[602722.94,4107716.71]]]}},{"type":"Feature","properties":{"id":"2777002XG0027H_part3","floors":2,"height":6.2,"heightSource":"Catastro:numberOfFloorsAboveGround"},"geometry":{"type":"Polygon","coordinates":[[[602714.11,4107712.38],[602710.02,4107703.3],[602712.24,4107702.29],[602707.78,4107692.41],[602696.0,4107697.8],[602700.18,4107707.12],[602706.71,4107721.68],[602708.55,4107720.83],[602714.27,4107733.46],[602719.19,4107744.33],[602719.37,4107744.25],[602726.76,4107740.86],[602728.63,4107740.01],[602728.71,4107739.97],[602729.12,4107739.78],[602719.42,4107718.32],[602718.52,4107716.32],[602718.28,4107716.46],[602717.94,4107716.66],[602717.54,4107716.84],[602715.38,4107711.81],[602714.11,4107712.38]]]}},{"type":"Feature","properties":{"id":"2777002XG0027H_part4","floors":1,"height":3.1,"heightSource":"Catastro:numberOfFloorsAboveGround"},"geometry":{"type":"Polygon","coordinates":[[[602690.77,4107685.58],[602686.27,4107687.8],[602691.69,4107699.68],[602695.88,4107709.08],[602700.18,4107707.12],[602696.0,4107697.8],[602707.78,4107692.41],[602712.24,4107702.29],[602710.02,4107703.3],[602714.11,4107712.38],[602715.38,4107711.81],[602720.03,4107709.81],[602704.85,4107682.69],[602702.51,4107683.76],[602697.83,4107680.32],[602697.42,4107680.51],[602699.77,4107684.49],[602696.74,4107685.95],[602695.04,4107681.82],[602694.07,4107681.06],[602689.25,4107682.05],[602690.77,4107685.58]]]}},{"type":"Feature","properties":{"id":"2777008XG0027H_part2","floors":2,"height":6.2,"heightSource":"Catastro:numberOfFloorsAboveGround"},"geometry":{"type":"Polygon","coordinates":[[[602600.0,4107495.9565803255],[602600.0,4107503.508645118],[602603.546,4107510.041],[602607.766,4107507.8215],[602606.37,4107505.63],[602600.446,4107495.72],[602600.0,4107495.9565803255]]]}},{"type":"Feature","properties":{"id":"2779023XG0027H_part1","floors":1,"height":3.1,"heightSource":"Catastro:numberOfFloorsAboveGround"},"geometry":{"type":"Polygon","coordinates":[[[602603.3989,4107728.2269],[602604.38485,4107729.44245],[602603.88,4107729.85],[602601.29,4107731.86],[602603.32,4107734.27],[602603.77,4107733.96],[602609.52,4107740.96],[602612.41,4107738.68],[602612.06,4107738.24],[602609.15,4107734.58],[602613.18,4107731.38],[602613.1,4107731.28],[602612.0,4107729.9],[602612.32,4107729.64],[602608.08,4107724.43],[602605.38,4107726.62],[602603.3989,4107728.2269]]]}},{"type":"Feature","properties":{"id":"2779023XG0027H_part2","floors":1,"height":3.1,"heightSource":"Catastro:numberOfFloorsAboveGround"},"geometry":{"type":"Polygon","coordinates":[[[602615.16,4107727.33],[602610.92,4107722.12],[602608.08,4107724.43],[602612.32,4107729.64],[602615.16,4107727.33]]]}},{"type":"Feature","properties":{"id":"2779023XG0027H_part3","floors":1,"height":3.1,"heightSource":"Catastro:numberOfFloorsAboveGround"},"geometry":{"type":"Polygon","coordinates":[[[602609.15,4107734.58],[602612.06,4107738.24],[602616.09,4107735.03],[602613.18,4107731.38],[602609.15,4107734.58]]]}},{"type":"Feature","properties":{"id":"2779044XG0027H_part1","floors":2,"height":6.2,"heightSource":"Catastro:numberOfFloorsAboveGround"},"geometry":{"type":"Polygon","coordinates":[[[602608.4235,4107650.631],[602600.375,4107654.5775],[602600.0,4107654.761389079],[602600.0,4107666.2166494895],[602612.952,4107659.8655],[602608.4235,4107650.631]]]}},{"type":"Feature","properties":{"id":"2779044XG0027H_part2","floors":1,"height":3.1,"heightSource":"Catastro:numberOfFloorsAboveGround"},"geometry":{"type":"Polygon","coordinates":[[[602600.0,4107666.2166494895],[602600.0,4107668.68574136],[602613.928,4107661.856],[602612.952,4107659.8655],[602600.0,4107666.2166494895]]]}},{"type":"Feature","properties":{"id":"2779044XG0027H_part3","floors":2,"height":6.2,"heightSource":"Catastro:numberOfFloorsAboveGround"},"geometry":{"type":"Polygon","coordinates":[[[602604.36,4107673.28],[602600.0,4107676.48083151],[602600.0,4107686.5000833743],[602615.61,4107707.76],[602619.168,4107705.1875],[602628.956,4107718.725],[602634.388,4107714.798],[602632.7555,4107712.5395],[602631.978,4107713.1015],[602630.3455,4107710.8435],[602631.1225,4107710.2815],[602629.49,4107708.023],[602628.7125,4107708.585],[602627.08,4107706.327],[602627.857,4107705.765],[602626.2285,4107703.5125],[602625.451,4107704.0745],[602623.8225,4107701.822],[602624.6,4107701.26],[602604.36,4107673.28]]]}},{"type":"Feature","properties":{"id":"2779044XG0027H_part4","floors":1,"height":3.1,"heightSource":"Catastro:numberOfFloorsAboveGround"},"geometry":{"type":"Polygon","coordinates":[[[602609.23,4107628.66],[602601.45,4107632.48],[602618.29,4107666.8],[602619.7265,4107666.095],[602603.3425,4107632.743],[602609.7,4107629.62],[602609.23,4107628.66]]]}},{"type":"Feature","properties":{"id":"2779044XG0027H_part5","floors":2,"height":6.2,"heightSource":"Catastro:numberOfFloorsAboveGround"},"geometry":{"type":"Polygon","coordinates":[[[602603.3425,4107632.743],[602619.7265,4107666.095],[602625.81,4107663.11],[602630.179,4107660.966],[602616.523,4107633.1685],[602613.7925,4107627.6095],[602609.7,4107629.62],[602603.3425,4107632.743]]]}},{"type":"Feature","properties":{"id":"2779044XG0027H_part6","floors":1,"height":3.1,"heightSource":"Catastro:numberOfFloorsAboveGround"},"geometry":{"type":"Polygon","coordinates":[[[602626.28,4107664.06],[602633.98,4107660.28],[602617.13,4107625.97],[602613.7925,4107627.6095],[602616.523,4107633.1685],[602630.179,4107660.966],[602625.81,4107663.11],[602626.28,4107664.06]]]}},{"type":"Feature","properties":{"id":"2779044XG0027H_part7","floors":1,"height":3.1,"heightSource":"Catastro:numberOfFloorsAboveGround"},"geometry":{"type":"Polygon","coordinates":[[[602623.8225,4107701.822],[602625.451,4107704.0745],[602626.2285,4107703.5125],[602627.857,4107705.765],[602627.08,4107706.327],[602628.7125,4107708.585],[602629.49,4107708.023],[602631.1225,4107710.2815],[602630.3455,4107710.8435],[602631.978,4107713.1015],[602632.7555,4107712.5395],[602634.388,4107714.798],[602636.7435,4107713.095],[602626.901,4107699.4815],[602624.6,4107701.26],[602623.8225,4107701.822]]]}},{"type":"Feature","properties":{"id":"2779046XG0027H_part4","floors":1,"height":3.1,"heightSource":"Catastro:numberOfFloorsAboveGround"},"geometry":{"type":"Polygon","coordinates":[[[602600.82,4107597.57],[602602.07,4107596.64],[602600.0,4107593.8406962026],[602600.0,4107598.18256917],[602600.82,4107597.57]]]}},{"type":"Feature","properties":{"id":"2779046XG0027H_part5","floors":1,"height":3.1,"heightSource":"Catastro:numberOfFloorsAboveGround"},"geometry":{"type":"Polygon","coordinates":[[[602600.0,4107584.4352671755],[602600.0,4107588.951908397],[602600.39,4107589.46],[602602.57,4107587.79],[602600.0,4107584.4352671755]]]}},{"type":"Feature","properties":{"id":"2780005XG0028B_part3","floors":1,"height":3.1,"heightSource":"Catastro:numberOfFloorsAboveGround"},"geometry":{"type":"Polygon","coordinates":[[[602600.13,4107792.62],[602600.0,4107792.602272727],[602600.0,4107795.161885714],[602601.38,4107795.43],[602601.58,4107794.39],[602604.62,4107794.96],[602604.93,4107793.27],[602600.13,4107792.62]]]}},{"type":"Feature","properties":{"id":"2780005XG0028B_part4","floors":1,"height":3.1,"heightSource":"Catastro:numberOfFloorsAboveGround"},"geometry":{"type":"Polygon","coordinates":[[[602605.28,4107790.35],[602605.05,4107792.62],[602605.04,4107792.72],[602608.03,4107793.27],[602608.14,4107792.62],[602608.22,4107792.22],[602610.48,4107792.61],[602610.75,4107791.01],[602605.28,4107790.35]]]}},{"type":"Feature","properties":{"id":"2780005XG0028B_part5","floors":1,"height":3.1,"heightSource":"Catastro:numberOfFloorsAboveGround"},"geometry":{"type":"Polygon","coordinates":[[[602611.02,4107788.1],[602610.88,4107790.28],[602613.83,4107790.78],[602613.95,4107790.06],[602616.56,4107790.49],[602616.86,4107788.63],[602611.02,4107788.1]]]}},{"type":"Feature","properties":{"id":"2780005XG0028B_part6","floors":1,"height":3.1,"heightSource":"Catastro:numberOfFloorsAboveGround"},"geometry":{"type":"Polygon","coordinates":[[[602617.31,4107785.95],[602617.04,4107787.53],[602616.94,4107788.14],[602619.64,4107788.57],[602619.75,4107787.87],[602622.49,4107788.28],[602622.63,4107787.36],[602622.78,4107786.3],[602617.31,4107785.95]]]}},{"type":"Feature","properties":{"id":"2780005XG0028B_part7","floors":1,"height":3.1,"heightSource":"Catastro:numberOfFloorsAboveGround"},"geometry":{"type":"Polygon","coordinates":[[[602623.01,4107783.99],[602622.78,4107786.3],[602625.49,4107786.69],[602625.61,4107785.84],[602628.33,4107786.19],[602628.55,4107784.45],[602623.01,4107783.99]]]}},{"type":"Feature","properties":{"id":"2780005XG0028B_part8","floors":1,"height":3.1,"heightSource":"Catastro:numberOfFloorsAboveGround"},"geometry":{"type":"Polygon","coordinates":[[[602634.05,4107784.2],[602634.25,4107782.5],[602629.02,4107782.12],[602628.55,4107784.45],[602631.34,4107784.8],[602631.41,4107784.24],[602634.02,4107784.53],[602634.05,4107784.2]]]}},{"type":"Feature","properties":{"id":"2780005XG0028B_part9","floors":1,"height":3.1,"heightSource":"Catastro:numberOfFloorsAboveGround"},"geometry":{"type":"Polygon","coordinates":[[[602632.41,4107771.29],[602635.19,4107769.75],[602633.37,4107766.47],[602630.59,4107768.01],[602632.41,4107771.29]]]}},{"type":"Feature","properties":{"id":"2780005XG0028B_part11","floors":2,"height":6.2,"heightSource":"Catastro:numberOfFloorsAboveGround"},"geometry":{"type":"Polygon","coordinates":[[[602604.11,4107799.08],[602606.05,4107799.38],[602608.34,4107799.54],[602608.37,4107799.04],[602611.13,4107799.2],[602611.41,4107799.16],[602611.67,4107799.06],[602611.91,4107798.91],[602612.1,4107798.7],[602612.24,4107798.46],[602612.32,4107798.18],[602612.33,4107797.9],[602612.28,4107797.62],[602612.16,4107797.37],[602611.99,4107797.14],[602611.77,4107796.98],[602614.15,4107797.26],[602614.2,4107796.77],[602617.04,4107797.05],[602617.26,4107796.96],[602617.47,4107796.84],[602617.66,4107796.68],[602617.81,4107796.5],[602617.93,4107796.29],[602618.02,4107796.06],[602618.06,4107795.82],[602618.06,4107795.58],[602618.01,4107795.34],[602617.93,4107795.11],[602617.81,4107794.91],[602619.96,4107795.13],[602620.06,4107794.62],[602622.98,4107794.97],[602623.26,4107794.93],[602623.53,4107794.83],[602623.77,4107794.68],[602623.97,4107794.47],[602624.12,4107794.23],[602624.22,4107793.97],[602624.26,4107793.68],[602624.23,4107793.4],[602624.14,4107793.13],[602624.0,4107792.88],[602623.87,4107792.64],[602624.29,4107792.63],[602625.91,4107792.88],[602625.97,4107792.62],[602626.01,4107792.46],[602627.34,4107792.62],[602628.84,4107792.8],[602629.1,4107792.73],[602629.34,4107792.62],[602629.56,4107792.45],[602629.74,4107792.24],[602629.87,4107792.01],[602629.94,4107791.75],[602629.97,4107791.48],[602629.93,4107791.21],[602629.84,4107790.95],[602629.7,4107790.72],[602629.52,4107790.53],[602631.8,4107790.78],[602631.94,4107790.34],[602634.86,4107790.6],[602635.1,4107790.57],[602635.33,4107790.49],[602635.54,4107790.36],[602635.72,4107790.19],[602635.85,4107789.98],[602635.94,4107789.75],[602635.97,4107789.5],[602635.94,4107789.26],[602635.86,4107789.03],[602635.73,4107788.82],[602635.56,4107788.64],[602635.35,4107788.51],[602635.12,4107788.44],[602633.53,4107788.31],[602634.02,4107784.53],[602631.41,4107784.24],[602631.34,4107784.8],[602628.55,4107784.45],[602628.33,4107786.19],[602625.61,4107785.84],[602625.49,4107786.69],[602622.78,4107786.3],[602622.63,4107787.36],[602622.49,4107788.28],[602619.75,4107787.87],[602619.64,4107788.57],[602616.94,4107788.14],[602616.86,4107788.63],[602616.56,4107790.49],[602613.95,4107790.06],[602613.83,4107790.78],[602610.88,4107790.28],[602610.75,4107791.01],[602610.48,4107792.61],[602608.22,4107792.22],[602608.14,4107792.62],[602608.03,4107793.27],[602605.04,4107792.72],[602604.93,4107793.27],[602604.62,4107794.96],[602604.11,4107799.08]]]}},{"type":"Feature","properties":{"id":"2780005XG0028B_part12","floors":3,"height":9.3,"heightSource":"Catastro:numberOfFloorsAboveGround"},"geometry":{"type":"Polygon","coordinates":[[[602600.15,4107803.71],[602600.36,4107803.5],[602600.51,4107803.25],[602600.61,4107802.97],[602600.64,4107802.67],[602600.61,4107802.38],[602600.51,4107802.1],[602600.35,4107801.85],[602600.15,4107801.65],[602602.53,4107801.81],[602602.56,4107801.23],[602604.24,4107801.31],[602605.15,4107801.36],[602605.38,4107801.43],[602605.62,4107801.44],[602605.85,4107801.41],[602606.08,4107801.32],[602606.28,4107801.19],[602606.44,4107801.01],[602606.57,4107800.81],[602606.64,4107800.58],[602606.66,4107800.34],[602606.63,4107800.1],[602606.55,4107799.87],[602606.42,4107799.67],[602606.25,4107799.5],[602606.05,4107799.38],[602604.11,4107799.08],[602604.62,4107794.96],[602601.58,4107794.39],[602601.38,4107795.43],[602600.0,4107795.161885714],[602600.0,4107803.8],[602600.15,4107803.71]]]}},{"type":"Feature","properties":{"id":"2781004XG0028B_part1","floors":1,"height":3.1,"heightSource":"Catastro:numberOfFloorsAboveGround"},"geometry":{"type":"Polygon","coordinates":[[[602713.43,4108048.27],[602713.79,4108049.11],[602711.9464285711,4108050.0],[602716.6940669745,4108050.0],[602715.481,4108047.289],[602713.43,4108048.27]]]}},{"type":"Feature","properties":{"id":"2781005XG0028B_part1","floors":1,"height":3.1,"heightSource":"Catastro:numberOfFloorsAboveGround"},"geometry":{"type":"Polygon","coordinates":[[[602705.75,4108044.37],[602706.05,4108045.2],[602708.87,4108044.21],[602707.45,4108040.2],[602715.08,4108037.49],[602713.59,4108033.31],[602708.47,4108035.14],[602708.16,4108034.27],[602699.39,4108037.43],[602700.87,4108041.61],[602701.69,4108041.32],[602703.12,4108045.31],[602705.75,4108044.37]]]}},{"type":"Feature","properties":{"id":"2781005XG0028B_part2","floors":1,"height":3.1,"heightSource":"Catastro:numberOfFloorsAboveGround"},"geometry":{"type":"Polygon","coordinates":[[[602717.05,4108031.84],[602718.64,4108036.4],[602723.39,4108034.34],[602722.11,4108030.98],[602721.68,4108029.86],[602717.05,4108031.84]]]}},{"type":"Feature","properties":{"id":"2781006XG0028B_part1","floors":1,"height":3.1,"heightSource":"Catastro:numberOfFloorsAboveGround"},"geometry":{"type":"Polygon","coordinates":[[[602690.28,4108019.68],[602692.57,4108023.78],[602692.92,4108023.58],[602694.15,4108022.89],[602696.31,4108026.73],[602697.89,4108025.84],[602699.13,4108027.97],[602702.03,4108026.28],[602700.33,4108023.37],[602706.66,4108019.76],[602708.79,4108018.56],[602705.68,4108013.09],[602700.28,4108016.15],[602696.35,4108018.39],[602695.21,4108016.38],[602693.65,4108013.64],[602689.28,4108016.11],[602691.05,4108019.25],[602690.28,4108019.68]]]}},{"type":"Feature","properties":{"id":"2781007XG0028B_part1","floors":2,"height":6.2,"heightSource":"Catastro:numberOfFloorsAboveGround"},"geometry":{"type":"Polygon","coordinates":[[[602677.764,4108030.558],[602676.944,4108028.698],[602673.974,4108030.018],[602674.654,4108031.558],[602673.044,4108032.268],[602674.374,4108035.768],[602675.434,4108035.318],[602676.244,4108037.208],[602678.314,4108036.268],[602680.364,4108041.178],[602680.874,4108042.528],[602686.534,4108040.038],[602684.754,4108035.968],[602688.294,4108034.408],[602685.884,4108029.028],[602682.224,4108030.668],[602681.444,4108028.928],[602677.764,4108030.558]]]}},{"type":"Feature","properties":{"id":"2781007XG0028B_part2","floors":1,"height":3.1,"heightSource":"Catastro:numberOfFloorsAboveGround"},"geometry":{"type":"Polygon","coordinates":[[[602675.444,4108037.548],[602677.424,4108042.388],[602680.364,4108041.178],[602678.314,4108036.268],[602676.244,4108037.208],[602675.444,4108037.548]]]}},{"type":"Feature","properties":{"id":"2781007XG0028B_part3","floors":1,"height":3.1,"heightSource":"Catastro:numberOfFloorsAboveGround"},"geometry":{"type":"Polygon","coordinates":[[[602681.444,4108028.928],[602682.224,4108030.668],[602685.884,4108029.028],[602685.114,4108027.309],[602681.444,4108028.928]]]}},{"type":"Feature","properties":{"id":"2781007XG0028B_part4","floors":2,"height":6.2,"heightSource":"Catastro:numberOfFloorsAboveGround"},"geometry":{"type":"Polygon","coordinates":[[[602691.024,4108033.208],[602687.884,4108026.088],[602685.114,4108027.309],[602685.884,4108029.028],[602688.294,4108034.408],[602691.024,4108033.208]]]}},{"type":"Feature","properties":{"id":"2781008XG0028B_part1","floors":1,"height":3.1,"heightSource":"Catastro:numberOfFloorsAboveGround"},"geometry":{"type":"Polygon","coordinates":[[[602681.84,4108047.84],[602681.98,4108048.14],[602682.9007920792,4108050.0],[602683.338481013,4108050.0],[602686.52,4108048.58],[602686.25,4108047.98],[602685.31,4108048.41],[602684.5,4108046.64],[602681.84,4108047.84]]]}},{"type":"Feature","properties":{"id":"2781008XG0028B_part2","floors":1,"height":3.1,"heightSource":"Catastro:numberOfFloorsAboveGround"},"geometry":{"type":"MultiPolygon","coordinates":[[[[602678.97,4108049.24],[602679.3410492504,4108050.0],[602682.9007920792,4108050.0],[602681.98,4108048.14],[602681.84,4108047.84],[602678.97,4108049.24]]],[[[602689.41,4108047.35],[602689.39,4108047.3],[602686.52,4108048.58],[602683.338481013,4108050.0],[602690.6470221329,4108050.0],[602689.41,4108047.35]]]]}},{"type":"Feature","properties":{"id":"2781008XG0028B_part4","floors":1,"height":3.1,"heightSource":"Catastro:numberOfFloorsAboveGround"},"geometry":{"type":"Polygon","coordinates":[[[602684.5,4108046.64],[602685.31,4108048.41],[602686.25,4108047.98],[602686.52,4108048.58],[602689.39,4108047.3],[602688.28,4108044.95],[602684.5,4108046.64]]]}},{"type":"Feature","properties":{"id":"2781008XG0028B_part5","floors":1,"height":3.1,"heightSource":"Catastro:numberOfFloorsAboveGround"},"geometry":{"type":"Polygon","coordinates":[[[602693.75,4108049.43],[602693.21,4108048.22],[602692.24,4108046.04],[602691.16,4108043.66],[602688.28,4108044.95],[602689.39,4108047.3],[602689.41,4108047.35],[602690.6470221329,4108050.0],[602694.0040963856,4108050.0],[602693.75,4108049.43]]]}},{"type":"Feature","properties":{"id":"2781013XG0028B_part1","floors":1,"height":3.1,"heightSource":"Catastro:numberOfFloorsAboveGround"},"geometry":{"type":"Polygon","coordinates":[[[602666.48,4108047.48],[602664.22,4108042.08],[602656.78,4108045.18],[602655.18,4108041.36],[602654.26,4108041.74],[602653.47,4108039.87],[602651.3,4108040.78],[602651.8,4108041.99],[602649.36,4108043.01],[602652.2860465117,4108050.0],[602660.4319999998,4108050.0],[602666.48,4108047.48]]]}},{"type":"Feature","properties":{"id":"2781014XG0028B_part1","floors":1,"height":3.1,"heightSource":"Catastro:numberOfFloorsAboveGround"},"geometry":{"type":"Polygon","coordinates":[[[602621.966,4108046.122],[602623.9108158369,4108050.0],[602628.1391665514,4108050.0],[602625.361,4108044.459],[602624.387,4108044.935],[602621.966,4108046.122]]]}},{"type":"Feature","properties":{"id":"2781014XG0028B_part2","floors":1,"height":3.1,"heightSource":"Catastro:numberOfFloorsAboveGround"},"geometry":{"type":"Polygon","coordinates":[[[602622.763,4108041.696],[602624.387,4108044.935],[602625.361,4108044.459],[602628.1391665514,4108050.0],[602628.7667602738,4108050.0],[602631.33,4108048.781],[602629.346,4108044.811],[602630.295,4108044.358],[602630.859,4108045.487],[602632.47,4108044.72],[602633.37,4108046.57],[602635.81,4108045.38],[602634.18,4108042.04],[602633.18,4108039.97],[602635.35,4108038.91],[602632.56,4108033.15],[602626.27,4108036.23],[602627.11,4108037.94],[602625.39,4108038.78],[602626.05,4108040.12],[602624.34,4108040.94],[602622.763,4108041.696]]]}},{"type":"Feature","properties":{"id":"2781014XG0028B_part3","floors":1,"height":3.1,"heightSource":"Catastro:numberOfFloorsAboveGround"},"geometry":{"type":"Polygon","coordinates":[[[602622.86,4108037.91],[602624.34,4108040.94],[602626.05,4108040.12],[602625.39,4108038.78],[602627.11,4108037.94],[602626.27,4108036.23],[602622.86,4108037.91]]]}},{"type":"Feature","properties":{"id":"2781014XG0028B_part4","floors":1,"height":3.1,"heightSource":"Catastro:numberOfFloorsAboveGround"},"geometry":{"type":"Polygon","coordinates":[[[602638.56,4108039.89],[602634.73,4108032.09],[602632.56,4108033.15],[602635.35,4108038.91],[602633.18,4108039.97],[602634.18,4108042.04],[602638.56,4108039.89]]]}},{"type":"Feature","properties":{"id":"2781016XG0028B_part2","floors":2,"height":6.2,"heightSource":"Catastro:numberOfFloorsAboveGround"},"geometry":{"type":"Polygon","coordinates":[[[602600.7,4108045.85],[602605.45,4108045.58],[602605.31,4108041.46],[602600.0,4108041.635933735],[602600.0,4108045.894767442],[602600.7,4108045.85]]]}},{"type":"Feature","properties":{"id":"2781016XG0028B_part3","floors":2,"height":6.2,"heightSource":"Catastro:numberOfFloorsAboveGround"},"geometry":{"type":"Polygon","coordinates":[[[602600.0,4108045.894767442],[602600.0,4108050.0],[602609.991231884,4108050.0],[602609.97,4108049.414],[602605.56,4108049.56],[602601.03,4108049.92],[602600.7,4108045.85],[602600.0,4108045.894767442]]]}},{"type":"Feature","properties":{"id":"2781016XG0028B_part4","floors":1,"height":3.1,"heightSource":"Catastro:numberOfFloorsAboveGround"},"geometry":{"type":"Polygon","coordinates":[[[602609.52,4108039.23],[602600.0,4108039.691206581],[602600.0,4108041.635933735],[602605.31,4108041.46],[602605.45,4108045.58],[602605.56,4108049.56],[602609.97,4108049.414],[602610.0,4108049.04],[602609.52,4108039.23]]]}},{"type":"Feature","properties":{"id":"2781016XG0028B_part5","floors":1,"height":3.1,"heightSource":"Catastro:numberOfFloorsAboveGround"},"geometry":{"type":"Polygon","coordinates":[[[602600.7,4108045.85],[602601.03,4108049.92],[602605.56,4108049.56],[602605.45,4108045.58],[602600.7,4108045.85]]]}},{"type":"Feature","properties":{"id":"2781018XG0028B_part1","floors":1,"height":3.1,"heightSource":"Catastro:numberOfFloorsAboveGround"},"geometry":{"type":"Polygon","coordinates":[[[602635.78,4108010.42],[602630.15,4108012.19],[602631.54,4108016.39],[602631.67,4108016.79],[602642.57,4108013.26],[602641.97,4108011.12],[602640.47,4108005.78],[602634.87,4108007.52],[602635.78,4108010.42]]]}},{"type":"Feature","properties":{"id":"2781018XG0028B_part2","floors":2,"height":6.2,"heightSource":"Catastro:numberOfFloorsAboveGround"},"geometry":{"type":"Polygon","coordinates":[[[602621.69,4108000.44],[602622.18,4108002.04],[602620.86,4108002.44],[602621.12,4108003.31],[602622.35,4108007.37],[602623.51,4108011.21],[602625.02,4108010.75],[602628.15,4108009.7],[602626.22,4108003.06],[602628.99,4108002.21],[602628.46,4108000.53],[602628.29,4108000.0],[602627.84,4107998.54],[602623.11,4108000.0],[602621.69,4108000.44]]]}},{"type":"Feature","properties":{"id":"2781018XG0028B_part3","floors":2,"height":6.2,"heightSource":"Catastro:numberOfFloorsAboveGround"},"geometry":{"type":"Polygon","coordinates":[[[602628.99,4108002.21],[602626.22,4108003.06],[602628.15,4108009.7],[602625.02,4108010.75],[602625.82,4108013.56],[602630.15,4108012.19],[602635.78,4108010.42],[602634.87,4108007.52],[602633.97,4108004.44],[602632.93,4108004.73],[602631.57,4108000.0],[602631.44,4107999.54],[602630.05,4108000.0],[602628.46,4108000.53],[602628.99,4108002.21]]]}},{"type":"Feature","properties":{"id":"2781018XG0028B_part4","floors":1,"height":3.1,"heightSource":"Catastro:numberOfFloorsAboveGround"},"geometry":{"type":"Polygon","coordinates":[[[602618.48,4108003.55],[602618.85,4108008.05],[602622.35,4108007.37],[602621.12,4108003.31],[602618.48,4108003.55]]]}},{"type":"Feature","properties":{"id":"2781018XG0028B_part5","floors":1,"height":3.1,"heightSource":"Catastro:numberOfFloorsAboveGround"},"geometry":{"type":"Polygon","coordinates":[[[602625.82,4108013.56],[602627.28,4108017.81],[602631.54,4108016.39],[602630.15,4108012.19],[602625.82,4108013.56]]]}},{"type":"Feature","properties":{"id":"2781018XG0028B_part6","floors":1,"height":3.1,"heightSource":"Catastro:numberOfFloorsAboveGround"},"geometry":{"type":"Polygon","coordinates":[[[602638.29,4107997.4],[602631.44,4107999.54],[602631.57,4108000.0],[602632.93,4108004.73],[602633.97,4108004.44],[602634.87,4108007.52],[602640.47,4108005.78],[602640.92,4108005.63],[602639.12,4108000.0],[602638.29,4107997.4]]]}},{"type":"Feature","properties":{"id":"2781019XG0028B_part1","floors":1,"height":3.1,"heightSource":"Catastro:numberOfFloorsAboveGround"},"geometry":{"type":"Polygon","coordinates":[[[602639.37,4107989.03],[602641.32,4107993.78],[602648.24,4107990.23],[602646.03,4107985.51],[602639.37,4107989.03]]]}},{"type":"Feature","properties":{"id":"2781019XG0028B_part2","floors":1,"height":3.1,"heightSource":"Catastro:numberOfFloorsAboveGround"},"geometry":{"type":"Polygon","coordinates":[[[602645.56,4108004.11],[602647.71,4108009.36],[602647.91,4108009.86],[602651.58,4108008.4],[602650.59,4108005.72],[602649.78,4108006.02],[602648.58,4108002.75],[602645.56,4108004.11]]]}},{"type":"Feature","properties":{"id":"2781019XG0028B_part3","floors":1,"height":3.1,"heightSource":"Catastro:numberOfFloorsAboveGround"},"geometry":{"type":"Polygon","coordinates":[[[602658.49,4108002.04],[602655.36,4108003.23],[602657.5,4108008.85],[602652.48,4108010.84],[602653.48,4108013.53],[602655.15,4108012.9],[602660.5,4108010.85],[602661.71,4108014.01],[602663.69,4108013.25],[602663.33,4108012.33],[602661.83,4108008.45],[602659.24,4108001.75],[602658.49,4108002.04]]]}},{"type":"Feature","properties":{"id":"2781019XG0028B_part4","floors":2,"height":6.2,"heightSource":"Catastro:numberOfFloorsAboveGround"},"geometry":{"type":"Polygon","coordinates":[[[602648.53,4108002.61],[602648.58,4108002.75],[602649.78,4108006.02],[602650.59,4108005.72],[602651.58,4108008.4],[602652.48,4108010.84],[602657.5,4108008.85],[602655.36,4108003.23],[602658.49,4108002.04],[602659.24,4108001.75],[602658.56,4108000.0],[602658.11,4107998.83],[602657.38,4107999.12],[602655.14,4108000.0],[602649.47,4108002.24],[602648.53,4108002.61]]]}},{"type":"Feature","properties":{"id":"2781019XG0028B_part5","floors":2,"height":6.2,"heightSource":"Catastro:numberOfFloorsAboveGround"},"geometry":{"type":"Polygon","coordinates":[[[602660.5,4108010.85],[602655.15,4108012.9],[602656.34,4108016.05],[602661.71,4108014.01],[602660.5,4108010.85]]]}},{"type":"Feature","properties":{"id":"2781019XG0028B_part6","floors":1,"height":3.1,"heightSource":"Catastro:numberOfFloorsAboveGround"},"geometry":{"type":"Polygon","coordinates":[[[602656.52,4107996.61],[602648.55,4107999.75],[602648.64,4108000.0],[602649.47,4108002.24],[602655.14,4108000.0],[602657.38,4107999.12],[602656.52,4107996.61]]]}},{"type":"Feature","properties":{"id":"2781019XG0028B_part7","floors":1,"height":3.1,"heightSource":"Catastro:numberOfFloorsAboveGround"},"geometry":{"type":"Polygon","coordinates":[[[602660.7,4107997.81],[602658.11,4107998.83],[602658.56,4108000.0],[602659.24,4108001.75],[602661.83,4108008.45],[602664.47,4108007.24],[602661.57,4108000.0],[602660.7,4107997.81]]]}},{"type":"Feature","properties":{"id":"2781019XG0028B_part8","floors":1,"height":3.1,"heightSource":"Catastro:numberOfFloorsAboveGround"},"geometry":{"type":"Polygon","coordinates":[[[602661.71,4108014.01],[602662.28,4108015.53],[602664.25,4108014.7],[602663.88,4108013.76],[602663.69,4108013.25],[602661.71,4108014.01]]]}},{"type":"Feature","properties":{"id":"2781020XG0028B_part1","floors":1,"height":3.1,"heightSource":"Catastro:numberOfFloorsAboveGround"},"geometry":{"type":"Polygon","coordinates":[[[602665.03,4107985.47],[602665.2,4107985.91],[602665.52,4107986.76],[602666.01,4107988.03],[602664.69,4107988.57],[602665.81,4107991.73],[602662.91,4107992.95],[602664.12,4107995.85],[602665.06,4107998.12],[602667.8,4107997.07],[602671.57,4107995.63],[602672.8,4107998.84],[602676.04,4107997.59],[602683.28,4107994.82],[602683.09,4107994.35],[602680.45,4107987.46],[602675.09,4107989.51],[602674.75,4107989.64],[602672.06,4107990.68],[602669.55,4107984.15],[602669.41,4107983.79],[602665.03,4107985.47]]]}},{"type":"Feature","properties":{"id":"2781020XG0028B_part2","floors":1,"height":3.1,"heightSource":"Catastro:numberOfFloorsAboveGround"},"geometry":{"type":"Polygon","coordinates":[[[602672.05,4107982.74],[602669.41,4107983.79],[602669.55,4107984.15],[602672.06,4107990.68],[602674.75,4107989.64],[602672.05,4107982.74]]]}},{"type":"Feature","properties":{"id":"2781021XG0028B_part1","floors":1,"height":3.1,"heightSource":"Catastro:numberOfFloorsAboveGround"},"geometry":{"type":"Polygon","coordinates":[[[602685.723,4107988.107],[602687.3265,4107991.068],[602686.7625,4107992.215],[602688.6715,4107993.5985],[602689.4795,4107992.296],[602687.338,4107990.9675],[602692.266,4107983.022],[602689.8185,4107981.504],[602685.723,4107988.107]]]}},{"type":"Feature","properties":{"id":"2781021XG0028B_part2","floors":2,"height":6.2,"heightSource":"Catastro:numberOfFloorsAboveGround"},"geometry":{"type":"Polygon","coordinates":[[[602687.338,4107990.9675],[602689.4795,4107992.296],[602688.6715,4107993.5985],[602690.191,4107994.5445],[602690.59,4107994.793],[602690.7625,4107994.5155],[602693.9745,4107996.5075],[602697.195,4107991.315],[602698.062,4107991.853],[602702.252,4107985.0965],[602698.929,4107983.036],[602698.572,4107982.8145],[602698.0185,4107983.707],[602693.557,4107980.9395],[602692.266,4107983.022],[602687.338,4107990.9675]]]}},{"type":"Feature","properties":{"id":"2781021XG0028B_part3","floors":1,"height":3.1,"heightSource":"Catastro:numberOfFloorsAboveGround"},"geometry":{"type":"Polygon","coordinates":[[[602700.0095,4107981.2935],[602692.7435,4107976.7875],[602689.8185,4107981.504],[602692.266,4107983.022],[602693.557,4107980.9395],[602698.0185,4107983.707],[602698.572,4107982.8145],[602698.929,4107983.036],[602700.0095,4107981.2935]]]}},{"type":"Feature","properties":{"id":"2781021XG0028B_part4","floors":2,"height":6.2,"heightSource":"Catastro:numberOfFloorsAboveGround"},"geometry":{"type":"Polygon","coordinates":[[[602689.836,4107995.1175],[602693.4475,4107997.3575],[602693.9745,4107996.5075],[602690.7625,4107994.5155],[602690.59,4107994.793],[602690.191,4107994.5445],[602689.836,4107995.1175]]]}},{"type":"Feature","properties":{"id":"2781023XG0028B_part1","floors":1,"height":3.1,"heightSource":"Catastro:numberOfFloorsAboveGround"},"geometry":{"type":"Polygon","coordinates":[[[602734.68,4107980.39],[602734.88,4107984.11],[602735.82,4107984.05],[602735.9,4107985.3],[602736.38,4107985.26],[602738.1,4107985.11],[602739.42,4107984.87],[602739.25,4107983.35],[602738.21,4107983.46],[602737.86,4107980.21],[602734.68,4107980.39]]]}},{"type":"Feature","properties":{"id":"2781023XG0028B_part2","floors":1,"height":3.1,"heightSource":"Catastro:numberOfFloorsAboveGround"},"geometry":{"type":"Polygon","coordinates":[[[602751.38,4107986.82],[602755.31,4107986.47],[602755.0,4107983.14],[602754.41,4107983.19],[602754.19,4107980.69],[602753.95,4107977.83],[602746.58,4107978.46],[602746.64,4107979.27],[602746.8,4107981.06],[602747.35,4107987.19],[602751.38,4107986.82]]]}},{"type":"Feature","properties":{"id":"2781023XG0028B_part3","floors":2,"height":6.2,"heightSource":"Catastro:numberOfFloorsAboveGround"},"geometry":{"type":"Polygon","coordinates":[[[602744.92,4107979.39],[602744.7,4107976.27],[602742.49,4107976.42],[602739.31,4107976.66],[602739.51,4107979.41],[602737.89,4107979.52],[602737.86,4107980.21],[602738.21,4107983.46],[602739.25,4107983.35],[602739.42,4107984.87],[602738.1,4107985.11],[602738.53,4107989.2],[602741.42,4107988.96],[602741.31,4107987.74],[602747.35,4107987.19],[602746.8,4107981.06],[602746.64,4107979.27],[602744.92,4107979.39]]]}},{"type":"Feature","properties":{"id":"2781024XG0028B_part1","floors":1,"height":3.1,"heightSource":"Catastro:numberOfFloorsAboveGround"},"geometry":{"type":"Polygon","coordinates":[[[602731.76,4107966.72],[602732.79,4107968.49],[602730.78,4107969.71],[602731.33,4107970.76],[602734.31,4107968.99],[602738.45,4107966.53],[602736.6,4107963.43],[602731.76,4107966.72]]]}},{"type":"Feature","properties":{"id":"2781024XG0028B_part2","floors":2,"height":6.2,"heightSource":"Catastro:numberOfFloorsAboveGround"},"geometry":{"type":"Polygon","coordinates":[[[602738.73,4107962.16],[602735.74,4107957.2],[602734.63,4107955.35],[602732.77,4107952.25],[602732.21,4107952.56],[602727.77,4107955.04],[602728.31,4107956.01],[602726.04,4107957.27],[602725.65,4107956.56],[602722.32,4107958.4],[602724.45,4107962.04],[602722.22,4107963.38],[602725.29,4107968.52],[602725.88,4107968.07],[602726.98,4107969.89],[602728.51,4107972.45],[602730.76,4107971.1],[602731.33,4107970.76],[602730.78,4107969.71],[602732.79,4107968.49],[602731.76,4107966.72],[602736.6,4107963.43],[602738.73,4107962.16]]]}},{"type":"Feature","properties":{"id":"2781025XG0028B_part1","floors":1,"height":3.1,"heightSource":"Catastro:numberOfFloorsAboveGround"},"geometry":{"type":"Polygon","coordinates":[[[602759.66,4107937.64],[602756.31,4107939.58],[602752.78,4107941.63],[602752.54,4107941.27],[602749.34,4107943.13],[602751.1,4107945.79],[602749.05,4107946.99],[602751.15,4107950.18],[602753.9,4107948.59],[602754.59,4107949.64],[602755.42,4107949.16],[602756.37,4107950.61],[602758.01,4107953.1],[602763.41,4107949.97],[602762.44,4107948.48],[602765.7,4107946.58],[602764.27,4107944.4],[602765.95,4107943.42],[602763.8,4107940.16],[602762.0,4107941.2],[602759.66,4107937.64]]]}},{"type":"Feature","properties":{"id":"2781026XG0028B_part1","floors":1,"height":3.1,"heightSource":"Catastro:numberOfFloorsAboveGround"},"geometry":{"type":"Polygon","coordinates":[[[602763.77,4107969.62],[602762.88,4107970.11],[602763.16,4107970.54],[602765.06,4107973.59],[602767.98,4107972.01],[602766.9,4107970.03],[602769.97,4107968.36],[602769.51,4107967.52],[602771.93,4107966.19],[602773.97,4107965.03],[602770.09,4107958.8],[602768.01,4107959.96],[602767.18,4107958.54],[602766.81,4107957.9],[602765.15,4107958.89],[602761.48,4107960.9],[602761.88,4107961.58],[602764.94,4107966.74],[602762.81,4107967.92],[602763.77,4107969.62]]]}},{"type":"Feature","properties":{"id":"2781026XG0028B_part2","floors":2,"height":6.2,"heightSource":"Catastro:numberOfFloorsAboveGround"},"geometry":{"type":"Polygon","coordinates":[[[602758.43,4107962.59],[602758.83,4107963.33],[602758.99,4107963.62],[602761.39,4107967.98],[602761.75,4107968.52],[602762.81,4107967.92],[602764.94,4107966.74],[602761.88,4107961.58],[602761.48,4107960.9],[602758.43,4107962.59]]]}},{"type":"Feature","properties":{"id":"2781027XG0028B_part1","floors":2,"height":6.2,"heightSource":"Catastro:numberOfFloorsAboveGround"},"geometry":{"type":"Polygon","coordinates":[[[602784.85,4107976.95],[602784.54,4107974.04],[602780.39,4107974.36],[602780.45,4107974.79],[602776.95,4107974.99],[602777.12,4107976.88],[602776.36,4107976.96],[602775.7,4107977.02],[602776.46,4107983.73],[602781.88,4107983.23],[602782.11,4107985.6],[602783.1,4107985.52],[602782.65,4107980.89],[602785.25,4107980.71],[602786.29,4107980.61],[602785.91,4107976.85],[602784.85,4107976.95]]]}},{"type":"Feature","properties":{"id":"2781027XG0028B_part2","floors":1,"height":3.1,"heightSource":"Catastro:numberOfFloorsAboveGround"},"geometry":{"type":"Polygon","coordinates":[[[602773.36,4107977.24],[602774.49,4107986.24],[602776.7,4107986.05],[602782.11,4107985.6],[602781.88,4107983.23],[602776.46,4107983.73],[602775.7,4107977.02],[602773.36,4107977.24]]]}},{"type":"Feature","properties":{"id":"2781027XG0028B_part3","floors":1,"height":3.1,"heightSource":"Catastro:numberOfFloorsAboveGround"},"geometry":{"type":"Polygon","coordinates":[[[602790.23,4107984.94],[602789.4,4107976.53],[602785.91,4107976.85],[602786.29,4107980.61],[602788.03,4107980.44],[602788.49,4107985.08],[602790.23,4107984.94]]]}},{"type":"Feature","properties":{"id":"2781027XG0028B_part4","floors":1,"height":3.1,"heightSource":"Catastro:numberOfFloorsAboveGround"},"geometry":{"type":"Polygon","coordinates":[[[602785.25,4107980.71],[602782.65,4107980.89],[602783.1,4107985.52],[602783.59,4107985.49],[602784.84,4107985.38],[602787.62,4107985.16],[602787.77,4107985.14],[602788.49,4107985.08],[602788.03,4107980.44],[602786.29,4107980.61],[602785.25,4107980.71]]]}},{"type":"Feature","properties":{"id":"2781028XG0028B_part1","floors":1,"height":3.1,"heightSource":"Catastro:numberOfFloorsAboveGround"},"geometry":{"type":"Polygon","coordinates":[[[602814.02,4107980.73],[602814.73,4107981.75],[602814.82,4107981.87],[602815.08,4107981.69],[602817.36,4107980.14],[602815.91,4107978.01],[602816.88,4107977.35],[602816.66,4107977.03],[602815.16,4107974.83],[602814.98,4107974.56],[602811.59,4107976.85],[602811.03,4107976.0],[602809.72,4107976.86],[602810.4,4107977.86],[602812.89,4107981.49],[602814.02,4107980.73]]]}},{"type":"Feature","properties":{"id":"2781028XG0028B_part2","floors":2,"height":6.2,"heightSource":"Catastro:numberOfFloorsAboveGround"},"geometry":{"type":"Polygon","coordinates":[[[602797.61,4107983.35],[602798.37,4107984.44],[602798.53,4107984.67],[602798.87,4107985.17],[602800.13,4107986.99],[602801.49,4107986.86],[602804.22,4107985.07],[602805.16,4107986.51],[602811.74,4107985.91],[602810.06,4107983.42],[602810.83,4107982.89],[602812.89,4107981.49],[602810.4,4107977.86],[602809.72,4107976.86],[602807.02,4107978.71],[602806.18,4107977.48],[602797.61,4107983.35]]]}},{"type":"Feature","properties":{"id":"2781029XG0028B_part1","floors":1,"height":3.1,"heightSource":"Catastro:numberOfFloorsAboveGround"},"geometry":{"type":"Polygon","coordinates":[[[602797.43,4107956.73],[602800.19,4107960.92],[602801.04,4107960.38],[602806.53,4107968.46],[602805.71,4107969.07],[602808.63,4107973.31],[602812.3,4107970.78],[602806.48,4107962.34],[602803.81,4107958.47],[602801.49,4107955.1],[602801.03,4107954.43],[602797.43,4107956.73]]]}},{"type":"Feature","properties":{"id":"2781029XG0028B_part2","floors":2,"height":6.2,"heightSource":"Catastro:numberOfFloorsAboveGround"},"geometry":{"type":"Polygon","coordinates":[[[602792.0,4107960.23],[602792.7,4107961.33],[602787.66,4107964.53],[602792.41,4107972.01],[602794.79,4107975.21],[602797.7,4107979.31],[602802.49,4107976.15],[602803.12,4107977.11],[602808.63,4107973.31],[602805.71,4107969.07],[602806.53,4107968.46],[602801.04,4107960.38],[602800.19,4107960.92],[602797.43,4107956.73],[602792.0,4107960.23]],[[602796.05,4107967.54],[602798.56,4107965.93],[602800.36,4107968.75],[602797.85,4107970.36],[602796.05,4107967.54]]]}},{"type":"Feature","properties":{"id":"2781029XG0028B_part3","floors":1,"height":3.1,"heightSource":"Catastro:numberOfFloorsAboveGround"},"geometry":{"type":"Polygon","coordinates":[[[602812.71,4107958.05],[602807.26,4107950.14],[602801.03,4107954.43],[602801.49,4107955.1],[602803.81,4107958.47],[602806.48,4107962.34],[602812.71,4107958.05]]]}},{"type":"Feature","properties":{"id":"2781030XG0028B_part1","floors":1,"height":3.1,"heightSource":"Catastro:numberOfFloorsAboveGround"},"geometry":{"type":"Polygon","coordinates":[[[602792.63,4107953.69],[602797.51,4107950.22],[602794.56,4107946.07],[602785.76,4107933.91],[602781.15,4107937.12],[602781.62,4107937.8],[602778.71,4107939.8],[602778.1,4107938.92],[602771.45,4107943.52],[602772.16,4107944.55],[602771.17,4107945.22],[602772.71,4107947.44],[602773.69,4107946.78],[602774.36,4107947.74],[602784.75,4107940.49],[602787.55,4107944.48],[602788.81,4107943.59],[602790.09,4107945.4],[602791.9,4107947.96],[602789.66,4107949.53],[602791.98,4107952.85],[602792.63,4107953.69]]]}},{"type":"Feature","properties":{"id":"2781030XG0028B_part2","floors":2,"height":6.2,"heightSource":"Catastro:numberOfFloorsAboveGround"},"geometry":{"type":"Polygon","coordinates":[[[602789.66,4107949.53],[602791.9,4107947.96],[602790.09,4107945.4],[602788.81,4107943.59],[602787.55,4107944.48],[602784.75,4107940.49],[602774.36,4107947.74],[602777.69,4107952.52],[602780.08,4107955.95],[602785.2,4107952.67],[602786.11,4107954.07],[602787.49,4107956.03],[602791.98,4107952.85],[602789.66,4107949.53]]]}},{"type":"Feature","properties":{"id":"2781031XG0028B_part1","floors":1,"height":3.1,"heightSource":"Catastro:numberOfFloorsAboveGround"},"geometry":{"type":"Polygon","coordinates":[[[602613.76,4107933.32],[602610.15,4107924.59],[602605.58,4107926.48],[602609.19,4107935.21],[602613.76,4107933.32]]]}},{"type":"Feature","properties":{"id":"2781031XG0028B_part2","floors":1,"height":3.1,"heightSource":"Catastro:numberOfFloorsAboveGround"},"geometry":{"type":"Polygon","coordinates":[[[602607.17,4107959.73],[602607.69,4107961.18],[602608.69,4107963.64],[602611.51,4107962.5],[602610.03,4107958.65],[602607.17,4107959.73]]]}},{"type":"Feature","properties":{"id":"2781031XG0028B_part3","floors":1,"height":3.1,"heightSource":"Catastro:numberOfFloorsAboveGround"},"geometry":{"type":"Polygon","coordinates":[[[602610.86,4107955.94],[602612.14,4107959.42],[602614.39,4107958.65],[602613.13,4107955.09],[602610.86,4107955.94]]]}},{"type":"Feature","properties":{"id":"2781031XG0028B_part4","floors":1,"height":3.1,"heightSource":"Catastro:numberOfFloorsAboveGround"},"geometry":{"type":"Polygon","coordinates":[[[602613.92,4107951.77],[602614.94,4107954.44],[602613.13,4107955.09],[602614.39,4107958.65],[602618.21,4107957.29],[602617.83,4107956.23],[602620.24,4107955.36],[602618.29,4107950.19],[602614.78,4107951.46],[602613.92,4107951.77]]]}},{"type":"Feature","properties":{"id":"2781031XG0028B_part5","floors":1,"height":3.1,"heightSource":"Catastro:numberOfFloorsAboveGround"},"geometry":{"type":"Polygon","coordinates":[[[602622.18,4107948.35],[602621.54,4107946.65],[602617.8,4107948.06],[602616.76,4107945.31],[602616.05,4107945.58],[602616.19,4107945.94],[602613.15,4107947.07],[602614.78,4107951.46],[602618.29,4107950.19],[602622.33,4107948.74],[602624.27,4107953.9],[602630.42,4107951.7],[602631.16,4107953.65],[602639.47,4107950.65],[602637.99,4107946.71],[602640.62,4107945.69],[602636.45,4107934.78],[602633.89,4107935.75],[602632.06,4107931.01],[602624.71,4107933.87],[602624.46,4107933.22],[602620.92,4107934.58],[602621.15,4107935.22],[602617.04,4107936.78],[602618.72,4107941.4],[602623.07,4107939.86],[602625.56,4107938.91],[602629.69,4107937.34],[602633.86,4107948.32],[602629.74,4107949.93],[602628.28,4107946.08],[602622.18,4107948.35]]]}},{"type":"Feature","properties":{"id":"2781031XG0028B_part6","floors":2,"height":6.2,"heightSource":"Catastro:numberOfFloorsAboveGround"},"geometry":{"type":"Polygon","coordinates":[[[602622.33,4107948.74],[602618.29,4107950.19],[602620.24,4107955.36],[602624.27,4107953.9],[602622.33,4107948.74]]]}},{"type":"Feature","properties":{"id":"2781031XG0028B_part7","floors":2,"height":6.2,"heightSource":"Catastro:numberOfFloorsAboveGround"},"geometry":{"type":"Polygon","coordinates":[[[602629.74,4107949.93],[602633.86,4107948.32],[602629.69,4107937.34],[602625.56,4107938.91],[602628.28,4107946.08],[602629.74,4107949.93]]]}},{"type":"Feature","properties":{"id":"2781031XG0028B_part8","floors":1,"height":3.1,"heightSource":"Catastro:numberOfFloorsAboveGround"},"geometry":{"type":"Polygon","coordinates":[[[602645.06,4107977.71],[602634.57,4107977.71],[602638.63,4107989.4],[602639.37,4107989.03],[602646.03,4107985.51],[602647.19,4107985.32],[602645.06,4107977.71]]]}},{"type":"Feature","properties":{"id":"2781032XG0028B_part1","floors":1,"height":3.1,"heightSource":"Catastro:numberOfFloorsAboveGround"},"geometry":{"type":"Polygon","coordinates":[[[602675.57,4107895.11],[602674.95,4107892.1],[602675.96,4107891.89],[602675.11,4107887.95],[602676.95,4107887.55],[602679.35,4107885.31],[602679.24,4107884.78],[602680.15,4107883.91],[602679.22,4107879.98],[602678.57,4107877.2],[602679.54,4107877.03],[602678.11,4107870.13],[602675.9,4107859.71],[602675.27,4107856.7],[602676.31,4107856.48],[602675.46,4107852.48],[602674.88,4107849.76],[602675.59,4107849.63],[602674.86,4107845.7],[602674.29,4107842.61],[602674.88,4107842.5],[602673.61,4107835.75],[602674.14,4107835.65],[602673.38,4107831.92],[602672.79,4107828.97],[602673.58,4107828.81],[602672.76,4107824.91],[602671.51,4107825.17],[602669.7,4107825.56],[602665.62,4107826.25],[602666.67,4107830.33],[602665.83,4107830.55],[602666.46,4107833.0],[602667.05,4107832.85],[602668.15,4107837.16],[602667.08,4107837.43],[602667.68,4107839.79],[602668.04,4107839.7],[602669.06,4107843.66],[602667.9,4107843.95],[602669.67,4107850.89],[602668.34,4107851.23],[602670.03,4107857.87],[602668.96,4107858.14],[602670.62,4107864.69],[602669.36,4107865.01],[602670.08,4107867.83],[602671.02,4107867.59],[602671.98,4107871.38],[602671.0,4107871.63],[602671.68,4107874.3],[602672.43,4107874.11],[602673.47,4107878.23],[602672.28,4107878.53],[602673.94,4107885.09],[602672.75,4107885.39],[602673.37,4107888.58],[602674.7,4107895.29],[602675.57,4107895.11]]]}},{"type":"Feature","properties":{"id":"2781032XG0028B_part2","floors":1,"height":3.1,"heightSource":"Catastro:numberOfFloorsAboveGround"},"geometry":{"type":"Polygon","coordinates":[[[602678.93,4107824.46],[602679.33,4107827.39],[602682.67,4107826.93],[602682.27,4107824.0],[602678.93,4107824.46]]]}},{"type":"Feature","properties":{"id":"2781032XG0028B_part3","floors":1,"height":3.1,"heightSource":"Catastro:numberOfFloorsAboveGround"},"geometry":{"type":"Polygon","coordinates":[[[602677.27,4107837.12],[602678.77,4107838.34],[602689.48,4107837.01],[602689.12,4107834.25],[602689.02,4107832.33],[602685.04,4107832.7],[602684.84,4107830.6],[602682.0,4107830.86],[602682.17,4107832.71],[602678.62,4107832.98],[602678.47,4107830.93],[602676.14,4107830.85],[602677.27,4107837.12]]]}},{"type":"Feature","properties":{"id":"2781032XG0028B_part4","floors":1,"height":3.1,"heightSource":"Catastro:numberOfFloorsAboveGround"},"geometry":{"type":"Polygon","coordinates":[[[602687.92,4107823.22],[602686.01,4107823.48],[602686.5,4107827.05],[602689.48,4107826.79],[602689.13,4107823.08],[602687.92,4107823.22]]]}},{"type":"Feature","properties":{"id":"2781032XG0028B_part5","floors":1,"height":3.1,"heightSource":"Catastro:numberOfFloorsAboveGround"},"geometry":{"type":"Polygon","coordinates":[[[602694.57,4107832.11],[602695.43,4107833.5],[602695.97,4107833.17],[602698.61,4107831.52],[602698.08,4107830.67],[602697.54,4107830.17],[602694.57,4107832.11]]]}},{"type":"Feature","properties":{"id":"2781032XG0028B_part6","floors":1,"height":3.1,"heightSource":"Catastro:numberOfFloorsAboveGround"},"geometry":{"type":"Polygon","coordinates":[[[602709.7,4107817.12],[602705.94,4107819.63],[602702.92,4107821.64],[602700.97,4107822.94],[602702.73,4107825.52],[602707.51,4107822.54],[602708.15,4107823.56],[602709.24,4107822.88],[602712.53,4107828.06],[602707.03,4107831.82],[602710.28,4107836.58],[602709.49,4107837.12],[602712.23,4107841.23],[602707.65,4107844.35],[602711.12,4107849.47],[602712.5,4107848.54],[602714.36,4107851.28],[602717.26,4107849.31],[602718.21,4107850.7],[602718.94,4107850.2],[602722.33,4107855.2],[602724.63,4107858.68],[602719.44,4107862.09],[602720.62,4107863.88],[602724.35,4107861.43],[602727.64,4107866.43],[602731.33,4107864.0],[602733.85,4107867.83],[602735.01,4107867.07],[602738.91,4107873.0],[602741.03,4107871.6],[602747.49,4107881.32],[602744.99,4107882.98],[602746.06,4107884.67],[602751.0,4107881.53],[602747.04,4107875.3],[602747.7,4107874.87],[602745.4,4107871.34],[602744.23,4107869.55],[602743.64,4107869.93],[602742.13,4107867.6],[602739.85,4107864.05],[602739.37,4107864.35],[602737.07,4107860.67],[602738.73,4107859.62],[602735.24,4107854.11],[602734.61,4107853.11],[602731.72,4107848.54],[602725.39,4107852.62],[602722.49,4107848.33],[602727.14,4107845.19],[602724.24,4107840.99],[602725.26,4107840.28],[602721.51,4107834.89],[602722.81,4107833.97],[602718.87,4107827.78],[602717.12,4107825.03],[602715.63,4107825.97],[602710.78,4107818.73],[602709.7,4107817.12]]]}},{"type":"Feature","properties":{"id":"2781032XG0028B_part7","floors":2,"height":6.2,"heightSource":"Catastro:numberOfFloorsAboveGround"},"geometry":{"type":"Polygon","coordinates":[[[602657.53,4107827.77],[602658.44,4107831.82],[602657.47,4107832.05],[602658.19,4107835.19],[602658.49,4107838.8],[602660.77,4107855.93],[602661.53,4107859.38],[602660.3,4107859.65],[602660.98,4107862.88],[602661.74,4107866.4],[602661.08,4107866.54],[602661.72,4107869.61],[602662.47,4107873.21],[602663.13,4107876.44],[602663.63,4107880.28],[602664.26,4107883.31],[602663.23,4107883.63],[602664.01,4107887.22],[602664.25,4107887.12],[602664.89,4107890.28],[602673.37,4107888.58],[602672.75,4107885.39],[602673.94,4107885.09],[602672.28,4107878.53],[602673.47,4107878.23],[602672.43,4107874.11],[602671.68,4107874.3],[602671.0,4107871.63],[602671.98,4107871.38],[602671.02,4107867.59],[602670.08,4107867.83],[602669.36,4107865.01],[602670.62,4107864.69],[602668.96,4107858.14],[602670.03,4107857.87],[602668.34,4107851.23],[602669.67,4107850.89],[602667.9,4107843.95],[602669.06,4107843.66],[602668.04,4107839.7],[602667.68,4107839.79],[602667.08,4107837.43],[602668.15,4107837.16],[602667.05,4107832.85],[602666.46,4107833.0],[602665.83,4107830.55],[602666.67,4107830.33],[602665.62,4107826.25],[602665.54,4107825.77],[602662.98,4107826.52],[602662.99,4107827.1],[602660.77,4107827.57],[602660.6,4107826.99],[602657.53,4107827.77]]]}},{"type":"Feature","properties":{"id":"2781032XG0028B_part8","floors":2,"height":6.2,"heightSource":"Catastro:numberOfFloorsAboveGround"},"geometry":{"type":"Polygon","coordinates":[[[602678.24,4107824.52],[602675.55,4107824.79],[602676.14,4107830.85],[602678.47,4107830.93],[602678.62,4107832.98],[602682.17,4107832.71],[602682.0,4107830.86],[602684.84,4107830.6],[602685.04,4107832.7],[602689.02,4107832.33],[602689.12,4107834.25],[602691.68,4107834.0],[602692.51,4107835.34],[602695.02,4107833.76],[602695.43,4107833.5],[602694.57,4107832.11],[602697.54,4107830.17],[602695.27,4107826.8],[602694.98,4107826.37],[602694.74,4107822.45],[602689.13,4107823.08],[602689.48,4107826.79],[602686.5,4107827.05],[602686.01,4107823.48],[602682.27,4107824.0],[602682.67,4107826.93],[602679.33,4107827.39],[602678.93,4107824.46],[602678.24,4107824.52]]]}},{"type":"Feature","properties":{"id":"2781032XG0028B_part9","floors":2,"height":6.2,"heightSource":"Catastro:numberOfFloorsAboveGround"},"geometry":{"type":"Polygon","coordinates":[[[602699.8,4107823.73],[602699.7,4107823.7],[602695.27,4107826.8],[602697.54,4107830.17],[602698.08,4107830.67],[602698.95,4107830.12],[602701.99,4107834.92],[602698.41,4107837.17],[602696.64,4107838.3],[602699.8,4107843.31],[602699.01,4107843.8],[602701.83,4107848.34],[602704.0,4107846.84],[602704.19,4107846.71],[602707.65,4107844.35],[602712.23,4107841.23],[602709.49,4107837.12],[602710.28,4107836.58],[602707.03,4107831.82],[602712.53,4107828.06],[602709.24,4107822.88],[602708.15,4107823.56],[602707.51,4107822.54],[602702.73,4107825.52],[602700.97,4107822.94],[602699.8,4107823.73]]]}},{"type":"Feature","properties":{"id":"2781032XG0028B_part10","floors":2,"height":6.2,"heightSource":"Catastro:numberOfFloorsAboveGround"},"geometry":{"type":"Polygon","coordinates":[[[602715.56,4107880.78],[602711.73,4107881.63],[602712.45,4107884.9],[602711.46,4107885.11],[602711.61,4107885.83],[602709.59,4107886.24],[602709.12,4107883.94],[602708.73,4107882.0],[602705.06,4107882.74],[602705.46,4107884.74],[602705.81,4107886.46],[602704.53,4107886.71],[602702.36,4107887.15],[602701.93,4107885.05],[602701.5,4107882.88],[602697.65,4107883.65],[602698.08,4107885.84],[602698.42,4107887.51],[602697.44,4107887.7],[602695.68,4107888.05],[602695.25,4107885.9],[602694.83,4107883.77],[602690.88,4107884.55],[602691.31,4107886.74],[602691.63,4107888.38],[602690.82,4107888.53],[602688.82,4107888.92],[602688.36,4107886.56],[602688.07,4107885.03],[602684.28,4107885.76],[602684.6,4107887.44],[602677.66,4107888.76],[602677.89,4107890.02],[602678.19,4107891.57],[602677.32,4107891.73],[602678.05,4107895.69],[602678.41,4107897.62],[602680.9,4107897.02],[602681.11,4107897.91],[602682.96,4107897.47],[602682.71,4107896.42],[602685.43,4107895.77],[602685.28,4107895.16],[602687.6,4107894.58],[602687.81,4107895.46],[602688.52,4107895.28],[602689.12,4107895.14],[602689.35,4107896.12],[602692.38,4107895.4],[602692.12,4107894.34],[602692.1,4107894.24],[602694.55,4107893.64],[602694.76,4107894.53],[602695.26,4107894.39],[602695.91,4107894.25],[602696.13,4107895.17],[602699.06,4107894.46],[602698.8,4107893.4],[602701.21,4107892.8],[602701.43,4107893.68],[602702.73,4107893.35],[602702.96,4107894.26],[602706.2,4107893.44],[602705.93,4107892.4],[602708.34,4107891.77],[602708.61,4107892.81],[602709.43,4107892.59],[602709.97,4107892.45],[602710.22,4107893.42],[602713.05,4107892.68],[602712.68,4107891.29],[602715.19,4107890.72],[602715.36,4107891.47],[602716.75,4107891.15],[602719.83,4107890.52],[602718.44,4107884.16],[602716.41,4107884.64],[602716.1,4107883.21],[602715.56,4107880.78]]]}},{"type":"Feature","properties":{"id":"2781032XG0028B_part11","floors":2,"height":6.2,"heightSource":"Catastro:numberOfFloorsAboveGround"},"geometry":{"type":"Polygon","coordinates":[[[602704.19,4107846.71],[602705.24,4107848.29],[602708.23,4107846.29],[602710.75,4107850.06],[602705.23,4107853.74],[602707.75,4107857.81],[602707.86,4107857.98],[602708.82,4107857.38],[602710.78,4107860.53],[602711.59,4107861.81],[602716.38,4107858.74],[602716.6,4107859.08],[602722.33,4107855.2],[602718.94,4107850.2],[602718.21,4107850.7],[602717.26,4107849.31],[602714.36,4107851.28],[602712.5,4107848.54],[602711.12,4107849.47],[602707.65,4107844.35],[602704.19,4107846.71]]]}},{"type":"Feature","properties":{"id":"2781032XG0028B_part12","floors":2,"height":6.2,"heightSource":"Catastro:numberOfFloorsAboveGround"},"geometry":{"type":"Polygon","coordinates":[[[602718.76,4107862.45],[602715.91,4107864.28],[602717.13,4107866.18],[602714.71,4107867.73],[602717.45,4107871.98],[602717.82,4107871.74],[602721.21,4107876.48],[602721.23,4107876.49],[602722.87,4107878.78],[602725.6,4107882.6],[602725.75,4107882.8],[602724.09,4107883.87],[602722.36,4107881.18],[602720.39,4107882.43],[602720.11,4107882.62],[602720.3,4107882.92],[602719.43,4107883.46],[602718.89,4107882.6],[602718.11,4107882.76],[602716.1,4107883.21],[602716.41,4107884.64],[602718.44,4107884.16],[602719.83,4107890.52],[602716.75,4107891.15],[602716.93,4107891.94],[602719.84,4107891.27],[602723.13,4107890.4],[602724.67,4107889.51],[602724.99,4107890.0],[602725.61,4107890.93],[602729.32,4107888.5],[602732.35,4107886.38],[602732.85,4107887.1],[602733.23,4107887.64],[602736.62,4107885.26],[602738.08,4107887.34],[602744.99,4107882.98],[602747.49,4107881.32],[602741.03,4107871.6],[602738.91,4107873.0],[602735.01,4107867.07],[602733.85,4107867.83],[602731.33,4107864.0],[602727.64,4107866.43],[602724.35,4107861.43],[602720.62,4107863.88],[602719.44,4107862.09],[602724.63,4107858.68],[602722.33,4107855.2],[602716.6,4107859.08],[602718.76,4107862.45]]]}},{"type":"Feature","properties":{"id":"2781032XG0028B_part13","floors":3,"height":9.3,"heightSource":"Catastro:numberOfFloorsAboveGround"},"geometry":{"type":"Polygon","coordinates":[[[602664.51,4107891.43],[602665.26,4107894.37],[602665.83,4107897.11],[602666.96,4107896.87],[602672.06,4107895.82],[602674.7,4107895.29],[602673.37,4107888.58],[602664.89,4107890.28],[602664.51,4107891.43]]]}},{"type":"Feature","properties":{"id":"2781032XG0028B_part14","floors":3,"height":9.3,"heightSource":"Catastro:numberOfFloorsAboveGround"},"geometry":{"type":"Polygon","coordinates":[[[602699.09,4107850.03],[602702.51,4107855.61],[602705.23,4107853.74],[602710.75,4107850.06],[602708.23,4107846.29],[602705.24,4107848.29],[602704.19,4107846.71],[602704.0,4107846.84],[602701.83,4107848.34],[602699.09,4107850.03]]]}},{"type":"Feature","properties":{"id":"2781032XG0028B_part15","floors":3,"height":9.3,"heightSource":"Catastro:numberOfFloorsAboveGround"},"geometry":{"type":"Polygon","coordinates":[[[602711.65,4107861.91],[602707.65,4107864.4],[602709.48,4107867.34],[602710.15,4107866.91],[602711.86,4107869.57],[602714.71,4107867.73],[602717.13,4107866.18],[602715.91,4107864.28],[602718.76,4107862.45],[602716.6,4107859.08],[602716.38,4107858.74],[602711.59,4107861.81],[602711.65,4107861.91]]]}},{"type":"Feature","properties":{"id":"2781032XG0028B_part16","floors":1,"height":3.1,"heightSource":"Catastro:numberOfFloorsAboveGround"},"geometry":{"type":"Polygon","coordinates":[[[602721.51,4107826.05],[602714.91,4107815.96],[602710.78,4107818.73],[602715.63,4107825.97],[602717.12,4107825.03],[602718.87,4107827.78],[602721.51,4107826.05]]]}},{"type":"Feature","properties":{"id":"2781032XG0028B_part17","floors":1,"height":3.1,"heightSource":"Catastro:numberOfFloorsAboveGround"},"geometry":{"type":"Polygon","coordinates":[[[602737.07,4107860.67],[602739.37,4107864.35],[602739.85,4107864.05],[602742.13,4107867.6],[602745.5,4107865.36],[602743.19,4107861.7],[602742.22,4107862.31],[602740.02,4107858.81],[602738.73,4107859.62],[602737.07,4107860.67]]]}},{"type":"Feature","properties":{"id":"2781032XG0028B_part18","floors":1,"height":3.1,"heightSource":"Catastro:numberOfFloorsAboveGround"},"geometry":{"type":"Polygon","coordinates":[[[602754.49,4107879.29],[602748.21,4107869.51],[602745.4,4107871.34],[602747.7,4107874.87],[602747.04,4107875.3],[602751.0,4107881.53],[602754.49,4107879.29]]]}},{"type":"Feature","properties":{"id":"2781033XG0028B_part1","floors":2,"height":6.2,"heightSource":"Catastro:numberOfFloorsAboveGround"},"geometry":{"type":"Polygon","coordinates":[[[602638.742,4107852.6545],[602638.99,4107854.77],[602639.22,4107854.743],[602639.1955,4107854.511],[602646.8225,4107853.627],[602646.6645,4107851.7325],[602639.447,4107852.5725],[602638.742,4107852.6545]]]}},{"type":"Feature","properties":{"id":"2781033XG0028B_part2","floors":2,"height":6.2,"heightSource":"Catastro:numberOfFloorsAboveGround"},"geometry":{"type":"Polygon","coordinates":[[[602639.1955,4107854.511],[602639.22,4107854.743],[602639.4415,4107856.829],[602639.6325,4107856.8145],[602639.99,4107860.4145],[602644.1135,4107860.1095],[602643.986,4107858.2785],[602647.189,4107858.023],[602646.8225,4107853.627],[602639.1955,4107854.511]]]}},{"type":"Feature","properties":{"id":"2781033XG0028B_part3","floors":1,"height":3.1,"heightSource":"Catastro:numberOfFloorsAboveGround"},"geometry":{"type":"Polygon","coordinates":[[[602648.046,4107851.5715],[602647.1505,4107844.325],[602644.8875,4107844.5985],[602644.9445,4107845.1685],[602640.9445,4107845.663],[602641.5105,4107850.2145],[602639.204,4107850.483],[602639.447,4107852.5725],[602646.6645,4107851.7325],[602648.046,4107851.5715]]]}},{"type":"Feature","properties":{"id":"2781034XG0028B_part1","floors":1,"height":3.1,"heightSource":"Catastro:numberOfFloorsAboveGround"},"geometry":{"type":"Polygon","coordinates":[[[602637.91,4107869.55],[602636.88,4107866.52],[602634.04,4107867.48],[602634.31,4107868.3],[602632.91,4107868.75],[602633.74,4107871.04],[602635.24,4107870.45],[602637.91,4107869.55]]]}},{"type":"Feature","properties":{"id":"2781034XG0028B_part2","floors":1,"height":3.1,"heightSource":"Catastro:numberOfFloorsAboveGround"},"geometry":{"type":"Polygon","coordinates":[[[602646.05,4107871.34],[602644.49,4107867.22],[602644.15,4107867.34],[602640.87,4107868.58],[602641.53,4107870.35],[602642.51,4107872.72],[602643.93,4107872.14],[602646.05,4107871.34]]]}},{"type":"Feature","properties":{"id":"2781034XG0028B_part3","floors":2,"height":6.2,"heightSource":"Catastro:numberOfFloorsAboveGround"},"geometry":{"type":"Polygon","coordinates":[[[602627.46,4107870.55],[602628.3,4107873.1],[602629.9,4107872.56],[602630.91,4107875.26],[602634.37,4107873.97],[602636.25,4107873.28],[602637.02,4107875.35],[602638.51,4107874.79],[602639.28,4107876.86],[602644.91,4107874.76],[602643.93,4107872.14],[602642.51,4107872.72],[602641.53,4107870.35],[602636.02,4107872.4],[602635.42,4107870.79],[602635.36,4107870.81],[602635.24,4107870.45],[602633.74,4107871.04],[602632.91,4107868.75],[602627.46,4107870.55]]]}},{"type":"Feature","properties":{"id":"2781035XG0028B_part1","floors":1,"height":3.1,"heightSource":"Catastro:numberOfFloorsAboveGround"},"geometry":{"type":"Polygon","coordinates":[[[602635.65,4107883.66],[602631.05,4107881.27],[602630.11,4107882.98],[602633.14,4107884.5],[602632.88,4107885.04],[602634.49,4107885.9],[602635.65,4107883.66]]]}},{"type":"Feature","properties":{"id":"2781035XG0028B_part2","floors":1,"height":3.1,"heightSource":"Catastro:numberOfFloorsAboveGround"},"geometry":{"type":"Polygon","coordinates":[[[602638.42,4107900.48],[602637.68,4107901.79],[602640.67,4107903.38],[602641.5,4107901.87],[602642.3,4107900.39],[602639.37,4107898.78],[602638.42,4107900.48]]]}},{"type":"Feature","properties":{"id":"2781035XG0028B_part3","floors":1,"height":3.1,"heightSource":"Catastro:numberOfFloorsAboveGround"},"geometry":{"type":"Polygon","coordinates":[[[602655.77,4107894.64],[602650.99,4107892.02],[602649.83,4107894.14],[602651.55,4107895.12],[602651.81,4107894.66],[602654.84,4107896.33],[602655.77,4107894.64]]]}},{"type":"Feature","properties":{"id":"2781035XG0028B_part4","floors":2,"height":6.2,"heightSource":"Catastro:numberOfFloorsAboveGround"},"geometry":{"type":"Polygon","coordinates":[[[602628.52,4107885.86],[602631.48,4107887.33],[602631.92,4107888.82],[602633.81,4107889.82],[602633.34,4107890.64],[602636.73,4107892.54],[602635.41,4107895.02],[602632.01,4107893.18],[602631.42,4107894.42],[602637.86,4107897.96],[602639.37,4107898.78],[602642.3,4107900.39],[602644.14,4107901.4],[602644.9,4107900.22],[602641.62,4107898.36],[602642.98,4107895.84],[602646.38,4107897.68],[602646.84,4107896.96],[602648.78,4107898.02],[602650.2,4107897.63],[602653.22,4107899.28],[602654.84,4107896.33],[602651.81,4107894.66],[602651.55,4107895.12],[602649.83,4107894.14],[602647.84,4107894.93],[602647.32,4107895.91],[602640.89,4107892.4],[602634.46,4107888.9],[602635.02,4107888.01],[602634.49,4107885.9],[602632.88,4107885.04],[602633.14,4107884.5],[602630.11,4107882.98],[602628.52,4107885.86]]]}},{"type":"Feature","properties":{"id":"2781035XG0028B_part5","floors":3,"height":9.3,"heightSource":"Catastro:numberOfFloorsAboveGround"},"geometry":{"type":"Polygon","coordinates":[[[602625.21,4107891.91],[602631.04,4107895.11],[602631.42,4107894.42],[602632.01,4107893.18],[602635.41,4107895.02],[602636.73,4107892.54],[602633.34,4107890.64],[602633.81,4107889.82],[602631.92,4107888.82],[602631.48,4107887.33],[602628.52,4107885.86],[602625.21,4107891.91]]]}},{"type":"Feature","properties":{"id":"2781035XG0028B_part6","floors":3,"height":9.3,"heightSource":"Catastro:numberOfFloorsAboveGround"},"geometry":{"type":"Polygon","coordinates":[[[602650.2,4107897.63],[602648.78,4107898.02],[602646.84,4107896.96],[602646.38,4107897.68],[602642.98,4107895.84],[602641.62,4107898.36],[602644.9,4107900.22],[602644.14,4107901.4],[602643.78,4107902.06],[602649.86,4107905.4],[602653.22,4107899.28],[602650.2,4107897.63]]]}},{"type":"Feature","properties":{"id":"2781038XG0028B_part1","floors":1,"height":3.1,"heightSource":"Catastro:numberOfFloorsAboveGround"},"geometry":{"type":"Polygon","coordinates":[[[602600.71,4107832.21],[602600.89,4107830.45],[602609.25,4107831.3],[602609.72,4107826.64],[602608.57,4107826.52],[602609.11,4107821.26],[602609.02,4107821.0],[602608.91,4107820.76],[602608.76,4107820.53],[602608.59,4107820.33],[602608.4,4107820.14],[602608.18,4107819.98],[602607.95,4107819.85],[602607.7,4107819.74],[602607.45,4107819.67],[602607.18,4107819.63],[602606.92,4107819.64],[602604.97,4107819.67],[602604.93,4107820.44],[602601.14,4107820.24],[602601.62,4107816.38],[602601.75,4107815.36],[602600.0,4107815.269021407],[602600.0,4107832.1362525458],[602600.71,4107832.21]]]}},{"type":"Feature","properties":{"id":"2781038XG0028B_part3","floors":1,"height":3.1,"heightSource":"Catastro:numberOfFloorsAboveGround"},"geometry":{"type":"Polygon","coordinates":[[[602601.14,4107820.24],[602604.93,4107820.44],[602604.97,4107819.67],[602606.92,4107819.64],[602607.18,4107819.63],[602607.45,4107819.67],[602607.7,4107819.74],[602607.95,4107819.85],[602608.18,4107819.98],[602608.4,4107820.14],[602608.59,4107820.33],[602608.76,4107820.53],[602608.91,4107820.76],[602609.02,4107821.0],[602609.11,4107821.26],[602608.57,4107826.52],[602609.72,4107826.64],[602612.52,4107826.99],[602613.06,4107821.36],[602612.92,4107820.57],[602612.69,4107819.81],[602612.37,4107819.08],[602611.95,4107818.39],[602611.47,4107817.76],[602610.9,4107817.19],[602610.27,4107816.7],[602609.59,4107816.29],[602608.86,4107815.96],[602608.1,4107815.72],[602607.31,4107815.59],[602607.15,4107817.14],[602601.62,4107816.38],[602601.14,4107820.24]]]}},{"type":"Feature","properties":{"id":"2781046XG0028B_part1","floors":2,"height":6.2,"heightSource":"Catastro:numberOfFloorsAboveGround"},"geometry":{"type":"Polygon","coordinates":[[[602635.111,4107830.728],[602635.571,4107833.028],[602636.111,4107832.918],[602636.491,4107834.808],[602636.841,4107834.728],[602637.641,4107838.238],[602640.931,4107837.478],[602640.621,4107836.168],[602642.172,4107835.791],[602640.732,4107829.503],[602636.111,4107830.528],[602635.111,4107830.728]]]}},{"type":"Feature","properties":{"id":"2781046XG0028B_part2","floors":1,"height":3.1,"heightSource":"Catastro:numberOfFloorsAboveGround"},"geometry":{"type":"Polygon","coordinates":[[[602635.471,4107827.478],[602636.111,4107830.528],[602640.732,4107829.503],[602642.172,4107835.791],[602644.111,4107835.338],[602642.711,4107829.468],[602644.729,4107828.919],[602642.947,4107821.838],[602639.971,4107822.578],[602640.131,4107823.348],[602640.781,4107826.248],[602640.001,4107826.468],[602637.511,4107827.048],[602635.471,4107827.478]]]}},{"type":"Feature","properties":{"id":"2781046XG0028B_part3","floors":1,"height":3.1,"heightSource":"Catastro:numberOfFloorsAboveGround"},"geometry":{"type":"Polygon","coordinates":[[[602636.861,4107824.008],[602637.511,4107827.048],[602640.001,4107826.468],[602640.781,4107826.248],[602640.131,4107823.348],[602636.861,4107824.008]]]}},{"type":"Feature","properties":{"id":"2781048XG0028B_part1","floors":1,"height":3.1,"heightSource":"Catastro:numberOfFloorsAboveGround"},"geometry":{"type":"Polygon","coordinates":[[[602600.58,4107854.2],[602600.6,4107853.33],[602602.45,4107853.38],[602602.46,4107851.34],[602600.54,4107851.32],[602600.64,4107848.73],[602600.75,4107846.29],[602602.14,4107846.32],[602602.17,4107845.35],[602601.62,4107845.33],[602601.67,4107843.94],[602602.69,4107843.97],[602602.82,4107840.37],[602600.0,4107840.37],[602600.0,4107854.331146497],[602600.58,4107854.2]]]}},{"type":"Feature","properties":{"id":"2781048XG0028B_part2","floors":1,"height":3.1,"heightSource":"Catastro:numberOfFloorsAboveGround"},"geometry":{"type":"Polygon","coordinates":[[[602605.99,4107843.88],[602606.06,4107850.09],[602609.54,4107850.11],[602609.55,4107846.9],[602609.63,4107843.98],[602611.32,4107844.02],[602611.34,4107841.57],[602611.38,4107837.13],[602608.59,4107837.24],[602604.78,4107837.24],[602604.78,4107840.37],[602602.82,4107840.37],[602602.69,4107843.97],[602605.99,4107843.88]]]}},{"type":"Feature","properties":{"id":"2781048XG0028B_part3","floors":2,"height":6.2,"heightSource":"Catastro:numberOfFloorsAboveGround"},"geometry":{"type":"Polygon","coordinates":[[[602601.67,4107843.94],[602601.62,4107845.33],[602602.17,4107845.35],[602602.14,4107846.32],[602600.75,4107846.29],[602600.64,4107848.73],[602600.54,4107851.32],[602602.46,4107851.34],[602606.05,4107851.39],[602606.06,4107850.09],[602605.99,4107843.88],[602602.69,4107843.97],[602601.67,4107843.94]]]}},{"type":"Feature","properties":{"id":"2781048XG0028B_part4","floors":1,"height":3.1,"heightSource":"Catastro:numberOfFloorsAboveGround"},"geometry":{"type":"Polygon","coordinates":[[[602611.34,4107841.57],[602614.24,4107841.59],[602617.29,4107841.62],[602617.33,4107837.18],[602611.38,4107837.13],[602611.34,4107841.57]]]}},{"type":"Feature","properties":{"id":"2781051XG0028B_part1","floors":1,"height":3.1,"heightSource":"Catastro:numberOfFloorsAboveGround"},"geometry":{"type":"Polygon","coordinates":[[[602636.5,4107853.93],[602637.04,4107853.88],[602636.75,4107851.14],[602632.68,4107851.58],[602632.85,4107853.16],[602629.35,4107853.52],[602626.85,4107853.84],[602626.82,4107853.58],[602623.08,4107854.13],[602623.61,4107857.76],[602622.1,4107857.98],[602622.3,4107859.37],[602622.55,4107861.22],[602626.11,4107860.73],[602626.18,4107861.23],[602628.2,4107860.95],[602628.25,4107861.3],[602630.39,4107861.04],[602630.31,4107860.4],[602633.8,4107859.95],[602633.54,4107857.96],[602636.78,4107857.52],[602636.5,4107853.93]]]}},{"type":"Feature","properties":{"id":"2781056XG0028B_part1","floors":2,"height":6.2,"heightSource":"Catastro:numberOfFloorsAboveGround"},"geometry":{"type":"Polygon","coordinates":[[[602605.26,4107855.44],[602604.5,4107854.92],[602602.42,4107858.18],[602605.11,4107859.8],[602604.85,4107860.22],[602606.5,4107861.24],[602606.33,4107861.51],[602608.32,4107862.76],[602608.89,4107861.83],[602611.59,4107863.48],[602612.76,4107861.55],[602613.74,4107859.86],[602605.75,4107854.73],[602605.26,4107855.44]]]}},{"type":"Feature","properties":{"id":"2781056XG0028B_part2","floors":1,"height":3.1,"heightSource":"Catastro:numberOfFloorsAboveGround"},"geometry":{"type":"Polygon","coordinates":[[[602616.59,4107856.1],[602616.11,4107855.81],[602613.35,4107854.14],[602612.24,4107855.96],[602609.99,4107854.42],[602607.26,4107852.54],[602606.39,4107853.8],[602605.75,4107854.73],[602613.74,4107859.86],[602612.76,4107861.55],[602615.79,4107863.39],[602618.97,4107858.1],[602619.22,4107857.69],[602616.59,4107856.1]]]}},{"type":"Feature","properties":{"id":"2880001XG0028B_part1","floors":1,"height":3.1,"heightSource":"Catastro:numberOfFloorsAboveGround"},"geometry":{"type":"Polygon","coordinates":[[[602670.09,4107775.39],[602669.18,4107775.4],[602671.41,4107779.09],[602672.93,4107778.25],[602674.21,4107778.31],[602674.66,4107779.14],[602676.16,4107778.25],[602679.51,4107778.37],[602680.14,4107779.68],[602682.78,4107778.24],[602684.6,4107778.38],[602685.67,4107780.27],[602688.71,4107778.51],[602688.57,4107778.2],[602687.39,4107775.05],[602670.09,4107775.39]]]}},{"type":"Feature","properties":{"id":"2880001XG0028B_part2","floors":1,"height":3.1,"heightSource":"Catastro:numberOfFloorsAboveGround"},"geometry":{"type":"Polygon","coordinates":[[[602669.4,4107780.21],[602672.4,4107785.62],[602674.16,4107784.64],[602674.53,4107785.29],[602676.17,4107788.25],[602678.68,4107792.77],[602679.85,4107792.12],[602677.46,4107787.85],[602675.2,4107783.8],[602674.92,4107783.3],[602676.18,4107782.59],[602678.53,4107781.28],[602681.03,4107785.75],[602685.41,4107793.59],[602691.36,4107790.35],[602690.86,4107789.46],[602688.28,4107784.89],[602685.67,4107780.27],[602684.6,4107778.38],[602682.78,4107778.24],[602680.14,4107779.68],[602679.51,4107778.37],[602676.16,4107778.25],[602674.66,4107779.14],[602674.21,4107778.31],[602672.93,4107778.25],[602671.41,4107779.09],[602669.4,4107780.21]]]}},{"type":"Feature","properties":{"id":"2880001XG0028B_part3","floors":1,"height":3.1,"heightSource":"Catastro:numberOfFloorsAboveGround"},"geometry":{"type":"Polygon","coordinates":[[[602685.41,4107793.59],[602686.69,4107795.89],[602691.53,4107804.53],[602692.59,4107806.43],[602698.93,4107803.75],[602697.78,4107801.71],[602696.05,4107798.66],[602693.43,4107794.02],[602693.05,4107793.33],[602691.36,4107790.35],[602685.41,4107793.59]]]}},{"type":"Feature","properties":{"id":"2880001XG0028B_part4","floors":1,"height":3.1,"heightSource":"Catastro:numberOfFloorsAboveGround"},"geometry":{"type":"Polygon","coordinates":[[[602685.67,4107780.27],[602688.28,4107784.89],[602690.86,4107789.46],[602691.36,4107790.35],[602693.05,4107793.33],[602693.43,4107794.02],[602696.05,4107798.66],[602697.78,4107801.71],[602698.93,4107803.75],[602692.59,4107806.43],[602688.36,4107807.44],[602690.81,4107811.81],[602702.32,4107808.59],[602702.9,4107808.44],[602705.46,4107807.48],[602700.78,4107800.18],[602698.78,4107797.06],[602698.6,4107796.76],[602696.01,4107792.47],[602695.73,4107792.0],[602693.4,4107788.09],[602690.99,4107783.26],[602688.71,4107778.51],[602685.67,4107780.27]]]}},{"type":"Feature","properties":{"id":"2880001XG0028B_part5","floors":2,"height":6.2,"heightSource":"Catastro:numberOfFloorsAboveGround"},"geometry":{"type":"Polygon","coordinates":[[[602648.02,4107791.84],[602647.74,4107795.01],[602647.39,4107799.08],[602646.37,4107799.0],[602646.02,4107802.97],[602645.4,4107802.92],[602645.16,4107805.59],[602650.9,4107806.2],[602658.13,4107806.98],[602659.58,4107793.06],[602648.02,4107791.84]]]}},{"type":"Feature","properties":{"id":"2880001XG0028B_part6","floors":2,"height":6.2,"heightSource":"Catastro:numberOfFloorsAboveGround"},"geometry":{"type":"Polygon","coordinates":[[[602658.13,4107806.98],[602681.04,4107809.42],[602681.1,4107808.83],[602683.0,4107809.03],[602684.3,4107808.16],[602682.95,4107805.72],[602681.45,4107803.0],[602681.33,4107802.78],[602680.42,4107802.66],[602680.56,4107801.83],[602678.29,4107801.53],[602678.64,4107798.17],[602675.33,4107797.72],[602675.73,4107794.76],[602659.58,4107793.06],[602658.13,4107806.98]]]}},{"type":"Feature","properties":{"id":"2880001XG0028B_part7","floors":2,"height":6.2,"heightSource":"Catastro:numberOfFloorsAboveGround"},"geometry":{"type":"Polygon","coordinates":[[[602681.03,4107785.75],[602678.53,4107781.28],[602676.18,4107782.59],[602674.92,4107783.3],[602675.2,4107783.8],[602677.46,4107787.85],[602679.85,4107792.12],[602678.68,4107792.77],[602681.47,4107797.8],[602680.92,4107798.1],[602682.16,4107800.34],[602683.91,4107799.39],[602687.52,4107805.91],[602688.36,4107807.44],[602692.59,4107806.43],[602691.53,4107804.53],[602686.69,4107795.89],[602685.41,4107793.59],[602681.03,4107785.75]]]}},{"type":"Feature","properties":{"id":"2880002XG0028B_part1","floors":1,"height":3.1,"heightSource":"Catastro:numberOfFloorsAboveGround"},"geometry":{"type":"Polygon","coordinates":[[[602656.31,4107764.19],[602646.86,4107768.7],[602652.2,4107779.87],[602661.64,4107775.32],[602656.31,4107764.19]]]}},{"type":"Feature","properties":{"id":"2880002XG0028B_part2","floors":1,"height":3.1,"heightSource":"Catastro:numberOfFloorsAboveGround"},"geometry":{"type":"Polygon","coordinates":[[[602639.08,4107748.21],[602637.68,4107745.29],[602634.08,4107750.6],[602639.08,4107748.21]]]}},{"type":"Feature","properties":{"id":"2880002XG0028B_part3","floors":1,"height":3.1,"heightSource":"Catastro:numberOfFloorsAboveGround"},"geometry":{"type":"Polygon","coordinates":[[[602642.66,4107742.91],[602641.27,4107740.0],[602637.68,4107745.29],[602642.66,4107742.91]]]}},{"type":"Feature","properties":{"id":"2880002XG0028B_part4","floors":1,"height":3.1,"heightSource":"Catastro:numberOfFloorsAboveGround"},"geometry":{"type":"Polygon","coordinates":[[[602646.25,4107737.62],[602650.34,4107746.16],[602652.74,4107745.02],[602651.96,4107743.38],[602653.98,4107742.42],[602652.02,4107738.32],[602650.17,4107737.99],[602649.11,4107737.73],[602647.68,4107736.92],[602647.66,4107736.91],[602646.08,4107735.59],[602644.95,4107734.57],[602641.27,4107740.0],[602646.25,4107737.62]]]}},{"type":"Feature","properties":{"id":"2880002XG0028B_part5","floors":2,"height":6.2,"heightSource":"Catastro:numberOfFloorsAboveGround"},"geometry":{"type":"Polygon","coordinates":[[[602632.98,4107752.22],[602635.11,4107753.38],[602639.08,4107755.53],[602641.35,4107756.75],[602642.17,4107758.47],[602649.04,4107755.18],[602655.45,4107745.5],[602653.98,4107742.42],[602651.96,4107743.38],[602652.74,4107745.02],[602650.34,4107746.16],[602646.25,4107737.62],[602641.27,4107740.0],[602642.66,4107742.91],[602637.68,4107745.29],[602639.08,4107748.21],[602634.08,4107750.6],[602632.98,4107752.22]]]}},{"type":"Feature","properties":{"id":"2880002XG0028B_part6","floors":1,"height":3.1,"heightSource":"Catastro:numberOfFloorsAboveGround"},"geometry":{"type":"Polygon","coordinates":[[[602645.49,4107733.73],[602644.95,4107734.57],[602646.08,4107735.59],[602647.66,4107736.91],[602647.68,4107736.92],[602649.11,4107737.73],[602650.17,4107737.99],[602652.02,4107738.32],[602653.98,4107742.42],[602654.54,4107742.15],[602648.94,4107730.45],[602648.38,4107729.27],[602645.49,4107733.73]]]}},{"type":"Feature","properties":{"id":"2880002XG0028B_part7","floors":1,"height":3.1,"heightSource":"Catastro:numberOfFloorsAboveGround"},"geometry":{"type":"Polygon","coordinates":[[[602658.56,4107715.59],[602681.49,4107766.58],[602683.23,4107765.76],[602678.04,4107754.44],[602665.58,4107727.25],[602663.67,4107723.09],[602661.09,4107717.46],[602658.42,4107712.13],[602655.71,4107716.62],[602658.56,4107715.59]]]}},{"type":"Feature","properties":{"id":"2880002XG0028B_part8","floors":2,"height":6.2,"heightSource":"Catastro:numberOfFloorsAboveGround"},"geometry":{"type":"Polygon","coordinates":[[[602651.48,4107723.66],[602649.69,4107727.24],[602648.38,4107729.27],[602648.94,4107730.45],[602654.54,4107742.15],[602653.98,4107742.42],[602655.45,4107745.5],[602656.94,4107745.46],[602669.22,4107772.56],[602686.06,4107772.08],[602684.75,4107769.14],[602683.95,4107767.36],[602683.23,4107765.76],[602681.49,4107766.58],[602658.56,4107715.59],[602655.71,4107716.62],[602651.48,4107723.66]]]}},{"type":"Feature","properties":{"id":"2984017XG0028D_part1","floors":3,"height":9.3,"heightSource":"Catastro:numberOfFloorsAboveGround"},"geometry":{"type":"Polygon","coordinates":[[[602753.48,4108047.9],[602751.21,4108043.64],[602750.66,4108042.62],[602748.94,4108039.4],[602747.6,4108036.88],[602746.87,4108037.35],[602745.97,4108035.65],[602745.07,4108033.95],[602743.72,4108031.39],[602744.48,4108030.97],[602744.71,4108030.86],[602743.17,4108028.0],[602742.4,4108026.55],[602743.6,4108025.9],[602742.63,4108024.06],[602741.37,4108021.68],[602734.88,4108025.08],[602735.96,4108027.14],[602734.84,4108027.72],[602735.95,4108029.87],[602734.64,4108030.54],[602734.81,4108030.86],[602735.81,4108032.83],[602737.13,4108032.15],[602738.16,4108034.15],[602737.0,4108034.74],[602738.18,4108037.06],[602736.93,4108037.69],[602738.02,4108039.77],[602739.2,4108042.01],[602739.37,4108041.91],[602740.4,4108041.32],[602741.07,4108042.62],[602741.37,4108043.19],[602742.52,4108045.38],[602741.26,4108045.93],[602743.4011337869,4108050.0],[602744.2084848485,4108050.0],[602744.8,4108049.68],[602744.9714285714,4108050.0],[602754.6032558139,4108050.0],[602753.48,4108047.9]]]}},{"type":"Feature","properties":{"id":"2984017XG0028D_part2","floors":3,"height":9.3,"heightSource":"Catastro:numberOfFloorsAboveGround"},"geometry":{"type":"Polygon","coordinates":[[[602790.81,4108000.83],[602788.51,4108001.97],[602788.06,4108001.06],[602786.0,4108002.07],[602785.64,4108001.33],[602783.42,4108002.4],[602783.07,4108001.68],[602780.93,4108002.71],[602780.52,4108001.87],[602778.34,4108002.92],[602777.94,4108002.09],[602775.75,4108003.13],[602775.69,4108003.17],[602775.31,4108002.38],[602773.22,4108003.38],[602772.77,4108002.46],[602770.64,4108003.49],[602770.2,4108002.58],[602767.99,4108003.64],[602767.66,4108002.95],[602765.46,4108003.99],[602765.05,4108003.13],[602762.79,4108004.2],[602762.39,4108003.35],[602759.92,4108004.5],[602759.51,4108003.62],[602757.27,4108004.66],[602756.86,4108003.78],[602754.72,4108004.77],[602754.38,4108004.04],[602752.35,4108004.98],[602751.99,4108004.21],[602749.75,4108005.25],[602749.41,4108004.52],[602747.06,4108005.61],[602746.65,4108004.73],[602744.55,4108005.7],[602744.11,4108004.76],[602739.52,4108006.9],[602738.88,4108005.52],[602736.57,4108006.58],[602736.78,4108007.04],[602734.69,4108007.99],[602733.61,4108005.93],[602731.57,4108006.99],[602731.02,4108005.93],[602728.39,4108007.29],[602729.07,4108008.62],[602732.98,4108016.17],[602735.12,4108015.05],[602737.45,4108013.88],[602738.02,4108015.08],[602738.25,4108015.52],[602740.25,4108014.47],[602742.65,4108013.31],[602743.35,4108014.74],[602743.49,4108015.0],[602745.62,4108013.85],[602747.85,4108012.72],[602748.52,4108014.15],[602748.76,4108014.6],[602750.72,4108013.55],[602753.04,4108012.39],[602753.64,4108013.69],[602753.88,4108014.13],[602755.96,4108012.99],[602758.24,4108011.8],[602758.89,4108013.11],[602759.18,4108013.63],[602760.98,4108012.62],[602763.24,4108011.35],[602763.82,4108012.54],[602764.18,4108013.19],[602766.47,4108011.91],[602768.65,4108010.77],[602769.34,4108012.24],[602769.63,4108012.76],[602771.59,4108011.66],[602773.97,4108010.35],[602774.59,4108011.62],[602774.91,4108012.18],[602776.94,4108011.21],[602779.1,4108010.08],[602779.77,4108011.47],[602779.98,4108011.91],[602782.0,4108010.94],[602784.39,4108009.71],[602785.09,4108011.11],[602785.18,4108011.29],[602787.19,4108010.28],[602789.52,4108009.11],[602790.32,4108010.72],[602792.46,4108009.66],[602794.75,4108008.51],[602790.81,4108000.83]]]}},{"type":"Feature","properties":{"id":"2984017XG0028D_part3","floors":3,"height":9.3,"heightSource":"Catastro:numberOfFloorsAboveGround"},"geometry":{"type":"Polygon","coordinates":[[[602766.48,4108032.43],[602766.85,4108033.0],[602769.19,4108031.83],[602769.48,4108032.38],[602769.84,4108032.91],[602771.71,4108031.96],[602772.07,4108032.5],[602774.42,4108031.3],[602774.97,4108032.37],[602776.74,4108031.54],[602777.14,4108032.26],[602779.63,4108030.91],[602779.83,4108031.29],[602780.11,4108031.94],[602782.08,4108030.91],[602782.47,4108031.43],[602784.74,4108030.29],[602785.04,4108030.86],[602785.33,4108031.42],[602787.24,4108030.46],[602787.53,4108030.94],[602789.78,4108029.82],[602790.15,4108030.53],[602790.41,4108031.02],[602792.42,4108030.01],[602792.81,4108030.7],[602795.16,4108029.45],[602795.46,4108030.02],[602795.68,4108030.53],[602797.72,4108029.46],[602798.15,4108030.28],[602800.36,4108029.23],[602800.5,4108029.5],[602800.79,4108030.01],[602802.72,4108029.05],[602803.19,4108029.74],[602805.56,4108028.53],[602804.84,4108027.26],[602803.9,4108025.47],[602802.04,4108021.92],[602800.72,4108019.38],[602798.57,4108020.64],[602798.02,4108019.69],[602796.08,4108020.78],[602795.58,4108019.89],[602793.31,4108021.18],[602792.7,4108020.09],[602790.82,4108021.12],[602790.42,4108020.4],[602788.19,4108021.64],[602787.55,4108020.56],[602785.6,4108021.62],[602785.14,4108020.77],[602782.88,4108021.87],[602782.5,4108021.21],[602780.58,4108022.25],[602779.97,4108021.21],[602777.76,4108022.52],[602777.18,4108021.58],[602775.36,4108022.65],[602774.8,4108021.71],[602772.59,4108023.03],[602772.01,4108022.09],[602770.09,4108023.17],[602769.56,4108022.26],[602767.4,4108023.52],[602766.87,4108022.6],[602764.84,4108023.73],[602764.26,4108022.72],[602762.14,4108023.94],[602761.48,4108023.0],[602759.46,4108024.09],[602760.42,4108025.65],[602764.24,4108033.01],[602764.53,4108033.49],[602766.48,4108032.43]]]}},{"type":"Feature","properties":{"id":"2984017XG0028D_part5","floors":3,"height":9.3,"heightSource":"Catastro:numberOfFloorsAboveGround"},"geometry":{"type":"Polygon","coordinates":[[[602812.78,4108042.62],[602812.7,4108042.46],[602811.54,4108040.28],[602809.18,4108035.82],[602808.16,4108033.89],[602800.11,4108038.02],[602801.49,4108040.65],[602802.43,4108042.44],[602802.52,4108042.62],[602803.24,4108043.98],[602805.92,4108049.08],[602806.4023783783,4108050.0],[602816.6934375,4108050.0],[602816.04,4108048.77],[602814.83,4108046.49],[602813.8,4108044.54],[602812.78,4108042.62]]]}},{"type":"Feature","properties":{"id":"3083601XG0038S_part1","floors":1,"height":3.1,"heightSource":"Catastro:numberOfFloorsAboveGround"},"geometry":{"type":"Polygon","coordinates":[[[602831.34,4108003.95],[602828.68,4108005.33],[602832.44,4108012.39],[602835.09,4108010.98],[602839.0,4108017.96],[602836.38,4108019.43],[602840.54,4108026.26],[602843.1,4108024.71],[602847.32,4108031.5],[602844.77,4108033.08],[602848.63,4108040.09],[602851.26,4108038.64],[602853.45,4108042.62],[602855.12,4108045.65],[602852.49,4108047.09],[602854.2959117647,4108050.0],[602860.2438317756,4108050.0],[602856.14,4108042.62],[602832.47,4108000.04],[602829.82,4108001.43],[602831.34,4108003.95]]]}},{"type":"Feature","properties":{"id":"3083601XG0038S_part2","floors":2,"height":6.2,"heightSource":"Catastro:numberOfFloorsAboveGround"},"geometry":{"type":"Polygon","coordinates":[[[602816.53,4108008.39],[602835.61,4108042.62],[602839.7226256077,4108050.0],[602854.2959117647,4108050.0],[602852.49,4108047.09],[602855.12,4108045.65],[602853.45,4108042.62],[602851.26,4108038.64],[602848.63,4108040.09],[602844.77,4108033.08],[602847.32,4108031.5],[602843.1,4108024.71],[602840.54,4108026.26],[602836.38,4108019.43],[602839.0,4108017.96],[602835.09,4108010.98],[602832.44,4108012.39],[602828.68,4108005.33],[602831.34,4108003.95],[602829.82,4108001.43],[602816.53,4108008.39]]]}}]}
