{"type":"FeatureCollection","name":"ventanicas-coastline","crs":{"type":"name","properties":{"name":"EPSG:25830"}},"features":[{"type":"Feature","properties":{"source":"DERA/IECA","id_dera":10125300000709.0},"geometry":{"type":"LineString","coordinates":[[602610.3054164794,4107200.0],[602626.6500000004,4107274.16],[602636.6500000004,4107328.8000000007],[602641.9000000004,4107370.7300000004],[602657.3399999999,4107422.4299999997],[602666.4900000002,4107476.92],[602670.7999999998,4107510.7200000007],[602676.2199999997,4107529.1400000006],[602694.2000000002,4107584.130000001],[602708.0899999999,4107612.880000001],[602718.2999999998,4107627.58]]}},{"type":"Feature","properties":{"source":"DERA/IECA","id_dera":10125300001149.0},"geometry":{"type":"LineString","coordinates":[[602718.2999999998,4107627.58],[602741.0899999999,4107660.42],[602765.0499999998,4107695.789999999],[602789.5800000001,4107750.539999999],[602799.5,4107777.5500000007],[602821.1100000003,4107823.0199999996],[602832.4100000001,4107837.0600000005],[602846.1299999999,4107849.6999999993],[602863.9299999997,4107890.58],[602882.1399999997,4107933.8900000006],[602901.7599999998,4107977.7799999993],[602921.6600000001,4108004.1400000006],[602943.46,4108023.539999999],[602956.4199999999,4108044.289999999],[602957.7504854371,4108050.0]]}}]}
