{"type":"FeatureCollection","name":"ventanicas-roads","crs":{"type":"name","properties":{"name":"EPSG:25830"}},"source":"\u00a9 OpenStreetMap contributors, ODbL 1.0","features":[{"type":"Feature","properties":{"class":"cycleway","widthMeters":2.5},"geometry":{"type":"Polygon","coordinates":[[[602646.2887279484,4107586.267505962],[602630.9265133012,4107551.6947596837],[602630.9189299213,4107551.67802574],[602616.638673355,4107520.772484566],[602603.4473331346,4107490.1688806266],[602603.3967655513,4107490.0650444655],[602603.3368300366,4107489.966318771],[602603.2680382585,4107489.8735463605],[602603.1909774911,4107489.787519232],[602603.1063056005,4107489.7089717956],[602600.0,4107487.0836407025],[602600.0,4107490.356921367],[602601.2679379642,4107491.4285342055],[602614.3492658102,4107521.7769119833],[602614.3624457613,4107521.806432962],[602628.6456300162,4107552.718310283],[602643.9823546387,4107587.2336911242],[602645.2267440078,4107590.8378103483],[602645.2436772899,4107590.883899242],[602670.1401835163,4107654.743548592],[602671.3048057636,4107654.289505619],[602670.2308482105,4107654.9291267367],[602682.971612878,4107676.321541827],[602684.0455704312,4107675.6819207096],[602683.6135625332,4107676.854895209],[602688.6297832576,4107678.7023752457],[602688.7332238437,4107678.7354453234],[602688.839144421,4107678.759412304],[602688.9467455125,4107678.774095287],[602689.0552149563,4107678.7793834475],[602693.8714490008,4107678.8047218104],[602693.9451125755,4107678.8029375244],[602698.3995252294,4107678.563524583],[602705.0077221298,4107681.012026801],[602706.9242795592,4107683.465666146],[602711.671224049,4107692.079101223],[602731.5881535193,4107732.1957689915],[602736.0477846991,4107742.2767232247],[602752.451443031,4107779.5244316673],[602752.4657222244,4107779.555683686],[602763.243335312,4107802.3113007504],[602763.25136002,4107802.327925491],[602773.3972277276,4107822.956564577],[602773.4149322081,4107822.991190689],[602814.5610655542,4107900.466538783],[602839.5007602002,4107949.283710198],[602839.5057707252,4107949.2934129955],[602848.8776665506,4107967.2491116426],[602853.4755688041,4107978.1437938744],[602856.9603563118,4107992.051641192],[602857.0044189164,4107992.191916658],[602857.0646482392,4107992.3260477437],[602868.3269288329,4108013.911579264],[602868.3889135754,4108014.0173788485],[602868.4609661073,4108014.1165962513],[602868.5423930797,4108014.2082767216],[602868.6324109354,4108014.2915380336],[602868.7301534482,4108014.365578979],[602868.8346800596,4108014.429687075],[602868.9449849284,4108014.48324542],[602884.433194951,4108021.0855152854],[602884.43699814,4108021.087129076],[602904.7794621312,4108029.679316086],[602904.7861225118,4108029.6821066337],[602905.7746519076,4108030.0929252882],[602919.354815526,4108035.783896489],[602928.6587494967,4108046.5976183014],[602930.9816078133,4108050.0],[602933.951481118,4108050.0],[602933.7410500321,4108049.618087512],[602933.6785923805,4108049.5165172],[602930.684136008,4108045.1304194834],[602930.599335556,4108045.019965412],[602921.057539508,4108033.9297826593],[602920.978009878,4108033.845575398],[602920.8910272933,4108033.769091054],[602920.7973385974,4108033.7009863313],[602920.6977482133,4108033.6418459867],[602920.593111237,4108033.5921778064],[602906.7391921603,4108027.7864852757],[602906.7357738357,4108027.785058726],[602905.7488684027,4108027.374914967],[602885.4116334893,4108018.7849365985],[602870.3365800168,4108012.3587859254],[602859.3494682232,4107991.300648902],[602855.877187393,4107977.4427159517],[602855.8502548403,4107977.3504360197],[602855.8163104935,4107977.260498655],[602851.1610833373,4107966.2299856544],[602851.1175800788,4107966.137627326],[602841.7245717098,4107948.1414789683],[602816.7828418936,4107899.3203238943],[602816.7736633985,4107899.302704837],[602775.6319923941,4107821.8357590265],[602765.4987813046,4107801.2328534527],[602754.7324735695,4107778.5011062627],[602738.3353209293,4107741.2681702627],[602738.3344810619,4107741.2662674733],[602733.8632201232,4107731.15902428],[602733.8396904155,4107731.108870075],[602713.898523413,4107690.943383083],[602713.8736719788,4107690.8959100856],[602709.0655992007,4107682.171556386],[602709.0140824872,4107682.086301212],[602708.9559408387,4107682.005418796],[602706.7596343076,4107679.1936355247],[602706.6846571267,4107679.106260963],[602706.601958687,4107679.0261556585],[602706.512240583,4107678.953999207],[602706.4162639624,4107678.8904037667],[602706.314843069,4107678.8359088665],[602706.2088383343,4107678.79097683],[602699.0253144512,4107676.1293015764],[602698.9035448484,4107676.0911296383],[602698.778517918,4107676.0655718665],[602698.6515367351,4107676.0528946337],[602698.523924743,4107676.0532300672],[602693.8477433057,4107676.3045624965],[602689.2878438961,4107676.2805727185],[602684.89299949,4107674.661946316],[602672.4317878734,4107653.7389155254],[602647.5818411149,4107589.998691418],[602646.3279767359,4107586.367129766],[602646.2887279484,4107586.267505962]]]}},{"type":"Feature","properties":{"class":"footway","widthMeters":2},"geometry":{"type":"MultiPolygon","coordinates":[[[[602606.3855077891,4107305.4830812383],[602600.0,4107306.533786796],[602600.0,4107308.5606811387],[602606.7102318512,4107307.456543749],[602606.3855077891,4107305.4830812383]]],[[[602617.7128863351,4107359.445413754],[602600.0,4107363.283620522],[602600.0,4107365.3300365023],[602618.1364367427,4107361.4000505623],[602617.7128863351,4107359.445413754]]],[[[602600.0,4107467.637235896],[602600.0,4107468.748178343],[602600.0,4107478.383334978],[602600.1694667457,4107478.196522977],[602600.2302055474,4107478.1227746005],[602600.283629209,4107478.04356641],[602600.3292500782,4107477.9596214197],[602601.4323232782,4107475.676207846],[602601.469234327,4107475.5896151247],[602601.4978397833,4107475.499935401],[602601.5178861823,4107475.407963303],[602601.9392044267,4107472.9165348564],[602601.9506621226,4107472.821043053],[602601.9528933626,4107472.724892209],[602601.9458775079,4107472.628971715],[602601.6388540198,4107470.1064943634],[602601.6225357318,4107470.0111477086],[602601.5970814185,4107469.9178238157],[602601.5627292629,4107469.827395941],[602601.315589354,4107469.2609954597],[602637.2515086648,4107454.6286707334],[602636.4972789558,4107452.7763377326],[602600.5197166139,4107467.425618595],[602600.471136892,4107467.3459030758],[602600.4127062833,4107467.268172665],[602600.0,4107466.771407768],[602600.0,4107467.637235896]]],[[[602600.0,4107551.8906472228],[602600.0,4107554.632991426],[602601.6198359373,4107553.113353125],[602600.2514543285,4107551.6547470186],[602600.0,4107551.8906472228]]],[[[602669.5306328358,4107601.895534824],[602667.5854272658,4107597.4335459764],[602667.5449333488,4107597.351195903],[602667.4970608283,4107597.272904692],[602667.4422128525,4107597.199331657],[602667.3808513124,4107597.131096378],[602652.9420654805,4107582.4861076255],[602649.4621562402,4107561.9933354273],[602649.4368296437,4107561.8826772966],[602649.3991246396,4107561.7756025987],[602649.3495271192,4107561.673491168],[602647.8971134169,4107559.0705006043],[602646.1505986016,4107560.0450189463],[602647.5191849861,4107562.4977756497],[602650.8899673511,4107582.3479126403],[602649.6179182571,4107582.879786306],[602647.1496049368,4107576.2424591803],[602647.1193133192,4107576.169877734],[602606.5130788541,4107488.7182362685],[602606.4789476853,4107488.6514140265],[602606.439902167,4107488.5873391004],[602603.6997783929,4107484.4485739195],[602603.6536716335,4107484.384568792],[602603.6026633511,4107484.324396998],[602600.0,4107480.399485072],[602600.0,4107483.357116191],[602602.07579139,4107485.618581554],[602604.7307571857,4107489.628721569],[602645.2887505672,4107576.976468595],[602647.828961308,4107583.8071288345],[602644.6213115281,4107585.923496421],[602635.8238861095,4107590.982581415],[602636.8209120941,4107592.716345871],[602645.6449341987,4107587.641966073],[602645.6971399211,4107587.609774744],[602648.5450959452,4107585.7307286416],[602650.0081852472,4107589.658010001],[602650.016074616,4107589.678496692],[602666.8996753884,4107632.1256242436],[602666.9017994171,4107632.1309202258],[602674.4590624513,4107650.819441521],[602675.386132369,4107650.4445530474],[602674.5043782343,4107650.9162623286],[602685.9042690718,4107672.2257876797],[602686.7860232065,4107671.7540783985],[602686.5210925626,4107672.7183458684],[602690.0284625543,4107673.681989068],[602690.1223869403,4107673.702991541],[602690.2178953392,4107673.714867562],[602690.3141030668,4107673.717507126],[602697.9440854208,4107673.5594572974],[602705.649039513,4107675.427622249],[602710.0628312586,4107680.5352947633],[602715.3699141737,4107688.8546511494],[602738.2654503721,4107733.6000110507],[602769.1960997503,4107805.7023263597],[602769.2338150564,4107805.7806583573],[602771.7965079565,4107810.559801846],[602812.8025170194,4107887.486274543],[602812.8039932386,4107887.4890334946],[602844.2074113886,4107945.959741526],[602840.1957135408,4107947.8066682243],[602840.104607635,4107947.8544369163],[602836.246766067,4107950.1375249554],[602836.1632207297,4107950.192797716],[602836.0856245406,4107950.2561517437],[602836.0147561695,4107950.3269512877],[602835.9513267739,4107950.4044858813],[602835.8959728612,4107950.4879774726],[602835.8492499028,4107950.576588231],[602835.8116267587,4107950.6694289576],[602835.7834809734,4107950.765568004],[602835.7650949873,4107950.8640406244],[602835.756653302,4107950.9638586557],[602835.7582406288,4107951.064020434],[602835.7698410391,4107951.1635208456],[602835.7913381238,4107951.2613614136],[602835.822516162,4107951.356560318],[602835.863062285,4107951.4481622465],[602841.9378357747,4107963.501970725],[602836.2008695765,4107966.8379381592],[602832.413211123,4107968.93607137],[602818.5336192885,4107946.794824557],[602818.5169232786,4107946.7690769476],[602796.2742724135,4107913.5941578047],[602794.2984413508,4107910.54730327],[602794.2936522345,4107910.5399884023],[602791.9203131951,4107906.9493155493],[602791.0860772865,4107907.500723247],[602791.9128317388,4107906.938160294],[602772.7668920442,4107878.8008810575],[602771.2056861053,4107876.1883318387],[602771.189164757,4107876.1616449677],[602766.7590644249,4107869.250470512],[602765.9171775541,4107869.790124565],[602766.748071664,4107869.233693996],[602731.3572453178,4107816.386077792],[602730.5263512079,4107816.942508361],[602731.3359276155,4107816.3554938463],[602725.2968002369,4107808.026679264],[602725.286573946,4107808.012828244],[602719.5020704072,4107800.3175232015],[602718.690557556,4107798.531571808],[602718.6378584937,4107798.4311409793],[602717.8195043955,4107797.0658406713],[602721.2766845322,4107794.7414530083],[602727.6267479012,4107790.5149220233],[602726.5185902264,4107788.849993626],[602720.1665866304,4107793.0778160044],[602720.1627121711,4107793.0804078523],[602716.7890011907,4107795.348676173],[602708.4686156226,4107781.4992063483],[602701.8091013957,4107767.922958562],[602672.6313055038,4107703.060862202],[602671.7193306142,4107703.471108227],[602672.6264342242,4107703.0502008256],[602668.1093881145,4107693.3154496285],[602658.605680645,4107671.9915394178],[602655.6464033234,4107665.365464441],[602652.4777125622,4107654.923434795],[602651.5208011419,4107655.2138147764],[602651.9879064049,4107654.329613061],[602649.1933722128,4107652.8533191266],[602647.3289057197,4107650.6391509455],[602644.4693462639,4107644.8779303096],[602640.6947107775,4107637.1431264784],[602636.220352418,4107627.5081147705],[602635.3227425974,4107622.972297327],[602635.254327031,4107620.0837997696],[602635.2459825404,4107619.976423849],[602635.2261388728,4107619.8705680612],[602635.1950261991,4107619.767460251],[602635.1530054021,4107619.6682963893],[602635.10056389,4107619.5742266984],[602632.9738220373,4107616.200341164],[602631.7195351203,4107613.210845692],[602629.0346810333,4107606.7659811554],[602628.1115783748,4107607.150534769],[602628.9351356766,4107606.583301686],[602617.8449030973,4107590.4815574586],[602617.833667474,4107590.465580896],[602611.5330945572,4107581.6898481767],[602611.5152460774,4107581.6657586074],[602601.0619394986,4107567.9906677916],[602600.2674663024,4107568.597967004],[602601.0136361942,4107567.932211429],[602600.0,4107566.7961416193],[602600.0,4107568.802419559],[602600.0,4107568.836608611],[602600.0,4107569.894700435],[602609.9171948577,4107582.868446043],[602616.2033282941,4107591.624066779],[602627.2286953647,4107607.6316337357],[602629.8738169688,4107613.9811223373],[602629.8747942921,4107613.983460008],[602631.1615979767,4107617.0504566706],[602632.0837233119,4107616.663565386],[602631.2377668369,4107617.196817336],[602633.2614253052,4107620.4071703106],[602633.3253410675,4107623.1056866418],[602633.3310525842,4107623.1913142065],[602633.3440846738,4107623.276136762],[602634.2817475583,4107628.0143510397],[602634.3119460378,4107628.130096351],[602634.3557491219,4107628.2414076934],[602638.8848169256,4107637.994229843],[602638.8930943803,4107638.011614273],[602642.6734244047,4107645.7580870814],[602642.6763888747,4107645.764110352],[602645.5908571333,4107651.6359570236],[602645.6502880722,4107651.7396333693],[602645.7216620846,4107651.835479974],[602647.7890355843,4107654.290612656],[602647.8544613088,4107654.3611271437],[602647.9263593968,4107654.425029283],[602648.0040645883,4107654.481727798],[602648.0868578915,4107654.530698068],[602650.6849795558,4107655.903231374],[602653.7508123808,4107666.0063053756],[602654.7077238011,4107665.715925394],[602653.7946479173,4107666.123715083],[602656.779055886,4107672.8060589936],[602666.2856970924,4107694.136551766],[602667.1990882432,4107693.729468721],[602666.2919846332,4107694.1503761224],[602670.8097601179,4107703.886699206],[602699.9919862505,4107768.7586439694],[602700.0061578231,4107768.7887945888],[602706.6917254674,4107782.418155506],[602706.7323282739,4107782.492741662],[602715.6162414403,4107797.2802159097],[602716.89321312,4107799.4106504386],[602717.595548539,4107800.9563276493],[602717.4805762144,4107801.5648916066],[602716.661336778,4107802.4353584745],[602715.3227032705,4107803.1823158157],[602708.1247680087,4107805.5595340217],[602708.1272940412,4107805.3520552097],[602708.1230241529,4107805.246773121],[602708.1076999439,4107805.142524769],[602708.081491552,4107805.0404675775],[602708.0446899569,4107804.941734641],[602707.9977037505,4107804.8474221462],[602706.9798862197,4107803.0486070043],[602706.9701203568,4107803.0317334523],[602700.486921051,4107792.07770286],[602691.216690235,4107774.5005219807],[602681.3141877712,4107753.044500602],[602662.5605217173,4107712.405400512],[602660.7445546367,4107713.2434121836],[602679.4982310185,4107753.8825346543],[602689.4118553854,4107775.362654166],[602689.4352971055,4107775.410103894],[602698.7293273044,4107793.0324105164],[602698.7532796825,4107793.0752448854],[602705.2440156979,4107804.042009522],[602706.1241574722,4107805.597506753],[602706.1114741099,4107806.639270415],[602705.4062040038,4107807.693106009],[602697.9939209956,4107809.97413596],[602684.8255165871,4107813.503774918],[602684.8011954513,4107813.5106244027],[602682.6477780665,4107814.146554961],[602637.1244013053,4107809.19567794],[602636.9081670912,4107811.1839542696],[602682.6307273421,4107816.1564934133],[602682.7293855932,4107816.1623105123],[602682.8281362319,4107816.1583607593],[602682.9260147318,4107816.144682732],[602683.0220650854,4107816.1214100285],[602685.3555194319,4107815.432312348],[602698.5294253625,4107811.9011987704],[602698.564650286,4107811.891061644],[602705.5574882207,4107809.739110247],[602707.4720233649,4107813.203000456],[602709.4700284125,4107817.3732800144],[602710.3718658375,4107816.9412044897],[602710.6645890506,4107817.897401708],[602716.0245137159,4107816.256553628],[602720.0676689956,4107822.2100188457],[602724.649903428,4107833.082066065],[602724.7162949491,4107833.2121353685],[602735.3094367548,4107850.683871139],[602735.3678786028,4107850.769840312],[602745.1895012854,4107863.7153391093],[602754.6691387396,4107877.854023618],[602756.3303135694,4107876.740247077],[602746.8344089604,4107862.5773004405],[602746.8004861629,4107862.5297670974],[602736.9926659669,4107849.602460821],[602726.464464977,4107832.2378348014],[602721.8721472322,4107821.3418633915],[602721.8293189476,4107821.252816371],[602721.7779116539,4107821.1684308043],[602717.2645324924,4107814.5225703334],[602717.205726672,4107814.4444841333],[602717.1395778038,4107814.372512567],[602717.0667179785,4107814.3073433638],[602716.9878434141,4107814.2495992533],[602716.9037078026,4107814.1998320147],[602716.8151151086,4107814.1585172024],[602716.7229118865,4107814.126049603],[602716.6279791916,4107814.102739463],[602716.5312241607,4107814.0888095256],[602716.4335713442,4107814.0843928983],[602716.3359538714,4107814.0895317844],[602716.2393045336,4107814.1041770796],[602716.1445468712,4107814.128188839],[602710.9019172307,4107815.7331290795],[602709.2631363284,4107812.3126299647],[602709.236510484,4107812.260965178],[602707.2097858327,4107808.5940950774],[602707.7477084666,4107807.7903150595],[602716.0403799956,4107805.051544979],[602715.7267765679,4107804.101990931],[602716.2140497402,4107804.9752405263],[602717.7708743282,4107804.1065325877],[602717.8574613467,4107804.0522362767],[602717.9380541651,4107803.98938567],[602718.0118109593,4107803.9186372673],[602718.95424777,4107802.917269435],[602723.6827009404,4107809.2076778132],[602729.7058308559,4107817.5144296214],[602765.0807029366,4107870.338221999],[602769.4969209079,4107877.227739289],[602771.0651726666,4107879.852079105],[602771.9235808856,4107879.3391119232],[602771.0968264333,4107879.901674876],[602790.255544648,4107908.0577336974],[602792.6227698792,4107911.6391568454],[602794.600390386,4107914.6887708143],[602795.4394154109,4107914.1446779845],[602794.608824406,4107914.701560901],[602816.8471957124,4107947.8700970807],[602831.2217995814,4107970.8010057053],[602831.9368708205,4107971.939239738],[602837.0318174682,4107980.6912617907],[602828.3355551042,4107984.524138795],[602771.7745153334,4107989.355465917],[602771.8596233474,4107990.3518376476],[602771.734023361,4107989.3597566816],[602767.0213281377,4107989.956395944],[602764.3118095802,4107990.2755297353],[602725.9290508837,4107993.3776242016],[602725.4346344332,4107993.400984006],[602725.202337644,4107993.1832468333],[602724.655201649,4107990.997920966],[602724.6315822868,4107990.9179101707],[602724.6013760858,4107990.840146509],[602724.5647932691,4107990.7651711856],[602723.8521679627,4107989.4471885874],[602723.8062557136,4107989.370649515],[602723.7537017725,4107989.2985090446],[602723.6949247926,4107989.2313418584],[602723.630393001,4107989.1696830224],[602723.5606204686,4107989.11402372],[602719.3238328958,4107986.0332775633],[602719.2449976591,4107985.9814555426],[602719.1616296803,4107985.9372933805],[602719.0744709778,4107985.901184144],[602718.9842973087,4107985.8734492236],[602718.8919112654,4107985.8543354743],[602718.7981351314,4107985.8440130185],[602713.949914525,4107985.54087006],[602713.8408632668,4107985.5400095223],[602713.7323667716,4107985.551028956],[602713.6257153788,4107985.5737973084],[602709.3194167836,4107986.7419012203],[602709.1947235683,4107986.7847302863],[602705.3093664474,4107988.4128893246],[602705.2237725938,4107988.4536289927],[602705.1424208772,4107988.5022903387],[602705.0660423269,4107988.5584360897],[602704.9953232822,4107988.621561719],[602702.0813406393,4107991.482087102],[602702.0114224993,4107991.5582075487],[602701.9497349637,4107991.6411383427],[602701.8969370322,4107991.729993546],[602701.8535927384,4107991.8238239298],[602700.0664566814,4107996.2847689316],[602700.0333645203,4107996.3813977903],[602700.0103015982,4107996.480898188],[602699.9975085129,4107996.5822321135],[602699.9951187246,4107996.6843424286],[602700.0031571643,4107996.7861638945],[602700.021539973,4107996.8866342874],[602701.0102929211,4108001.070693379],[602702.9566836461,4108000.6107334387],[602702.0407252642,4107996.734715671],[602703.6321256125,4107992.7623547525],[602706.2593923844,4107990.183285414],[602709.9067668979,4107988.654852995],[602713.9899233591,4107987.5472774454],[602718.3829435231,4107987.821958248],[602722.2008291315,4107990.598103196],[602722.7456455019,4107991.6057273834],[602723.3336947351,4107993.9544655625],[602723.3612413306,4107994.045766656],[602723.3973597928,4107994.1340285465],[602723.4417216348,4107994.218448518],[602723.4939233988,4107994.2982587954],[602723.5534903251,4107994.3727335287],[602723.6198806702,4107994.4411953916],[602724.375475878,4107995.1494323183],[602724.4517577438,4107995.2140811286],[602724.5341145388,4107995.2707887124],[602724.6217228271,4107995.3189880853],[602724.7137066668,4107995.358197331],[602724.8091463677,4107995.3880244205],[602724.9070876859,4107995.40817113],[602725.006551366,4107995.4184360253],[602725.106542931,4107995.4187164744],[602726.0401392659,4107995.37460664],[602726.0735020204,4107995.372470902],[602764.4911655933,4107992.2675554235],[602764.4106082625,4107991.2708054464],[602764.5275821558,4107992.2639404363],[602767.2595912551,4107991.9421576536],[602767.2682173483,4107991.94110363],[602771.9650210342,4107991.3464762764],[602828.6716418733,4107986.5027139205],[602828.5865338593,4107985.50634219],[602828.9898473185,4107986.421404075],[602838.0442739436,4107982.4306661985],[602842.223155215,4107989.6111488016],[602842.7855941181,4107990.8862830666],[602838.6030423649,4107991.065455223],[602834.592904892,4107991.238501112],[602834.6360168924,4107992.2375713573],[602834.5793285159,4107991.239179436],[602806.5859329047,4107992.828635555],[602806.4674990269,4107992.8424807806],[602804.4119828531,4107993.2080973913],[602798.7124415549,4107993.6779072727],[602798.7042089179,4107993.6786201424],[602794.0740307348,4107994.0988314715],[602724.4836327502,4107999.752792939],[602724.386004106,4107999.765588415],[602724.2901070811,4107999.787923073],[602724.1968714042,4107999.8195803775],[602724.1072010024,4107999.8602534086],[602724.0219652373,4107999.909547837],[602723.941990476,4107999.966985751],[602723.8680520798,4108000.0320102843],[602723.8008668873,4108000.1039910195],[602723.741086264,4108000.1822300986],[602723.6892897876,4108000.265968987],[602723.6459796289,4108000.3543958296],[602723.6115756831,4108000.446653322],[602723.5864114993,4108000.5418470204],[602723.570731046,4108000.6390540143],[602723.5646863464,4108000.7373318756],[602723.5537220661,4108001.6376863983],[602723.3422606906,4108002.282265297],[602723.0397351445,4108002.719695179],[602722.4647497165,4108003.14498874],[602722.4249253571,4108003.1760308347],[602722.0120295738,4108003.514972629],[602721.9390861178,4108003.581123848],[602721.8730024596,4108003.654128517],[602721.8144193948,4108003.7332787295],[602721.7639049877,4108003.817806986],[602721.721949063,4108003.9068936403],[602721.6889584559,4108003.999674842],[602721.6652530674,4108004.095250917],[602721.6510627625,4108004.19269509],[602721.6465251406,4108004.2910624705],[602721.651684202,4108004.389399217],[602721.6664899205,4108004.4867517836],[602721.690798729,4108004.5821761694],[602724.6057286516,4108014.04910487],[602724.6070040257,4108014.053215477],[602728.1235789732,4108025.3017613715],[602731.6825105754,4108039.0026553012],[602731.6986947587,4108039.058284594],[602733.6681808957,4108045.1627708375],[602733.6966007862,4108045.239865298],[602733.7312539347,4108045.31436634],[602736.1496275029,4108050.0],[602738.4003031461,4108050.0],[602735.5462783647,4108044.470285833],[602733.6109830933,4108038.4717752878],[602730.0531946875,4108024.7752823452],[602729.085315417,4108025.026697774],[602730.0397614642,4108024.7283142237],[602726.5165382293,4108013.458502305],[602723.8022838756,4108004.643315278],[602724.3624780454,4108004.2289622147],[602724.4468690011,4108004.15907491],[602724.5231071495,4108004.0803741254],[602724.5902771705,4108003.993804748],[602725.0696909425,4108003.3006073893],[602725.1204371436,4108003.2191335233],[602725.1631383002,4108003.1331696995],[602725.1974009995,4108003.043507917],[602725.5019529422,4108002.1151693235],[602725.5286704025,4108002.0171831683],[602725.5453111063,4108001.9169923686],[602725.5517034027,4108001.8156304043],[602725.5534468379,4108001.672464618],[602794.10062517,4107996.103260874],[602794.3340511397,4107996.150132411],[602794.4184341608,4107996.228241535],[602823.3952115364,4108050.0],[602825.6671241305,4108050.0],[602796.5060954624,4107995.8863292555],[602798.8808609283,4107995.670807668],[602802.1856813902,4107995.3983932356],[602802.1075914499,4107995.679708318],[602802.085091614,4107995.780820734],[602802.0731722158,4107995.8837182126],[602802.07196115,4107995.987296669],[602802.0814714112,4107996.0904447087],[602802.1016009547,4107996.1920555583],[602802.1321337911,4107996.2910389365],[602802.1727423044,4107996.386332755],[602802.8056605576,4107997.6811595545],[602802.8224492602,4107997.7139600837],[602820.5530112314,4108030.8354962314],[602830.5474659546,4108050.0],[602832.8031000427,4108050.0],[602822.3238525791,4108029.9058995144],[602822.3188092174,4108029.896354811],[602804.5943963632,4107996.786305507],[602804.1362283323,4107995.8489834405],[602804.2474053669,4107995.4484737655],[602804.8490915574,4107995.161740166],[602806.7589400595,4107994.8220336023],[602834.6859194097,4107993.2363485773],[602838.6887962708,4107993.06361595],[602843.722742384,4107992.847971761],[602845.7351473661,4107996.404434025],[602846.605476269,4107995.9119631113],[602845.7369575899,4107996.407619549],[602876.3216865194,4108050.0],[602878.6244579491,4108050.0],[602847.4749029605,4107995.4178977464],[602845.1864341657,4107991.373556283],[602844.0305021037,4107988.7528830473],[602843.9798407949,4107988.6534543545],[602839.3232222495,4107980.6520859776],[602833.6568361094,4107970.918453819],[602832.7926106021,4107971.4215584532],[602833.6393777112,4107970.8895946736],[602833.477941809,4107970.6326248995],[602837.1791061187,4107968.5824042023],[602836.6945438787,4107967.707647416],[602837.1972231179,4107968.5721204244],[602843.7573963435,4107964.757469355],[602843.2547171043,4107963.8929963466],[602844.1477212418,4107963.4429478934],[602838.069699809,4107951.382694716],[602841.0788855074,4107949.601845048],[602845.1250012268,4107947.739072867],[602854.2406964374,4107966.23956398],[602859.0335223867,4107978.4865125725],[602859.9715977868,4107985.3812295147],[602859.9813571862,4107985.439858155],[602860.7077826668,4107989.1241569896],[602861.6881397093,4107994.5868528034],[602861.7089557576,4107994.678066252],[602861.7382051572,4107994.766935108],[602861.7756318825,4107994.8526814855],[602861.8209083296,4107994.934554829],[602871.7893968314,4108011.122847536],[602871.8496718106,4108011.210020213],[602871.9188340205,4108011.290324244],[602871.996106621,4108011.3628576426],[602872.0806216747,4108011.426805703],[602872.1714298958,4108011.4814501507],[602872.2675113132,4108011.526177211],[602897.5393592361,4108021.6981898146],[602906.8840838824,4108025.4833884877],[602905.3637962134,4108028.487848717],[602905.3528567038,4108028.5101512256],[602903.6289550631,4108032.1379736057],[602897.9373337637,4108038.3931273543],[602897.8781369854,4108038.4645819655],[602897.8258181971,4108038.541215929],[602897.780827865,4108038.622369426],[602897.7435533564,4108038.7073437218],[602897.7143156058,4108038.795407187],[602896.2744953783,4108043.9152036402],[602896.2545542362,4108044.000183419],[602896.242099717,4108044.0865784236],[602896.2372267146,4108044.173730393],[602896.1661556507,4108050.0],[602898.1663044458,4108050.0],[602898.2354711838,4108044.3298433796],[602899.5756530098,4108039.564346946],[602905.2081101034,4108033.3742153035],[602905.2705415337,4108033.2984409872],[602905.3252414638,4108033.216909716],[602905.3716826178,4108033.1304074056],[602907.1539480678,4108029.379762743],[602908.7406092271,4108026.2441322654],[602917.2337490954,4108029.583444384],[602922.9515070188,4108033.331937844],[602929.5338984537,4108040.7480031527],[602929.5443817807,4108040.7596296207],[602934.5374113582,4108046.2107118135],[602936.5721048008,4108050.0],[602938.842193138,4108050.0],[602936.24030327,4108045.154400003],[602936.1980879179,4108045.0830455497],[602936.1501069427,4108045.015433273],[602936.0966901461,4108044.9520279113],[602931.0244886661,4108039.414510711],[602924.3589577924,4108031.9047761774],[602924.2975803337,4108031.841480312],[602924.2308662045,4108031.7838367173],[602924.1593340108,4108031.73229349],[602918.2439771655,4108027.8542565485],[602918.1552256703,4108027.80238982],[602918.0616184559,4108027.759908356],[602908.6384872394,4108024.054944496],[602907.7675427684,4108023.6835763333],[602907.7507461311,4108023.676594147],[602898.2892041823,4108019.8440771513],[602898.2871640302,4108019.8432533736],[602873.3197560934,4108009.7937789946],[602863.6232336113,4107994.0471445723],[602862.6748229457,4107988.7624587403],[602862.671659148,4107988.7456569904],[602861.9493311892,4107985.082140046],[602860.9991585241,4107978.098509976],[602860.9761710212,4107977.981925015],[602860.9395165434,4107977.8688899414],[602856.0876952129,4107965.4711924153],[602856.0534879183,4107965.3936405885],[602846.4885553902,4107945.9814130906],[602846.4725127226,4107945.95024432],[602814.5666911649,4107886.5441004448],[602773.5608382723,4107809.61792072],[602773.5596760184,4107809.6157468134],[602771.5402774038,4107805.849788068],[602773.1991846929,4107805.2402317077],[602787.9092640341,4107818.3877438675],[602789.9383989184,4107822.5636464613],[602791.7372731168,4107821.689545999],[602789.6220176241,4107817.3364096116],[602789.5753166476,4107817.2511179005],[602789.5205524908,4107817.1707652756],[602789.4582429846,4107817.096111524],[602789.3889773064,4107817.0278625456],[602774.3668888876,4107803.6014842396],[602771.8992071534,4107782.576816023],[602771.8837264925,4107782.4833883015],[602771.8594774212,4107782.391843927],[602771.8266774142,4107782.3030039053],[602770.9801215341,4107780.3065427276],[602769.1388161955,4107781.087308153],[602769.9295200753,4107782.9520516815],[602772.332779966,4107803.4278452727],[602770.6602780139,4107804.042396917],[602740.0901140018,4107732.780407629],[602740.0613333902,4107732.7191300625],[602717.1287423088,4107687.9013528107],[602717.0815815104,4107687.8190599848],[602711.7099549968,4107679.398525379],[602711.6235192781,4107679.2824922455],[602706.952759577,4107673.877454509],[602706.8812469898,4107673.8028649297],[602706.8024189445,4107673.736053293],[602706.7171171398,4107673.677732991],[602706.626252399,4107673.628526748],[602706.5307949443,4107673.588959971],[602706.4317640376,4107673.5594551405],[602698.2890002504,4107671.5851376127],[602698.2044616867,4107671.5684601725],[602698.1188012429,4107671.559122392],[602698.0326549397,4107671.5571936043],[602690.4180863563,4107671.714924147],[602687.4651547258,4107670.903611827],[602676.2931356559,4107650.0200413624],[602668.7570088195,4107631.3837882336],[602651.8785196356,4107588.949511747],[602650.3161143957,4107584.7556430716],[602651.7712149183,4107584.147231295],[602665.8262777859,4107598.403017066],[602667.6972764384,4107602.694787175],[602669.5306328358,4107601.895534824]]]]}},{"type":"Feature","properties":{"class":"living_street","widthMeters":4},"geometry":{"type":"Polygon","coordinates":[[[602739.9367237479,4108022.7868631026],[602738.434307011,4108019.0797423935],[602728.3341070486,4108023.1731374194],[602728.3319562507,4108023.1740105455],[602725.1527093312,4108024.4667893653],[602726.6594276639,4108028.172163822],[602729.8375992753,4108026.8798222556],[602739.9367237479,4108022.7868631026]]]}},{"type":"Feature","properties":{"class":"residential","widthMeters":5},"geometry":{"type":"MultiPolygon","coordinates":[[[[602600.0,4107567.7102574604],[602603.5200594573,4107565.194721176],[602600.6129440241,4107561.12671431],[602600.0,4107561.564741848],[602600.0,4107567.7102574604]]],[[[602624.9392862964,4107615.355609061],[602625.1078907866,4107615.527376816],[602625.2922318092,4107615.6821347666],[602625.490600696,4107615.818448451],[602625.7011587532,4107615.9350543697],[602625.9219543055,4107616.0308716954],[602626.1509407851,4107616.105012291],[602626.3859957022,4107616.1567889433],[602626.6249403184,4107616.185721731],[602626.8655598412,4107616.191542474],[602630.8568405358,4107616.0958505175],[602631.0564517898,4107616.0830608425],[602636.7689505306,4107615.4868083387],[602636.2498862057,4107610.513824101],[602630.6369370673,4107611.099685933],[602628.0518497785,4107611.1616640496],[602600.0,4107572.8196684686],[602600.0,4107581.287568319],[602624.7879811438,4107615.1684236275],[602624.9392862964,4107615.355609061]]],[[[602607.6849854566,4107750.8844696544],[602600.0,4107754.4502423177],[602600.0,4107759.9948117896],[602600.3350395706,4107759.8067932287],[602611.5041674145,4107754.6244059666],[602624.4425705883,4107762.490757001],[602624.4518966104,4107762.4963992704],[602635.8528329857,4107769.3600911293],[602638.8067053824,4107774.3843099535],[602640.3144544291,4107783.2872016635],[602637.141600898,4107797.4813758004],[602637.1351963796,4107797.510861957],[602634.5701429046,4107809.673683529],[602634.2736467557,4107811.07818189],[602614.4344414704,4107808.1257962645],[602614.2049887689,4107808.1024063835],[602600.0,4107807.3140445068],[602600.0,4107812.321738919],[602613.812654033,4107813.0883266316],[602635.7977769143,4107816.36005853],[602645.7416246501,4107818.4025381315],[602661.0352494934,4107900.1707132226],[602661.0897800367,4107900.4012250053],[602661.1658821766,4107900.6255411357],[602661.2628727076,4107900.8416478196],[602661.3798808987,4107901.047604964],[602661.5158563113,4107901.2415635916],[602661.6695782284,4107901.4217824424],[602661.8396666143,4107901.5866436055],[602662.0245945037,4107901.7346670423],[602662.2227017097,4107901.8645238746],[602662.4322097284,4107901.975048316],[602664.8886189706,4107903.1256189398],[602665.1397377138,4107903.227042834],[602665.4003541581,4107903.300707604],[602665.6674098161,4107903.3457487514],[602665.9377706324,4107903.3616376915],[602670.2829687856,4107903.381234177],[602670.3878470438,4107903.37950666],[602673.5172776988,4107903.2622540817],[602673.8409964,4107903.2289293567],[602738.2222409823,4107892.328899196],[602738.3420076834,4107892.3056024318],[602747.6621412187,4107890.255435082],[602747.9037705703,4107890.189435273],[602748.1375827463,4107890.099587709],[602748.3612306197,4107889.986794327],[602766.0689866361,4107879.9131182344],[602770.7399326379,4107879.170270921],[602770.9941635795,4107879.1161569664],[602771.2414017706,4107879.03593871],[602771.478974598,4107878.9304833002],[602771.7043139304,4107878.8009306965],[602776.1021680804,4107875.9585052053],[602773.3880959922,4107871.7592418534],[602769.4334506862,4107874.3152121613],[602764.8350223375,4107875.0465265764],[602764.6149998399,4107875.0917355786],[602764.399923241,4107875.15651065],[602764.1915287683,4107875.2403288884],[602763.991498707,4107875.342513662],[602746.2180697195,4107885.4535501203],[602737.3274287437,4107887.4092411813],[602673.1671244007,4107898.27186518],[602670.2530608908,4107898.3810484465],[602666.5108848102,4107898.364171541],[602665.7142767903,4107897.9910440627],[602650.9832440796,4107819.2307976005],[602664.0405136225,4107820.9893175475],[602664.3059290723,4107821.010754021],[602675.2948269568,4107821.310931663],[602675.5335559144,4107821.306045559],[602688.625317405,4107820.411297209],[602688.8399166703,4107820.387282893],[602689.0516430897,4107820.3448393377],[602705.7816023609,4107816.232239929],[602705.976042658,4107816.176004304],[602709.1511370054,4107815.1166578336],[602719.6170824886,4107811.638413221],[602724.7481022752,4107811.100045008],[602724.8221271937,4107811.091160173],[602730.3942322197,4107810.3379242364],[602729.7244254908,4107805.382991447],[602724.1892666807,4107806.1312330025],[602718.8253558786,4107806.6940371217],[602718.5584880468,4107806.7367263725],[602718.2977877376,4107806.807973552],[602707.5728523165,4107810.37229069],[602707.5700696157,4107810.373217304],[602704.4896650352,4107811.4009712418],[602688.0683497278,4107815.4376990385],[602675.3118769742,4107816.3095322866],[602664.5757397229,4107816.016259167],[602648.3090016299,4107813.8254961353],[602639.1988992667,4107811.9542689463],[602639.4623730979,4107810.70619687],[602642.0244701048,4107798.5573943555],[602645.3010914028,4107783.8990015783],[602645.3424159677,4107783.6603477825],[602645.360452462,4107783.4188150954],[602645.3550315924,4107783.1766705764],[602645.32620424,4107782.9361870266],[602643.6597421269,4107773.0961332303],[602643.6116512214,4107772.8740260233],[602643.5435899766,4107772.6572034843],[602643.4561207892,4107772.447457238],[602643.3499664251,4107772.246520438],[602639.8413122977,4107766.278677638],[602639.7048207469,4107766.070906903],[602639.5483693825,4107765.877718932],[602639.3735051613,4107765.7010239237],[602639.1819571019,4107765.5425690007],[602638.9756191894,4107765.4039209294],[602627.0354318531,4107758.2155844704],[602613.3260203069,4107749.88047215],[602600.0,4107733.6131733037],[602600.0,4107741.5032776576],[602607.6849854566,4107750.8844696544]]],[[[602667.4494737228,4108026.004129032],[602697.7629272903,4108012.091844037],[602714.1963491937,4108004.5456612417],[602719.4218922113,4108012.0841416186],[602723.4945911985,4108026.978852993],[602723.524231428,4108027.0789844436],[602730.8331659747,4108050.0],[602736.1529333225,4108050.0],[602735.9570731197,4108049.6106847078],[602728.3037715454,4108025.6097248793],[602724.1319225453,4108010.352401186],[602724.0421214877,4108010.0845130975],[602723.9226667708,4108009.828468514],[602723.7750841326,4108009.5875377716],[602719.4553264906,4108003.3557627946],[602769.4857782107,4107996.9392352775],[602796.3998274466,4107995.492449894],[602796.5819313625,4107995.8381996653],[602825.0243840178,4108050.0],[602830.6718847083,4108050.0],[602801.8364590767,4107995.0898772846],[602820.6209905653,4107993.5348792216],[602837.4781474136,4107992.1314261905],[602843.3216952573,4107991.6479375088],[602849.0161163299,4107991.1735352264],[602848.6010039877,4107986.190796849],[602842.9087033948,4107986.665022877],[602837.0652229079,4107987.1485059857],[602820.2079104357,4107988.551971922],[602797.6950061241,4107990.415607575],[602770.6222827144,4107991.87092261],[602769.281621539,4107989.6549356766],[602769.2496404496,4107989.6034916504],[602750.7894867207,4107960.6959676086],[602746.5754405451,4107963.3870296353],[602765.0192920866,4107992.269025402],[602765.1327539854,4107992.456567258],[602714.7392496045,4107998.919657165],[602714.4909122823,4107998.964345018],[602714.2483444762,4107999.0338381063],[602714.0140172123,4107999.1274285074],[602695.6771123988,4108007.5476855556],[602663.1756143398,4108022.4641681914],[602654.1214456769,4108025.9564453415],[602614.5342390874,4108028.5740688066],[602614.3955139484,4108028.5871332726],[602602.3545168616,4108030.06065148],[602602.1044003826,4108030.104247454],[602601.8599953592,4108030.1729864283],[602601.6238224426,4108030.266159469],[602601.3983173828,4108030.382805643],[602600.0,4108031.198659394],[602600.0,4108036.9874815326],[602603.4731497779,4108034.961058699],[602614.9336781873,4108033.5585754034],[602654.831033856,4108030.9204439614],[602655.0809750104,4108030.891224584],[602655.326712559,4108030.8370267064],[602655.5657567141,4108030.7583994553],[602662.8427082,4108027.9516115165],[602672.8062768743,4108050.0],[602678.2931010686,4108050.0],[602667.4494737228,4108026.004129032]]],[[[602662.6486452942,4107977.5777849536],[602654.288550959,4107975.480259671],[602644.5146620773,4107966.6997280447],[602634.7959840994,4107957.3458966915],[602631.3287173552,4107960.948404336],[602641.0783432967,4107970.3320218422],[602641.1412442026,4107970.3905134397],[602651.4082020667,4107979.6140015847],[602651.5966067219,4107979.7673891117],[602651.799010255,4107979.9017649177],[602652.0135011981,4107980.0158599787],[602652.2380539312,4107980.1085967976],[602652.4705478125,4107980.1790995826],[602662.0916829001,4107982.5930166133],[602662.352315795,4107982.643868508],[602662.6168722112,4107982.6667884504],[602662.8823672993,4107982.6615178483],[602663.1458056199,4107982.628116166],[602663.4042149386,4107982.5669602584],[602672.7682756259,4107979.818212945],[602672.9747668514,4107979.747674384],[602673.1743205835,4107979.65939855],[602687.0495613546,4107972.7824586653],[602687.0707082937,4107972.7718527475],[602707.7614516194,4107962.271916867],[602707.7743973926,4107962.265299865],[602736.8729024617,4107947.285239982],[602736.9964970156,4107947.2171332524],[602794.727293868,4107913.2460391186],[602794.9922628228,4107913.066334483],[602798.9754845569,4107909.9747608253],[602795.909791563,4107906.0248840586],[602792.0532890535,4107909.0181047143],[602734.5215777222,4107942.872049019],[602705.4922946675,4107957.816473054],[602684.8185822603,4107968.3077662503],[602671.1500117535,4107975.0822748328],[602662.6486452942,4107977.5777849536]]]]}},{"type":"Feature","properties":{"class":"service","widthMeters":3},"geometry":{"type":"MultiPolygon","coordinates":[[[[602766.4827355694,4107876.6940191947],[602739.0804122298,4107834.8286684467],[602739.0496149888,4107834.783438771],[602720.3104955638,4107808.3136793934],[602717.8619730852,4107810.0470973095],[602736.5852813323,4107836.4945227625],[602763.972618609,4107878.3369777594],[602766.4827355694,4107876.6940191947]]],[[[602838.5762684039,4107988.900243198],[602835.9664630882,4107990.379741834],[602837.3403272796,4107992.8032101514],[602869.6404142614,4108050.0],[602873.0857245729,4108050.0],[602839.9519643926,4107991.326946921],[602839.950743772,4107991.3247896186],[602838.5762684039,4107988.900243198]]],[[[602904.013433642,4108027.689583526],[602891.5146741652,4108042.9439664963],[602882.6054348524,4108048.313374393],[602883.6219280156,4108050.0],[602885.6187933652,4108050.0],[602893.2850577955,4108045.379706468],[602893.4261640415,4108045.28329825],[602893.5553884614,4108045.171465489],[602893.6710536927,4108045.0456597996],[602906.4260967111,4108029.4784900043],[602906.5123835983,4108029.3621440437],[602906.5870460478,4108029.2380177854],[602908.6965316059,4108025.313643809],[602908.7573260836,4108025.1865754784],[602908.8059328542,4108025.0543646202],[602908.841923264,4108024.9181771777],[602909.4166573574,4108022.2400026177],[602909.4402749991,4108022.0962181822],[602909.4498303576,4108021.9508206164],[602909.445233265,4108021.8051819415],[602909.4265271013,4108021.6606764523],[602908.7609367799,4108017.946556023],[602908.7301557835,4108017.811202793],[602908.6869944925,4108017.679274519],[602908.6318225204,4108017.5519009735],[602908.5651123346,4108017.430172926],[602905.5246295806,4108012.4443500396],[602902.9633202571,4108014.0063021993],[602905.8575341388,4108018.7522715],[602906.4214856285,4108021.8992279405],[602905.953350948,4108024.0806652457],[602904.013433642,4108027.689583526]]]]}},{"type":"Feature","properties":{"class":"tertiary","widthMeters":8},"geometry":{"type":"Polygon","coordinates":[[[602623.5430020083,4107599.0816117222],[602629.9941314836,4107609.6953887036],[602633.0420320468,4107614.994616122],[602637.5653326327,4107622.85479657],[602643.0334973878,4107635.2647195808],[602649.4015286348,4107650.4548052778],[602649.4337230647,4107650.529463574],[602656.6986974457,4107666.9167368314],[602667.9851270142,4107692.407126421],[602671.6426399259,4107690.787682288],[602667.9859614791,4107692.409009749],[602677.032991647,4107712.813327207],[602677.0383016334,4107712.8252506047],[602702.3341446328,4107769.377765378],[602702.3607844162,4107769.4360647015],[602708.7349578341,4107783.0949259205],[602708.8744905121,4107783.3663858883],[602709.0343157181,4107783.6264162436],[602717.3946927559,4107796.132420318],[602719.1046495945,4107798.6932864473],[602719.1078561448,4107798.698081153],[602726.735961526,4107810.086492342],[602745.0918461602,4107837.4630210144],[602745.109125065,4107837.4885776853],[602771.4400950389,4107876.1120336317],[602786.5143942966,4107898.221225647],[602794.0634118534,4107910.140109863],[602794.1240969739,4107910.2330454625],[602816.1186824392,4107942.916720518],[602833.2752945825,4107969.7853059694],[602845.3447712449,4107990.682707554],[602845.3480988496,4107990.688458022],[602865.656886953,4108025.7171457713],[602879.0342978087,4108050.0],[602888.1671089431,4108050.0],[602886.8837655714,4108047.6689544795],[602872.6428326997,4108021.818623286],[602872.599761861,4108021.7424252084],[602852.2706876573,4107986.6787479036],[602840.1583327926,4107965.707105899],[602840.0658655586,4107965.5549304974],[602822.8354199112,4107938.5707160514],[602822.7826393173,4107938.490209949],[602800.7921664779,4107905.8126462037],[602793.2366494295,4107893.8835001634],[602793.1623430192,4107893.770455576],[602778.0501113724,4107871.6056288467],[602751.7278877931,4107832.9950025068],[602733.3821705615,4107805.6336386106],[602725.756195782,4107794.2484083124],[602724.0472393472,4107791.6890404085],[602715.8550583993,4107779.4346340974],[602709.6237952226,4107766.0820072754],[602684.3437032594,4107709.564706221],[602675.299735875,4107689.167296445],[602664.0133454017,4107663.6769951517],[602660.35583249,4107665.296439285],[602664.012589191,4107663.6752883266],[602656.7637130786,4107647.3243272034],[602650.3974297717,4107632.138410984],[602650.368890308,4107632.072022241],[602644.7996594877,4107619.432731216],[602644.6061681758,4107619.050502787],[602639.9765718774,4107611.0056115394],[602636.9047856831,4107605.664855407],[602636.8555417336,4107605.5815839563],[602630.3125944452,4107594.816742918],[602630.172309741,4107594.6017940175],[602619.6294257481,4107579.5275223353],[602619.5276707521,4107579.3885056633],[602605.2426044123,4107560.7291808175],[602600.9891139762,4107555.182499107],[602600.9262832244,4107555.102685372],[602600.0,4107553.9562843665],[602600.0,4107567.0416287016],[602613.1230907175,4107584.1831670646],[602623.5430020083,4107599.0816117222]]]}}]}
