{"type":"FeatureCollection","name":"vera-puerto-rey-coastline","crs":{"type":"name","properties":{"name":"EPSG:25830"}},"features":[{"type":"Feature","properties":{"source":"DERA/IECA","id_dera":10125300001125.0},"geometry":{"type":"LineString","coordinates":[[605482.7599999998,4117599.8200000003],[605480.3399999999,4117596.5700000003],[605479.9199999999,4117595.0999999996],[605478.6213628623,4117594.0]]}},{"type":"Feature","properties":{"source":"DERA/IECA","id_dera":10125300001137.0},"geometry":{"type":"LineString","coordinates":[[605729.7199999997,4118648.8100000005],[605726.9699999997,4118637.2200000007],[605725.29,4118628.41],[605721.3899999997,4118611.630000001],[605717.6600000001,4118595.8000000007],[605713.9299999997,4118579.960000001],[605709.5099999998,4118562.5500000007],[605706.46,4118552.2200000007],[605703.4100000001,4118541.8900000006],[605697.8399999999,4118525.8499999996],[605694.0599999996,4118513.4800000004],[605689.1299999999,4118501.74],[605684.1900000004,4118489.99],[605679.5599999996,4118478.0299999993],[605675.46,4118459.6799999997],[605669.3700000001,4118444.26],[605666.9500000002,4118439.2300000004],[605666.1100000003,4118433.99],[605665.79,4118425.91],[605663.79,4118417.42],[605661.4800000004,4118409.130000001],[605657.75,4118396.34],[605654.0099999998,4118383.539999999],[605648.7599999998,4118366.6099999994],[605643.5,4118349.67],[605639.5099999998,4118338.5600000005],[605635.9400000004,4118330.380000001],[605635.7300000004,4118328.91],[605631.7400000002,4118317.0600000005],[605630.1500000004,4118304.4700000007],[605623.6399999997,4118294.1999999993],[605620.7000000002,4118286.119999999],[605616.5999999996,4118269.66],[605616.71,4118268.92],[605617.1299999999,4118268.5],[605616.9100000001,4118266.41],[605615.3399999999,4118261.0600000005],[605615.4400000004,4118258.6500000004],[605616.1699999999,4118257.8100000005],[605616.9100000001,4118256.130000001],[605617.2199999997,4118252.5600000005],[605616.7999999998,4118250.7799999993],[605616.0599999996,4118249.3100000005],[605615.75,4118247.3200000003],[605616.5899999999,4118244.9000000004],[605619.4199999999,4118241.130000001],[605619.7300000004,4118239.34],[605618.1500000004,4118234.83],[605612.1699999999,4118229.8000000007],[605613.1100000003,4118222.3599999994],[605612.6900000004,4118221.5199999996],[605611.2199999997,4118220.3599999994],[605610.1699999999,4118218.9000000004],[605609.0099999998,4118210.51],[605606.4900000002,4118202.8499999996],[605604.1799999997,4118192.5700000003],[605604.0700000003,4118190.16],[605604.7000000002,4118186.59],[605604.6900000004,4118183.9700000007],[605601.0700000003,4118174.0600000005],[605597.4400000004,4118164.1500000004],[605594.8200000003,4118158.17],[605592.8200000003,4118150.7300000004],[605593.4400000004,4118137.83],[605591.9699999997,4118133.9499999993],[605591.7599999998,4118129.539999999],[605591.0199999996,4118127.0299999993],[605588.6100000003,4118123.3599999994],[605588.4000000004,4118120.84],[605587.6600000001,4118120.3100000005],[605585.9800000004,4118119.6899999995],[605581.4699999997,4118111.7200000007],[605581.4699999997,4118110.039999999],[605581.0499999998,4118108.6799999997],[605579.79,4118107.0],[605579.0499999998,4118104.2699999996],[605578.0999999996,4118092.630000001],[605577.2599999998,4118091.369999999],[605574.1100000003,4118088.33],[605574.1100000003,4118080.26],[605574.5199999996,4118073.33],[605575.7800000003,4118069.66],[605575.9900000002,4118067.7699999996],[605575.5599999996,4118062.74],[605576.0899999999,4118060.74],[605575.5599999996,4118058.0199999996],[605573.04,4118053.8200000003],[605571.0499999998,4118051.83],[605570.21,4118049.74],[605569.9900000002,4118044.6999999993],[605568.6299999999,4118042.5],[605567.3700000001,4118039.25],[605566.9400000004,4118032.2200000007],[605565.1600000001,4118028.869999999],[605564.5199999996,4118019.2200000007],[605565.8799999999,4118014.3900000006],[605569.2300000004,4118005.0500000007],[605569.4400000004,4118002.33],[605564.7199999997,4117993.9399999995],[605563.6600000001,4117981.7699999996],[605561.5499999998,4117971.8100000005],[605556.8300000001,4117959.6400000006],[605551.9900000002,4117945.2799999993],[605551.5700000003,4117943.1799999997],[605552.0999999996,4117942.66],[605553.46,4117942.0199999996],[605553.6699999999,4117941.08],[605551.9800000004,4117932.59],[605552.4000000004,4117928.91],[605551.5599999996,4117925.1400000006],[605551.5599999996,4117923.460000001],[605553.2300000004,4117917.9000000004],[605550.8099999996,4117905.84],[605546.6100000003,4117893.99],[605544.0899999999,4117883.6099999994],[605543.9800000004,4117875.6400000006],[605543.7699999996,4117874.59],[605543.2400000002,4117873.6400000006],[605536.1100000003,4117869.869999999],[605534.4299999997,4117866.0999999996],[605534.21,4117864.210000001],[605532.4299999997,4117861.0600000005],[605531.2800000003,4117859.8100000005],[605530.54,4117857.710000001],[605530.2199999997,4117853.7200000007],[605528.75,4117851.3100000005],[605528.0199999996,4117849.3200000003],[605527.9100000001,4117847.75],[605526.0199999996,4117843.0299999993],[605524.8600000003,4117838.0999999996],[605524.96,4117832.2200000007],[605523.3899999997,4117824.99],[605519.6100000003,4117818.0700000003],[605519.5999999996,4117815.76],[605519.5,4117815.4499999993],[605517.0899999999,4117814.289999999],[605516.5599999996,4117812.9299999997],[605516.3499999996,4117809.5700000003],[605514.6699999999,4117806.4299999997],[605514.46,4117803.91],[605515.2999999998,4117801.710000001],[605515.0800000001,4117796.25],[605513.0800000001,4117785.24],[605512.6600000001,4117784.7200000007],[605511.7199999997,4117784.51],[605510.8799999999,4117784.6099999994],[605509.0999999996,4117785.5600000005],[605508.3600000003,4117785.0299999993],[605506.8899999997,4117781.8900000006],[605506.7800000003,4117779.58],[605506.8799999999,4117768.039999999],[605506.0899999999,4117757.1400000006],[605505.2999999998,4117746.2300000004],[605503.25,4117735.74],[605501.1900000004,4117725.25],[605497.7199999997,4117715.8200000003],[605495.8300000001,4117709.210000001],[605495.7199999997,4117694.9399999995],[605494.4500000002,4117682.99],[605494.9699999997,4117680.99],[605495.29,4117680.3599999994],[605495.29,4117679.9399999995],[605494.6600000001,4117678.6899999995],[605491.6100000003,4117675.2300000004],[605491.1900000004,4117670.51],[605492.1299999999,4117668.3000000007],[605494.8600000003,4117664.42],[605494.8600000003,4117662.8499999996],[605492.1299999999,4117658.0199999996],[605489.0800000001,4117653.9399999995],[605489.8200000003,4117652.1500000004],[605490.1299999999,4117647.75],[605489.5999999996,4117646.0700000003],[605487.6100000003,4117642.289999999],[605486.5599999996,4117641.67],[605485.8200000003,4117640.41],[605485.8200000003,4117639.460000001],[605485.6100000003,4117638.7300000004],[605485.1900000004,4117632.75],[605483.2999999998,4117629.08],[605483.1900000004,4117628.3499999996],[605484.5499999998,4117624.880000001],[605484.6600000001,4117623.0],[605484.5499999998,4117622.16],[605483.71,4117620.6899999995],[605483.5,4117618.6999999993],[605486.0099999998,4117608.0999999996],[605487.4800000004,4117606.42],[605487.5800000001,4117605.58],[605487.1600000001,4117604.5299999993],[605482.7599999998,4117599.8200000003]]}},{"type":"Feature","properties":{"source":"DERA/IECA","id_dera":10125300000566.0},"geometry":{"type":"LineString","coordinates":[[605883.700539499,4119172.0],[605883.6200000001,4119171.5600000005],[605879.8099999996,4119155.619999999],[605876.6100000003,4119147.210000001],[605872.25,4119134.210000001],[605868.1100000003,4119122.5],[605863.96,4119110.789999999],[605859.8200000003,4119099.08],[605855.6699999999,4119087.369999999],[605851.5300000003,4119075.66],[605847.3799999999,4119063.9499999993],[605843.2400000002,4119052.24],[605839.0899999999,4119040.5299999993],[605833.3600000003,4119024.7799999993],[605827.6200000001,4119009.0299999993],[605822.54,4118994.76],[605817.46,4118980.4800000004],[605812.3799999999,4118966.1999999993],[605807.29,4118951.92],[605803.3399999999,4118937.58],[605799.3899999997,4118923.25],[605795.4400000004,4118908.91],[605791.4900000002,4118894.5700000003],[605788.46,4118882.4399999995],[605785.4199999999,4118870.3100000005],[605782.3899999997,4118858.17],[605779.3499999996,4118846.039999999],[605775.0499999998,4118834.4299999997],[605770.7400000002,4118822.8200000003],[605766.4400000004,4118811.210000001],[605762.1299999999,4118799.5999999996],[605758.2300000004,4118787.7200000007],[605754.3300000001,4118775.8499999996],[605750.4299999997,4118763.9700000007],[605746.5199999996,4118752.0999999996],[605743.1500000004,4118740.8900000006],[605739.7699999996,4118729.6899999995],[605738.5199999996,4118718.8200000003],[605737.2699999996,4118707.9499999993],[605736.0199999996,4118697.0700000003],[605734.7599999998,4118686.1999999993],[605734.0199999996,4118675.9800000004],[605733.2800000003,4118665.75],[605731.8099999996,4118657.5700000003],[605729.7199999997,4118648.8100000005]]}}]}
