{"type":"FeatureCollection","name":"vera-playazo-coastline","crs":{"type":"name","properties":{"name":"EPSG:25830"}},"features":[{"type":"Feature","properties":{"source":"DERA/IECA","id_dera":10125300000566.0},"geometry":{"type":"LineString","coordinates":[[606688.0363798222,4121032.0],[606686.8200000003,4121027.119999999],[606685.0899999999,4121017.66],[606683.1900000004,4121013.789999999],[606677.9100000001,4121000.369999999],[606672.7699999996,4120989.3200000003],[606667.6299999999,4120978.2699999996],[606663.5700000003,4120968.66],[606661.5300000003,4120966.24],[606659.8099999996,4120964.83],[606658.6299999999,4120962.6999999993],[606653.3300000001,4120951.2799999993],[606651.8200000003,4120947.34],[606649.9800000004,4120944.66],[606647.71,4120936.8599999994],[606645.0800000001,4120932.8499999996],[606638.46,4120919.289999999],[606636.3700000001,4120914.5500000007],[606634.21,4120909.08],[606629.7000000002,4120898.99],[606626.7000000002,4120891.0500000007],[606622.25,4120880.67],[606617.8099999996,4120870.289999999],[606613.2000000002,4120863.5999999996],[606612.0899999999,4120860.7300000004],[606611.6600000001,4120855.869999999],[606607.4199999999,4120844.8599999994],[606605.0499999998,4120841.8499999996],[606604.1299999999,4120839.3100000005],[606600.04,4120835.2200000007],[606599.7199999997,4120833.960000001],[606600.3399999999,4120830.5700000003],[606599.7000000002,4120827.9700000007],[606593.4900000002,4120817.67],[606587.2800000003,4120807.380000001],[606585.3600000003,4120805.83],[606584.3799999999,4120803.5],[606582.1399999997,4120791.0999999996],[606580.3099999996,4120786.3599999994],[606580.1900000004,4120784.6999999993],[606578.6799999997,4120782.289999999],[606576.9000000004,4120780.4800000004],[606575.8499999996,4120778.74],[606575.79,4120777.1500000004],[606575.3399999999,4120775.75],[606572.7599999998,4120773.5999999996],[606572.3700000001,4120772.5999999996],[606572.6600000001,4120768.869999999],[606572.0700000003,4120767.869999999],[606570.75,4120767.130000001],[606565.7699999996,4120765.49],[606562.8099999996,4120760.9399999995],[606558.7000000002,4120750.33],[606554.5800000001,4120739.7200000007],[606550.5899999999,4120722.66],[606548.4000000004,4120712.630000001],[606546.21,4120702.59],[606542.9000000004,4120692.6500000004],[606537.1799999997,4120682.960000001],[606536.0599999996,4120672.51],[606535.0199999996,4120669.24],[606530.6200000001,4120661.49],[606530.5,4120659.76],[606530.9100000001,4120658.289999999],[606530.5300000003,4120655.76],[606527.1799999997,4120650.9499999993],[606526.0,4120648.210000001],[606526.0199999996,4120645.880000001],[606526.8300000001,4120643.2200000007],[606526.9199999999,4120641.16],[606521.4100000001,4120630.869999999],[606520.2599999998,4120624.41],[606517.6200000001,4120621.4000000004],[606515.4299999997,4120619.8499999996],[606513.9199999999,4120617.7699999996],[606513.2800000003,4120614.51],[606511.7599999998,4120604.1799999997],[606511.9100000001,4120601.99],[606512.5199999996,4120600.66],[606513.1900000004,4120599.9399999995],[606519.4000000004,4120596.99],[606520.8099999996,4120595.8000000007],[606521.0199999996,4120594.2699999996],[606519.1799999997,4120590.9299999997],[606516.9299999997,4120589.7799999993],[606513.1299999999,4120590.5500000007],[606495.8300000001,4120599.2699999996],[606487.1500000004,4120602.2699999996],[606472.4000000004,4120607.9399999995],[606466.3499999996,4120608.3000000007],[606461.8300000001,4120607.0700000003],[606454.1500000004,4120602.3499999996],[606443.1600000001,4120594.41],[606435.5300000003,4120587.9000000004],[606427.8899999997,4120581.3900000006],[606425.3200000003,4120577.7799999993],[606419.1200000001,4120562.09],[606414.96,4120548.9499999993],[606412.2199999997,4120541.4800000004],[606406.3899999997,4120529.789999999],[606399.2300000004,4120516.6899999995],[606394.8499999996,4120506.41],[606391.0300000003,4120497.130000001],[606387.21,4120487.8499999996],[606382.6799999997,4120474.9399999995],[606378.1600000001,4120462.0299999993],[606371.4900000002,4120446.5500000007],[606366.5999999996,4120437.5600000005],[606361.71,4120428.5700000003],[606359.04,4120420.369999999],[606352.54,4120408.539999999],[606349.7300000004,4120402.4000000004],[606345.6699999999,4120393.0500000007],[606341.6200000001,4120383.6999999993],[606339.6500000004,4120380.09],[606339.2199999997,4120375.2300000004],[606338.5099999998,4120372.9000000004],[606328.9100000001,4120357.59],[606328.2000000002,4120354.3200000003],[606328.3099999996,4120348.7300000004],[606324.3600000003,4120343.3100000005],[606320.7199999997,4120332.3100000005],[606314.9699999997,4120322.6099999994],[606309.2199999997,4120312.92],[606306.6900000004,4120303.8499999996],[606303.3600000003,4120295.039999999],[606304.3200000003,4120292.3200000003],[606303.7999999998,4120290.59],[606301.3499999996,4120288.91],[606297.1200000001,4120284.42],[606296.2199999997,4120281.08],[606297.0,4120274.9000000004],[606293.1299999999,4120267.289999999],[606292.96,4120262.83],[606291.7800000003,4120260.619999999],[606289.6600000001,4120258.9399999995],[606288.2800000003,4120257.33],[606280.3899999997,4120245.0999999996],[606279.4800000004,4120242.0299999993],[606279.2999999998,4120239.630000001],[606276.8799999999,4120233.8200000003],[606271.5700000003,4120223.5999999996],[606269.6699999999,4120219.130000001],[606265.7800000003,4120209.6500000004],[606261.9000000004,4120200.17],[606256.7199999997,4120189.75],[606256.2699999996,4120187.09],[606252.6100000003,4120170.3599999994],[606251.3399999999,4120162.0299999993],[606244.1100000003,4120150.5999999996],[606242.5499999998,4120145.130000001],[606238.8399999999,4120134.3900000006],[606235.1299999999,4120123.6500000004],[606229.6699999999,4120115.0199999996],[606228.5300000003,4120107.2300000004],[606221.8300000001,4120096.0],[606219.3399999999,4120090.789999999],[606214.29,4120076.3100000005],[606209.2400000002,4120061.83],[606202.8200000003,4120049.41],[606202.4400000004,4120046.6099999994],[606202.7300000004,4120043.75],[606201.9500000002,4120041.0199999996],[606200.8300000001,4120039.6799999997],[606193.2699999996,4120027.9700000007],[606190.3300000001,4120020.6999999993],[606187.2400000002,4120015.09],[606183.29,4120000.42],[606176.6100000003,4119987.0600000005],[606174.5199999996,4119981.7200000007],[606171.6399999997,4119975.4399999995],[606167.8600000003,4119964.130000001],[606164.0899999999,4119952.83],[606156.6200000001,4119937.460000001],[606152.6699999999,4119928.25],[606148.71,4119919.039999999],[606145.2300000004,4119913.09],[606144.5199999996,4119910.3599999994],[606144.2800000003,4119906.4299999997],[606143.5700000003,4119904.0299999993],[606138.1399999997,4119891.6799999997],[606132.7300000004,4119880.119999999],[606127.3300000001,4119868.5700000003],[606123.8499999996,4119858.5299999993],[606120.3600000003,4119848.49],[606116.6200000001,4119838.25],[606112.8700000001,4119828.0],[606108.0599999996,4119812.9299999997],[606103.0899999999,4119801.1099999994],[606098.1200000001,4119789.3000000007],[606096.5499999998,4119786.3599999994],[606096.3099999996,4119782.3000000007],[606097.21,4119769.26],[606091.8499999996,4119756.8100000005],[606086.4900000002,4119744.3599999994],[606079.2400000002,4119726.0700000003],[606076.5099999998,4119717.33],[606069.4400000004,4119702.1799999997],[606067.5800000001,4119693.1099999994],[606062.71,4119676.5700000003],[606058.6399999997,4119664.5600000005],[606054.5800000001,4119652.5600000005],[606048.6399999997,4119636.8100000005],[606046.4800000004,4119631.67],[606044.5599999996,4119630.3900000006],[606044.1600000001,4119630.380000001],[606042.96,4119631.6400000006],[606041.2199999997,4119631.8900000006],[606039.9699999997,4119630.9499999993],[606037.4699999997,4119626.4700000007],[606034.1500000004,4119616.7699999996],[606030.8300000001,4119607.0600000005],[606027.5499999998,4119592.5299999993],[606025.6299999999,4119581.9700000007],[606023.7199999997,4119571.41],[606021.6399999997,4119564.74],[606017.1200000001,4119555.49],[606012.5999999996,4119546.24],[606011.79,4119538.380000001],[606010.1600000001,4119533.7699999996],[606006.21,4119523.7300000004],[606002.2599999998,4119513.6799999997],[605999.5999999996,4119504.6799999997],[605993.9400000004,4119492.33],[605988.2800000003,4119479.9700000007],[605987.5099999998,4119475.58],[605984.8700000001,4119464.4399999995],[605983.3799999999,4119459.24],[605981.9699999997,4119451.4499999993],[605981.25,4119450.58],[605979.9199999999,4119450.2300000004],[605979.3899999997,4119450.3599999994],[605978.8399999999,4119451.6899999995],[605978.5499999998,4119455.5500000007],[605978.1399999997,4119456.08],[605977.75,4119456.01],[605976.5599999996,4119454.5999999996],[605975.6399999997,4119452.5999999996],[605975.5300000003,4119450.4700000007],[605976.8099999996,4119448.01],[605977.2199999997,4119446.0199999996],[605977.1699999999,4119443.960000001],[605974.4400000004,4119436.2200000007],[605971.6600000001,4119433.2699999996],[605968.7199999997,4119427.119999999],[605967.54,4119415.0700000003],[605966.7199999997,4119409.34],[605965.5999999996,4119407.8000000007],[605962.6200000001,4119405.8499999996],[605962.1699999999,4119404.1799999997],[605961.9299999997,4119400.460000001],[605959.6100000003,4119390.99],[605954.8099999996,4119374.4499999993],[605952.0599999996,4119368.369999999],[605947.6200000001,4119357.2300000004],[605941.8200000003,4119349.2699999996],[605934.2999999998,4119332.9700000007],[605930.1500000004,4119318.369999999],[605926.1799999997,4119306.3599999994],[605923.5800000001,4119289.039999999],[605923.0899999999,4119283.25],[605921.4699999997,4119277.51],[605918.0,4119266.4399999995],[605914.5199999996,4119255.369999999],[605909.3600000003,4119242.289999999],[605904.21,4119229.1999999993],[605901.2800000003,4119220.33],[605898.0300000003,4119210.0600000005],[605894.7800000003,4119199.789999999],[605891.1799999997,4119192.1099999994],[605886.46,4119183.16],[605884.5700000003,4119176.75],[605883.6200000001,4119171.5600000005],[605879.8099999996,4119155.619999999],[605876.6100000003,4119147.210000001],[605872.25,4119134.210000001],[605868.1100000003,4119122.5],[605863.96,4119110.789999999],[605859.8200000003,4119099.08],[605855.6699999999,4119087.369999999],[605851.5300000003,4119075.66],[605847.3799999999,4119063.9499999993],[605843.2400000002,4119052.24],[605839.0899999999,4119040.5299999993],[605833.3600000003,4119024.7799999993],[605827.6200000001,4119009.0299999993],[605822.54,4118994.76],[605817.46,4118980.4800000004],[605812.3799999999,4118966.1999999993],[605807.29,4118951.92],[605803.3399999999,4118937.58],[605799.3899999997,4118923.25],[605795.4400000004,4118908.91],[605791.4900000002,4118894.5700000003],[605790.8480296786,4118892.0]]}}]}
