{"type":"FeatureCollection","name":"vera-marinas-bolaga-coastline","crs":{"type":"name","properties":{"name":"EPSG:25830"}},"features":[{"type":"Feature","properties":{"source":"DERA/IECA","id_dera":10125300001125.0},"geometry":{"type":"LineString","coordinates":[[605482.7599999998,4117599.8200000003],[605480.3399999999,4117596.5700000003],[605479.9199999999,4117595.0999999996],[605472.9900000002,4117589.2300000004],[605471.0999999996,4117586.289999999],[605470.2599999998,4117583.99],[605470.0499999998,4117582.5199999996],[605470.2599999998,4117578.6400000006],[605473.2999999998,4117570.0299999993],[605473.5,4117565.210000001],[605472.5599999996,4117563.4299999997],[605470.1399999997,4117561.4399999995],[605469.7199999997,4117559.9700000007],[605469.7199999997,4117559.0199999996],[605470.3499999996,4117557.66],[605470.1399999997,4117555.9800000004],[605468.8799999999,4117554.41],[605466.7800000003,4117550.1099999994],[605466.25,4117547.2799999993],[605466.25,4117545.8100000005],[605467.1900000004,4117541.51],[605467.0899999999,4117534.4800000004],[605464.3600000003,4117524.0999999996],[605461.6200000001,4117513.7200000007],[605459.8300000001,4117508.58],[605457.5199999996,4117503.2300000004],[605455.0999999996,4117496.5199999996],[605451.6399999997,4117485.7200000007],[605448.5899999999,4117479.3200000003],[605447.8499999996,4117470.619999999],[605443.3399999999,4117462.960000001],[605442.1799999997,4117458.9800000004],[605439.54,4117440.5199999996],[605435.4400000004,4117421.75],[605431.5499999998,4117410.74],[605430.6100000003,4117406.2300000004],[605428.9299999997,4117393.960000001],[605427.2400000002,4117381.6799999997],[605424.71,4117368.8900000006],[605422.8200000003,4117364.8000000007],[605421.6600000001,4117358.7200000007],[605419.4000000004,4117341.1500000004],[605417.1299999999,4117323.58],[605417.2300000004,4117319.91],[605416.0800000001,4117316.66],[605411.4500000002,4117306.380000001],[605409.8700000001,4117295.789999999],[605408.4000000004,4117281.74],[605408.5,4117274.08],[605406.1799999997,4117266.0],[605403.9699999997,4117255.41],[605400.5099999998,4117245.4499999993],[605397.04,4117235.49],[605395.25,4117224.58],[605391.1500000004,4117207.91],[605388.7800000003,4117196.58],[605386.4100000001,4117185.25],[605384.2000000002,4117175.0299999993],[605381.9900000002,4117164.8000000007],[605377.9000000004,4117151.2699999996],[605373.3799999999,4117138.8000000007],[605370.1200000001,4117128.0999999996],[605368.96,4117126.0],[605367.3899999997,4117119.710000001],[605367.3899999997,4117117.9299999997],[605366.5499999998,4117116.880000001],[605364.2400000002,4117116.039999999],[605362.8700000001,4117114.0500000007],[605361.0899999999,4117107.34],[605358.9800000004,4117101.460000001],[605359.71,4117095.0700000003],[605359.0800000001,4117091.08],[605357.0899999999,4117086.0500000007],[605356.9699999997,4117074.09],[605353.4000000004,4117064.130000001],[605347.0,4117058.0500000007],[605339.3300000001,4117042.42],[605332.5099999998,4117031.41],[605327.04,4117018.3100000005],[605326.9400000004,4117012.6400000006],[605326.4100000001,4117010.2300000004],[605324.6200000001,4117005.9299999997],[605319.7199999997,4116992.1500000004],[605314.8200000003,4116978.380000001],[605309.9199999999,4116964.5999999996],[605305.0300000003,4116950.83],[605300.1299999999,4116937.0500000007],[605295.2300000004,4116923.2699999996],[605290.3300000001,4116909.5],[605285.4299999997,4116895.7200000007],[605280.4900000002,4116882.67],[605275.5499999998,4116869.6099999994],[605270.7199999997,4116856.24],[605265.8899999997,4116842.869999999],[605262.3099999996,4116825.67],[605258.21,4116809.83],[605255.4699999997,4116796.7200000007],[605252.0099999998,4116785.4000000004],[605247.0700000003,4116772.710000001],[605242.6600000001,4116769.25],[605242.0300000003,4116767.5700000003],[605241.71,4116765.0500000007],[605242.1299999999,4116760.119999999],[605241.5999999996,4116758.130000001],[605240.6600000001,4116756.3499999996],[605240.0300000003,4116755.7200000007],[605235.7300000004,4116752.8900000006],[605234.5700000003,4116751.3200000003],[605234.1500000004,4116750.0600000005],[605234.2599999998,4116748.17],[605234.46,4116747.6500000004],[605234.3600000003,4116746.5999999996],[605233.8300000001,4116745.24],[605234.04,4116740.9399999995],[605232.7800000003,4116739.1500000004],[605232.0499999998,4116738.5199999996],[605231.6299999999,4116737.789999999],[605232.6699999999,4116736.01],[605233.7199999997,4116732.2300000004],[605233.4000000004,4116730.0299999993],[605232.46,4116727.3000000007],[605227.21,4116722.6899999995],[605227.4199999999,4116722.369999999],[605228.8899999997,4116721.5299999993],[605229.9400000004,4116721.3200000003],[605230.25,4116720.4800000004],[605230.1500000004,4116718.8100000005],[605227.0,4116713.25],[605227.2000000002,4116712.7200000007],[605227.6200000001,4116712.09],[605227.6200000001,4116710.630000001],[605226.4699999997,4116706.8499999996],[605225.5199999996,4116705.49],[605221.2199999997,4116703.1799999997],[605220.5899999999,4116702.66],[605220.3799999999,4116701.8200000003],[605220.4800000004,4116701.1899999995],[605220.9000000004,4116700.1400000006],[605220.9000000004,4116699.09],[605220.2699999996,4116697.5199999996],[605217.8600000003,4116694.17],[605215.9699999997,4116692.380000001],[605213.4400000004,4116681.789999999],[605213.1299999999,4116681.16],[605211.3499999996,4116679.2799999993],[605210.4000000004,4116676.130000001],[605210.4000000004,4116675.3900000006],[605211.1299999999,4116672.25],[605210.29,4116671.7200000007],[605208.6100000003,4116666.6899999995],[605208.6100000003,4116664.49],[605208.29,4116662.91],[605205.3499999996,4116660.5],[605204.9299999997,4116659.5600000005],[605204.9299999997,4116657.880000001],[605205.25,4116657.1500000004],[605205.3499999996,4116655.0500000007],[605203.1500000004,4116653.16],[605201.6799999997,4116650.75],[605200.9400000004,4116644.460000001],[605200.0999999996,4116642.26],[605198.8399999999,4116640.4700000007],[605194.8499999996,4116637.6400000006],[605194.6399999997,4116636.8100000005],[605194.75,4116635.5500000007],[605195.2699999996,4116635.0199999996],[605195.2699999996,4116634.5],[605194.7400000002,4116633.4499999993],[605194.3200000003,4116633.130000001],[605193.3799999999,4116631.039999999],[605193.3799999999,4116626.0],[605192.6399999997,4116622.2300000004],[605188.1200000001,4116615.9399999995],[605187.4900000002,4116613.3200000003],[605184.7599999998,4116599.8900000006],[605182.7599999998,4116592.0299999993],[605180.0300000003,4116585.630000001],[605172.5700000003,4116572.7300000004],[605169.9400000004,4116561.51],[605167.7400000002,4116558.6799999997],[605167.0,4116556.4800000004],[605166.79,4116549.5600000005],[605165.6299999999,4116544.3100000005],[605162.6900000004,4116535.92],[605159.0099999998,4116521.7699999996],[605158.3799999999,4116515.369999999],[605153.3300000001,4116502.7799999993],[605152.5999999996,4116498.4800000004],[605149.5499999998,4116491.5600000005],[605145.0899999999,4116478.25],[605140.6200000001,4116464.9299999997],[605137.1500000004,4116453.5999999996],[605134.3099999996,4116446.16],[605132.3200000003,4116443.119999999],[605131.6900000004,4116441.33],[605131.6900000004,4116438.1899999995],[605130.9500000002,4116434.83],[605126.0099999998,4116426.9700000007],[605122.4400000004,4116418.789999999],[605121.5,4116414.6999999993],[605117.4000000004,4116408.619999999],[605116.5599999996,4116405.369999999],[605112.8799999999,4116395.9299999997],[605110.4699999997,4116387.539999999],[605109.4199999999,4116386.2799999993],[605105.7400000002,4116383.869999999],[605104.1699999999,4116381.039999999],[605100.3799999999,4116365.1999999993],[605099.4400000004,4116360.2699999996],[605096.3899999997,4116353.880000001],[605089.8799999999,4116342.24],[605082.9500000002,4116332.17],[605078.8600000003,4116321.789999999],[605074.7599999998,4116311.41],[605074.1299999999,4116310.1500000004],[605073.9199999999,4116310.0500000007],[605072.1299999999,4116313.619999999],[605071.9199999999,4116313.83],[605070.6699999999,4116313.09],[605070.04,4116312.039999999],[605068.8799999999,4116308.4800000004],[605065.2938630807,4116293.0]]}},{"type":"Feature","properties":{"source":"DERA/IECA","id_dera":10125300001137.0},"geometry":{"type":"LineString","coordinates":[[605543.8519999998,4117875.0],[605543.7699999996,4117874.59],[605543.2400000002,4117873.6400000006],[605536.1100000003,4117869.869999999],[605534.4299999997,4117866.0999999996],[605534.21,4117864.210000001],[605532.4299999997,4117861.0600000005],[605531.2800000003,4117859.8100000005],[605530.54,4117857.710000001],[605530.2199999997,4117853.7200000007],[605528.75,4117851.3100000005],[605528.0199999996,4117849.3200000003],[605527.9100000001,4117847.75],[605526.0199999996,4117843.0299999993],[605524.8600000003,4117838.0999999996],[605524.96,4117832.2200000007],[605523.3899999997,4117824.99],[605519.6100000003,4117818.0700000003],[605519.5999999996,4117815.76],[605519.5,4117815.4499999993],[605517.0899999999,4117814.289999999],[605516.5599999996,4117812.9299999997],[605516.3499999996,4117809.5700000003],[605514.6699999999,4117806.4299999997],[605514.46,4117803.91],[605515.2999999998,4117801.710000001],[605515.0800000001,4117796.25],[605513.0800000001,4117785.24],[605512.6600000001,4117784.7200000007],[605511.7199999997,4117784.51],[605510.8799999999,4117784.6099999994],[605509.0999999996,4117785.5600000005],[605508.3600000003,4117785.0299999993],[605506.8899999997,4117781.8900000006],[605506.7800000003,4117779.58],[605506.8799999999,4117768.039999999],[605506.0899999999,4117757.1400000006],[605505.2999999998,4117746.2300000004],[605503.25,4117735.74],[605501.1900000004,4117725.25],[605497.7199999997,4117715.8200000003],[605495.8300000001,4117709.210000001],[605495.7199999997,4117694.9399999995],[605494.4500000002,4117682.99],[605494.9699999997,4117680.99],[605495.29,4117680.3599999994],[605495.29,4117679.9399999995],[605494.6600000001,4117678.6899999995],[605491.6100000003,4117675.2300000004],[605491.1900000004,4117670.51],[605492.1299999999,4117668.3000000007],[605494.8600000003,4117664.42],[605494.8600000003,4117662.8499999996],[605492.1299999999,4117658.0199999996],[605489.0800000001,4117653.9399999995],[605489.8200000003,4117652.1500000004],[605490.1299999999,4117647.75],[605489.5999999996,4117646.0700000003],[605487.6100000003,4117642.289999999],[605486.5599999996,4117641.67],[605485.8200000003,4117640.41],[605485.8200000003,4117639.460000001],[605485.6100000003,4117638.7300000004],[605485.1900000004,4117632.75],[605483.2999999998,4117629.08],[605483.1900000004,4117628.3499999996],[605484.5499999998,4117624.880000001],[605484.6600000001,4117623.0],[605484.5499999998,4117622.16],[605483.71,4117620.6899999995],[605483.5,4117618.6999999993],[605486.0099999998,4117608.0999999996],[605487.4800000004,4117606.42],[605487.5800000001,4117605.58],[605487.1600000001,4117604.5299999993],[605482.7599999998,4117599.8200000003]]}}]}
