{"type":"FeatureCollection","name":"vera-coast-roads","crs":{"type":"name","properties":{"name":"EPSG:25830"}},"source":"\u00a9 OpenStreetMap contributors, ODbL 1.0","features":[{"type":"Feature","properties":{"class":"living_street","widthMeters":4},"geometry":{"type":"MultiPolygon","coordinates":[[[[604889.8432596801,4116616.1199716288],[604846.5132048163,4116626.126609903],[604890.3891187105,4116620.0825513336],[604889.8432596801,4116616.1199716288]]],[[[604896.3715623254,4116644.748213183],[604827.6265005154,4116655.330796403],[604818.4788832687,4116609.6554423617],[604835.8286958265,4116745.789529072],[604864.8000870525,4116742.80172808],[604838.6247400321,4116741.880199121],[604828.091830105,4116659.304395308],[604896.3715623254,4116644.748213183]]],[[[604917.5729384167,4117063.6012603487],[604897.5995924809,4117031.8940165057],[604875.7050566783,4116968.5347669353],[604893.881462263,4117033.4241829137],[604933.227575135,4117102.4894834156],[605042.3690099391,4117508.0448749475],[604996.7055925645,4117320.0094678868],[605049.6737601015,4117304.7259082533],[605107.4887227297,4117503.4826013944],[605053.5276578384,4117303.6542910645],[605146.4640592298,4117279.532064018],[605172.9906221958,4117375.775979183],[605143.2274878669,4117387.741324533],[605174.0236994924,4117379.6403041813],[605197.9518107721,4117456.066059623],[605177.8932200181,4117378.626930684],[605195.918520507,4117373.9274819084],[605220.0045036819,4117449.9667538027],[605199.7803993054,4117372.8850378804],[605215.3628422346,4117364.3793644616],[605176.8604344083,4117374.762483529],[605150.3432373669,4117278.552549895],[605185.8168663206,4117265.1457125237],[605149.2547334319,4117274.702682106],[605120.8930762159,4117176.9628390484],[605157.7435957525,4117162.115220958],[605119.8068296121,4117173.113048443],[605097.9270779127,4117108.465230298],[605115.9698563494,4117174.246041161],[605088.2744234928,4117182.57951237],[605117.056920782,4117178.0961017525],[605145.3735291658,4117275.6806976832],[605052.49477118,4117299.7899482134],[605019.1066647059,4117175.2576237638],[605082.2094636483,4117158.5653615417],[605018.0752969781,4117171.3928654226],[604986.1740319944,4117049.340624796],[605019.0948786923,4117035.345791806],[604917.5729384167,4117063.6012603487]],[[604995.6656335078,4117316.1463553975],[604961.7473485849,4117190.4986573975],[605015.2401655813,4117176.282767334],[605048.6404765215,4117300.8608696065],[604995.6656335078,4117316.1463553975]],[[604937.0442267401,4117101.2838805453],[604919.6453644972,4117067.187643877],[604982.323927116,4117050.4282143014],[605014.2088638847,4117172.4179991013],[604960.6989307547,4117186.6384378322],[604937.0442267401,4117101.2838805453]]]]}},{"type":"Feature","properties":{"class":"residential","widthMeters":5},"geometry":{"type":"MultiPolygon","coordinates":[[[[604500.0,4116162.5327325035],[604523.7426072994,4116156.341950602],[604537.8814455798,4116215.8442075173],[604510.699173226,4116222.633051448],[604511.910721902,4116227.484046171],[604539.0181856238,4116220.713885893],[604593.2362470636,4116449.705598298],[604700.1759583706,4116411.48786655],[604757.8036779094,4116402.290482933],[604758.8117122211,4116397.3931503096],[604749.7061984976,4116395.792490732],[604715.8645454914,4116402.06244755],[604683.6040764658,4116291.763637445],[604751.3349277603,4116285.8131517177],[604797.686514504,4116272.506158693],[604839.1845792241,4116374.81272068],[604835.729716866,4116383.330364757],[604783.5485306252,4116392.2175512756],[604777.2319429221,4116401.8015322075],[604851.361069085,4116388.6505728425],[604852.7736267421,4116380.420193104],[604802.4357880339,4116270.9324047756],[604889.2930072322,4116244.41828257],[604881.104754307,4116194.4811241035],[604871.418626049,4116178.4576490205],[604850.3769325976,4116170.9788039406],[604780.221834843,4116191.0462208795],[604768.7564983919,4116150.0],[604763.5651168666,4116150.0],[604775.4233550051,4116192.452831949],[604737.5461546847,4116203.256882083],[604738.7170778163,4116208.117842793],[604776.7468729493,4116197.274779582],[604796.0846454537,4116267.769657385],[604750.6063553053,4116280.864981649],[604681.9788135967,4116286.8613812327],[604633.9269462738,4116150.0],[604628.7024663646,4116150.0],[604638.820633107,4116184.817561283],[604603.1867127478,4116196.616246935],[604587.5442065502,4116150.0],[604582.2697441437,4116150.0],[604598.4142947583,4116198.1097626616],[604561.9697151512,4116210.8101521456],[604563.6150933157,4116215.531669984],[604600.3596381176,4116202.726747128],[604630.7906940948,4116290.530951368],[604576.9797008338,4116294.200564787],[604547.7548612515,4116150.0],[604521.8428855239,4116150.0],[604500.0,4116156.4243533933],[604500.0,4116162.5327325035]],[[604843.0134727301,4116386.6606701273],[604845.6792513804,4116379.6885303482],[604847.983650931,4116384.541704667],[604843.0134727301,4116386.6606701273]],[[604781.5464051183,4116195.8690111176],[604811.6681952337,4116186.841555121],[604830.8992727076,4116257.3499378534],[604800.832036555,4116266.195904246],[604781.5464051183,4116195.8690111176]],[[604816.4619995018,4116185.416142147],[604854.5931565631,4116176.840331427],[604872.7062533352,4116186.0911660893],[604885.5617270236,4116241.0551028303],[604835.6994599273,4116255.9476988],[604816.4619995018,4116185.416142147]],[[604594.8250284501,4116298.209667415],[604622.7904112777,4116434.051261993],[604596.7187910504,4116446.0100936196],[604562.646487776,4116300.5681697116],[604594.8250284501,4116298.209667415]],[[604668.2258411678,4116413.51950577],[604627.4133449451,4116432.0468491083],[604599.9342744176,4116297.864136842],[604631.9656445042,4116295.456746967],[604668.2258411678,4116413.51950577]],[[604678.4552184271,4116292.1178066563],[604711.0290470258,4116403.336793757],[604673.7096755117,4116414.515424412],[604637.0740465791,4116295.083650127],[604678.4552184271,4116292.1178066563]],[[604540.3776818096,4116152.458791149],[604553.0348340776,4116213.2857921934],[604542.7849835207,4116214.851326408],[604528.7216733196,4116155.571238974],[604540.3776818096,4116152.458791149]],[[604640.6823982563,4116189.4617708954],[604676.8283576426,4116287.2215804285],[604635.812669826,4116290.1612291737],[604605.2311184262,4116201.2382388143],[604640.6823982563,4116189.4617708954]],[[604561.4837990273,4116295.6599396053],[604543.9234051264,4116219.735432452],[604554.1661075853,4116218.170990018],[604571.9683244022,4116294.6045531877],[604561.4837990273,4116295.6599396053]]],[[[604500.0,4116278.250857991],[604506.6583318448,4116328.7762622302],[604511.5245834332,4116327.627525759],[604500.0,4116278.250857991]]],[[[604771.9430743415,4116444.6495458055],[604633.1239586541,4116464.382920914],[604642.5362177812,4116505.9728844073],[604601.7012161388,4116513.5131620537],[604602.6091291398,4116518.430040533],[604644.2285954504,4116510.744909669],[604651.6898833773,4116530.1252985946],[604697.2441001507,4116874.5409158547],[604826.9157688132,4116860.428433271],[604826.2698161757,4116855.470334322],[604778.625016026,4116861.6776094576],[604769.2120708076,4116785.790262999],[604816.9973280162,4116778.1157900323],[604823.801365026,4116779.8314987477],[604845.3848747415,4116938.3149992563],[604847.7635627756,4116975.753570281],[604841.7491764772,4116978.4479401316],[604847.3781749781,4116981.4035730185],[604841.9373379282,4116986.933294293],[604845.5033034657,4116990.438132347],[604859.6068833733,4116975.3224795824],[604972.182399692,4116943.7887143516],[605035.3884401445,4117078.7358754016],[605065.2781416118,4117105.6655452824],[605165.4881884995,4117479.84695068],[605163.7961782626,4117485.3494882043],[605071.0494245788,4117510.275970375],[605014.8761015377,4117500.910758715],[604958.9897700606,4117516.6941481833],[604948.2915525585,4117538.3375780163],[604948.357930041,4117610.1946067642],[604886.0174635969,4117647.019594293],[604818.2670973811,4117517.9543691175],[604903.8396963931,4117476.7715204237],[604901.6692781074,4117472.2671575984],[604816.0702412771,4117513.4627385656],[604766.1220125251,4117415.179428112],[604747.1103445181,4117395.767274051],[604743.6239101753,4117399.3512349287],[604761.8881817961,4117417.8754212647],[604942.434262684,4117766.709642173],[604844.2260583909,4117803.54956386],[604690.4641363623,4117510.313920469],[604675.4372209114,4117490.5626077363],[604664.0624813355,4117481.621860673],[604660.9726360819,4117485.552872796],[604697.0731567832,4117532.3103139377],[604839.5211130842,4117805.308813624],[604702.6454582997,4117856.6947937594],[604688.4409796059,4117862.6318570063],[604690.3691832848,4117867.2451021303],[604841.7611143758,4117809.809897183],[604921.0709361081,4117962.0886743795],[604928.1032271929,4117954.606306393],[604925.2624064997,4117943.808910496],[604913.7299686428,4117940.009650091],[604846.4744228426,4117808.0462905318],[605043.282482007,4117733.129283486],[605056.0775912561,4117736.1044154833],[605061.3634247213,4117724.395743612],[605135.4774351231,4117652.3299084865],[605281.8100672046,4117572.5556324725],[605294.6537462955,4117558.0824537748],[605298.7213175439,4117536.9382079043],[605290.1721141472,4117509.4508820344],[605267.0334963554,4117508.8180084745],[605246.0552933222,4117445.7304339064],[605237.3116293448,4117442.7037833673],[605165.7870083741,4117461.8867414086],[605069.9474288339,4117103.836461282],[605039.7956734239,4117076.3283370114],[604977.3036442935,4116942.2943571154],[605064.2368862896,4116919.634679327],[605076.7489295612,4116921.448883822],[605080.936037105,4116909.8961990383],[605073.9892976321,4116906.6678816047],[605070.6479160063,4116893.950133779],[605065.8120388977,4116895.2206819244],[605069.3548268949,4116908.705009485],[605062.6214599102,4116914.8910478246],[604974.7049415209,4116937.7481504898],[604964.7215921882,4116905.1424399577],[605047.445113804,4116881.392500765],[605055.1190832604,4116871.1082892776],[605026.8959366665,4116777.669621378],[604995.8937565559,4116780.2297345414],[604970.8292263927,4116683.328380323],[604996.5466570249,4116675.5761965825],[604995.1173397677,4116670.7848447715],[604911.0301806083,4116694.3177519944],[604873.3471393056,4116538.0160626024],[604913.566811626,4116529.4870571536],[604942.5909205938,4116492.9142012172],[604956.750312528,4116498.197123489],[604968.312593107,4116491.1116724256],[604944.3766966738,4116391.907990911],[604939.4046107134,4116391.3803914413],[604939.4194225029,4116397.694995719],[604964.2052950813,4116487.104589758],[604956.426654428,4116493.1731142704],[604950.1926743793,4116489.6886897003],[604930.0832815963,4116426.538221157],[604926.6272587414,4116390.768662099],[604921.6332874418,4116390.523202003],[604943.896942949,4116486.6146679763],[604914.3301138757,4116523.2549740747],[604892.2611925098,4116408.940169697],[604810.0147620855,4116418.4997310787],[604827.3305305898,4116540.4658938968],[604786.2380906307,4116547.079097685],[604787.0325422665,4116552.0155788814],[604868.3968045652,4116538.82639817],[604883.2041689513,4116598.7302480214],[604846.0999977005,4116603.1545998063],[604841.4101703279,4116565.2360818186],[604836.4457120905,4116565.831190556],[604841.1443106353,4116603.819284599],[604794.5288396965,4116610.640467675],[604795.3211809461,4116615.577288043],[604841.7777034233,4116608.7801298676],[604853.1170799595,4116684.575647717],[604805.4705173692,4116691.9846850713],[604806.2145520144,4116696.9290164164],[604853.8930879914,4116689.516393094],[604865.8512403633,4116769.858420829],[604768.5634148245,4116780.8312403536],[604751.5232164057,4116657.2686621756],[604799.4503570398,4116651.1485159635],[604798.8170154697,4116646.18879032],[604750.8693562133,4116652.311557582],[604726.1039530418,4116455.541218308],[604772.5771748655,4116449.609174473],[604771.9430743415,4116444.6495458055]],[[605283.7170811053,4117564.361350461],[605132.4998032596,4117648.3035224387],[605066.339913319,4117715.990262864],[604947.1720902446,4117764.985524493],[604888.3464285498,4117651.4442710015],[604947.7012809206,4117620.837554845],[604952.8645505849,4117612.386431422],[604953.2626380099,4117538.9136549104],[604961.8019609812,4117520.945235134],[605015.1980567978,4117505.958195922],[605071.0819611129,4117515.3385660565],[605106.2139971858,4117506.416366751],[605166.3788247895,4117489.690714306],[605171.0848431148,4117484.7778012427],[605167.0938005256,4117466.713146359],[605237.8504852096,4117447.7233030275],[605245.2607248174,4117452.7591294385],[605262.9164167787,4117512.170466614],[605286.6814143319,4117513.081605995],[605294.2309513157,4117542.404969884],[605283.7170811053,4117564.361350461]],[[604911.3442861272,4116955.1089681797],[604877.5875930046,4116829.119047601],[604934.1028087125,4116822.212038917],[604969.9535301104,4116939.308395448],[604911.3442861272,4116955.1089681797]],[[604877.0255097144,4116824.150537281],[604858.8442209819,4116688.8142013955],[604903.2646516473,4116682.317900361],[604932.6227921046,4116817.355348374],[604877.0255097144,4116824.150537281]],[[604898.4956968826,4116677.820337316],[604858.0681679907,4116683.8746637693],[604846.7333504946,4116608.11449875],[604884.2873369065,4116603.636510394],[604898.4956968826,4116677.820337316]],[[604679.9530943555,4116461.2856882834],[604705.492747988,4116658.0689937207],[604674.5815471462,4116661.9949418614],[604658.3122208402,4116535.6194831003],[604636.8112027581,4116468.160989159],[604679.9530943555,4116461.2856882834]],[[604710.4531346764,4116657.439441164],[604684.9097174435,4116460.6236125454],[604721.1427789668,4116456.1631170213],[604745.9093544162,4116652.9427704792],[604710.4531346764,4116657.439441164]],[[604722.3042905921,4116786.4840577818],[604691.5390749929,4116790.861250398],[604675.2296458622,4116666.952794397],[604706.1527666133,4116663.025332305],[604722.3042905921,4116786.4840577818]],[[604763.5949295392,4116781.402905887],[604727.2612758182,4116785.8295865967],[604711.1130148629,4116662.3958029584],[604746.5629506133,4116657.899929229],[604763.5949295392,4116781.402905887]],[[604773.6649157061,4116862.3081874265],[604737.6223590622,4116866.7760744835],[604727.9027333421,4116790.7884073695],[604764.2445150829,4116786.3607363896],[604773.6649157061,4116862.3081874265]],[[604692.1836577074,4116795.819894439],[604722.9457446212,4116791.443146963],[604732.662307127,4116867.406865985],[604701.8846000611,4116871.4198247683],[604692.1836577074,4116795.819894439]],[[604852.6161841365,4116973.2752736737],[604828.7684172188,4116779.24874663],[604866.4526871217,4116774.8221156634],[604875.2468950739,4116853.0161205134],[604903.8206476829,4116957.126580289],[604852.6161841365,4116973.2752736737]],[[604850.724379787,4116417.576224231],[604867.4945075426,4116533.9075282],[604832.266984741,4116539.6651402926],[604815.3385104632,4116420.4269413347],[604850.724379787,4116417.576224231]],[[604909.7159383148,4116525.731725838],[604872.4327475786,4116533.099219513],[604855.697735158,4116416.9990849094],[604887.8055478336,4116412.2380955797],[604909.7159383148,4116525.731725838]],[[604948.1976306755,4116689.4048311184],[604969.3522411198,4116787.0676181666],[604931.6969571073,4116796.284991319],[604912.06809997,4116699.2172441073],[604948.1976306755,4116689.4048311184]],[[604935.5816980748,4116800.561798332],[605023.0079934661,4116780.8941099765],[605049.2283850561,4116874.3491664603],[604963.258167108,4116900.3605530653],[604935.5816980748,4116800.561798332]],[[604953.0331274223,4116688.11002421],[604966.0162373697,4116684.6875607665],[604991.0832259308,4116781.598419336],[604974.213137844,4116785.890123926],[604953.0331274223,4116688.11002421]],[[605056.8313967598,4117726.616480984],[605053.8090738242,4117731.6321039344],[605047.8869510744,4117730.932718484],[605056.8313967598,4117726.616480984]],[[604916.3087154578,4117945.2758557633],[604921.1522521083,4117946.8010566523],[604921.6164606507,4117955.7953213253],[604920.2871434194,4117953.3618448796],[604916.3087154578,4117945.2758557633]],[[605077.0785222232,4116914.806392625],[605072.1419545419,4116913.5302285124],[605076.027431724,4116911.9947415115],[605077.0785222232,4116914.806392625]]],[[[604872.6211649023,4118733.547357286],[604919.4590206869,4118646.0130547807],[604922.4570236024,4118629.605477808],[604981.3232277883,4118537.556050865],[604993.751380275,4118501.165520481],[604989.0338656753,4118499.5086994283],[604973.8281565916,4118538.611881638],[604975.331363338,4118513.414330048],[604969.8562160063,4118496.8540224354],[604965.2082952763,4118498.697072323],[604971.8883442598,4118525.976412779],[604943.5974184151,4118591.100498408],[604860.62452762,4118716.2523235064],[604816.9073205948,4118756.679655472],[604796.8110752761,4118822.6199133256],[604751.3741092414,4118880.2241915637],[604606.3137625258,4118989.548365008],[604566.3956398021,4119011.389894116],[604500.0,4119032.774630941],[604500.0,4119037.9787640427],[604592.6782386937,4119003.2853045817],[604711.4815398732,4118915.064569291],[604715.8503717332,4118919.1327555347],[604719.947251941,4118925.587989272],[604721.0545666736,4119275.283313316],[604726.0545416068,4119275.267480831],[604724.9449414649,4118924.8504135474],[604715.533820845,4118912.0058884365],[604787.5642700815,4118855.1591442362],[604822.6712842714,4118813.4521800694],[604837.9944127132,4118816.8014199617],[604854.6183306467,4118830.3434553365],[604881.2374342651,4118873.842246851],[604758.8276419253,4118911.066863545],[604760.5947968506,4118915.7441665577],[604805.0455953466,4118898.9499910916],[604850.646028821,4118988.586714706],[604857.8642541774,4119072.6150490483],[604963.3723153471,4119342.7229938544],[604966.8299732242,4119452.968734543],[604940.6690855525,4119453.087863256],[604940.6918537933,4119458.087811417],[604966.8901833787,4119457.9685122045],[604967.2315368995,4119471.662227815],[604941.2015346914,4119471.3472342393],[604941.141033253,4119476.346868184],[604967.3700080076,4119476.664269561],[604971.1255514118,4119650.37861096],[605038.508126558,4119654.480526822],[605046.8732932524,4119676.4155045305],[605070.7012651265,4119682.9617617643],[605085.3497684534,4119670.5121091264],[605088.1203707011,4119649.6370755057],[605210.9539865521,4119632.444766947],[605212.1822360854,4119627.597973875],[605200.9206687221,4119624.878986195],[605152.6993484676,4119633.885848571],[605148.0605502065,4119444.140550788],[605251.9748750781,4119410.5789966728],[605268.915483206,4119412.759742121],[605270.6491442285,4119408.069921287],[605261.6833905618,4119405.582646643],[605271.016145783,4119398.265157351],[605267.2613239486,4119394.9634437063],[605250.6434222567,4119405.7575651174],[605183.8097427891,4119426.8051642105],[605172.5330569681,4119327.156881286],[605151.2197344452,4119258.7967988974],[605215.2632481225,4119221.361379395],[605237.4951819883,4119302.589463623],[605243.6832992958,4119376.151217778],[605248.6786189759,4119375.9349279404],[605242.4295592437,4119301.7728047],[605219.9064737759,4119219.47577167],[605244.1160646785,4119209.1440831074],[605242.1535075764,4119204.5453474526],[605202.0309208852,4119221.1663843207],[605117.0230013331,4119280.033184509],[605053.2992616077,4119300.776858629],[605037.0571415519,4119220.725856744],[605111.6658703886,4119157.1905006627],[605197.6352691479,4119115.3664942957],[605209.8538343785,4119119.170988697],[605215.654033795,4119108.041116764],[605209.6401178585,4119100.893680826],[605198.4686131295,4119101.4844986037],[605196.0779747328,4119110.575771345],[605109.0665019853,4119152.9186784653],[605035.7897868645,4119215.791158478],[605019.6808733924,4119162.5972362696],[604994.658346249,4119119.166621516],[605054.4226578416,4119066.5219609435],[605168.33064788,4119009.19653151],[605166.4129223693,4119004.578920779],[605072.1911728262,4119049.1607516683],[604991.6957936151,4119115.11347116],[604987.1587663788,4119109.578004183],[605061.6613137946,4119047.9739601044],[605160.7397096509,4118993.805372845],[605157.121793576,4118990.354187067],[605059.0500849448,4119043.7064775066],[604983.9398516379,4119105.7510928046],[604961.01481819,4119075.5218560332],[604936.5063654407,4119023.417152293],[605012.8122324154,4118958.9438185953],[605116.9317081891,4118910.9405254438],[605130.0992143708,4118914.737640051],[605135.7209434086,4118903.143778641],[605122.8531799102,4118895.5398653154],[605115.4395629452,4118906.135197626],[605027.7777812034,4118944.1700050733],[604934.7969517322,4119018.4094769824],[604921.8576627217,4118966.3800300253],[604910.8944736376,4118874.505629887],[605003.5900862351,4118857.011695827],[605085.0491617671,4118825.1247292473],[605098.0534767337,4118829.4313893956],[605104.550748776,4118817.6561556314],[605091.2065589791,4118809.3383371145],[605083.5153502628,4118820.343598982],[605002.1809701482,4118852.2136597377],[604910.0504806957,4118869.577361452],[604896.2032535841,4118815.992480424],[604873.8108500025,4118768.0440224926],[604872.6211649023,4118733.547357286]],[[605143.9837068421,4119457.931602779],[605079.0345480993,4119470.217802806],[605075.7381698231,4119457.0655656196],[605108.2969578613,4119456.1296174754],[605143.1356034507,4119445.729211515],[605143.9837068421,4119457.931602779]],[[605178.8366293554,4119428.393392243],[605107.3852717499,4119451.1932245344],[605074.260618294,4119452.088790545],[605062.349578306,4119401.7214375706],[605054.0061739079,4119305.732682061],[605098.0159969705,4119294.4081723476],[605147.5366765809,4119262.3118700013],[605172.284878512,4119352.764563737],[605178.8366293554,4119428.393392243]],[[604840.8380571513,4118804.247817722],[604867.5511570045,4118761.820752125],[604891.5622989959,4118817.8791229795],[604905.1094445426,4118870.34659672],[604886.3472436436,4118873.0315995454],[604858.4443124158,4118827.1220667474],[604833.0189743822,4118809.1615222995],[604840.8380571513,4118804.247817722]],[[604867.9964867029,4118731.5996850585],[604857.6132197374,4118725.2491687206],[604916.6652429973,4118636.831929809],[604867.9964867029,4118731.5996850585]],[[604813.1972985629,4118814.1616950505],[604784.069970574,4118851.5790544357],[604769.35625298,4118864.8135723732],[604807.2790630318,4118809.047620025],[604813.1972985629,4118814.1616950505]],[[604830.255778268,4118746.891438389],[604850.0812730284,4118731.3505625683],[604864.8399162169,4118735.6502113906],[604862.4403069817,4118761.7092935834],[604849.1183911676,4118787.663002157],[604837.6974423492,4118800.3279268113],[604815.2961305794,4118809.527650057],[604810.3207392191,4118788.054245513],[604830.255778268,4118746.891438389]],[[604975.424343244,4119611.3220750606],[605039.4535992388,4119603.4584262683],[605038.2772231944,4119649.4827237604],[604976.2335806083,4119649.441649392],[604975.424343244,4119611.3220750606]],[[604974.3979288172,4119544.104235458],[605033.3709571868,4119540.321750121],[605038.9768064825,4119598.461170857],[604975.3501775153,4119606.293079759],[604974.3979288172,4119544.104235458]],[[604972.3742469935,4119476.725848286],[605012.4732754338,4119477.2268099897],[605032.1216316139,4119535.390702843],[604974.2826249925,4119539.1014008033],[604972.3742469935,4119476.725848286]],[[604971.8915770958,4119457.9621127793],[605008.5677551383,4119458.0096972035],[605011.2001437302,4119472.2105115335],[604972.2346228487,4119471.7237138622],[604971.8915770958,4119457.9621127793]],[[604971.8876470155,4119366.951103306],[605009.6586886669,4119366.162705562],[605002.7891242927,4119408.593996961],[605007.5707309566,4119453.010733823],[604971.8299786353,4119452.961990735],[604971.8876470155,4119366.951103306]],[[604971.5291721639,4119361.9574515168],[604952.9229274009,4119300.9432981997],[605027.7093034186,4119279.9113614596],[605026.3526515652,4119310.3042526813],[605010.9439252266,4119361.1342500784],[604971.5291721639,4119361.9574515168]],[[604938.3053023773,4119263.090624704],[605018.7878848172,4119234.1243086727],[605027.4945653924,4119274.7449328806],[604951.1310064369,4119296.2516620224],[604938.3053023773,4119263.090624704]],[[605088.1799620156,4119644.559992092],[605089.1265949508,4119528.0405401923],[605080.1239546558,4119475.2318151584],[605144.2560849539,4119463.0587646267],[605147.7162556088,4119634.7726518344],[605088.1799620156,4119644.559992092]],[[604914.9665381339,4119202.7195769204],[604973.8142019792,4119179.0101166526],[604989.9318986123,4119190.493311824],[605016.8301620615,4119229.5160068716],[604936.5013594679,4119258.425069803],[604914.9665381339,4119202.7195769204]],[[604913.0596872427,4119198.097345805],[604874.1741490953,4119103.6827017125],[604908.8875361554,4119089.8840315887],[604928.8675685073,4119136.2758151065],[604968.8365134065,4119175.5950855347],[604913.0596872427,4119198.097345805]],[[604872.3853360389,4119099.0133159216],[604862.7363714596,4119071.425699189],[604859.9572618369,4119003.1638738043],[604844.4432711276,4118967.972004298],[604899.805486826,4118952.1689143656],[604899.7224368772,4119040.89238756],[604907.4162672525,4119085.1007281817],[604872.3853360389,4119099.0133159216]],[[604899.163270792,4118947.2082488583],[604841.9241804717,4118963.526217535],[604809.774298528,4118897.314821636],[604883.3279858971,4118878.561272767],[604899.163270792,4118947.2082488583]],[[604905.9537161011,4118875.2767150966],[604916.9413469188,4118967.2918449347],[604935.2320028062,4119035.16032416],[604956.8702402964,4119078.3213031585],[605007.4742739543,4119146.9340690114],[605020.0916079341,4119177.7311359597],[605044.9265116978,4119277.455574292],[605057.3899706504,4119402.3616388477],[605068.9420089842,4119452.1690238183],[605012.6716211021,4119452.9766382575],[605007.7920861979,4119408.6090067797],[605031.3053905978,4119311.0107685155],[605031.3975704467,4119262.1619369243],[605013.2559033163,4119211.1528304247],[604993.2752957677,4119186.7560658026],[604941.2090050934,4119144.41174003],[604914.2728322597,4119090.4015046554],[604904.7195095451,4119040.6880376977],[604904.4823620172,4118949.0105772554],[604888.450770007,4118877.781509708],[604905.9537161011,4118875.2767150966]],[[605073.8995443803,4119470.2961895335],[605016.2856640298,4119472.212355493],[605013.6441867634,4119457.962510948],[605070.6035204967,4119457.1453663404],[605073.8995443803,4119470.2961895335]],[[605081.1019372977,4119506.130151806],[605082.960002735,4119659.021517857],[605077.2906534665,4119674.3797098435],[605061.2887992434,4119678.1276299753],[605050.3777348856,4119672.7411912223],[605043.0005025298,4119651.824831036],[605043.512350749,4119564.9439439415],[605017.799113097,4119477.1870750855],[605075.0343246133,4119475.261733213],[605081.1019372977,4119506.130151806]],[[605092.6157011455,4118814.1676517893],[605099.6141384774,4118818.6412483207],[605096.2440589274,4118824.7354388875],[605088.667732023,4118821.1618300052],[605092.6157011455,4118814.1676517893]],[[605126.126561332,4118900.178330467],[605130.9211029678,4118906.1687222808],[605124.8762029733,4118910.6486899224],[605120.3675727118,4118905.2568013286],[605126.126561332,4118900.178330467]],[[605204.6210832848,4119105.410133976],[605210.2568086236,4119107.733748412],[605207.8219805273,4119114.5645326427],[605201.2393725513,4119111.2967843465],[605204.6210832848,4119105.410133976]]],[[[604980.9287786538,4120681.990179682],[604948.7802451397,4120743.945534209],[604925.0196297176,4120773.0159276403],[604857.1685962124,4120822.872392918],[604790.775758605,4120845.5988615793],[604665.4210695965,4120847.012629505],[604500.0,4120913.9120479915],[604500.0,4120919.3035825463],[604552.0379065363,4120898.5186251695],[604562.7744739823,4120931.249278134],[604571.8428637296,4121069.809877663],[604561.4347392337,4121151.7672621924],[604506.8095001469,4121204.883018178],[604500.0,4121220.416981211],[604561.7259761931,4121157.9827227215],[604566.3907846443,4121235.4972172338],[604574.8059012572,4121250.0],[604581.25631016,4121250.0],[604570.0071252551,4121225.156212768],[604566.2012353872,4121153.3256798415],[604576.5460822702,4121056.124753381],[604567.7384836278,4120930.5853399853],[604556.6892713761,4120896.682843535],[604658.494846349,4120854.155139565],[604686.3639968989,4120848.092589942],[604738.0790952693,4120854.1569187576],[604799.2760459986,4120848.9609522317],[604869.3108583068,4120822.248651112],[604916.1934667287,4120788.550169642],[604982.6034897263,4120879.5710750297],[605023.6252137291,4120977.3296496146],[604958.224762832,4121002.502994609],[604931.1676823308,4121023.576952934],[604897.9809377404,4121063.3263987917],[604901.9978676735,4121066.3036918426],[604934.657133617,4121027.161233169],[604960.9650068898,4121006.6865721424],[605025.1784320528,4120982.087926047],[605056.1500782147,4121058.0109435096],[605091.921493065,4121100.63484245],[605155.2192578699,4121146.898105671],[605188.2493596557,4121158.2088291436],[605208.5408573999,4121158.5231390656],[605246.796119321,4121141.041515022],[605266.4959598343,4121115.9781827643],[605275.5634374436,4121080.024268345],[605278.8999242476,4121012.80934204],[605300.1619006578,4120967.9998251814],[605324.5226687257,4120934.1533812652],[605402.1770809547,4120863.180410175],[605451.7855774706,4120831.5559828933],[605469.4645266422,4120835.829022017],[605478.966225586,4120824.082941779],[605469.4492732579,4120806.7992942864],[605453.307301167,4120809.3683281504],[605449.0550090855,4120827.3125905627],[605348.729840359,4120900.2553900667],[605320.5579149433,4120931.0943524158],[605280.2818121006,4120993.956609358],[605269.2937894294,4121036.3256174293],[605270.5467423609,4121079.7232806063],[605257.6060145498,4121121.8090103376],[605218.27323884,4121151.1672432153],[605175.836131138,4121150.133488095],[605138.3610530784,4121131.462763612],[605094.763225126,4121096.3929022667],[605151.59226098,4121038.6283304384],[605194.8916297733,4120966.1039254344],[605243.8116895538,4120906.4394681472],[605299.9786847277,4120850.7261014204],[605368.5699097296,4120798.3968431996],[605403.1359209719,4120757.3197942013],[605419.2985624465,4120714.2549330867],[605422.7342046147,4120674.444579159],[605409.902753377,4120599.228563394],[605297.9172887366,4120495.515035234],[605294.416709585,4120499.0851816735],[605321.7713580233,4120525.093544311],[605008.4738492254,4120659.9973921212],[604980.9287786538,4120681.990179682]],[[604919.9176860898,4120785.212523741],[604952.9589105385,4120746.705115451],[604981.8879706122,4120688.5770511925],[604998.2173694135,4120673.0270626843],[605174.3391736338,4120594.650411427],[605242.4142208085,4120748.9375814535],[605164.9562312443,4120844.1799628357],[605127.7322576507,4120755.568025191],[605132.4839492361,4120736.8188644345],[605120.6191632878,4120729.4570045103],[605108.3948636528,4120735.2321683946],[605106.4862403396,4120748.8402723363],[605123.1267615746,4120757.551261225],[605161.392307569,4120849.700249863],[605135.825064454,4120896.400122847],[605110.6674604801,4120925.554679615],[605061.7452745541,4120962.421978943],[605028.4366255176,4120975.9623930296],[604986.9750755056,4120877.1433645096],[604919.9176860898,4120785.212523741]],[[605178.8804883078,4120592.5568646537],[605325.6128459423,4120528.757711027],[605405.3629220924,4120601.4195582117],[605417.7358425554,4120674.269314612],[605414.4265109601,4120713.114367594],[605402.2695448928,4120747.949347703],[605365.188376094,4120794.7093045143],[605288.2946016941,4120854.3879985693],[605274.7882558985,4120830.4866599967],[605248.2063232478,4120750.256589762],[605313.3195210629,4120670.5485986257],[605326.6330034626,4120665.3863480473],[605328.2031009297,4120652.6856409577],[605318.303422721,4120644.54771125],[605305.9557841655,4120648.632842376],[605302.7943190795,4120660.6042513633],[605308.5855391353,4120668.669920642],[605246.3224191391,4120745.079082809],[605178.8804883078,4120592.5568646537]],[[605029.9932235185,4120980.7165236003],[605082.7374551749,4120954.8243110464],[605125.0083831684,4120917.322337952],[605186.8431277706,4120820.708530787],[605244.2661690305,4120754.1085554417],[605270.1908736491,4120832.4795638276],[605284.4979415709,4120857.7969791647],[605201.354249754,4120948.1272576232],[605133.6916983087,4121052.6091045905],[605091.2650089773,4121092.8197085625],[605055.5000271868,4121046.439166236],[605029.9932235185,4120980.7165236003]],[[605112.258096066,4120738.4322677385],[605126.0558099935,4120736.7611432597],[605128.0995874568,4120748.211523197],[605114.8495677881,4120751.5541875754],[605112.258096066,4120738.4322677385]],[[605456.5752695795,4120813.2632796783],[605471.5476038429,4120814.315112392],[605470.5918171548,4120829.2764536827],[605454.4660358233,4120827.1095035328],[605456.5752695795,4120813.2632796783]],[[605307.7158180552,4120659.553044968],[605314.5056798517,4120649.439651937],[605323.4966610248,4120654.472345743],[605318.2668467455,4120665.515037989],[605307.7158180552,4120659.553044968]]],[[[604847.8337427971,4117285.723410239],[604842.9356432933,4117278.032924258],[604838.887818073,4117280.968075189],[604843.0407732414,4117287.1578635518],[604834.9255648407,4117289.5896743345],[604836.3608145071,4117294.379252436],[604844.6341991791,4117291.9000418796],[604844.9826282713,4117302.059174595],[604849.9601607491,4117302.532640996],[604849.4267478036,4117290.4658402097],[604888.4920333907,4117257.120186871],[604910.9696582896,4117222.8288583932],[604909.3505849501,4117180.6089682705],[604883.472880647,4117128.8971431605],[604879.0034703286,4117131.1386541254],[604908.5041783182,4117196.7146102753],[604906.133466319,4117221.4894344048],[604884.8185726786,4117253.7251810534],[604847.8337427971,4117285.723410239]]],[[[605126.2871492283,4117938.6345311035],[605171.5485909004,4118218.9538108],[605027.2396251198,4118445.2465292728],[604992.0539629455,4118457.937793971],[604992.5625017798,4118462.911865568],[605013.0376675742,4118475.112088294],[605001.0848964892,4118486.3112468184],[605003.9213302467,4118490.4288484915],[605014.4325648865,4118482.977834796],[605083.823952734,4118366.1711143977],[605175.622289749,4118354.443766574],[605207.4641074204,4118580.765120024],[605109.564437573,4118619.863039283],[605186.4643866527,4118804.77734459],[605129.4877586415,4118825.8206362156],[605131.2200468638,4118830.5109642977],[605188.3930561391,4118809.395142788],[605216.1109267214,4118871.572712751],[605394.7379821487,4118813.2740595834],[605408.5324789891,4118831.6780416393],[605419.5299040922,4118872.841319812],[605410.0360898384,4118891.788643279],[605399.0719946403,4118899.102245801],[605287.8259241241,4118937.927606761],[605237.5728587755,4118969.7621714943],[605210.6852683921,4118978.9944809005],[605196.9142555728,4118975.4436520864],[605195.1082101587,4118980.1060763444],[605205.3081910824,4118983.526116505],[605199.4086888926,4118986.58795355],[605204.2569826902,4118990.2788645416],[605251.0594024105,4118968.9991885084],[605289.8611298391,4118942.502492855],[605385.2503316352,4118909.688944342],[605433.4161015776,4119077.7072958774],[605459.6430743072,4119105.254338357],[605518.6074418043,4119137.664442808],[605529.6874198256,4119198.091002777],[605509.9521778728,4119273.992878129],[605511.0032785177,4119326.326582637],[605323.5741086527,4119387.69369152],[605305.8651637782,4119386.6873211307],[605305.581479656,4119391.6792669757],[605324.7641931381,4119392.605760527],[605493.3117352064,4119337.4644881394],[605515.3079049917,4119334.46082633],[605327.3387021305,4119392.1039554584],[605308.2460263739,4119405.5861614468],[605311.7973163908,4119409.1058687093],[605342.7843106636,4119392.2987131365],[605513.1514229012,4119344.3074687836],[605522.3342712846,4119351.2366937622],[605552.7568399495,4119486.4934626827],[605580.2454672821,4119511.1177631393],[605602.0270979608,4119588.384180883],[605599.9082539157,4119668.868536242],[605644.2807874416,4119742.098720291],[605669.5866421855,4119833.523897265],[605658.9181232229,4119869.986898245],[605675.2587687683,4119897.114375045],[605675.368836309,4119929.659585885],[605700.8200420385,4120021.5749263996],[605563.5425672801,4120065.023028086],[605532.3761097797,4120064.322430125],[605531.4178783392,4120069.229750423],[605556.1504391391,4120072.1124272477],[605613.7904839147,4120054.518048294],[605556.4860482775,4120073.737893304],[605539.9695612817,4120087.6439369284],[605542.7881773004,4120091.7737557795],[605558.6602914992,4120078.267651436],[605626.9482571746,4120063.568339007],[605640.2603726056,4120054.628765891],[605704.194016942,4120036.7643011333],[605725.729599879,4120083.051906708],[605743.8777875585,4120104.4597257096],[605785.4154981656,4120125.1087933294],[605844.6343168962,4120128.2407361153],[605883.7415568074,4120142.614462847],[605957.3924418086,4120223.9774220386],[605943.3107131892,4120266.6981162336],[605942.363077295,4120300.940723163],[605950.8499017279,4120340.0235139607],[605986.6614061461,4120428.2992781084],[605808.2530771879,4120508.560619999],[605783.2154159406,4120514.681854034],[605751.2416103864,4120508.920060919],[605749.4845386064,4120513.6011610846],[605770.1727682869,4120519.0870534405],[605753.6410552681,4120526.781359226],[605755.9733029028,4120531.204098306],[605810.23056198,4120513.155645173],[605951.4899807144,4120448.7427549763],[606032.504889833,4120629.957819374],[606057.4612622358,4120819.843870291],[605921.5313032569,4120797.200141211],[605872.8168985057,4120714.1529234042],[605854.4655617251,4120693.345254554],[605862.1263525104,4120679.4584022257],[605857.7483413038,4120677.0432380755],[605850.2574082376,4120690.6221862817],[605800.000504577,4120658.5640628897],[605797.0370408861,4120662.591206164],[605831.099679244,4120685.753663429],[605811.5761971892,4120686.481363176],[605812.3240548334,4120691.425117715],[605830.6017066563,4120690.7383323237],[605855.9789339539,4120700.80947063],[605918.7417741243,4120801.409063755],[606052.4593833913,4120824.103462073],[605922.2634159903,4120809.7622791696],[605904.9003207134,4120794.915846969],[605857.8526002123,4120710.079178006],[605846.7638049521,4120700.538815619],[605816.0564595009,4120695.082134016],[605816.0203150858,4120700.0820033727],[605841.763015585,4120704.3705245666],[605830.4828207659,4120711.717267012],[605830.6514087004,4120733.761565189],[605835.649073274,4120733.9143683603],[605839.475638367,4120709.5059625427],[605854.0766062976,4120713.400181861],[605900.7863212088,4120797.7634466314],[605920.4099440168,4120814.4349780898],[606214.2470036402,4120859.9635504796],[606224.5200659096,4120872.419559045],[606240.4564975845,4120873.3441009345],[606298.2269015895,4120970.7924363418],[606142.421050842,4121084.835068817],[606105.5351936363,4121033.822281256],[606207.3994073223,4120956.341460266],[606204.3721546347,4120952.36204559],[606102.5517248063,4121029.8095663195],[606030.0836414844,4120934.94251849],[606026.1102904794,4120937.9777255324],[606178.6789879649,4121139.521312717],[606233.5729891807,4121120.055266361],[606369.7938729796,4121017.3269840684],[606372.0015546444,4120981.6729999827],[606422.8484605365,4120978.3160795444],[606448.3753099391,4120997.038281981],[606433.3790926646,4121051.8901199102],[606387.4251724681,4121107.019291631],[606432.5571209391,4121178.0566015155],[606340.1183512046,4121250.0],[606347.3113604235,4121250.0],[606510.4043728242,4121128.0978264976],[606547.1526254769,4121107.748685082],[606584.6783959257,4121091.1051409305],[606601.7773311932,4121124.629930542],[606606.2226525638,4121122.341018593],[606564.2706811443,4121043.1013582526],[606559.8868429515,4121045.5059294617],[606582.3734181027,4121086.636907563],[606525.3084861487,4121113.1000176743],[606500.3409982913,4121074.3954565744],[606496.1393569706,4121077.105845885],[606520.950848441,4121115.5685816263],[606436.4687668491,4121174.920247057],[606392.5934704244,4121107.510657764],[606437.7092695718,4121054.409063777],[606450.6206748852,4121001.5693844664],[606559.7490320047,4120944.4045149414],[606557.4881113723,4120939.9448918747],[606452.667663531,4120994.185449531],[606421.5826089487,4120966.488392299],[606328.9281994057,4120974.986091746],[606311.8090505087,4120971.057494115],[606248.2599587429,4120868.4871230437],[606253.6083037626,4120849.0578360287],[606346.2604859503,4120797.5615556296],[606339.843698802,4120783.0393570233],[606247.776805922,4120839.234644268],[606231.0308865109,4120833.732487112],[606216.3732656894,4120843.508444397],[606062.4101011319,4120820.6120378915],[606035.7740275094,4120623.2596085565],[606127.5901783527,4120582.1462160633],[606135.3715471294,4120553.1250940645],[606297.9973146406,4120570.5757477153],[606192.3474126686,4120555.680101209],[606205.1492638738,4120470.4883924695],[606263.7105686927,4120476.5351499217],[606270.3145574674,4120385.372363167],[606221.8093901388,4120400.9978085537],[606209.1695200854,4120411.278869527],[606192.8084627406,4120519.000274458],[606140.9854065723,4120511.526711579],[606160.9942510746,4120372.0983830844],[606157.0405045644,4120359.930330768],[606222.549042063,4120337.1345413127],[606226.8624036005,4120320.471864791],[606212.3653421211,4120316.968551563],[606133.9461428458,4120349.9609923023],[606071.2630285785,4120394.1055204775],[605991.3486566276,4120426.3602529904],[605955.5487793252,4120338.3097378123],[605947.12218211,4120274.410443594],[605962.563907767,4120224.656613797],[605997.5529887798,4120221.07541674],[606066.3373146711,4120177.602459724],[606163.2760199215,4120194.4071563887],[606174.0471738122,4120184.1165987635],[606170.9063320395,4120169.680221159],[606153.2082867085,4120165.8797846925],[606144.8229890967,4120183.7014491376],[606137.1072989311,4120184.7655566856],[606065.4742062272,4120172.6277732407],[605995.5716338779,4120216.4791659964],[605961.2764931238,4120219.565417622],[605944.7242506406,4120207.908477945],[605917.2877918314,4120166.7096524653],[605886.1884491731,4120138.2484437237],[605845.6189148866,4120123.334221321],[605798.6138641397,4120122.442519333],[605771.9813932033,4120114.5072140764],[605814.8912185556,4120041.0385074522],[605865.4831640784,4120035.6749275015],[605881.4991091174,4120029.227478659],[605929.3846408111,4119988.9027634826],[605984.5807475344,4119984.173164127],[606015.307534003,4119968.2841633544],[606012.6506565138,4119964.048481354],[605972.8936176358,4119981.9816094143],[605926.9862159038,4119984.4529582234],[605878.7514808992,4120025.0356630716],[605863.7803448021,4120030.9704655698],[605812.3153292404,4120036.732172028],[605793.2964726831,4120060.371096322],[605767.4403684303,4120112.414538285],[605747.0978486565,4120100.6057817326],[605729.9206284891,4120080.2947244486],[605708.211630225,4120033.2019161293],[605680.2881414678,4119928.731635539],[605680.2575807729,4119897.2515294645],[605696.6617190117,4119864.5482896697],[605674.4744092482,4119832.4570375923],[605641.5169284925,4119723.7838921184],[605604.7329503098,4119667.505320175],[605606.9978992492,4119587.7335699243],[605584.8660954131,4119494.6427824832],[605593.0428161034,4119483.5311397035],[605613.6317393575,4119477.7090391056],[605672.2206940973,4119489.653265609],[605707.8907382078,4119454.2429805812],[605780.7404260659,4119432.2109922315],[605805.9699137624,4119436.34575084],[605812.1496513701,4119416.9872185276],[605781.0583568519,4119401.049659659],[605766.5952653085,4119404.4703383446],[605743.4022567396,4119433.750276164],[605695.5184080629,4119455.1427053614],[605664.1100128795,4119486.873487939],[605563.1979086465,4119455.9215443637],[605548.887002856,4119437.233463996],[605514.47543504,4119297.291322906],[605518.5548314925,4119256.289912482],[605534.213243365,4119207.1341460147],[605523.5799816067,4119137.1404610416],[605546.1409624628,4119099.793208726],[605677.2224646865,4119060.94552171],[605684.2729305008,4119054.486973746],[605684.8648700096,4119041.6792395897],[605678.3832156071,4119034.6522773434],[605665.2935168584,4119034.162062614],[605657.1121972371,4119044.0608803844],[605656.0160460132,4119060.82568423],[605556.439464439,4119089.585052834],[605505.831548913,4119120.914916586],[605453.0907524948,4119094.089204813],[605430.3323882855,4119054.5486950697],[605389.9845331257,4118908.079316478],[605420.3415711999,4118886.483650197],[605424.5671302032,4118872.7424189597],[605418.6790763162,4118846.0716223028],[605587.5091285139,4118811.7562933005],[605592.3462861668,4118800.8940399196],[605567.9504232841,4118689.7549222317],[605492.1225458968,4118419.925402233],[605482.42217119,4118415.561615573],[605428.0140410732,4118424.3203297057],[605433.8257046982,4118398.2112854756],[605429.5967239552,4118364.0683583063],[605500.1825556097,4118353.786333371],[605499.4618270934,4118348.838550999],[605428.9442816608,4118359.1106288866],[605420.2242809278,4118295.926221893],[605458.7239275582,4118289.5890705087],[605457.911841179,4118284.6554596894],[605419.518447882,4118290.975121473],[605419.3574113142,4118228.7423876086],[605445.6212364022,4118224.7056687716],[605444.8616617889,4118219.7637009034],[605418.8470961214,4118223.7621088624],[605408.3974541961,4118182.652600296],[605363.6657445981,4118188.146519556],[605354.1448316342,4118172.4778613094],[605308.8149722317,4118179.6870914428],[605302.6851213472,4118141.8444756735],[605357.2228275526,4118090.9483487513],[605397.5940755584,4118078.59120805],[605406.2288497647,4118128.487195468],[605411.1548622698,4118127.6302235904],[605402.0197072176,4118074.798673354],[605394.6824935937,4118074.2039010315],[605346.0848552128,4117787.014118439],[605387.3927531837,4117775.36312191],[605385.9216069124,4117770.5844475487],[605325.7253158765,4117782.184551723],[605256.4432869012,4117807.5347844386],[605218.2703720758,4117827.7205095603],[605172.5523134293,4117866.76706739],[605138.8262235685,4117911.3112234194],[605126.2871492283,4117938.6345311035]],[[605176.1173039062,4118349.303720559],[605086.8997190254,4118362.0234334352],[605176.3424744593,4118221.822923913],[605186.1742821275,4118259.3451395314],[605176.1173039062,4118349.303720559]],[[605182.6045198602,4118220.0281122406],[605303.6926372822,4118200.3467280846],[605307.5182047993,4118242.1140925437],[605297.2656266658,4118388.4202718074],[605256.0527447752,4118383.9851583373],[605259.5797796008,4118319.023908582],[605257.6572443378,4118262.7426423053],[605252.6601589519,4118262.9133398305],[605248.7498311755,4118417.9340749127],[605232.0065795047,4118479.578329565],[605197.4265086631,4118468.3057835503],[605180.3489855755,4118359.119341982],[605191.1809500523,4118259.2272537737],[605182.6045198602,4118220.0281122406]],[[605299.248589349,4118196.0054593],[605176.0860596427,4118216.695425656],[605142.6137951256,4118029.5125176013],[605176.6717227766,4118023.359585602],[605179.9417578528,4117985.9875550843],[605211.4298652934,4117982.9326726473],[605274.267681248,4118023.489324322],[605299.248589349,4118196.0054593]],[[605178.494721175,4117981.1044666283],[605173.3192092547,4117986.5474392637],[605173.2124073333,4118019.521350544],[605141.7751089766,4118024.5831587147],[605131.1488246996,4117939.872496864],[605174.4514137778,4117872.4118028767],[605194.7089623403,4117916.026267845],[605207.2363135433,4117978.3160429066],[605178.494721175,4117981.1044666283]],[[605022.1996616331,4118454.761911638],[605015.701888545,4118469.363570442],[605002.1465783822,4118461.6867782935],[605012.1430462861,4118459.9481527987],[605022.1996616331,4118454.761911638]],[[605115.1693321667,4118620.3949837885],[605208.2534034505,4118585.8164267964],[605213.6054011162,4118627.9719160493],[605130.469211513,4118658.369078557],[605115.1693321667,4118620.3949837885]],[[605166.477273799,4118650.8327309713],[605182.6531670508,4118688.6076759784],[605231.528434855,4118671.09183373],[605219.7252958649,4118631.6060486026],[605260.9128466292,4118624.968209571],[605307.2090016466,4118752.6559786648],[605357.419619925,4118738.0668426445],[605387.2525882777,4118811.208949478],[605217.3452098332,4118866.0598502094],[605132.3749128717,4118662.9978753035],[605166.477273799,4118650.8327309713]],[[605214.8531731078,4118632.842816236],[605227.4701332035,4118667.2354677725],[605183.544159924,4118682.9890306573],[605171.1752017958,4118649.1189244604],[605214.8531731078,4118632.842816236]],[[605517.5416994812,4119126.3781324932],[605529.1512381298,4119114.7469063387],[605525.1310790825,4119121.530059519],[605517.5416994812,4119126.3781324932]],[[605519.2893867913,4119131.080062107],[605521.7723557515,4119130.3783992953],[605520.556601985,4119132.432278669],[605519.2893867913,4119131.080062107]],[[605583.154041414,4118796.767133714],[605585.6005979371,4118807.051108926],[605552.9573378761,4118814.0210788664],[605417.1652468559,4118841.2753203544],[605414.0684392166,4118832.373728278],[605583.154041414,4118796.767133714]],[[605398.9025328711,4118810.4619792383],[605579.3619299837,4118775.6089318176],[605585.2941310665,4118783.4769281032],[605585.1668973453,4118792.10337881],[605411.851519585,4118827.7308909954],[605398.9025328711,4118810.4619792383]],[[605420.7090638201,4118652.810201758],[605444.5648401076,4118795.812964491],[605400.129213867,4118804.8399368213],[605373.7957869297,4118663.4867875176],[605420.7090638201,4118652.810201758]],[[605401.1414525703,4118545.087761969],[605419.8416979524,4118647.885903968],[605374.6884731982,4118656.138680094],[605354.346288629,4118534.010095998],[605358.5993333376,4118529.5782176647],[605401.1414525703,4118545.087761969]],[[605360.4491691636,4118524.930696927],[605362.4533002723,4118374.0288750743],[605424.6487876155,4118364.796134791],[605428.7928423169,4118397.9419338857],[605422.7933077681,4118424.9094879697],[605404.2054564459,4118424.886312887],[605404.1992225181,4118429.8863090007],[605422.4386449064,4118429.909049667],[605424.8436982766,4118490.7850194764],[605400.3554344819,4118539.479290207],[605360.4491691636,4118524.930696927]],[[605362.4660530475,4118268.748284451],[605356.9814615491,4118248.7352278084],[605317.7893463735,4118226.576199713],[605309.6551349958,4118184.61625531],[605353.4231583831,4118177.6084187664],[605362.4558415248,4118193.1873768405],[605408.6663528152,4118188.930393922],[605415.0685849875,4118242.178187919],[605411.3064910518,4118269.431198245],[605423.9972817722,4118359.838057796],[605362.4533559673,4118368.974075653],[605362.4660530475,4118268.748284451]],[[605310.676400079,4118218.7419686955],[605310.7018891659,4118218.8845519177],[605309.503255851,4118218.946615243],[605310.676400079,4118218.7419686955]],[[605312.3860443007,4118226.2747555296],[605316.4222540017,4118232.4322271016],[605312.46789261,4118234.5066128913],[605312.3860443007,4118226.2747555296]],[[605342.9150908841,4117796.4862000467],[605350.4811808201,4117838.2536882577],[605272.6790947153,4117867.2800687766],[605260.7742687709,4117811.3121813643],[605333.948820805,4117785.447171717],[605341.9502244166,4117791.4874872067],[605299.5302343597,4117806.483736165],[605301.1864446672,4117811.2014652183],[605342.9150908841,4117796.4862000467]],[[605177.7693409447,4117868.6265515722],[605256.1379886126,4117813.184797721],[605270.8872373824,4117885.5801754883],[605198.9008549664,4117913.1010451606],[605177.7693409447,4117868.6265515722]],[[605271.6957663195,4117890.61022239],[605291.3393368932,4118014.4014422395],[605276.1580539013,4118018.8597720573],[605248.946861958,4118005.3450275166],[605208.881267891,4117972.4645908745],[605200.3565810202,4117918.654598274],[605271.6957663195,4117890.61022239]],[[605297.9201606616,4118022.016788162],[605273.594617025,4117872.2751446064],[605351.3361279379,4117843.2713634633],[605389.837741956,4118075.6191251203],[605358.1154653898,4118085.5284447097],[605350.4498583941,4118042.748541888],[605345.5282457656,4118043.6304314137],[605353.3959756154,4118087.5383331086],[605301.5845911653,4118134.950527325],[605284.7456919947,4118029.1918050316],[605322.530533754,4118023.207791275],[605321.7314433553,4118018.2720588534],[605297.9201606616,4118022.016788162]],[[605279.4553503563,4118023.939301795],[605282.8808164181,4118020.8095794665],[605292.7529441544,4118020.453508844],[605292.6478818359,4118022.7840632815],[605279.4553503563,4118023.939301795]],[[605218.4893482474,4118626.741094523],[605198.2224424073,4118473.824202955],[605283.6732041732,4118501.273571976],[605295.9277493057,4118580.147294255],[605306.7626657448,4118611.330706328],[605218.4893482474,4118626.741094523]],[[605310.7386480693,4118748.0413120463],[605265.9052461578,4118624.0740634827],[605308.566469302,4118616.0807364546],[605355.5561034398,4118733.4154734346],[605310.7386480693,4118748.0413120463]],[[605394.6763258554,4118807.530796939],[605334.439972285,4118668.7467842237],[605368.9228897641,4118662.293532448],[605394.6763258554,4118807.530796939]],[[605300.8467412386,4118579.239756658],[605289.035800885,4118503.220790906],[605353.5025411759,4118527.668059966],[605349.2082030884,4118533.594630796],[605369.7710490236,4118657.048001819],[605332.5413606758,4118664.015293742],[605300.8467412386,4118579.239756658]],[[605356.3339170897,4118257.1431794306],[605357.4532640959,4118369.6679902156],[605303.8690551562,4118375.8462012615],[605312.4384907178,4118243.1101038884],[605320.6207199835,4118235.875995202],[605356.3339170897,4118257.1431794306]],[[605355.4751231995,4118523.0686555738],[605288.6087959633,4118497.7114080125],[605303.3874953355,4118380.8359839064],[605357.4534034898,4118374.7075486262],[605355.4751231995,4118523.0686555738]],[[605296.5658083037,4118393.3738300246],[605283.7644464434,4118496.055937239],[605236.7667924222,4118481.1120484667],[605250.6320035527,4118434.581987615],[605255.7441301916,4118388.980815847],[605296.5658083037,4118393.3738300246]],[[605405.6359148319,4118541.407820443],[605429.8113333572,4118491.507757639],[605427.4259204636,4118429.498350921],[605487.7286991159,4118422.7086877325],[605534.5057463243,4118587.3598912368],[605405.6359148319,4118541.407820443]],[[605536.2975767106,4118593.805067744],[605543.5481170646,4118623.0288227485],[605424.7521466215,4118646.942547139],[605406.5864023706,4118547.082640551],[605536.2975767106,4118593.805067744]],[[605436.1228964577,4118713.482308035],[605425.6205832212,4118651.8680291977],[605544.8434808964,4118627.8683640123],[605562.3702171558,4118688.454176301],[605436.1228964577,4118713.482308035]],[[605514.5447727658,4118782.5543037904],[605501.1843910232,4118705.5977142435],[605563.6989487422,4118693.2885511606],[605583.3384017468,4118769.335807814],[605514.5447727658,4118782.5543037904]],[[605509.6298329796,4118783.4750569635],[605449.4739335948,4118794.851260078],[605436.9481668215,4118718.4162202217],[605496.2785025747,4118706.570603657],[605509.6298329796,4118783.4750569635]],[[605661.3327344129,4119058.057164942],[605662.6058186322,4119059.084660198],[605661.1953142955,4119059.371609946],[605661.3327344129,4119058.057164942]],[[605670.3750955361,4119037.9360668804],[605680.9962070687,4119046.510208122],[605672.3766186691,4119057.077095392],[605661.7552086614,4119048.5022103246],[605670.3750955361,4119037.9360668804]],[[605516.0805686013,4119340.253976474],[605518.3435803535,4119338.437345986],[605519.8051298856,4119343.0644686013],[605516.0805686013,4119340.253976474]],[[605515.1432827542,4119329.1354001896],[605515.6937205645,4119329.3863066183],[605514.968795089,4119329.374643668],[605515.1432827542,4119329.1354001896]],[[605559.9405821415,4119459.7246369817],[605555.5053856944,4119468.0446031475],[605552.0780245257,4119452.0547718303],[605552.5482067205,4119452.663417271],[605559.9405821415,4119459.7246369817]],[[605591.6244641745,4119478.7130716955],[605589.2206109305,4119470.4540964677],[605603.7567510414,4119474.818848309],[605591.6244641745,4119478.7130716955]],[[605579.8890341945,4119497.927586435],[605579.9260093609,4119503.194090727],[605576.291952888,4119499.0715366886],[605579.8890341945,4119497.927586435]],[[605586.6250571127,4119478.541988211],[605574.370172872,4119494.431922862],[605562.6392701787,4119491.7197053893],[605556.7446974202,4119481.955796791],[605558.8402565509,4119471.830228055],[605570.6420028782,4119464.7595282933],[605580.6233179315,4119467.704807951],[605586.6250571127,4119478.541988211]],[[605702.892300616,4120031.9297686676],[605633.2432182806,4120048.5633979677],[605701.890587725,4120026.5035329405],[605702.892300616,4120031.9297686676]],[[605622.0334452402,4120048.5274440027],[605629.2816117129,4120051.795623846],[605625.5957280666,4120058.714415935],[605618.8452898436,4120054.818234737],[605622.0334452402,4120048.5274440027]],[[605676.166502203,4119886.567245726],[605679.6764798005,4119886.53572555],[605677.8567420759,4119890.4984024116],[605676.166502203,4119886.567245726]],[[605672.1983489243,4119849.52976592],[605673.5198586817,4119840.8834769954],[605677.9580526504,4119848.63158124],[605672.1983489243,4119849.52976592]],[[605690.0378030202,4119874.637366532],[605672.8613325136,4119880.7453160305],[605664.7841897465,4119872.849644393],[605665.158171061,4119861.610345748],[605674.0468127022,4119854.178827568],[605684.2076082387,4119855.1553196674],[605691.7724377308,4119865.676923829],[605690.0378030202,4119874.637366532]],[[606168.8871766652,4120175.804366023],[606165.1260236129,4120188.1557568237],[606150.1485605778,4120184.6163779707],[606155.3494786727,4120170.4305763748],[606168.8871766652,4120175.804366023]],[[605768.9626107683,4119408.9722059118],[605805.7070859222,4119415.9657075503],[605805.7133792667,4119430.5707524046],[605780.4240743913,4119427.127663575],[605756.0249395089,4119434.458633408],[605752.8305741033,4119430.21346332],[605768.9626107683,4119408.9722059118]],[[605747.0642320305,4119437.1669399864],[605749.5520549638,4119434.170826155],[605750.9280605196,4119435.999208281],[605747.0642320305,4119437.1669399864]],[[605956.0985916791,4120446.79576522],[606073.8475368721,4120398.4110000744],[606102.0276355966,4120375.34449774],[606152.384561407,4120361.7576923184],[606155.9700367972,4120371.8999140062],[606124.5313708698,4120578.0916905864],[606034.0268443406,4120618.5637561087],[605956.0985916791,4120446.79576522]],[[606188.9659550608,4120523.4995375536],[606187.3905721237,4120555.019214919],[606136.0195012913,4120548.1672386713],[606140.3559657865,4120516.4876466296],[606188.9659550608,4120523.4995375536]],[[606206.4330327811,4120328.9934416595],[606210.0384210565,4120335.398849228],[606116.4639284235,4120366.5020994535],[606168.184919669,4120340.5225714855],[606206.4330327811,4120328.9934416595]],[[606217.0874290941,4120320.72492056],[606223.6806114961,4120325.3896065042],[606218.1562508554,4120333.2294700914],[606211.4126771464,4120328.4072257797],[606217.0874290941,4120320.72492056]],[[606262.0895246771,4120412.390148618],[606220.985993647,4120406.824850155],[606264.9658521716,4120390.0629482726],[606262.0895246771,4120412.390148618]],[[606209.4054920529,4120466.000297188],[606215.4817050705,4120411.125208289],[606266.2525352469,4120419.207468778],[606259.2875075979,4120472.68912882],[606209.4054920529,4120466.000297188]],[[606267.7782108493,4120910.023008644],[606308.5149199676,4120974.888730351],[606258.6528120433,4120895.082365538],[606267.7782108493,4120910.023008644]],[[606314.8767059118,4120978.565350231],[606311.6997228237,4120976.729299901],[606315.1251898361,4120978.651095985],[606314.8767059118,4120978.565350231]],[[606428.6609468552,4120974.991482871],[606438.1761244788,4120983.8984281523],[606423.6841800915,4120973.3389009023],[606409.9202154819,4120972.946246768],[606369.0048064145,4120976.9418641743],[606328.7207031917,4120980.191738449],[606324.5915862664,4120980.139472761],[606409.7904019709,4120971.524394754],[606420.5643775495,4120971.441226714],[606428.6609468552,4120974.991482871]],[[606213.7830711098,4120849.2685285807],[606213.2961802029,4120854.8000397566],[606118.0441772825,4120840.338854438],[606064.4569391496,4120825.9719173415],[606213.7830711098,4120849.2685285807]],[[606058.7925054966,4120826.169509571],[606062.0837796578,4120831.5732818376],[606052.3187247912,4120829.993814396],[606058.7925054966,4120826.169509571]],[[606333.6418876627,4120793.5545098316],[606342.4752905312,4120793.9613057417],[606251.7338659414,4120844.4154241257],[606333.6418876627,4120793.5545098316]],[[606226.9229146652,4120840.1790364566],[606241.6853193418,4120840.690682293],[606248.3897106596,4120848.5592102343],[606248.8818716059,4120858.156601735],[606240.5986750296,4120868.0764819444],[606231.3416016055,4120869.4062501476],[606220.162760465,4120861.561814709],[606218.6574701464,4120850.447850095],[606226.9229146652,4120840.1790364566]],[[606145.3208769392,4121088.9084901237],[606301.3611961415,4120974.689138068],[606318.5102879698,4120985.0487206774],[606367.0197771839,4120982.118248447],[606368.4154030503,4121010.050619785],[606230.8592206539,4121115.8454893497],[606180.9314745305,4121134.9118793528],[606145.3208769392,4121088.9084901237]]],[[[605491.0833855978,4121222.830643656],[605466.5130763897,4121250.0],[605473.1962784228,4121250.0],[605494.7664777085,4121226.2136928784],[605513.5039693564,4121250.0],[605519.4714581759,4121250.0],[605498.2353262551,4121222.6114954683],[605522.1590181356,4121200.6317162705],[605715.6692947375,4121098.1525330134],[605765.1516010824,4121092.392828021],[605775.0126670478,4121074.612953225],[605770.2151841265,4121042.461095788],[605636.6948041063,4120940.1853044755],[605616.837120785,4120931.151646089],[605584.5134802625,4120922.450993726],[605519.9681027734,4120932.1924025486],[605479.526317348,4120953.348103815],[605376.3381612313,4121036.571105311],[605284.0967510417,4121162.172540893],[605178.5288543454,4121250.0],[605186.5605413852,4121250.0],[605229.3898868958,4121215.930250706],[605257.5473705467,4121250.0],[605264.0339832401,4121250.0],[605233.253385031,4121212.7563571697],[605286.7476978739,4121166.5222477335],[605439.1616140674,4121189.494401745],[605491.0833855978,4121222.830643656]],[[605494.5581830912,4121219.2211370463],[605459.2883280793,4121192.652215121],[605411.5275281965,4121177.24346125],[605290.6024201893,4121162.0134855136],[605358.7945692007,4121063.9026372526],[605429.5350486368,4120999.3669613404],[605456.8021459687,4121040.5092048272],[605529.0371899217,4121074.239666806],[605617.3278223668,4121143.9356701593],[605519.5141051045,4121196.3818511646],[605494.5581830912,4121219.2211370463]],[[605531.913769012,4121070.146970698],[605460.0387115167,4121036.6711148685],[605433.4442147365,4120996.2344514118],[605498.9497358667,4120945.9800128373],[605558.6292561573,4120928.560136846],[605584.4267382546,4120927.459246064],[605633.9368060607,4120944.364337285],[605758.5893967922,4121036.588730619],[605765.9042765489,4121045.0945184464],[605770.0455111724,4121073.9033321785],[605762.424502854,4121088.024658598],[605713.8203535647,4121093.486931973],[605622.1398073775,4121141.400346168],[605531.913769012,4121070.146970698]]],[[[605793.2853497694,4120707.58709786],[605752.3248850367,4120789.954129331],[605711.7677345013,4120695.8573896284],[605707.1793588134,4120697.844047261],[605744.0006518015,4120788.107948273],[605755.725249685,4120794.90414145],[605797.3764708824,4120710.525172313],[605815.4217124361,4120695.2868920253],[605812.289965653,4120691.3891796083],[605793.2853497694,4120707.58709786]]]]}},{"type":"Feature","properties":{"class":"secondary","widthMeters":8},"geometry":{"type":"MultiPolygon","coordinates":[[[[604500.0,4116515.2255359297],[604652.642385359,4116445.80649127],[604740.0623394682,4116415.6927882154],[604858.8404251449,4116409.2658160175],[604922.3400675834,4116392.0266214954],[605138.1027679632,4116177.0322671393],[605158.6805935957,4116150.0],[605149.5242229236,4116150.0],[604968.4099139888,4116341.676668758],[604918.4446785743,4116385.0365818297],[604867.7676844812,4116399.946927704],[604749.0532227661,4116410.198756086],[604690.6407096073,4116423.2545308727],[604500.0,4116506.4557535546],[604500.0,4116515.2255359297]]],[[[604526.83362969,4117506.025303692],[604527.3514698637,4117597.9635405117],[604500.0,4117631.2523710323],[604500.0,4117642.2641032124],[604532.8759630126,4117606.684458811],[604538.7594322776,4117611.543226414],[604500.0,4117646.1035889476],[604500.0,4117657.10337196],[604541.0806986728,4117619.4264286957],[604570.4328603619,4117610.3386016786],[604581.8302844227,4117588.000576593],[604577.5843389045,4117572.8605804876],[604564.7017980516,4117566.2455703607],[604548.3029934432,4117543.06193799],[604500.0,4117366.1340284855],[604500.0,4117399.022841053],[604526.83362969,4117506.025303692]],[[604544.3714333987,4117605.658687551],[604533.9360945526,4117592.581693502],[604535.9304483336,4117577.871374637],[604550.6092240612,4117567.82354512],[604562.8984469746,4117569.8655915945],[604573.0429490146,4117582.230097314],[604572.3204237558,4117595.3496321966],[604560.7047996841,4117606.5622586184],[604544.3714333987,4117605.658687551]],[[604548.7053195627,4117560.039427042],[604537.4987819585,4117564.901041681],[604536.3223408903,4117531.6182946656],[604548.7053195627,4117560.039427042]]]]}},{"type":"Feature","properties":{"class":"tertiary","widthMeters":8},"geometry":{"type":"MultiPolygon","coordinates":[[[[604718.2637526272,4116150.0],[604737.5737888837,4116223.4838801986],[604760.1446174211,4116388.414478102],[604748.514181722,4116414.471187027],[604767.6488192753,4116443.081033397],[604813.0295953335,4116778.6237693704],[604857.8582921649,4117140.9171498357],[604857.0959789262,4117206.187094006],[604844.3389238659,4117261.0741180903],[604818.3207265722,4117313.376343441],[604745.3671273467,4117397.55925449],[604601.1895240969,4117539.2276892476],[604578.4591085742,4117558.0140453326],[604563.8097606229,4117562.3463051445],[604565.5938354803,4117570.144835577],[604586.5855580323,4117562.0056215473],[604574.1543583786,4117586.0894034873],[604581.5416100258,4117589.159991883],[604606.895157591,4117544.8354310757],[604802.2653523494,4117345.574048129],[604825.0483414053,4117317.715919694],[604851.9449095477,4117263.5636316612],[604865.0628524025,4117206.9320183294],[604865.8239695514,4117140.153715722],[604776.3687877584,4116433.8842100753],[604797.1817088837,4116409.2396290153],[604866.1127369505,4116403.954396344],[604906.9152351932,4116392.9834467294],[604936.1692114079,4116397.8969216184],[604947.3372950554,4116392.3368749395],[604952.663550045,4116381.057787233],[604935.6211535145,4116339.8473136146],[604937.2889613045,4116328.9991240473],[604889.6968283418,4116170.3594717756],[604864.3545866205,4116152.586931944],[604831.0867799546,4116150.0],[604871.138574946,4116163.6918433197],[604882.5951185779,4116174.0469241017],[604936.0546625546,4116343.5255121556],[604933.0098510426,4116356.3872019243],[604909.6890287192,4116382.082025705],[604879.3159016372,4116393.304657962],[604795.796904153,4116401.3485455927],[604770.8077547769,4116392.2310110107],[604743.8882670659,4116213.411524662],[604726.5687489624,4116150.0],[604718.2637526272,4116150.0]],[[604776.1087334529,4116419.546213724],[604759.7771718352,4116419.974859374],[604759.2640384643,4116404.411003853],[604774.6270793837,4116402.9812019863],[604776.1087334529,4116419.546213724]],[[604780.6931109093,4116401.5919537446],[604779.6807191343,4116402.305015139],[604780.6660943464,4116401.286588678],[604780.6931109093,4116401.5919537446]],[[604929.9662144323,4116368.4090092224],[604943.8056857857,4116374.348924391],[604937.5129442066,4116389.3588481033],[604922.8077289761,4116381.452628159],[604929.9662144323,4116368.4090092224]]],[[[604588.8676977996,4117651.8155101594],[604579.9712204415,4117596.412626096],[604572.0483990397,4117597.5211841846],[604575.2577181789,4117627.404910004],[604558.3035152659,4117608.780901116],[604553.0667070195,4117614.8286973587],[604581.5929958428,4117655.152528822],[604689.4050814454,4117864.9384795683],[604788.9899197374,4118077.5567268],[604865.5014449564,4118219.5773728797],[604936.0125239416,4118374.9412942054],[604961.001866452,4118438.386670448],[604956.7105717707,4118489.5783301042],[604965.4534608464,4118501.1929458342],[604977.1867255627,4118502.190286269],[604997.132765763,4118531.6069646487],[604977.7853838265,4118532.7080449313],[604980.328563338,4118540.293045786],[604992.9597458303,4118538.433074777],[605002.7335162701,4118546.839338946],[605133.1808553258,4118880.5257795504],[605158.0154196947,4118948.8632907066],[605156.4932561129,4118999.045157265],[605192.8608064604,4119038.9383471617],[605282.1256860693,4119268.6567551917],[605293.6508209743,4119306.8860580684],[605293.354427208,4119356.560428508],[605264.3132611379,4119401.4050149336],[605276.5386825078,4119434.6700758096],[605273.0773507322,4119547.636662306],[605288.7715393137,4119619.3195356843],[605497.3477649956,4120044.6095976057],[605502.1354830653,4120061.647196739],[605499.1537864024,4120092.3143339055],[605537.2189123915,4120126.141393193],[605706.2799243359,4120478.8773290054],[605714.4267010008,4120509.994981204],[605697.6278225771,4120522.5711097186],[605671.2506170423,4120525.5198509484],[605450.1619717558,4120496.5096827256],[605242.5552339164,4120484.2099112025],[605175.4847097939,4120502.6060483246],[604799.2345095763,4120662.008127569],[604770.5203044497,4120662.50276386],[604638.589418473,4120246.7143116184],[604577.4680203431,4120133.6438900568],[604500.0,4120044.4418151844],[604500.0,4120056.1228404413],[604560.2163848944,4120123.1598153682],[604583.6204971855,4120157.524752722],[604607.97671095,4120199.1739319987],[604631.1929167086,4120249.768785123],[604761.3483503175,4120662.535551693],[604754.1314332974,4120664.861013245],[604624.3705472405,4120239.133734051],[604598.8719931591,4120185.5509116873],[604562.3076354803,4120129.9342143843],[604500.0,4120059.4646069887],[604500.0,4120071.075431404],[604577.3512459205,4120165.7762170327],[604617.0394505272,4120242.3399552675],[604732.5190870105,4120609.8035740447],[604746.4933998758,4120670.6486079],[604729.7606819175,4120697.964295024],[604611.034583877,4120757.423473774],[604500.0,4120794.261383966],[604500.0,4120802.5423696716],[604505.571366691,4120801.052822652],[604500.0,4120802.6425155024],[604500.0,4120810.9618028724],[604594.668153827,4120782.4501114385],[604734.218128126,4120714.9898254937],[604757.0539589782,4120716.2773653464],[604773.3955119964,4120740.522252057],[604862.3709697035,4121023.260453263],[604897.5910906721,4121087.3954181517],[604955.5384032293,4121150.551208881],[604997.2270313037,4121185.645804731],[605135.8834853198,4121250.0],[605146.9281124978,4121250.0],[605128.8750677499,4121233.800545475],[605033.2324711464,4121196.5695748692],[605001.573410072,4121178.929027908],[604983.437918718,4121166.425495617],[604914.7272115661,4121095.912617798],[604883.0831625308,4121049.032218275],[604869.8319517424,4121020.370028524],[604814.9394726735,4120844.825615446],[604872.4964663315,4121020.5230811196],[604917.4701797569,4121096.2757435604],[605002.694853626,4121176.7875692584],[605119.7105716576,4121226.515377429],[605149.270838347,4121250.0],[605159.2828296546,4121250.0],[605123.2969372874,4121219.3619765537],[605006.9708042362,4121170.0205566096],[604923.7317094032,4121091.2892453526],[604892.0277553322,4121045.0851478768],[604789.8060886137,4120735.9614369352],[604787.8565431145,4120718.708699722],[604798.0772027081,4120688.6342680305],[604839.1899533608,4120664.878152019],[605196.6312180817,4120513.9568775995],[605251.5244902913,4120501.7853040234],[605326.7661311785,4120503.8798959972],[605494.1992204745,4120519.143522148],[605655.978225533,4120541.925990017],[605719.4111429208,4120544.3708500923],[605747.4183377535,4120564.3569823434],[605883.6029353308,4120848.1516970955],[605928.0408171625,4120923.7846698724],[606138.8686758302,4121199.515120359],[606189.8899413906,4121250.0],[606201.8912358534,4121250.0],[606189.8361902967,4121239.213864579],[606203.536084768,4121250.0],[606216.0941987882,4121250.0],[606148.8552026199,4121204.0051479377],[605913.6987900806,4120886.1764916168],[605754.757428792,4120561.15786289],[605757.2543226872,4120514.8943823036],[605713.4220762782,4120475.262179949],[605547.3174455595,4120129.3247748553],[605544.2094475323,4120074.8871722254],[605504.4114700368,4120040.8442905103],[605296.1829706205,4119616.302091386],[605283.1382706387,4119568.103371059],[605280.584320036,4119509.4371600742],[605285.2515879627,4119449.3250456005],[605314.010511642,4119407.6446007155],[605301.2825824851,4119357.6320801107],[605301.5835990024,4119305.820427044],[605200.3476746845,4119036.1114727743],[605202.7401377999,4118981.851428336],[605165.5248235848,4118946.1020440417],[605009.9087900039,4118543.2140860236],[605004.9876322253,4118467.785715904],[604968.3004811927,4118435.0872166594],[604929.8674273391,4118340.89901023],[604588.8676977996,4117651.8155101594]],[[604973.7703420974,4118496.8882354707],[604964.2561550498,4118486.820759468],[604964.6360648896,4118472.547332167],[604975.5661166376,4118462.704836027],[604990.2557707443,4118463.8848693487],[604999.6447418476,4118476.421881578],[604997.5015019176,4118489.4783039815],[604986.0834329963,4118498.0157296243],[604973.7703420974,4118496.8882354707]],[[604970.0092937524,4118447.4227063227],[604973.9466060122,4118450.9855930833],[604977.425063037,4118454.204683879],[604969.8686652295,4118456.6051444304],[604970.0092937524,4118447.4227063227]],[[604769.215301614,4120717.562468258],[604780.6799836062,4120713.610562981],[604782.0535913077,4120737.9568950306],[604813.8111485704,4120841.2013708483],[604780.9595891036,4120737.9146450986],[604769.215301614,4120717.562468258]],[[604792.3917884394,4120679.7415738194],[604787.0856655894,4120671.4475290934],[605178.5786227629,4120509.985516486],[605243.9232633306,4120492.096058623],[605309.0280216512,4120492.57949116],[605449.3670868755,4120504.4701971635],[605670.5933255721,4120533.497930737],[605709.5899773325,4120525.7025968954],[605711.8562979411,4120534.7210814888],[605656.7377800407,4120533.961509363],[605495.0306077388,4120511.1861398686],[605313.8855658337,4120494.6769695343],[605250.447845626,4120493.8545753844],[605193.775481572,4120506.4802032495],[604792.3917884394,4120679.7415738194]],[[604513.7972202931,4120798.851981876],[604568.6979388432,4120782.7201569052],[604610.1117047244,4120766.379217883],[604513.7972202931,4120798.851981876]],[[604722.6058983254,4120711.0382542494],[604740.0953590403,4120699.390450192],[604743.9405623905,4120706.450618552],[604722.6058983254,4120711.0382542494]],[[604783.4778722466,4120700.2392060696],[604773.454369726,4120708.557757803],[604756.0390817026,4120707.043825837],[604747.1824632599,4120695.629182263],[604749.3722955141,4120679.5175352814],[604762.5005138328,4120670.472838242],[604775.6404666941,4120672.3625613824],[604784.8191664519,4120682.3674601624],[604783.4778722466,4120700.2392060696]],[[605286.768704242,4119419.4032590655],[605275.5341739386,4119412.549735296],[605272.3255613185,4119401.4852776625],[605278.1720030382,4119389.7372137285],[605292.3635950543,4119385.8132405435],[605302.5725924285,4119391.7084817756],[605306.0800824428,4119406.4161935593],[605300.5364454249,4119415.5151987746],[605286.768704242,4119419.4032590655]],[[605297.2577473387,4119378.9225670975],[605291.0107710104,4119377.725954746],[605295.5043582558,4119369.8685561577],[605297.2577473387,4119378.9225670975]],[[605180.9968554276,4118973.7323005283],[605192.7091437355,4118980.0700800954],[605195.7303985889,4118994.0398417525],[605186.3067727169,4119005.3363656085],[605175.384104448,4119006.270128083],[605166.3629883599,4119000.3509835606],[605163.1154849861,4118987.4572945987],[605170.8300173739,4118976.157237787],[605180.9968554276,4118973.7323005283]],[[604988.5214250223,4118508.5123550952],[604997.0170411324,4118501.588781588],[604997.2794619822,4118514.284797317],[604988.5214250223,4118508.5123550952]],[[605001.9540848637,4118532.325884379],[605001.9540848623,4118532.3258843794],[605001.9540848632,4118532.325884379],[605001.9540848637,4118532.325884379]],[[605171.7655868644,4118967.076858726],[605167.3104177844,4118966.491757731],[605166.9046466133,4118960.8776318426],[605171.7655868644,4118967.076858726]],[[605189.9502786204,4119012.5008780276],[605190.4929709615,4119020.0346990265],[605184.5850057058,4119014.043532014],[605189.9502786204,4119012.5008780276]],[[605282.5573195653,4119426.493912324],[605287.890968276,4119427.4276384017],[605284.3515861421,4119432.916875036],[605282.5573195653,4119426.493912324]],[[605513.9403224387,4120061.793400622],[605510.0982110524,4120060.4118795143],[605509.2132374085,4120057.2626075717],[605513.9403224387,4120061.793400622]],[[605536.8544853628,4120078.1656514467],[605536.3453782604,4120091.571290483],[605527.2754308046,4120099.439320549],[605513.2197071444,4120097.799157196],[605506.552752683,4120089.1923566167],[605506.9180877312,4120078.3387039197],[605518.8848506417,4120068.491334314],[605536.8544853628,4120078.1656514467]],[[605535.4116811111,4120113.7439948563],[605530.2084218379,4120109.0552550247],[605528.1832380061,4120107.415969871],[605534.418004593,4120104.76002348],[605535.4116811111,4120113.7439948563]],[[605718.2563199289,4120519.7033513477],[605725.4333368749,4120510.4340036665],[605739.3033764542,4120508.6222558343],[605749.91903098,4120518.1955106505],[605750.848185655,4120528.1822062363],[605743.4535678279,4120538.788206471],[605730.9440916993,4120541.0757656023],[605720.2761341607,4120533.8373112436],[605718.2563199289,4120519.7033513477]],[[605746.3473677412,4120546.266321503],[605746.8043036285,4120551.724605764],[605746.8022574394,4120552.1355185932],[605741.5933217352,4120548.3707182496],[605746.3473677412,4120546.266321503]],[[605717.9518406407,4120491.8728138595],[605724.684805576,4120499.1078339624],[605726.6075840873,4120501.1730743325],[605721.0478581468,4120503.6984474715],[605717.9518406407,4120491.8728138595]]]]}}]}
