{"type":"FeatureCollection","name":"vera-cala-marques-roads","crs":{"type":"name","properties":{"name":"EPSG:25830"}},"source":"\u00a9 OpenStreetMap contributors, ODbL 1.0","features":[{"type":"Feature","properties":{"class":"footway","widthMeters":2},"geometry":{"type":"MultiPolygon","coordinates":[[[[606253.0,4120971.476490122],[606253.0,4120973.9821309824],[606261.9674741485,4120967.214455829],[606276.0133049483,4120956.6403095783],[606274.8104112246,4120955.0424839654],[606260.7641067074,4120965.6169868456],[606260.7631596988,4120965.617700664],[606253.0,4120971.476490122]]],[[[606342.4620989222,4120998.833456571],[606350.4971411023,4120993.5380906966],[606350.58093515,4120993.476382802],[606350.6578626129,4120993.4063009056],[606350.7270904197,4120993.3286039466],[606350.7878688816,4120993.2441333286],[606350.8395398099,4120993.15380381],[606350.8815436441,4120993.0585935973],[606350.913425512,4120992.959533751],[606350.9348401551,4120992.85769702],[606351.6106155519,4120988.5387385986],[606351.6209431814,4120988.442318518],[606351.6218832401,4120988.3453514716],[606351.613426888,4120988.2487492873],[606351.5956536445,4120988.153420364],[606351.5687306401,4120988.0602611257],[606351.532911045,4120987.970147595],[606351.4885316886,4120987.8839271534],[606351.4360098916,4120987.802410574],[606351.3758395425,4120987.726364398],[606351.3085864525,4120987.656503724],[606351.2348830356,4120987.593485487],[606351.1554223615,4120987.5379022784],[606351.0709516375,4120987.4902767744],[606350.9822651837,4120987.451056821],[606350.8901969624,4120987.4206112223],[606350.7956127364,4120987.399226274],[606350.6994019275,4120987.3871030686],[606350.6024692535,4120987.3843556074],[606350.5057262199,4120987.391009725],[606322.079416252,4120990.7372781495],[606321.9764852023,4120990.754884963],[606321.875951476,4120990.783129799],[606321.7789113735,4120990.821704653],[606321.6864230977,4120990.8701888747],[606321.5994952149,4120990.928053752],[606309.4986561524,4120999.929119138],[606301.5271118941,4121005.8533331337],[606285.8228516822,4121017.5302041434],[606284.1859260531,4121015.321681518],[606282.5791537758,4121016.5125983283],[606284.8112095643,4121019.5240642265],[606285.6723210267,4121020.6960035553],[606257.880086075,4121040.9587125895],[606257.804146798,4121041.019968452],[606257.7345383079,4121041.0883330083],[606257.6719232119,4121041.1631554933],[606257.6168975465,4121041.2437236668],[606257.5699851039,4121041.3292705966],[606257.5316324465,4121041.418981957],[606257.5022046549,4121041.51200378],[606257.4819818542,4121041.6074505863],[606257.4711565461,4121041.704413812],[606257.4698317775,4121041.8019704595],[606257.4745906133,4121041.8584725643],[606257.4198692581,4121041.8218077756],[606257.3327817834,4121041.7751879194],[606257.2415196683,4121041.7373875813],[606257.1469734153,4121041.708775603],[606257.0500655727,4121041.6896311706],[606256.9517417325,4121041.680141088],[606256.852961303,4121041.6803979566],[606256.754688148,4121041.690399269],[606256.6578811817,4121041.710047437],[606256.5634850113,4121041.73915074],[606256.4724207208,4121041.7774251993],[606256.3855768826,4121041.8244973463],[606256.3038008875,4121041.8799078674],[606253.0,4121044.365177256],[606253.0,4121046.8678744487],[606256.6986533138,4121044.0855790945],[606264.7009552184,4121054.9556126692],[606253.0,4121063.5800749944],[606253.0,4121066.0646491074],[606266.692095498,4121055.9725703355],[606266.7681121691,4121055.9105629274],[606266.8376875133,4121055.8414056827],[606266.9001519757,4121055.765764134],[606266.9549044322,4121055.684366213],[606267.0014179753,4121055.59799525],[606267.039244984,4121055.5074824314],[606267.068021432,4121055.4136988027],[606267.0874703905,4121055.3175468864],[606267.0974046933,4121055.219951996],[606267.0977287381,4121055.1218533316],[606267.0969917132,4121055.1141050165],[606267.1658689422,4121055.1282815402],[606267.2648905506,4121055.1385564143],[606267.3644430941,4121055.138934668],[606267.4635399221,4121055.129412553],[606267.5611989006,4121055.1100844406],[606267.6564521458,4121055.081141889],[606267.7483556169,4121055.0428717444],[606267.8359984724,4121054.995653296],[606267.9185120969,4121054.939954519],[606297.82832817,4121032.504643782],[606297.2282776977,4121031.7046816386],[606297.8304900528,4121032.5030175825],[606313.4984498364,4121020.684134776],[606342.4620989222,4120998.833456571]],[[606306.5291486178,4121009.5057468023],[606308.3497338975,4121009.3734414564],[606308.4582298346,4121009.3595590326],[606308.5645605506,4121009.3339100773],[606308.6674538951,4121009.2968014567],[606310.7013468546,4121008.4348476995],[606310.7914877078,4121008.3911993885],[606310.8768104714,4121008.3387534693],[606310.9564593114,4121008.2780360025],[606311.0296353062,4121008.2096560183],[606311.0956044605,4121008.134299405],[606312.2768434226,4121006.6401678883],[606312.3269979394,4121006.5708233532],[606312.3710396347,4121006.4974444113],[606312.4086459411,4121006.4205684997],[606313.0117049942,4121005.0411774507],[606313.041796499,4121004.963731837],[606313.0653550291,4121004.8840555083],[606313.5419454286,4121002.985386886],[606313.606641965,4121002.791601349],[606314.8523517733,4121001.743787265],[606317.1622015022,4121000.4484822717],[606319.6392717748,4121000.197661245],[606322.2239643958,4121000.162236063],[606323.6448697922,4121001.138549849],[606324.3978501639,4121001.959930096],[606324.3089694867,4121003.8266204917],[606324.3018032154,4121003.9678007327],[606324.1635972711,4121003.9576415834],[606323.1187662629,4121003.6239420804],[606323.012018707,4121003.596232959],[606322.9028690698,4121003.580447117],[606322.7926449206,4121003.576776555],[606322.6826868976,4121003.585265917],[606321.0829004336,4121003.7980362615],[606320.9810872403,4121003.8169870866],[606320.8817799734,4121003.846366107],[606320.786043709,4121003.88585823],[606320.6949052246,4121003.935039901],[606320.6093419858,4121003.993383643],[606320.5302716634,4121004.0602637166],[606319.6323268358,4121004.903304531],[606319.5672303028,4121004.9704159815],[606319.5086860841,4121005.043313717],[606319.4572059442,4121005.1213605017],[606319.4132398971,4121005.2038740893],[606318.775115552,4121006.5495321904],[606318.734346993,4121006.648985298],[606318.7044881887,4121006.752239585],[606318.6858840978,4121006.858102155],[606318.6787496534,4121006.965349979],[606318.6613928681,4121008.3366204924],[606317.951488795,4121009.283572162],[606316.9315284779,4121010.3077693097],[606316.8628383437,4121010.3842306607],[606316.8023597173,4121010.4673390742],[606316.7507315356,4121010.5562165384],[606316.7084992336,4121010.6499240906],[606316.1195817126,4121012.1593007403],[606314.7243642905,4121013.9511918523],[606313.0356757622,4121015.9479800216],[606310.6327427124,4121017.372215858],[606310.6332716661,4121017.373108295],[606310.5780660925,4121017.407066631],[606309.66783823,4121018.029640563],[606307.0052149089,4121019.583766002],[606304.6180144695,4121020.6837574285],[606303.3893329299,4121020.5176324635],[606301.9151848025,4121019.960856206],[606301.8280703777,4121019.932441274],[606301.738720705,4121019.9121196764],[606301.647885994,4121019.9000620386],[606301.5563289231,4121019.896369601],[606301.4648182356,4121019.901073367],[606301.3741222856,4121019.9141338416],[606301.2850025864,4121019.9354413655],[606300.0680671688,4121020.286055104],[606298.9087810669,4121020.4330698964],[606297.7466338142,4121019.4544205833],[606297.543235163,4121018.9571685703],[606297.5726043176,4121018.201879647],[606298.5665013161,4121017.171795647],[606298.6315764935,4121017.0973061123],[606298.6889744904,4121017.0167521583],[606298.7381337553,4121016.9309218824],[606298.7785733399,4121016.840655003],[606298.809897605,4121016.746834643],[606298.8318000904,4121016.650378691],[606298.8440665139,4121016.552230821],[606298.8465768673,4121016.4533512597],[606298.802312358,4121014.616498629],[606299.0033562134,4121013.404253017],[606299.852386063,4121012.065734079],[606302.1284840796,4121010.512264939],[606303.908976205,4121009.641701359],[606305.035668272,4121009.4904731987],[606306.4440131073,4121009.5082969144],[606306.5291486178,4121009.5057468023]],[[606314.377600524,4121017.4488636674],[606314.4540144381,4121017.3680821694],[606316.2645292301,4121015.227240649],[606316.2899998189,4121015.1958580585],[606317.7872111708,4121013.2729751645],[606317.8427458291,4121013.1940750065],[606317.8904181834,4121013.1101900865],[606317.9297844355,4121013.0221013166],[606318.4958731147,4121011.5712342537],[606319.4181180636,4121010.6451583756],[606319.5096727976,4121010.5393512202],[606320.4573098155,4121009.275284017],[606320.5158241758,4121009.1880307095],[606320.5648616669,4121009.095120029],[606320.6038810587,4121008.9975774377],[606320.6324516913,4121008.8964795195],[606320.6502582286,4121008.7929421],[606320.6571041389,4121008.6881079283],[606320.6758246376,4121007.2090974054],[606321.1392492944,4121006.2318409374],[606321.6650099879,4121005.7382273995],[606322.723985579,4121005.5973844766],[606323.6679331046,4121005.89886368],[606323.7820795833,4121005.928034388],[606323.8988646413,4121005.943577844],[606325.1753515182,4121006.037408977],[606325.274873659,4121006.039756131],[606325.3741360286,4121006.032196525],[606325.4721549203,4121006.0148050752],[606325.5679589508,4121005.9877541345],[606325.6605986861,4121005.9513117815],[606325.7491560513,4121005.9058391666],[606325.832753428,4121005.85178693],[606325.9105623526,4121005.7896907395],[606325.9818117255,4121005.7201659777],[606326.045795454,4121005.6439016466],[606326.1018794483,4121005.561653539],[606326.149507907,4121005.474236747],[606326.1882088241,4121005.3825175846],[606326.2175986671,4121005.287405005],[606326.2373861779,4121005.18984159],[606326.2473752588,4121005.0907942075],[606326.306477447,4121003.9264423843],[606326.3066316134,4121003.923308079],[606326.4154029565,4121001.638869794],[606326.4152284139,4121001.5402153186],[606326.4053338479,4121001.4420581306],[606326.3858155595,4121001.3453535684],[606326.3568635155,4121001.251042831],[606326.3187594981,4121001.160043821],[606326.2718743639,4121001.0732422075],[606326.2166644334,4121000.9914828073],[606326.1536670502,4121000.915561363],[606325.0421758383,4120999.7031035614],[606324.9609768473,4120999.624033129],[606324.8713521223,4120999.5546586514],[606323.094511216,4120998.3337791497],[606323.0071008744,4120998.2801020015],[606322.9146516577,4120998.235661633],[606322.8181362981,4120998.2009256366],[606322.7185703117,4120998.176259498],[606322.617001312,4120998.1619227496],[606322.5144979882,4120998.1580662397],[606319.568235129,4120998.1984470175],[606319.481197611,4120998.2034405223],[606316.753769054,4120998.4796121106],[606316.6524574339,4120998.4951502327],[606316.5532684836,4120998.520977151],[606316.4572442302,4120998.5568215423],[606316.3653934546,4120998.6023068433],[606313.7917762181,4121000.0455259476],[606313.7119653724,4121000.095356766],[606313.6371911828,4121000.1524680797],[606312.3442598302,4121001.2400020077],[606311.736216659,4121000.7573614735],[606322.5786930467,4120992.6923143193],[606349.4309725672,4120989.5313365073],[606349.0272573078,4120992.111527245],[606341.33496779,4120997.1810074663],[606341.2829935356,4120997.2176833437],[606312.9679518086,4121018.579040932],[606312.7947139388,4121018.415710061],[606314.2003335874,4121017.582589106],[606314.2926902762,4121017.5206619017],[606314.377600524,4121017.4488636674]],[[606297.0343557448,4121021.469289574],[606297.9557120436,4121022.2451677653],[606298.037982796,4121022.30748545],[606298.1262385137,4121022.360991514],[606298.2195390994,4121022.4051160114],[606298.3168907178,4121022.43938893],[606298.4172563826,4121022.4634451955],[606298.5195670015,4121022.477028561],[606298.6227327649,4121022.479994337],[606298.7256547541,4121022.4723109324],[606300.3964077475,4121022.260434499],[606300.4725305979,4121022.247779723],[606300.547450988,4121022.229292785],[606301.5193899546,4121021.949265472],[606302.7891834241,4121022.4288582914],[606302.8972816011,4121022.462824211],[606303.0085283057,4121022.484343279],[606304.6383203295,4121022.7047007387],[606304.7322900433,4121022.712916612],[606304.8266158209,4121022.712241805],[606304.9204583698,4121022.702682322],[606305.0129826968,4121022.684323221],[606305.1033655384,4121022.657327858],[606305.1908026855,4121022.621936432],[606307.8860828157,4121021.379985825],[606307.9716829166,4121021.3354148003],[606310.7069423574,4121019.7388929618],[606310.7673986494,4121019.700642668],[606311.0425229771,4121019.5124642556],[606311.3483596654,4121019.800810983],[606297.4553289701,4121030.2808035207],[606293.9036733852,4121025.180391682],[606297.0343557448,4121021.469289574]],[[606298.2739221363,4121010.820359793],[606297.2056263915,4121012.5045574526],[606297.156267994,4121012.59174188],[606297.1158810651,4121012.6834276025],[606297.084870984,4121012.7786943363],[606297.0635490101,4121012.8765858538],[606296.8138007817,4121014.382507004],[606296.8027838952,4121014.4760464416],[606296.8006162026,4121014.57020747],[606296.837090663,4121016.0837949873],[606295.8685427996,4121017.08760691],[606295.8002907275,4121017.1661395244],[606295.7405680894,4121017.25133884],[606295.6900214256,4121017.342282513],[606295.6491979398,4121017.437986013],[606295.6185395757,4121017.5374132805],[606295.5983782321,4121017.639487945],[606295.5889321698,4121017.7431049743],[606295.5363185299,4121019.096174205],[606295.5378691305,4121019.2028984153],[606295.5507859243,4121019.3088494316],[606295.5749217572,4121019.412820211],[606295.6100016627,4121019.5136262705],[606295.7594098763,4121019.8788869763],[606292.7198843646,4121023.481932012],[606289.7175096984,4121019.1765256925],[606289.6591582249,4121019.1008340055],[606289.593847458,4121019.0310584395],[606289.5221739539,4121018.9678363334],[606289.4447923878,4121018.9117451655],[606289.3624095725,4121018.8632972795],[606289.2757780028,4121018.822935205],[606289.1856889827,4121018.7910276144],[606289.0929653966,4121018.767865955],[606288.9984541932,4121018.753661788],[606288.90301865,4121018.7485448574],[606288.8075304871,4121018.7525619008],[606288.7128619053,4121018.7656762265],[606288.6198776196,4121018.7877680464],[606288.5294269599,4121018.8186355713],[606288.4423361142,4121018.857996853],[606288.3594005812,4121018.9054923607],[606287.3239522154,4121019.5661088903],[606287.0104510655,4121019.139445975],[606298.3738862874,4121010.690186607],[606298.3326410922,4121010.7374265646],[606298.2739221363,4121010.820359793]],[[606301.1851293122,4121008.747245647],[606301.0606512905,4121008.8196502593],[606298.9765222018,4121010.2420978867],[606301.9158947594,4121008.056533343],[606302.0970422341,4121008.301369944],[606301.1851293122,4121008.747245647]],[[606304.8421281574,4121007.498515329],[606304.0678256163,4121007.602444656],[606303.5210004546,4121006.8633627896],[606310.0752600307,4121001.992432509],[606311.4543659895,4121003.087112078],[606311.1458139753,4121004.316339583],[606310.6278479878,4121005.501095277],[606309.6853674412,4121006.693224841],[606308.0395649859,4121007.3907077652],[606306.4267005494,4121007.507917648],[606304.9878131078,4121007.4897073917],[606304.8421281574,4121007.498515329]],[[606288.6259959998,4121021.1077825627],[606291.824085005,4121025.693842972],[606295.8560123608,4121031.483956773],[606267.5367534716,4121052.7261928157],[606259.8590375865,4121041.991022504],[606287.6365257094,4121021.739065059],[606288.6259959998,4121021.1077825627]]],[[[606361.9500696305,4121024.945491291],[606360.4807732047,4121026.302387755],[606361.0666360502,4121026.9367811726],[606354.6400118124,4121031.6195721794],[606335.0897019347,4121045.886297334],[606336.2686553416,4121047.5018680887],[606355.0245073173,4121033.814893676],[606368.9875655472,4121052.267667514],[606370.5824283508,4121051.0608482906],[606356.6407583955,4121032.6363399653],[606363.1518188108,4121027.8920241273],[606368.3241740329,4121024.1314122085],[606377.63038813,4121036.076772403],[606381.7949676269,4121041.4223990208],[606383.3726889498,4121040.193254836],[606379.6908357231,4121035.467252456],[606391.2651371587,4121020.8516586693],[606397.619163523,4121025.490872446],[606398.7985149729,4121023.875592236],[606392.52206272,4121019.2930170163],[606409.4329945911,4120998.6241609724],[606415.1886180887,4121003.478528015],[606416.4780588829,4121001.9496910586],[606409.9831095125,4120996.471767046],[606407.8868583028,4120994.3292443035],[606418.1980199696,4120981.8673731163],[606416.6571031223,4120980.592392619],[606406.4373346027,4120992.9438078105],[606402.7915587776,4120989.656432142],[606402.4222641248,4120988.6418328956],[606402.3865336884,4120988.5562426564],[606402.3430270776,4120988.474330948],[606402.2921185514,4120988.3968024044],[606402.2342460433,4120988.3243239527],[606402.1699073927,4120988.257519079],[606401.100252158,4120987.245312331],[606401.0274222164,4120987.182740388],[606400.9489268984,4120987.1274418035],[606400.8654898875,4120987.0799263995],[606400.7778804268,4120987.0406322423],[606400.6869062275,4120987.0099216015],[606400.5934060214,4120986.9880776126],[606400.4982418286,4120986.9753016657],[606400.4022910107,4120986.9717115476],[606400.3064381813,4120986.977340357],[606398.3606639056,4120987.1857135575],[606398.2662526966,4120987.2004149696],[606398.1736755572,4120987.224059867],[606398.0837776806,4120987.2564323815],[606397.9973797989,4120987.2972369636],[606397.915270691,4120987.3461010847],[606397.125389109,4120987.868827182],[606394.7554708034,4120987.9779662923],[606394.6673848674,4120987.9859383004],[606394.5803478678,4120988.0016623484],[606394.4950406674,4120988.0250154333],[606394.4121305974,4120988.05581487],[606391.9143849767,4120989.111604902],[606391.8308611561,4120989.151563869],[606391.7513912005,4120989.1990767494],[606391.6766564017,4120989.253736218],[606391.6072974572,4120989.3150736815],[606389.4064188437,4120991.4509551665],[606389.3502389168,4120991.510113412],[606389.2990682784,4120991.573654328],[606387.4845948926,4120994.0251237834],[606387.4281951751,4120994.110059858],[606387.380737096,4120994.2002972974],[606387.3427139848,4120994.2948980792],[606387.3145210946,4120994.392878821],[606386.8551796528,4120996.362032106],[606385.4532013482,4120994.7684980524],[606385.3910515282,4120994.7039356004],[606385.3233712926,4120994.6451963796],[606382.5626490063,4120992.4581461325],[606382.1950540303,4120989.8312148377],[606380.2143523814,4120990.108380813],[606380.6374436639,4120993.1319034486],[606380.6551069904,4120993.2254390325],[606380.6815837397,4120993.316871414],[606380.7166340087,4120993.405372133],[606380.7599402104,4120993.4901392935],[606380.8111099517,4120993.570404829],[606380.8696795888,4120993.6454414614],[606380.9351184281,4120993.7145692916],[606381.006833535,4120993.777161959],[606384.0109927936,4120996.1570635093],[606386.6368974153,4120999.141751948],[606386.7062888766,4120999.2131237676],[606386.782432402,4120999.2772429935],[606386.864573477,4120999.3334742603],[606386.9518981563,4120999.3812603666],[606387.0435411299,4120999.4201277946],[606387.1385942976,4120999.4496914027],[606387.2361157667,4120999.469658241],[606387.3351391862,4120999.4798304564],[606387.434683322,4120999.480107252],[606387.53376178,4120999.4704858838],[606387.6313927809,4120999.451061691],[606387.7266088881,4120999.4220271516],[606387.8184665947,4120999.3836699706],[606387.9060556722,4120999.3363702344],[606387.988508191,4120999.2805966404],[606388.0650071194,4120999.2169018565],[606388.1347944215,4120999.1459170408],[606388.1971785668,4120999.06834559],[606388.251541384,4120998.984956168],[606388.2973441859,4120998.8965750905],[606388.3341331073,4120998.8040781347],[606388.3615436028,4120998.7083818633],[606389.2152348842,4120995.04868814],[606390.8579734083,4120992.829243453],[606392.8656798566,4120990.8808293045],[606395.0261075215,4120989.967622622],[606397.4931029264,4120989.8540129317],[606397.6002324859,4120989.8432772765],[606397.7055869321,4120989.821086345],[606397.8079449969,4120989.787697374],[606397.9061201456,4120989.743497408],[606397.9989743325,4120989.6889988137],[606398.8158597458,4120989.1484021805],[606400.0606802026,4120989.0150942085],[606400.6236748523,4120989.5478518344],[606400.9973262637,4120990.5744208293],[606401.9370156913,4120990.232391913],[606401.2673560139,4120990.9750600196],[606405.8497083547,4120995.1069414937],[606407.9610257888,4120997.264863024],[606390.3685927996,4121018.7666624337],[606385.8977757331,4121015.429496651],[606384.7014376447,4121017.0322365486],[606389.1242437317,4121020.3335653474],[606378.425680213,4121033.8433101354],[606369.3073856295,4121022.1391614852],[606369.2447758007,4121022.066303975],[606369.1754639867,4121021.9997902173],[606369.100089811,4121021.9402340157],[606369.0193488422,4121021.8881849675],[606368.9339861748,4121021.8441233914],[606368.844789553,4121021.808455897],[606368.752582102,4121021.7815116313],[606368.6582147309,4121021.7635392416],[606368.5625582818,4121021.754704581],[606368.466495492,4121021.7550891773],[606368.3709128491,4121021.764689482],[606368.2766924093,4121021.783416901],[606368.1847036585,4121021.8110986133],[606368.0957954879,4121021.847479167],[606368.0107883605,4121021.8922228343],[606367.9304667398,4121021.944916712],[606362.6946053489,4121025.751701418],[606361.9500696305,4121024.945491291]]],[[[606303.679024306,4121090.1673000427],[606279.486017941,4121108.211460054],[606267.8391872104,4121112.790139673],[606267.7687536328,4121103.89152913],[606267.7633863221,4121103.7956744395],[606267.7488518406,4121103.700776186],[606267.7252841516,4121103.60770904],[606267.6929004767,4121103.517330794],[606267.6519992942,4121103.430474459],[606267.6029575871,4121103.3479405837],[606267.5462273696,4121103.270489876],[606267.4823315201,4121103.198836195],[606267.411858962,4121103.133639966],[606267.335459236,4121103.0755020995],[606267.2538365131,4121103.024958447],[606267.167743104,4121102.982474867],[606267.0779725258,4121102.9484429266],[606266.9853521877,4121102.9231762965],[606266.8907357644,4121102.906907857],[606266.7949953291,4121102.8997875536],[606266.6990133147,4121102.901881013],[606266.6036743806,4121102.9131689407],[606266.509857259,4121102.933547296],[606266.4184266558,4121102.9628282534],[606266.3302252804,4121103.0007419325],[606266.2460660787,4121103.046938885],[606266.1667247402,4121103.1009933176],[606262.297584027,4121106.0184630314],[606259.734692101,4121102.929204992],[606258.1954377337,4121104.206192068],[606261.3678269015,4121108.0301257423],[606261.4320549803,4121108.100442548],[606261.5026808168,4121108.1643306566],[606261.5790638559,4121108.2212106227],[606261.6605113266,4121108.270566562],[606261.7462845246,4121108.311950831],[606261.8356055128,4121108.344988087],[606261.9276641768,4121108.369378692],[606262.0216255721,4121108.3849014305],[606262.1166374973,4121108.391415516],[606262.2118382226,4121108.388861867],[606262.3063643061,4121108.377263645],[606262.3993584248,4121108.356726043],[606262.48997715,4121108.3274353296],[606262.5773985969,4121108.2896571634],[606262.6608298793,4121108.243734181],[606262.7395143008,4121108.1900828895],[606265.7845409771,4121105.8940244713],[606265.8453336852,4121113.574603128],[606253.0,4121118.637029482],[606253.0,4121119.56144175],[606253.0,4121120.7867454877],[606253.0,4121125.1635485324],[606253.9510524189,4121127.6521958695],[606255.8192785701,4121126.9382413556],[606253.4071276817,4121120.626293911],[606267.2170006736,4121115.18373622],[606280.3423976313,4121110.0237928047],[606280.4234511552,4121109.987699042],[606280.5009863063,4121109.944562818],[606280.574392694,4121109.89472372],[606304.8643549155,4121091.77824996],[606308.9165753024,4121097.17607236],[606310.5160270366,4121095.975341687],[606305.8711204572,4121089.7880225414],[606296.9771501635,4121077.450656391],[606317.6584059985,4121061.7124212813],[606316.4472406341,4121060.1208564974],[606295.8071497611,4121075.8277654704],[606295.7533103216,4121075.75308938],[606294.1309904223,4121076.9227381065],[606294.784943951,4121077.82978122],[606303.679024306,4121090.1673000427]]],[[[606361.1203423898,4121122.6688737473],[606361.1933182396,4121122.7342600436],[606361.2723428848,4121122.792190587],[606361.3566576221,4121122.8421091954],[606361.4454529589,4121122.8835366084],[606361.5378763854,4121122.9160750876],[606361.6330405587,4121122.9394122367],[606364.7252031949,4121123.5388211985],[606365.9756464465,4121132.819786685],[606365.9983400302,4121132.9358504307],[606366.1590248019,4121133.5592721486],[606368.0957283772,4121133.060093562],[606367.9498278815,4121132.494031597],[606366.6114237605,4121122.56020818],[606366.5941073584,4121122.466023617],[606366.5678612874,4121122.37392729],[606366.5329262395,4121122.2847637767],[606366.4896225898,4121122.199350759],[606366.4383474581,4121122.1184715247],[606366.3795710678,4121122.042867784],[606366.3138324328,4121121.9732328677],[606366.2417344154,4121121.910205369],[606366.1639381968,4121121.854363288],[606366.0811572142,4121121.806218728],[606365.9941506182,4121121.7662132042],[606365.9037163103,4121121.734713591],[606365.8106836267,4121121.7120087575],[606362.3643301988,4121121.0439406857],[606352.2713380692,4121108.893442295],[606352.2047842577,4121108.8209045385],[606352.1314207172,4121108.755262122],[606352.0519584239,4121108.697151195],[606345.8132601493,4121104.590243319],[606345.7279039168,4121104.5399303236],[606345.6379877082,4121104.498311105],[606345.5443942384,4121104.4657942425],[606345.4480423224,4121104.442698957],[606345.349877855,4121104.429251977],[606345.2508645252,4121104.425585312],[606345.1519743549,4121104.431734958],[606332.703741881,4121105.8276052778],[606332.6070254287,4121105.8432804565],[606332.512307191,4121105.86834515],[606332.4204964427,4121105.9025587416],[606332.332474547,4121105.945592789],[606332.2490864949,4121105.9970341744],[606308.5931114948,4121122.242017526],[606308.5916715632,4121122.2430082057],[606290.412823282,4121134.7735632984],[606290.3291600901,4121134.8380041714],[606290.2527591164,4121134.9109085402],[606290.1844723964,4121134.991463364],[606290.1250614744,4121135.078770283],[606290.0751889102,4121135.1718556373],[606290.0354108905,4121135.269681324],[606289.3852657247,4121137.147084732],[606287.7224030859,4121136.2187441476],[606287.6340630872,4121136.174990925],[606287.541844333,4121136.140148404],[606287.446643033,4121136.114555195],[606287.3493843817,4121136.0984600205],[606287.251013568,4121136.092019298],[606287.152486589,4121136.0952956206],[606287.0547609595,4121136.1082571484],[606286.9587864062,4121136.130777917],[606286.8654956388,4121136.1626390624],[606258.3966997621,4121147.481173011],[606253.0,4121149.4467082797],[606253.0,4121151.575228294],[606259.0948290088,4121149.355426952],[606259.1220581633,4121149.345058058],[606287.1626024403,4121138.1967870276],[606289.0231549412,4121139.2354936264],[606293.457072295,4121168.965891583],[606295.4351945838,4121168.670879361],[606290.9649932609,4121138.6971893553],[606291.817959028,4121136.2341073817],[606309.726014003,4121123.8902082522],[606333.17512531,4121107.787281918],[606345.0155484033,4121106.459567706],[606350.8279632793,4121110.285855079],[606361.0541159649,4121122.596659462],[606361.1203423898,4121122.6688737473]]],[[[606571.562436758,4120938.8004732793],[606588.6328905361,4120929.76293759],[606603.9792303307,4120921.6467319974],[606603.0442042948,4120919.878759624],[606587.6976721254,4120927.9950669575],[606570.6966107335,4120936.9958644323],[606558.2955687105,4120941.22830546],[606558.9415746665,4120943.121101356],[606571.4175424465,4120938.863088377],[606571.4912269663,4120938.834644147],[606571.562436758,4120938.8004732793]]],[[[606577.2901423839,4120967.664354448],[606578.633722852,4120966.5620185058],[606580.2595970691,4120965.403706824],[606583.0204554965,4120963.7257045475],[606583.6081533392,4120963.459135228],[606582.782001657,4120961.637741971],[606582.1394621952,4120961.9291864764],[606582.0331603868,4120961.9853382804],[606579.1896827682,4120963.7135550804],[606579.1288267288,4120963.7536498657],[606577.4455253659,4120964.95287402],[606577.391473069,4120964.994225561],[606576.0196553108,4120966.1197286905],[606576.0158330367,4120966.122880535],[606573.9982393663,4120967.79500052],[606573.9094353274,4120967.8782168697],[606571.5890936551,4120970.334326481],[606571.5069289104,4120970.433354192],[606570.125259771,4120972.3354672613],[606570.1001018549,4120972.371760721],[606568.3245492253,4120975.0580203193],[606565.7583573719,4120977.874656355],[606567.2367700455,4120979.221614397],[606569.8552113911,4120976.3476296477],[606569.9050897409,4120976.2884350535],[606569.950240014,4120976.22555976],[606571.7563935978,4120973.493003529],[606573.0871928625,4120971.660921881],[606575.321394483,4120969.295992552],[606577.2901423839,4120967.664354448]]],[[[606654.0810589473,4121024.194777684],[606652.6372711832,4121022.810770136],[606627.8468451467,4121048.6719829882],[606629.2906329108,4121050.055990536],[606654.0810589473,4121024.194777684]]],[[[606455.6041490751,4121037.6393336677],[606450.928070307,4121034.1513471957],[606449.7322592409,4121035.754480345],[606454.2967421982,4121039.1592251314],[606472.8467302212,4121063.396893569],[606474.4349619761,4121062.1813608077],[606455.8003594195,4121037.833133862],[606455.7410148823,4121037.7625853615],[606455.6754256227,4121037.697801768],[606455.6041490751,4121037.6393336677]]],[[[606633.5424093909,4121058.9966972186],[606632.7076572718,4121057.179229502],[606581.997447001,4121080.4701276645],[606582.8321991202,4121082.287595381],[606633.5424093909,4121058.9966972186]]],[[[606651.3352613619,4121096.470271949],[606652.659275631,4121097.9692670177],[606655.6563576054,4121095.32204063],[606654.3323433363,4121093.8230455616],[606651.3352613619,4121096.470271949]]],[[[606413.857770544,4121087.7389644724],[606412.459641848,4121085.6294204122],[606412.4005286028,4121085.5492134197],[606409.3687313809,4121081.8379643937],[606407.8198601282,4121083.103269828],[606410.8201003469,4121086.775889655],[606412.1942482642,4121088.849250702],[606412.2014687174,4121088.8599935295],[606430.8685230354,4121116.2488980386],[606430.8726560923,4121116.254914887],[606438.583768263,4121127.3933205595],[606447.4788267779,4121140.2434413536],[606425.7909999301,4121155.8627739977],[606425.7891628799,4121155.8641001843],[606423.9355421643,4121157.2054458465],[606423.9234351098,4121157.214346299],[606422.1409248244,4121158.5454971483],[606423.3376244036,4121160.147967153],[606425.1141146029,4121158.8213120103],[606426.9607305039,4121157.48503528],[606449.440532512,4121141.295330899],[606478.5336704095,4121120.7281405237],[606477.379148187,4121119.095021288],[606449.1071006539,4121139.0817475724],[606440.872251625,4121127.1853890982],[606441.1737507697,4121127.027585693],[606441.2553071063,4121126.97986032],[606441.3319945957,4121126.9246500293],[606441.4031284839,4121126.862447801],[606442.8086138057,4121125.511063212],[606445.0595877697,4121124.7847784213],[606448.1381656983,4121124.319828128],[606450.2888100743,4121124.408012687],[606453.1060509658,4121125.1210009563],[606455.7301381149,4121125.9973197468],[606455.8358588443,4121126.026291105],[606455.9441154151,4121126.0435168743],[606456.0536069933,4121126.048790066],[606459.487603194,4121126.0257366146],[606459.5722926336,4121126.02157317],[606459.656324922,4121126.0102501856],[606459.7390958975,4121125.99184907],[606465.9621394968,4121124.3286226476],[606466.0660986622,4121124.2946467204],[606466.1657256562,4121124.249520965],[606469.8276673302,4121122.3430070537],[606469.9148599168,4121122.2918512793],[606471.9369080998,4121120.9637462357],[606470.8389389005,4121119.2920813058],[606468.8591925041,4121120.592402038],[606465.3395895056,4121122.4248102726],[606459.3462631517,4121124.026640405],[606456.2061874385,4121124.0477206795],[606453.7042467464,4121123.2121929256],[606453.6328361543,4121123.1912642764],[606450.678855432,4121122.4436698454],[606450.5774369629,4121122.423517286],[606450.474479654,4121122.4139452386],[606448.1244561515,4121122.3175853803],[606448.0290567183,4121122.318228199],[606447.9341526786,4121122.3279589904],[606444.6805460029,4121122.8193434584],[606444.6009275935,4121122.8346926617],[606444.5228144757,4121122.856441914],[606441.9748266318,4121123.6785592944],[606441.8898579612,4121123.710297037],[606441.8081145409,4121123.749603175],[606441.7302688707,4121123.7961543393],[606441.6569613838,4121123.849567555],[606441.5887951779,4121123.909403394],[606440.1198362656,4121125.321818312],[606439.7251819584,4121125.528378744],[606433.0681535215,4121115.9125565793],[606461.5073135952,4121094.833402747],[606460.3163803038,4121093.2266426855],[606431.9352314512,4121114.262798502],[606413.857770544,4121087.7389644724]]],[[[606661.799978189,4121118.789936763],[606662.9737894918,4121120.409247427],[606673.549735027,4121112.742920832],[606672.3759237243,4121111.1236101678],[606661.799978189,4121118.789936763]]]]}},{"type":"Feature","properties":{"class":"path","widthMeters":1.5},"geometry":{"type":"MultiPolygon","coordinates":[[[[606588.9145673147,4120928.909489328],[606589.3920341778,4120917.1535753873],[606589.3917149779,4120917.0856603445],[606589.3852533884,4120917.0180526325],[606589.3727023953,4120916.95130664],[606589.3541649176,4120916.885969692],[606589.3297929646,4120916.8225775566],[606589.2997863886,4120916.761650056],[606521.7637642487,4120793.991042681],[606520.4494954844,4120794.714020976],[606587.8847888035,4120917.301518092],[606587.415802972,4120928.8486169605],[606588.9145673147,4120928.909489328]]],[[[606582.530345025,4120962.895757961],[606627.903996471,4121049.7112868396],[606632.4602402085,4121058.4351666206],[606632.481746994,4121058.4735573023],[606654.3510641335,4121094.9581370377],[606654.3873235573,4121095.01301821],[606654.4282521663,4121095.0645112954],[606654.473535142,4121095.112220215],[606656.3841838815,4121096.9560915143],[606672.3917566256,4121112.4243785627],[606686.3757674223,4121132.095688138],[606739.6715780882,4121208.0],[606741.5044081871,4121208.0],[606687.6021209934,4121131.231939507],[606687.5995983228,4121131.228368874],[606673.5741115529,4121111.4987150426],[606673.53147295,4121111.4442414865],[606673.4839966624,4121111.393928259],[606657.4263425833,4121095.8772470863],[606655.586598706,4121094.1018022927],[606633.7796364244,4121057.721249161],[606629.2335321516,4121049.016783502],[606583.8597892891,4120962.201079654],[606576.4637580863,4120948.04585927],[606571.7787586905,4120937.6095356527],[606570.4103202466,4120938.223845205],[606575.1044650719,4120948.6805412173],[606575.1239518208,4120948.720705803],[606582.530345025,4120962.895757961]]]]}},{"type":"Feature","properties":{"class":"residential","widthMeters":5},"geometry":{"type":"MultiPolygon","coordinates":[[[[606333.841143277,4120793.420058145],[606334.0265652786,4120793.2670916882],[606334.1964394768,4120793.0970246056],[606334.3491954171,4120792.9114291356],[606334.4834208998,4120792.712021073],[606336.1090560317,4120790.026690839],[606339.4825831589,4120788.1331245434],[606340.6329468852,4120788.458213343],[606342.864265625,4120792.5813913434],[606342.4752905312,4120793.9613057417],[606340.394695892,4120794.987354841],[606336.0624791887,4120796.0964293587],[606336.682499402,4120798.518324265],[606335.3901140793,4120796.3782915133],[606273.4832665366,4120833.764402109],[606265.6521499137,4120837.949641115],[606253.0,4120843.8272375287],[606253.0,4120846.5494108787],[606253.0,4120849.340425473],[606253.0,4120861.18230798],[606253.6019170416,4120859.8545699352],[606253.6986581596,4120859.6069366443],[606253.7685552782,4120859.350430341],[606253.8108179325,4120859.0879518487],[606254.4146747563,4120853.4365360322],[606254.4288238408,4120853.173331745],[606254.4151822608,4120852.9101006663],[606254.3739016599,4120852.6497689444],[606253.6083037626,4120849.0578360287],[606267.8221209443,4120842.4547621273],[606267.9472086496,4120842.392342434],[606275.8978571823,4120838.1432211446],[606276.0118776854,4120838.078382845],[606337.6594734626,4120800.8488367577],[606341.8869507615,4120799.7665761816],[606342.1344736418,4120799.689328153],[606342.3726638634,4120799.586857414],[606345.6852126314,4120797.953267854],[606345.8888663497,4120797.840764366],[606346.0811793366,4120797.709815571],[606346.2604859503,4120797.5615556296],[606346.4252331982,4120797.397268636],[606346.5739941881,4120797.218377497],[606346.7054804863,4120797.0264316057],[606346.8185532767,4120796.823093424],[606346.9122332248,4120796.6101240856],[606346.9857089592,4120796.3893681383],[606347.9518890444,4120792.961781561],[606348.0059790385,4120792.7271573483],[606348.0372474035,4120792.4884178713],[606348.0454040978,4120792.2477776483],[606348.0303734606,4120792.0074688294],[606347.9922949148,4120791.76972049],[606347.9315216719,4120791.536737955],[606347.8486174577,4120791.310682343],[606347.7443512813,4120791.093650518],[606344.5277261557,4120785.149758362],[606344.3980691759,4120784.936368677],[606344.2477727983,4120784.7369768787],[606344.0783362855,4120784.553571976],[606343.8914498301,4120784.3879835005],[606343.6889776945,4120784.24186326],[606343.4729396141,4120784.116668859],[606343.2454906496,4120784.0136491577],[606343.0088996897,4120783.9338318165],[606339.843698802,4120783.0393570233],[606339.6041572932,4120782.9842207064],[606339.3603590747,4120782.952874629],[606339.1146609983,4120782.945621821],[606338.8694382824,4120782.962532397],[606338.6270615499,4120783.003442878],[606338.3898739109,4120783.0679577743],[606338.1601683112,4120783.155453405],[606337.9401653663,4120783.2650839305],[606333.0876636876,4120785.988801061],[606332.8700187558,4120786.1261568675],[606332.6676484974,4120786.28516068],[606332.4826975818,4120786.4641274163],[606332.3171260725,4120786.661160432],[606332.1726886549,4120786.87417162],[606330.5236071185,4120789.598232155],[606269.2369249461,4120826.7948359135],[606261.4556697494,4120831.2283745916],[606261.4304340747,4120831.242948647],[606253.0,4120836.177421911],[606253.0,4120841.9709432023],[606263.9435965393,4120835.5654741526],[606271.7421711185,4120831.122067381],[606271.8016477075,4120831.0870833104],[606333.6418876627,4120793.5545098316],[606333.841143277,4120793.420058145]]],[[[606253.0,4120885.8272470403],[606253.0,4120895.28179829],[606276.0827785688,4120935.430332708],[606276.1057606017,4120935.469479166],[606293.0065504526,4120963.6679136883],[606293.1361373136,4120963.862814125],[606298.2269015895,4120970.7924363418],[606291.0764340452,4120976.3350984473],[606286.673276266,4120979.4917292385],[606286.6497994985,4120979.508766836],[606253.0,4121004.22845485],[606253.0,4121010.4326086375],[606289.5982894271,4120983.546912141],[606294.0276814883,4120980.3714739513],[606294.1026791933,4120980.315554324],[606301.3611961415,4120974.689138068],[606304.4014491875,4120978.1361678694],[606304.5906179857,4120978.3286275584],[606304.7994294289,4120978.499575934],[606305.0254504272,4120978.647021091],[606312.5830065744,4120983.014703597],[606312.7959539972,4120983.124510515],[606313.0184349342,4120983.213428436],[606317.9920783916,4120984.929711731],[606318.248010336,4120985.00303196],[606318.5102879698,4120985.0487206774],[606318.7759369804,4120985.066259758],[606328.7739398925,4120985.1928128465],[606329.0066134871,4120985.1849172544],[606367.0197771839,4120982.118248447],[606367.3958001205,4120985.381927224],[606367.8627256027,4120990.3399332166],[606368.4154030503,4121010.050619785],[606366.376323896,4121013.6403821004],[606322.4063433751,4121046.6427858244],[606322.3800576138,4121046.662787872],[606319.0934334375,4121049.1981895487],[606284.5256245979,4121075.272309317],[606284.4639921515,4121075.320327213],[606280.8334098149,4121078.2412195033],[606253.0,4121099.0027277297],[606253.0,4121105.2405102793],[606283.8596197488,4121082.2216903237],[606283.9319625007,4121082.1656386666],[606287.5677621489,4121079.2405489217],[606322.1151929576,4121053.181800079],[606322.1367307558,4121053.1653705235],[606325.4210025117,4121050.6317835753],[606369.7938729796,4121017.3269840684],[606369.9907448776,4121017.1627840577],[606370.1697661526,4121016.979285909],[606370.3290543549,4121016.7784191463],[606370.4669345324,4121016.5622959305],[606373.1077742609,4121011.9131449065],[606373.2107495347,4121011.7110218066],[606373.2949797158,4121011.5003967104],[606373.3597713185,4121011.283003742],[606373.4045908987,4121011.060632746],[606373.4290694469,4121010.8351145536],[606373.4330054255,4121010.608305906],[606372.8584527067,4120990.117459741],[606372.8484216842,4120989.9531279313],[606372.371334704,4120984.8872229895],[606372.3659183423,4120984.835482778],[606372.0015546444,4120981.6729999827],[606410.247549718,4120977.938065709],[606422.8484605365,4120978.3160795444],[606428.8662785543,4120982.1367486212],[606433.8181706727,4120987.2591345697],[606433.999536361,4120987.42897866],[606434.1968662826,4120987.5799800833],[606434.4082111173,4120987.7106471746],[606434.631483098,4120987.819689141],[606441.4797780229,4120990.752260258],[606448.3753099391,4120997.038281981],[606447.0868717999,4120997.9393175854],[606446.8798262144,4120998.1009472674],[606446.690881617,4120998.283408134],[606446.522123715,4120998.484686049],[606446.3754153806,4120998.702559162],[606446.2523760864,4120998.9346224307],[606446.1543640295,4120999.178314173],[606443.8509105812,4121005.906706415],[606443.7769549417,4121006.168394063],[606443.7318597386,4121006.4365661805],[606443.7161585374,4121006.70804976],[606443.6782054391,4121018.016498933],[606442.4814370702,4121030.016769615],[606441.817980377,4121031.8296523592],[606438.3538413538,4121041.3131415932],[606433.3790926646,4121051.8901199102],[606432.5646890361,4121053.045237511],[606425.5485957039,4121060.5637404593],[606425.5454683509,4121060.567097928],[606406.763387621,4121080.768331763],[606406.5870158592,4121080.9803730296],[606406.4350746198,4121081.2105519967],[606405.2366758309,4121083.264103011],[606391.7033543886,4121098.4721442177],[606391.5700949709,4121098.635239471],[606391.4510362877,4121098.808972497],[606391.3470233345,4121098.9921102584],[606387.6900142998,4121106.1139308186],[606387.5918111439,4121106.329801747],[606387.5145050511,4121106.554006755],[606387.4587917032,4121106.7845282084],[606387.4251724681,4121107.019291631],[606387.4139498873,4121107.256184373],[606387.4252249532,4121107.493074623],[606387.4588962012,4121107.727830591],[606387.5146606215,4121107.958339695],[606389.1583690655,4121113.572734382],[606390.5178509892,4121118.539839111],[606390.6086371476,4121118.8100015894],[606390.7295827145,4121119.068075341],[606390.8791157866,4121119.3107062373],[606394.1296120157,4121123.967896881],[606394.2229774947,4121124.093139975],[606398.0584331383,4121128.916013633],[606420.6897122196,4121160.778402482],[606428.9286486242,4121172.7728438945],[606432.5571209391,4121178.0566015155],[606423.725629107,4121186.461556146],[606392.5777215137,4121208.0],[606401.368855552,4121208.0],[606426.7297725155,4121190.4631980667],[606426.8853515403,4121190.3464149428],[606427.0313791641,4121190.2178884316],[606437.4046385188,4121180.3456294853],[606444.5095354686,4121175.4567379756],[606444.5301790991,4121175.442379547],[606456.2663430321,4121167.1915457286],[606491.314305303,4121142.569756313],[606491.4426271914,4121142.4733096734],[606497.2653045738,4121137.7970583825],[606510.4043728242,4121128.0978264976],[606525.6509387939,4121118.520839918],[606547.1526254769,4121107.748685082],[606575.115824288,4121094.8271514834],[606584.6783959257,4121091.1051409305],[606589.5528731658,4121100.8881954076],[606589.5678381836,4121100.9177382854],[606601.7773311932,4121124.629930542],[606606.2226525638,4121122.341018593],[606594.0207399075,4121098.643548225],[606588.1359090058,4121086.8327183733],[606588.1069355471,4121086.776369218],[606584.623475305,4121080.2075992706],[606584.606742157,4121080.176575918],[606564.2706811443,4121043.1013582526],[606559.8868429515,4121045.5059294617],[606580.2144280352,4121082.565694434],[606582.3734181027,4121086.636907563],[606573.2303549825,4121090.195634097],[606573.0884762423,4121090.2559582363],[606545.0194344464,4121103.226400892],[606544.9483069584,4121103.2606411716],[606525.3084861487,4121113.1000176743],[606500.3409982913,4121074.3954565744],[606496.1393569706,4121077.105845885],[606520.950848441,4121115.5685816263],[606507.6653446858,4121123.9137454764],[606507.5103553352,4121124.0194111303],[606494.2548097204,4121133.804626355],[606494.1741426926,4121133.8667516545],[606488.3743763976,4121138.5246028183],[606453.3917759743,4121163.1004744247],[606441.6648507675,4121171.344812996],[606436.4687668491,4121174.920247057],[606433.0502706663,4121169.9422553047],[606424.7999601034,4121157.931255088],[606424.7774607906,4121157.8990453375],[606402.0955252697,4121125.96533771],[606402.0140237826,4121125.856944504],[606398.1849870466,4121121.0421422683],[606395.2264465373,4121116.80325497],[606393.9751735436,4121112.2315104725],[606393.9631478281,4121112.189048002],[606392.5934704244,4121107.510657764],[606395.6497684277,4121101.55868834],[606409.1377468812,4121086.4016012205],[606409.293557199,4121086.207920267],[606409.429363498,4121085.999723687],[606410.6138657026,4121083.9699855675],[606429.2057224772,4121063.973348798],[606436.3370519172,4121056.331357895],[606436.5525017501,4121056.066273533],[606437.5915356817,4121054.592549276],[606437.7092695718,4121054.409063777],[606437.8105703824,4121054.216018852],[606442.9259734212,4121043.3399906536],[606443.0119488306,4121043.1337303687],[606446.5136819391,4121033.5473215394],[606447.2854636075,4121031.438442869],[606447.3491472985,4121031.238895854],[606447.3959030759,4121031.0347181833],[606447.4254027173,4121030.827343173],[606448.6654478977,4121018.393125985],[606448.6777740483,4121018.15342592],[606448.7147484102,4121007.136599605],[606450.6206748852,4121001.5693844664],[606453.737655173,4120999.3896056064],[606466.060705589,4120991.8724053693],[606552.1041256655,4120948.28029676],[606559.7490320047,4120944.4045149414],[606557.4881113723,4120939.9448918747],[606549.8441273792,4120943.820206193],[606463.7130895697,4120987.4567045034],[606463.5410194441,4120987.5525793494],[606452.667663531,4120994.185449531],[606444.9462660793,4120987.146562219],[606441.9478113275,4120979.9505571583],[606441.8451004699,4120979.7339445725],[606441.7221143037,4120979.5281657213],[606441.5799837222,4120979.3351128],[606441.4200156562,4120979.1565609854],[606441.2436810579,4120978.994152112],[606431.5947197811,4120970.927014642],[606431.4068560933,4120970.7844479484],[606431.2063943904,4120970.6602177867],[606430.9951185582,4120970.5554296672],[606422.0831210501,4120966.6476172553],[606421.8370580728,4120966.5548241553],[606421.5826089487,4120966.488392299],[606421.3225892104,4120966.4490567693],[606421.0598760302,4120966.4372528214],[606409.6306140953,4120966.525479243],[606409.3888883011,4120966.539068764],[606328.9281994057,4120974.986091746],[606319.4003893167,4120975.3164769453],[606311.8090505087,4120971.057494115],[606302.1974451448,4120958.276520987],[606291.2604362859,4120939.914356296],[606272.0730567354,4120907.462809443],[606272.0545953348,4120907.432090493],[606256.8508708047,4120882.539652703],[606253.0,4120876.2406153237],[606253.0,4120885.250268496],[606253.0,4120885.8272470403]],[[606424.9491949003,4120973.72721808],[606424.7158223102,4120973.5960310907],[606424.4697595555,4120973.490551649],[606424.213828397,4120973.411989355],[606423.9509637627,4120973.361245134],[606423.6841800915,4120973.3389009023],[606410.2381621274,4120972.9355347576],[606409.9202154819,4120972.946246768],[606369.0048064145,4120976.9418641743],[606328.7207031917,4120980.191738449],[606324.5915862664,4120980.139472761],[606329.1888803832,4120979.980057542],[606329.3632663379,4120979.967895206],[606409.7904019709,4120971.524394754],[606420.5643775495,4120971.441226714],[606428.6609468552,4120974.991482871],[606437.567585049,4120982.4379916345],[606438.1761244788,4120983.8984281523],[606437.062851171,4120983.421703189],[606432.2545753766,4120978.4478782797],[606432.0368961486,4120978.2478524093],[606431.7971270981,4120978.0749206375],[606424.9491949003,4120973.72721808]],[[606314.8767059118,4120978.565350231],[606311.6997228237,4120976.729299901],[606315.1251898361,4120978.651095985],[606314.8767059118,4120978.565350231]],[[606307.8810529422,4120974.5224042707],[606303.6327840032,4120969.7057296666],[606297.2350137398,4120960.996991931],[606280.406119418,4120932.91851283],[606258.6528120434,4120895.082365538],[606267.7782108493,4120910.023008644],[606286.958523517,4120942.4626033036],[606286.962642171,4120942.4695435744],[606297.9706085671,4120960.9508390077],[606298.120416496,4120961.174099584],[606308.129063386,4120974.48303624],[606308.295305293,4120974.681758316],[606308.4812214284,4120974.8622078253],[606308.5149199676,4120974.888730351],[606307.8810529422,4120974.5224042707]]]]}},{"type":"Feature","properties":{"class":"service","widthMeters":3},"geometry":{"type":"MultiPolygon","coordinates":[[[[606274.7928036662,4120775.168738289],[606253.0,4120789.475329947],[606253.0,4120793.0640235892],[606277.6722908816,4120776.8670993047],[606304.3889301847,4120759.3292006203],[606304.5087627597,4120759.2417633617],[606304.6193728943,4120759.142917429],[606304.7196788151,4120759.0336295413],[606304.8086995252,4120758.914968539],[606304.8855643971,4120758.7880949336],[606304.9495216882,4120758.654249556],[606304.999945893,4120758.5147414207],[606305.0363438597,4120758.3709349246],[606305.0583596147,4120758.2242365037],[606305.0657778424,4120758.0760808755],[606305.0687433884,4120752.7944275406],[606306.7335976273,4120751.0],[606302.6412669875,4120751.0],[606302.469455986,4120751.185182814],[606302.3790765657,4120751.292213964],[606302.2990760941,4120751.4072097517],[606302.2301523209,4120751.5291672037],[606302.1729063877,4120751.657022629],[606302.1278375832,4120751.789660895],[606302.0953389897,4120751.925925153],[606302.0756940542,4120752.0646269307],[606302.0690741166,4120752.2045564954],[606302.0662326134,4120757.2652890547],[606277.3010546549,4120773.5221684105],[606267.6690652483,4120758.3009161376],[606265.1339956227,4120759.905105027],[606274.7928036662,4120775.168738289]]],[[[606329.9849464181,4120762.6535330834],[606329.9103518231,4120762.7897245404],[606329.8502367428,4120762.932898015],[606329.8052454095,4120763.0815191655],[606328.8980799834,4120766.753970227],[606328.8697467888,4120766.899038395],[606328.8558287255,4120767.0461908015],[606328.8564609383,4120767.1939985943],[606328.8716372885,4120767.341026556],[606328.9012104133,4120767.485847044],[606328.944893157,4120767.6270538466],[606329.0022613596,4120767.763275844],[606329.0727579745,4120767.893190318],[606331.9008123486,4120772.5426836573],[606335.5679648893,4120780.7362620933],[606332.9116581623,4120787.6294909157],[606335.711005257,4120788.7082197247],[606338.5917490649,4120781.2325671413],[606338.6380380234,4120781.0921919993],[606338.6702864622,4120780.94794261],[606338.6881812441,4120780.8012196566],[606338.6915486078,4120780.6534478427],[606338.6803558557,4120780.5060620545],[606338.6547116713,4120780.360493432],[606338.6148650635,4120780.2181554674],[606338.5612029489,4120780.080430286],[606334.6005230121,4120771.2310188254],[606334.5129469989,4120771.064287612],[606331.9602206816,4120766.8674503383],[606332.6021984179,4120764.2685507867],[606337.6091161289,4120759.989106897],[606337.7240366036,4120759.879859018],[606337.8267827978,4120759.759090504],[606340.4613824532,4120756.3082383564],[606340.5570700464,4120756.1669024606],[606341.7536795539,4120754.162544214],[606340.4657408344,4120753.3936398933],[606341.9613488833,4120753.5083419583],[606342.1537201414,4120751.0],[606339.144910445,4120751.0],[606338.9970906043,4120752.927432989],[606338.0250093266,4120754.5556994476],[606335.5389053985,4120757.8120488753],[606330.2868903615,4120762.300978983],[606330.1742299299,4120762.4078438217],[606330.0732211234,4120762.5257831602],[606329.9849464181,4120762.6535330834]]],[[[606263.1464435591,4120878.0846850057],[606263.2243794366,4120877.9694366567],[606268.3345454861,4120869.6009814143],[606268.4016449297,4120869.478647039],[606268.4570870274,4120869.350607168],[606268.5003920688,4120869.2179696616],[606271.1042637378,4120859.774768687],[606271.1350468325,4120859.6387385065],[606271.1530624763,4120859.5004372215],[606271.1581549194,4120859.3610604806],[606271.0603003978,4120849.5618913746],[606271.0524277559,4120849.422664838],[606271.0316597963,4120849.2847710424],[606270.9981760095,4120849.149401759],[606268.2066446572,4120839.760003511],[606268.1657462126,4120839.640970025],[606268.1150125487,4120839.525784311],[606268.0548008679,4120839.41525736],[606263.9792600159,4120832.6283170986],[606263.8785376558,4120832.481173325],[606263.7610659365,4120832.3470216226],[606257.4972338373,4120825.9984429916],[606257.4047571446,4120825.912296095],[606257.3053566881,4120825.8342398605],[606257.1997381328,4120825.7648284263],[606253.0,4120823.25153476],[606253.0,4120826.747701232],[606255.4956095078,4120828.241175199],[606261.4996340249,4120834.3264311804],[606265.3851476302,4120840.796921768],[606268.0625530819,4120849.8024541745],[606268.1562010557,4120859.1803788547],[606265.664342288,4120868.2173538427],[606260.7735125178,4120876.226621963],[606253.8142283564,4120882.635295533],[606253.0,4120883.123524961],[606253.0,4120886.62151316],[606255.4887352311,4120885.1292121746],[606255.6157714266,4120885.043939968],[606255.7334602174,4120884.9461703785],[606262.9603032402,4120878.2911068974],[606263.0581650144,4120878.192216776],[606263.1464435591,4120878.0846850057]]],[[[606254.0077163774,4121036.9040845116],[606254.1354903524,4121036.962752941],[606254.2681961445,4121037.009200181],[606254.4046678199,4121037.0430181525],[606258.8210532231,4121037.9200037066],[606258.9728835699,4121037.942152575],[606259.1261822506,4121037.9486749265],[606259.2793452143,4121037.939502514],[606259.4307698297,4121037.914731313],[606259.5788716555,4121037.874620519],[606259.7221010181,4121037.819589834],[606259.8589592273,4121037.7502150754],[606259.9880142582,4121037.6672221506],[606275.2367407243,4121026.719565008],[606275.3498024846,4121026.6298450083],[606275.4537176584,4121026.529673772],[606275.5475241004,4121026.4199787793],[606275.6303532611,4121026.3017756906],[606275.7014382295,4121026.176158943],[606275.7601208334,4121026.0442916164],[606275.8058577332,4121025.9073946625],[606275.8382254534,4121025.766735604],[606275.8569243029,4121025.623616797],[606276.297597378,4121020.2475410975],[606273.3076253184,4121020.0024552285],[606272.9236242672,4121024.687149702],[606258.7670549058,4121034.850704543],[606255.568234194,4121034.2154973997],[606253.0,4121030.6530900705],[606253.0,4121035.7830522326],[606253.4800597372,4121036.4489449034],[606253.5675369964,4121036.5590171637],[606253.6649360284,4121036.660415398],[606253.7714010995,4121036.752248736],[606253.885996823,4121036.833710344],[606254.0077163774,4121036.9040845116]]],[[[606253.3964056596,4121042.458121674],[606253.4387916288,4121042.3145806724],[606253.4666620843,4121042.167530249],[606253.4797395531,4121042.0184344095],[606253.4778938381,4121041.8687775256],[606253.4611433152,4121041.7200495545],[606253.0,4121038.8995435676],[606253.0,4121043.061492272],[606253.0922161451,4121042.969429397],[606253.1870705051,4121042.8536570347],[606253.269915441,4121042.729008304],[606253.3399261639,4121042.596724185],[606253.3964056596,4121042.458121674]]],[[[606345.0078268079,4121078.476954032],[606345.1317960354,4121078.563915375],[606345.2639013231,4121078.637934545],[606345.4027963333,4121078.698257183],[606345.5470655318,4121078.7442685175],[606345.6952386139,4121078.7754996284],[606345.8458054888,4121078.791632227],[606345.9972316695,4121078.7925019],[606346.1479739116,4121078.778099783],[606348.5836108645,4121078.4205706664],[606348.147907589,4121075.452378851],[606346.3467132405,4121075.716777625],[606345.0887101718,4121074.7359666247],[606326.21449862,4121049.3339416627],[606325.1388004855,4121047.786183245],[606322.6753364566,4121049.498300349],[606323.7645845175,4121051.065554954],[606323.7922946074,4121051.1041087233],[606342.8019796232,4121076.688461848],[606342.8871139985,4121076.792894397],[606342.9812760655,4121076.8892661994],[606343.0837060817,4121076.9767996836],[606345.0078268079,4121078.476954032]]],[[[606270.4968260616,4121059.1202744497],[606270.5129490157,4121059.2715133154],[606270.5443045668,4121059.4203419876],[606270.5905703362,4121059.5652302993],[606270.6512706471,4121059.7046885956],[606270.7257814154,4121059.837283051],[606270.8133365663,4121059.9616504093],[606283.9040499586,4121076.685828898],[606284.7566902915,4121078.0593222855],[606287.3055050224,4121076.4770633094],[606286.4098767384,4121075.0343218883],[606286.3166505705,4121074.9008914926],[606273.5184827482,4121058.5504576718],[606273.7010150056,4121054.5813884703],[606270.7041824204,4121054.4435680923],[606270.4961014712,4121058.9681803365],[606270.4968260616,4121059.1202744497]]],[[[606343.2605548666,4121082.578603329],[606343.36314114,4121082.4697046434],[606343.454369181,4121082.351128458],[606343.5333314586,4121082.2240543617],[606343.5992424606,4121082.08974648],[606343.6514465084,4121081.9495409],[606343.6894242789,4121081.8048323784],[606343.7127979718,4121081.6570604676],[606343.7213350668,4121081.507695193],[606343.7149506375,4121081.358222432],[606343.6937081957,4121081.2101291306],[606343.65781906,4121081.0648885123],[606342.8404521574,4121078.3470694814],[606342.7968509,4121078.222307316],[606342.7424370471,4121078.1018672884],[606342.6776330112,4121077.986684371],[606342.602941864,4121077.8776527233],[606322.7082119143,4121051.4165997184],[606322.6836729075,4121051.384854522],[606321.7841156758,4121050.2527528624],[606319.4353241213,4121052.1190803344],[606320.3223995395,4121053.2354735085],[606340.044510635,4121079.4669342213],[606340.520782581,4121081.050581607],[606339.4037764713,4121082.1236678683],[606341.4821382393,4121084.287093939],[606343.2605548666,4121082.578603329]]],[[[606269.9064021071,4121060.50135483],[606269.8132593799,4121060.3873376967],[606269.709387932,4121060.283000759],[606269.5957884132,4121060.189349151],[606269.4735551897,4121060.1072850702],[606269.3438658005,4121060.037599084],[606269.2079696142,4121059.980962516],[606269.0671757926,4121059.937920977],[606268.9228406793,4121059.908889109],[606263.4499474111,4121059.0851092334],[606263.0034174424,4121062.051691608],[606267.8618051022,4121062.7829761016],[606280.1244752476,4121079.395561594],[606281.0778233195,4121080.9881913564],[606283.6518906711,4121079.447354808],[606282.6613456839,4121077.7925851867],[606282.5811384202,4121077.6721779946],[606269.9064021071,4121060.50135483]]],[[[606345.785414294,4121135.8004339566],[606345.6576371323,4121135.875021212],[606321.3201033785,4121151.7405854384],[606294.5594643983,4121167.7879908565],[606285.0564725708,4121170.911291173],[606265.7859367653,4121175.5458245976],[606265.6622275284,4121175.5812535887],[606253.0,4121179.8031261317],[606253.0,4121182.9654884674],[606266.5500453416,4121178.4475974203],[606285.8174490174,4121173.8138172682],[606285.9350525251,4121173.7804095303],[606295.6554477782,4121170.5856563277],[606295.810846248,4121170.52481009],[606295.9585238321,4121170.4470779854],[606322.8871017018,4121154.298965576],[606322.9348329265,4121154.2691109297],[606347.0446946771,4121138.5519653894],[606367.383766428,4121134.7877047826],[606375.8845366341,4121133.411376507],[606375.9177456155,4121133.40561616],[606400.3302856568,4121128.8879822087],[606399.7843925295,4121125.938066838],[606375.388424611,4121130.4526340542],[606366.8876390073,4121131.828964823],[606366.8543993463,4121131.8347308477],[606346.2038173804,4121135.656644313],[606346.0598393595,4121135.690711763],[606345.9199178985,4121135.738797587],[606345.785414294,4121135.8004339566]]],[[[606424.2898449259,4120803.5334807946],[606424.4367231432,4120803.536248051],[606424.5831676591,4120803.5246346],[606424.7277738511,4120803.498751832],[606480.0255838375,4120790.7784047695],[606492.1765944178,4120791.412383259],[606492.3373606597,4120791.412144232],[606492.497177956,4120791.394700795],[606507.199045018,4120788.9869567],[606510.2760131243,4120788.5403446127],[606520.2374165512,4120787.1358426083],[606520.3830937286,4120787.1078961194],[606520.5252983929,4120787.065698019],[606520.6626399187,4120787.009660965],[606520.7937752376,4120786.9403329445],[606520.9174219713,4120786.85839192],[606521.0323709735,4120786.764639197],[606521.1374981527,4120786.659991586],[606521.2317754659,4120786.5454724417],[606521.314280971,4120786.422201651],[606521.3842078433,4120786.2913846844],[606521.440872265,4120786.1543008066],[606521.4837201121,4120786.012290567],[606521.5123323739,4120785.866742689],[606521.5264292497,4120785.7190804924],[606521.5258728855,4120785.570747972],[606521.5106687221,4120785.4231956773],[606518.6587201528,4120766.8230986344],[606518.6288059973,4120766.676948282],[606518.5845225889,4120766.534492106],[606518.5263079356,4120766.3971391437],[606518.4547378392,4120766.266247954],[606518.3705202006,4120766.1431131843],[606518.2744880177,4120766.0289527616],[606518.1675911461,4120765.924895849],[606518.0508869045,4120765.8319716747],[606517.925529616,4120765.7510993527],[606517.7927591915,4120765.683078793],[606517.653888865,4120765.628582787],[606517.510292205,4120765.588150356],[606517.3633895281,4120765.562181418],[606517.2146338508,4120765.5509328316],[606517.0654965177,4120765.5545158572],[606506.0437755352,4120766.369040779],[606505.8951599711,4120766.387520147],[606505.7491277897,4120766.420726697],[606505.6071346449,4120766.468329425],[606505.4705959285,4120766.5298538255],[606505.3408726631,4120766.6046866216],[606505.2192579344,4120766.692081877],[606505.1069640019,4120766.7911684336],[606505.0051102152,4120766.900958593],[606504.9147118562,4120767.020357963],[606504.8366700185,4120767.1481763674],[606504.7717626259,4120767.283139708],[606504.7206366771,4120767.423902666],[606504.6838017976,4120767.5690621114],[606504.6616251583,4120767.71717109],[606504.6543278169,4120767.8667532476],[606504.6619825134,4120768.016317543],[606504.6845129456,4120768.1643731156],[606508.2768313132,4120785.7990827826],[606506.7546187656,4120786.0200270694],[606506.727653759,4120786.024191706],[606492.1716632271,4120788.4080454092],[606479.9721538743,4120787.771536499],[606479.833092095,4120787.7707359972],[606479.6945538014,4120787.78281741],[606479.5577297348,4120787.8076768965],[606424.3454063396,4120800.5083591817],[606419.0432222486,4120799.621104954],[606418.8878365806,4120799.603369551],[606418.731448862,4120799.6019094964],[606418.5757591488,4120799.616740662],[606418.4224599091,4120799.647701822],[606389.27876687,4120807.134025436],[606371.8906051537,4120808.5046711112],[606367.4667015268,4120808.448653127],[606364.5931318016,4120807.293093561],[606358.4496360134,4120804.820977102],[606353.9971820896,4120798.0935539305],[606353.9064472758,4120797.970566284],[606353.803668451,4120797.8574500573],[606353.6899126316,4120797.7553795855],[606353.5663607935,4120797.6654145317],[606353.4342956117,4120797.5884888833],[606353.2950881439,4120797.525401258],[606345.1282423721,4120794.3150762757],[606344.0307162604,4120797.107107156],[606351.756830168,4120800.144183793],[606356.2056323787,4120806.8660894185],[606356.2950952733,4120806.9875230896],[606356.3963010217,4120807.0993584264],[606356.5082263326,4120807.2004646612],[606356.6297395296,4120807.2898195097],[606356.7596119929,4120807.366519505],[606356.896530582,4120807.4297891343],[606360.5781702464,4120808.911265207],[606347.3443492632,4120816.3749565515],[606348.8180819927,4120818.9880221537],[606364.142398642,4120810.3453202704],[606366.607623191,4120811.336670463],[606366.7384493727,4120811.3823802494],[606366.8729357381,4120811.415821121],[606367.0099343787,4120811.4367076447],[606367.1482759428,4120811.444861542],[606371.9211568489,4120811.5052984753],[606371.9401491797,4120810.0054187165],[606372.0580230919,4120811.5007801247],[606389.6440184488,4120810.1145399413],[606389.7725996985,4120810.098793298],[606389.8993428205,4120810.0720112976],[606418.861290597,4120802.632373732],[606424.1439417888,4120803.5163593735],[606424.2898449259,4120803.5334807946]],[[606507.964279424,4120769.2352931593],[606515.9035585162,4120768.648566214],[606518.3152245287,4120784.3771885154],[606511.2516698772,4120785.373110098],[606507.964279424,4120769.2352931593]]],[[[606444.3127910251,4121031.196071745],[606444.0186110487,4121034.181613261],[606446.7622470146,4121034.451957103],[606448.9203662341,4121035.8318927153],[606449.069232707,4121037.142383412],[606447.6702131992,4121040.7255692533],[606443.4464553951,4121047.406735005],[606443.3551932927,4121047.5736737493],[606441.0477756786,4121052.5155291683],[606440.9943523849,4121052.6455066917],[606440.953327186,4121052.779913306],[606440.9250601592,4121052.9175693267],[606440.9097994034,4121053.05726655],[606440.9076788622,4121053.197778856],[606440.9187171475,4121053.3378729713],[606440.9428173766,4121053.4763192926],[606441.3122051274,4121055.134333502],[606444.2404142683,4121054.4819599683],[606443.9820322489,4121053.32220018],[606446.0331589705,4121048.9292495316],[606450.2829702666,4121042.206872208],[606450.3537978692,4121042.081976839],[606450.4123596573,4121041.9508817606],[606451.9988329371,4121037.8875870304],[606452.0451286436,4121037.7495986004],[606452.0778329216,4121037.6077728993],[606452.0966378549,4121037.4634452383],[606452.1013663923,4121037.3179744845],[606452.091974014,4121037.1727302675],[606451.8205794076,4121034.783608662],[606451.7966253741,4121034.637488172],[606451.7583815012,4121034.4944413286],[606451.7062204541,4121034.355862043],[606451.6406505128,4121034.223100693],[606451.56231062,4121034.0974509637],[606451.4719641542,4121033.9801372415],[606451.3704914912,4121033.8723026835],[606451.2588814254,4121033.7749980767],[606451.1382215344,4121033.6891716006],[606448.58808609,4121032.058574605],[606463.0922659355,4121031.9763168413],[606463.268956706,4121031.9648643415],[606474.5195642847,4121030.5650975574],[606474.6699577959,4121030.5385518135],[606474.8168726614,4121030.496851609],[606474.9587860017,4121030.440429197],[606490.2643435302,4121023.4330231803],[606490.343512308,4121023.393918624],[606516.9724680798,4121009.25101629],[606517.001691667,4121009.235077133],[606564.1313347375,4120982.846893336],[606562.665711363,4120980.229270727],[606515.55059165,4121006.6093228045],[606488.9753447574,4121020.7236998207],[606473.919959726,4121027.6165683395],[606462.9865683252,4121028.9768680404],[606444.9292361129,4121029.0792768477],[606444.9415925104,4121031.258030624],[606444.3127910251,4121031.196071745]]],[[[606433.4542143203,4121055.6919491584],[606434.6090309856,4121056.834659954],[606445.8599771141,4121071.455974575],[606448.2375519179,4121069.6264560446],[606436.9248532903,4121054.9248901536],[606436.7911227049,4121054.7734153387],[606435.5643279532,4121053.559480998],[606433.4542143203,4121055.6919491584]]],[[[606395.9945201754,4121121.0485296617],[606393.0797087239,4121121.4110711897],[606393.0018523396,4121121.422837506],[606367.6399457548,4121125.9395651463],[606368.1659425409,4121128.8930931017],[606393.4890754061,4121124.3832707126],[606396.3648041928,4121124.02559025],[606395.9945201754,4121121.0485296617]]],[[[606526.716529457,4121190.674538076],[606576.4428680693,4121151.858345074],[606576.5552680698,4121151.761279578],[606576.6575187704,4121151.6535750516],[606576.7486178656,4121151.536287262],[606576.8276723629,4121151.410565915],[606576.8939073358,4121151.277643385],[606576.9466735208,4121151.1388226356],[606576.9854536807,4121150.995464448],[606577.0098676758,4121150.848974081],[606577.0196761896,4121150.700787497],[606577.0147830748,4121150.552357284],[606576.9952362959,4121150.4051384195],[606576.9612274586,4121150.2605740055],[606576.9130899324,4121150.1200811258],[606576.851295582,4121149.985036952],[606576.7764501424,4121149.8567652446],[606552.7211453073,4121112.9569909223],[606548.7269768587,4121106.815202074],[606548.7238721988,4121106.8104477865],[606547.3224860126,4121104.6732968097],[606544.8137398352,4121106.3183477563],[606546.2135691791,4121108.4531245073],[606550.2066442342,4121114.5932320566],[606550.2075539498,4121114.5946292165],[606573.5110359301,4121150.341140512],[606524.8705575372,4121188.309715108],[606526.716529457,4121190.674538076]]],[[[606503.8333484259,4121160.3622330185],[606503.9638159196,4121160.421921236],[606504.0993891717,4121160.4688716726],[606504.2388278706,4121160.5026547965],[606504.3808563413,4121160.522961537],[606506.5520397241,4121160.7280318025],[606506.8341369831,4121157.7413243954],[606505.1826502088,4121157.5853399523],[606503.5668793195,4121156.03738226],[606491.0708943731,4121139.615757161],[606488.683497281,4121141.4324396113],[606501.2506409532,4121157.9475781005],[606501.3252284353,4121158.038031362],[606501.4066524847,4121158.1223830613],[606503.4842179563,4121160.1127540194],[606503.5924474858,4121160.206939046],[606503.7091802913,4121160.2903530872],[606503.8333484259,4121160.3622330185]]],[[[606433.882818905,4121159.8227334647],[606433.8187128636,4121159.9504754054],[606433.7670556955,4121160.083738772],[606433.7283163927,4121160.221313677],[606433.7028466667,4121160.3619510867],[606433.6908777548,4121160.504374164],[606433.6925183224,4121160.6472898615],[606433.7077534745,4121160.7894006567],[606434.3067046793,4121164.6362749077],[606434.3404105052,4121164.7954195007],[606434.3911519329,4121164.9499782007],[606434.4583321736,4121165.0981331854],[606436.5458081015,4121169.1081208168],[606436.629441521,4121169.249333845],[606436.7280018699,4121169.380564656],[606436.840309242,4121169.500242233],[606442.0563581219,4121174.481958389],[606444.128386032,4121172.3124652826],[606439.0920739505,4121167.50241119],[606437.2330963091,4121163.931362897],[606436.7645520067,4121160.9220509566],[606439.1773156597,4121157.4558916963],[606436.7151071428,4121155.7419695216],[606433.9587918059,4121159.70167271],[606433.882818905,4121159.8227334647]]]]}},{"type":"Feature","properties":{"class":"track","widthMeters":2.5},"geometry":{"type":"MultiPolygon","coordinates":[[[[606588.6028131027,4121148.7941253595],[606547.5236908043,4121182.6044928934],[606525.6763482773,4121199.1335193915],[606525.6399269596,4121199.1621511774],[606514.8166464547,4121208.0],[606518.7693117757,4121208.0],[606527.2031931798,4121201.1132368967],[606549.0524726884,4121184.582744938],[606549.0926493045,4121184.551034551],[606590.2117045359,4121150.7078000265],[606590.2513319999,4121150.6737710233],[606609.0045851055,4121133.876590929],[606652.7870369824,4121098.188668724],[606651.2075000105,4121096.2508702427],[606607.4024983484,4121131.957173213],[606607.358278304,4121131.994963904],[606588.6028131027,4121148.7941253595]]],[[[606613.8585190171,4121157.40118035],[606613.8571638335,4121157.4023069832],[606577.4195089436,4121187.7382502514],[606552.5025875666,4121208.0],[606556.4651382482,4121208.0],[606579.0023770159,4121189.6733421828],[606579.0135263576,4121189.664168371],[606615.4560522942,4121159.324169743],[606647.4698716099,4121132.7475935947],[606663.152829377,4121120.587431877],[606661.6209383039,4121118.6117523126],[606645.9215223844,4121130.784675258],[606645.8890403167,4121130.8107388914],[606613.8585190171,4121157.40118035]]]]}}]}
