{"type":"FeatureCollection","name":"vera-cala-marques-coastline","crs":{"type":"name","properties":{"name":"EPSG:25830"}},"features":[{"type":"Feature","properties":{"source":"DERA/IECA","id_dera":10125300000566.0},"geometry":{"type":"LineString","coordinates":[[606709.3499999996,4121077.6099999994],[606703.4800000004,4121068.3100000005],[606696.5599999996,4121054.91],[606689.6399999997,4121041.5199999996],[606688.5,4121033.8599999994],[606686.8200000003,4121027.119999999],[606685.0899999999,4121017.66],[606683.1900000004,4121013.789999999],[606677.9100000001,4121000.369999999],[606672.7699999996,4120989.3200000003],[606667.6299999999,4120978.2699999996],[606663.5700000003,4120968.66],[606661.5300000003,4120966.24],[606659.8099999996,4120964.83],[606658.6299999999,4120962.6999999993],[606653.3300000001,4120951.2799999993],[606651.8200000003,4120947.34],[606649.9800000004,4120944.66],[606647.71,4120936.8599999994],[606645.0800000001,4120932.8499999996],[606638.46,4120919.289999999],[606636.3700000001,4120914.5500000007],[606634.21,4120909.08],[606629.7000000002,4120898.99],[606626.7000000002,4120891.0500000007],[606622.25,4120880.67],[606617.8099999996,4120870.289999999],[606613.2000000002,4120863.5999999996],[606612.0899999999,4120860.7300000004],[606611.6600000001,4120855.869999999],[606607.4199999999,4120844.8599999994],[606605.0499999998,4120841.8499999996],[606604.1299999999,4120839.3100000005],[606600.04,4120835.2200000007],[606599.7199999997,4120833.960000001],[606600.3399999999,4120830.5700000003],[606599.7000000002,4120827.9700000007],[606593.4900000002,4120817.67],[606587.2800000003,4120807.380000001],[606585.3600000003,4120805.83],[606584.3799999999,4120803.5],[606582.1399999997,4120791.0999999996],[606580.3099999996,4120786.3599999994],[606580.1900000004,4120784.6999999993],[606578.6799999997,4120782.289999999],[606576.9000000004,4120780.4800000004],[606575.8499999996,4120778.74],[606575.79,4120777.1500000004],[606575.3399999999,4120775.75],[606572.7599999998,4120773.5999999996],[606572.3700000001,4120772.5999999996],[606572.6600000001,4120768.869999999],[606572.0700000003,4120767.869999999],[606570.75,4120767.130000001],[606565.7699999996,4120765.49],[606562.8099999996,4120760.9399999995],[606558.9595381716,4120751.0]]}},{"type":"Feature","properties":{"source":"DERA/IECA","id_dera":10125300001130.0},"geometry":{"type":"LineString","coordinates":[[606789.7691208789,4121208.0],[606789.0499999998,4121199.8200000003],[606788.0999999996,4121188.91],[606781.1100000003,4121175.960000001],[606775.6900000004,4121164.880000001],[606769.9900000002,4121156.42],[606763.8300000001,4121146.9700000007],[606757.6699999999,4121137.5199999996],[606751.5099999998,4121128.0600000005],[606745.3499999996,4121118.6099999994],[606737.7999999998,4121110.4000000004],[606727.9000000004,4121100.8499999996],[606717.9900000002,4121091.3000000007],[606709.3499999996,4121077.6099999994]]}}]}
