{"type":"FeatureCollection","name":"vera-coast-coastline","crs":{"type":"name","properties":{"name":"EPSG:25830"}},"features":[{"type":"Feature","properties":{"source":"DERA/IECA","id_dera":10125300001431.0},"geometry":{"type":"MultiLineString","coordinates":[[[604943.9565823695,4116150.0],[604952.8300000001,4116158.5700000003],[604967.1600000001,4116172.4000000004],[604977.5,4116183.1500000004],[604987.8300000001,4116193.8900000006],[604996.4900000002,4116202.6999999993],[605005.1500000004,4116211.5],[605006.2000000002,4116212.2300000004],[605007.1399999997,4116212.539999999],[605008.6100000003,4116212.539999999],[605009.7699999996,4116212.33],[605011.9699999997,4116211.49],[605018.7800000003,4116204.67],[605032.5099999998,4116190.1400000006],[605046.2400000002,4116175.5999999996],[605057.25,4116164.16],[605068.2599999998,4116152.7200000007],[605070.7208071754,4116150.0]],[[605090.0498473283,4116150.0],[605092.2699999996,4116151.76],[605093.5775268811,4116150.0]],[[605100.5711262807,4116150.0],[605103.1799999997,4116152.8000000007],[605112.5300000003,4116161.4000000004],[605121.8700000001,4116169.99],[605123.0199999996,4116170.5199999996],[605123.75,4116170.51],[605125.2199999997,4116170.1999999993],[605125.54,4116169.880000001],[605133.8200000003,4116160.33],[605139.2699999996,4116152.5700000003],[605140.8751435129,4116150.0]],[[605181.106498801,4116150.0],[605180.2800000003,4116152.4399999995],[605175.3499999996,4116162.3000000007],[605164.1399999997,4116176.8900000006],[605155.3899999997,4116187.4399999995],[605146.6399999997,4116197.9800000004],[605142.6500000004,4116202.49],[605131.1200000001,4116208.369999999],[605129.2300000004,4116210.369999999],[605120.8499999996,4116219.9700000007],[605112.46,4116229.5700000003],[605105.54,4116237.210000001],[605098.6299999999,4116244.84],[605091.71,4116252.4800000004],[605084.79,4116260.1099999994],[605071.5800000001,4116273.6500000004],[605070.1200000001,4116275.539999999],[605065.29,4116278.2699999996],[605064.5599999996,4116279.2200000007]]]}},{"type":"Feature","properties":{"source":"DERA/IECA","id_dera":10125300001125.0},"geometry":{"type":"LineString","coordinates":[[605482.7599999998,4117599.8200000003],[605480.3399999999,4117596.5700000003],[605479.9199999999,4117595.0999999996],[605472.9900000002,4117589.2300000004],[605471.0999999996,4117586.289999999],[605470.2599999998,4117583.99],[605470.0499999998,4117582.5199999996],[605470.2599999998,4117578.6400000006],[605473.2999999998,4117570.0299999993],[605473.5,4117565.210000001],[605472.5599999996,4117563.4299999997],[605470.1399999997,4117561.4399999995],[605469.7199999997,4117559.9700000007],[605469.7199999997,4117559.0199999996],[605470.3499999996,4117557.66],[605470.1399999997,4117555.9800000004],[605468.8799999999,4117554.41],[605466.7800000003,4117550.1099999994],[605466.25,4117547.2799999993],[605466.25,4117545.8100000005],[605467.1900000004,4117541.51],[605467.0899999999,4117534.4800000004],[605464.3600000003,4117524.0999999996],[605461.6200000001,4117513.7200000007],[605459.8300000001,4117508.58],[605457.5199999996,4117503.2300000004],[605455.0999999996,4117496.5199999996],[605451.6399999997,4117485.7200000007],[605448.5899999999,4117479.3200000003],[605447.8499999996,4117470.619999999],[605443.3399999999,4117462.960000001],[605442.1799999997,4117458.9800000004],[605439.54,4117440.5199999996],[605435.4400000004,4117421.75],[605431.5499999998,4117410.74],[605430.6100000003,4117406.2300000004],[605428.9299999997,4117393.960000001],[605427.2400000002,4117381.6799999997],[605424.71,4117368.8900000006],[605422.8200000003,4117364.8000000007],[605421.6600000001,4117358.7200000007],[605419.4000000004,4117341.1500000004],[605417.1299999999,4117323.58],[605417.2300000004,4117319.91],[605416.0800000001,4117316.66],[605411.4500000002,4117306.380000001],[605409.8700000001,4117295.789999999],[605408.4000000004,4117281.74],[605408.5,4117274.08],[605406.1799999997,4117266.0],[605403.9699999997,4117255.41],[605400.5099999998,4117245.4499999993],[605397.04,4117235.49],[605395.25,4117224.58],[605391.1500000004,4117207.91],[605388.7800000003,4117196.58],[605386.4100000001,4117185.25],[605384.2000000002,4117175.0299999993],[605381.9900000002,4117164.8000000007],[605377.9000000004,4117151.2699999996],[605373.3799999999,4117138.8000000007],[605370.1200000001,4117128.0999999996],[605368.96,4117126.0],[605367.3899999997,4117119.710000001],[605367.3899999997,4117117.9299999997],[605366.5499999998,4117116.880000001],[605364.2400000002,4117116.039999999],[605362.8700000001,4117114.0500000007],[605361.0899999999,4117107.34],[605358.9800000004,4117101.460000001],[605359.71,4117095.0700000003],[605359.0800000001,4117091.08],[605357.0899999999,4117086.0500000007],[605356.9699999997,4117074.09],[605353.4000000004,4117064.130000001],[605347.0,4117058.0500000007],[605339.3300000001,4117042.42],[605332.5099999998,4117031.41],[605327.04,4117018.3100000005],[605326.9400000004,4117012.6400000006],[605326.4100000001,4117010.2300000004],[605324.6200000001,4117005.9299999997],[605319.7199999997,4116992.1500000004],[605314.8200000003,4116978.380000001],[605309.9199999999,4116964.5999999996],[605305.0300000003,4116950.83],[605300.1299999999,4116937.0500000007],[605295.2300000004,4116923.2699999996],[605290.3300000001,4116909.5],[605285.4299999997,4116895.7200000007],[605280.4900000002,4116882.67],[605275.5499999998,4116869.6099999994],[605270.7199999997,4116856.24],[605265.8899999997,4116842.869999999],[605262.3099999996,4116825.67],[605258.21,4116809.83],[605255.4699999997,4116796.7200000007],[605252.0099999998,4116785.4000000004],[605247.0700000003,4116772.710000001],[605242.6600000001,4116769.25],[605242.0300000003,4116767.5700000003],[605241.71,4116765.0500000007],[605242.1299999999,4116760.119999999],[605241.5999999996,4116758.130000001],[605240.6600000001,4116756.3499999996],[605240.0300000003,4116755.7200000007],[605235.7300000004,4116752.8900000006],[605234.5700000003,4116751.3200000003],[605234.1500000004,4116750.0600000005],[605234.2599999998,4116748.17],[605234.46,4116747.6500000004],[605234.3600000003,4116746.5999999996],[605233.8300000001,4116745.24],[605234.04,4116740.9399999995],[605232.7800000003,4116739.1500000004],[605232.0499999998,4116738.5199999996],[605231.6299999999,4116737.789999999],[605232.6699999999,4116736.01],[605233.7199999997,4116732.2300000004],[605233.4000000004,4116730.0299999993],[605232.46,4116727.3000000007],[605227.21,4116722.6899999995],[605227.4199999999,4116722.369999999],[605228.8899999997,4116721.5299999993],[605229.9400000004,4116721.3200000003],[605230.25,4116720.4800000004],[605230.1500000004,4116718.8100000005],[605227.0,4116713.25],[605227.2000000002,4116712.7200000007],[605227.6200000001,4116712.09],[605227.6200000001,4116710.630000001],[605226.4699999997,4116706.8499999996],[605225.5199999996,4116705.49],[605221.2199999997,4116703.1799999997],[605220.5899999999,4116702.66],[605220.3799999999,4116701.8200000003],[605220.4800000004,4116701.1899999995],[605220.9000000004,4116700.1400000006],[605220.9000000004,4116699.09],[605220.2699999996,4116697.5199999996],[605217.8600000003,4116694.17],[605215.9699999997,4116692.380000001],[605213.4400000004,4116681.789999999],[605213.1299999999,4116681.16],[605211.3499999996,4116679.2799999993],[605210.4000000004,4116676.130000001],[605210.4000000004,4116675.3900000006],[605211.1299999999,4116672.25],[605210.29,4116671.7200000007],[605208.6100000003,4116666.6899999995],[605208.6100000003,4116664.49],[605208.29,4116662.91],[605205.3499999996,4116660.5],[605204.9299999997,4116659.5600000005],[605204.9299999997,4116657.880000001],[605205.25,4116657.1500000004],[605205.3499999996,4116655.0500000007],[605203.1500000004,4116653.16],[605201.6799999997,4116650.75],[605200.9400000004,4116644.460000001],[605200.0999999996,4116642.26],[605198.8399999999,4116640.4700000007],[605194.8499999996,4116637.6400000006],[605194.6399999997,4116636.8100000005],[605194.75,4116635.5500000007],[605195.2699999996,4116635.0199999996],[605195.2699999996,4116634.5],[605194.7400000002,4116633.4499999993],[605194.3200000003,4116633.130000001],[605193.3799999999,4116631.039999999],[605193.3799999999,4116626.0],[605192.6399999997,4116622.2300000004],[605188.1200000001,4116615.9399999995],[605187.4900000002,4116613.3200000003],[605184.7599999998,4116599.8900000006],[605182.7599999998,4116592.0299999993],[605180.0300000003,4116585.630000001],[605172.5700000003,4116572.7300000004],[605169.9400000004,4116561.51],[605167.7400000002,4116558.6799999997],[605167.0,4116556.4800000004],[605166.79,4116549.5600000005],[605165.6299999999,4116544.3100000005],[605162.6900000004,4116535.92],[605159.0099999998,4116521.7699999996],[605158.3799999999,4116515.369999999],[605153.3300000001,4116502.7799999993],[605152.5999999996,4116498.4800000004],[605149.5499999998,4116491.5600000005],[605145.0899999999,4116478.25],[605140.6200000001,4116464.9299999997],[605137.1500000004,4116453.5999999996],[605134.3099999996,4116446.16],[605132.3200000003,4116443.119999999],[605131.6900000004,4116441.33],[605131.6900000004,4116438.1899999995],[605130.9500000002,4116434.83],[605126.0099999998,4116426.9700000007],[605122.4400000004,4116418.789999999],[605121.5,4116414.6999999993],[605117.4000000004,4116408.619999999],[605116.5599999996,4116405.369999999],[605112.8799999999,4116395.9299999997],[605110.4699999997,4116387.539999999],[605109.4199999999,4116386.2799999993],[605105.7400000002,4116383.869999999],[605104.1699999999,4116381.039999999],[605100.3799999999,4116365.1999999993],[605099.4400000004,4116360.2699999996],[605096.3899999997,4116353.880000001],[605089.8799999999,4116342.24],[605082.9500000002,4116332.17],[605078.8600000003,4116321.789999999],[605074.7599999998,4116311.41],[605074.1299999999,4116310.1500000004],[605073.9199999999,4116310.0500000007],[605072.1299999999,4116313.619999999],[605071.9199999999,4116313.83],[605070.6699999999,4116313.09],[605070.04,4116312.039999999],[605068.8799999999,4116308.4800000004],[605065.0899999999,4116292.119999999],[605064.04,4116281.210000001],[605064.5599999996,4116279.2200000007]]}},{"type":"Feature","properties":{"source":"DERA/IECA","id_dera":10125300001137.0},"geometry":{"type":"LineString","coordinates":[[605729.7199999997,4118648.8100000005],[605726.9699999997,4118637.2200000007],[605725.29,4118628.41],[605721.3899999997,4118611.630000001],[605717.6600000001,4118595.8000000007],[605713.9299999997,4118579.960000001],[605709.5099999998,4118562.5500000007],[605706.46,4118552.2200000007],[605703.4100000001,4118541.8900000006],[605697.8399999999,4118525.8499999996],[605694.0599999996,4118513.4800000004],[605689.1299999999,4118501.74],[605684.1900000004,4118489.99],[605679.5599999996,4118478.0299999993],[605675.46,4118459.6799999997],[605669.3700000001,4118444.26],[605666.9500000002,4118439.2300000004],[605666.1100000003,4118433.99],[605665.79,4118425.91],[605663.79,4118417.42],[605661.4800000004,4118409.130000001],[605657.75,4118396.34],[605654.0099999998,4118383.539999999],[605648.7599999998,4118366.6099999994],[605643.5,4118349.67],[605639.5099999998,4118338.5600000005],[605635.9400000004,4118330.380000001],[605635.7300000004,4118328.91],[605631.7400000002,4118317.0600000005],[605630.1500000004,4118304.4700000007],[605623.6399999997,4118294.1999999993],[605620.7000000002,4118286.119999999],[605616.5999999996,4118269.66],[605616.71,4118268.92],[605617.1299999999,4118268.5],[605616.9100000001,4118266.41],[605615.3399999999,4118261.0600000005],[605615.4400000004,4118258.6500000004],[605616.1699999999,4118257.8100000005],[605616.9100000001,4118256.130000001],[605617.2199999997,4118252.5600000005],[605616.7999999998,4118250.7799999993],[605616.0599999996,4118249.3100000005],[605615.75,4118247.3200000003],[605616.5899999999,4118244.9000000004],[605619.4199999999,4118241.130000001],[605619.7300000004,4118239.34],[605618.1500000004,4118234.83],[605612.1699999999,4118229.8000000007],[605613.1100000003,4118222.3599999994],[605612.6900000004,4118221.5199999996],[605611.2199999997,4118220.3599999994],[605610.1699999999,4118218.9000000004],[605609.0099999998,4118210.51],[605606.4900000002,4118202.8499999996],[605604.1799999997,4118192.5700000003],[605604.0700000003,4118190.16],[605604.7000000002,4118186.59],[605604.6900000004,4118183.9700000007],[605601.0700000003,4118174.0600000005],[605597.4400000004,4118164.1500000004],[605594.8200000003,4118158.17],[605592.8200000003,4118150.7300000004],[605593.4400000004,4118137.83],[605591.9699999997,4118133.9499999993],[605591.7599999998,4118129.539999999],[605591.0199999996,4118127.0299999993],[605588.6100000003,4118123.3599999994],[605588.4000000004,4118120.84],[605587.6600000001,4118120.3100000005],[605585.9800000004,4118119.6899999995],[605581.4699999997,4118111.7200000007],[605581.4699999997,4118110.039999999],[605581.0499999998,4118108.6799999997],[605579.79,4118107.0],[605579.0499999998,4118104.2699999996],[605578.0999999996,4118092.630000001],[605577.2599999998,4118091.369999999],[605574.1100000003,4118088.33],[605574.1100000003,4118080.26],[605574.5199999996,4118073.33],[605575.7800000003,4118069.66],[605575.9900000002,4118067.7699999996],[605575.5599999996,4118062.74],[605576.0899999999,4118060.74],[605575.5599999996,4118058.0199999996],[605573.04,4118053.8200000003],[605571.0499999998,4118051.83],[605570.21,4118049.74],[605569.9900000002,4118044.6999999993],[605568.6299999999,4118042.5],[605567.3700000001,4118039.25],[605566.9400000004,4118032.2200000007],[605565.1600000001,4118028.869999999],[605564.5199999996,4118019.2200000007],[605565.8799999999,4118014.3900000006],[605569.2300000004,4118005.0500000007],[605569.4400000004,4118002.33],[605564.7199999997,4117993.9399999995],[605563.6600000001,4117981.7699999996],[605561.5499999998,4117971.8100000005],[605556.8300000001,4117959.6400000006],[605551.9900000002,4117945.2799999993],[605551.5700000003,4117943.1799999997],[605552.0999999996,4117942.66],[605553.46,4117942.0199999996],[605553.6699999999,4117941.08],[605551.9800000004,4117932.59],[605552.4000000004,4117928.91],[605551.5599999996,4117925.1400000006],[605551.5599999996,4117923.460000001],[605553.2300000004,4117917.9000000004],[605550.8099999996,4117905.84],[605546.6100000003,4117893.99],[605544.0899999999,4117883.6099999994],[605543.9800000004,4117875.6400000006],[605543.7699999996,4117874.59],[605543.2400000002,4117873.6400000006],[605536.1100000003,4117869.869999999],[605534.4299999997,4117866.0999999996],[605534.21,4117864.210000001],[605532.4299999997,4117861.0600000005],[605531.2800000003,4117859.8100000005],[605530.54,4117857.710000001],[605530.2199999997,4117853.7200000007],[605528.75,4117851.3100000005],[605528.0199999996,4117849.3200000003],[605527.9100000001,4117847.75],[605526.0199999996,4117843.0299999993],[605524.8600000003,4117838.0999999996],[605524.96,4117832.2200000007],[605523.3899999997,4117824.99],[605519.6100000003,4117818.0700000003],[605519.5999999996,4117815.76],[605519.5,4117815.4499999993],[605517.0899999999,4117814.289999999],[605516.5599999996,4117812.9299999997],[605516.3499999996,4117809.5700000003],[605514.6699999999,4117806.4299999997],[605514.46,4117803.91],[605515.2999999998,4117801.710000001],[605515.0800000001,4117796.25],[605513.0800000001,4117785.24],[605512.6600000001,4117784.7200000007],[605511.7199999997,4117784.51],[605510.8799999999,4117784.6099999994],[605509.0999999996,4117785.5600000005],[605508.3600000003,4117785.0299999993],[605506.8899999997,4117781.8900000006],[605506.7800000003,4117779.58],[605506.8799999999,4117768.039999999],[605506.0899999999,4117757.1400000006],[605505.2999999998,4117746.2300000004],[605503.25,4117735.74],[605501.1900000004,4117725.25],[605497.7199999997,4117715.8200000003],[605495.8300000001,4117709.210000001],[605495.7199999997,4117694.9399999995],[605494.4500000002,4117682.99],[605494.9699999997,4117680.99],[605495.29,4117680.3599999994],[605495.29,4117679.9399999995],[605494.6600000001,4117678.6899999995],[605491.6100000003,4117675.2300000004],[605491.1900000004,4117670.51],[605492.1299999999,4117668.3000000007],[605494.8600000003,4117664.42],[605494.8600000003,4117662.8499999996],[605492.1299999999,4117658.0199999996],[605489.0800000001,4117653.9399999995],[605489.8200000003,4117652.1500000004],[605490.1299999999,4117647.75],[605489.5999999996,4117646.0700000003],[605487.6100000003,4117642.289999999],[605486.5599999996,4117641.67],[605485.8200000003,4117640.41],[605485.8200000003,4117639.460000001],[605485.6100000003,4117638.7300000004],[605485.1900000004,4117632.75],[605483.2999999998,4117629.08],[605483.1900000004,4117628.3499999996],[605484.5499999998,4117624.880000001],[605484.6600000001,4117623.0],[605484.5499999998,4117622.16],[605483.71,4117620.6899999995],[605483.5,4117618.6999999993],[605486.0099999998,4117608.0999999996],[605487.4800000004,4117606.42],[605487.5800000001,4117605.58],[605487.1600000001,4117604.5299999993],[605482.7599999998,4117599.8200000003]]}},{"type":"Feature","properties":{"source":"DERA/IECA","id_dera":10125300000566.0},"geometry":{"type":"LineString","coordinates":[[606709.3499999996,4121077.6099999994],[606703.4800000004,4121068.3100000005],[606696.5599999996,4121054.91],[606689.6399999997,4121041.5199999996],[606688.5,4121033.8599999994],[606686.8200000003,4121027.119999999],[606685.0899999999,4121017.66],[606683.1900000004,4121013.789999999],[606677.9100000001,4121000.369999999],[606672.7699999996,4120989.3200000003],[606667.6299999999,4120978.2699999996],[606663.5700000003,4120968.66],[606661.5300000003,4120966.24],[606659.8099999996,4120964.83],[606658.6299999999,4120962.6999999993],[606653.3300000001,4120951.2799999993],[606651.8200000003,4120947.34],[606649.9800000004,4120944.66],[606647.71,4120936.8599999994],[606645.0800000001,4120932.8499999996],[606638.46,4120919.289999999],[606636.3700000001,4120914.5500000007],[606634.21,4120909.08],[606629.7000000002,4120898.99],[606626.7000000002,4120891.0500000007],[606622.25,4120880.67],[606617.8099999996,4120870.289999999],[606613.2000000002,4120863.5999999996],[606612.0899999999,4120860.7300000004],[606611.6600000001,4120855.869999999],[606607.4199999999,4120844.8599999994],[606605.0499999998,4120841.8499999996],[606604.1299999999,4120839.3100000005],[606600.04,4120835.2200000007],[606599.7199999997,4120833.960000001],[606600.3399999999,4120830.5700000003],[606599.7000000002,4120827.9700000007],[606593.4900000002,4120817.67],[606587.2800000003,4120807.380000001],[606585.3600000003,4120805.83],[606584.3799999999,4120803.5],[606582.1399999997,4120791.0999999996],[606580.3099999996,4120786.3599999994],[606580.1900000004,4120784.6999999993],[606578.6799999997,4120782.289999999],[606576.9000000004,4120780.4800000004],[606575.8499999996,4120778.74],[606575.79,4120777.1500000004],[606575.3399999999,4120775.75],[606572.7599999998,4120773.5999999996],[606572.3700000001,4120772.5999999996],[606572.6600000001,4120768.869999999],[606572.0700000003,4120767.869999999],[606570.75,4120767.130000001],[606565.7699999996,4120765.49],[606562.8099999996,4120760.9399999995],[606558.7000000002,4120750.33],[606554.5800000001,4120739.7200000007],[606550.5899999999,4120722.66],[606548.4000000004,4120712.630000001],[606546.21,4120702.59],[606542.9000000004,4120692.6500000004],[606537.1799999997,4120682.960000001],[606536.0599999996,4120672.51],[606535.0199999996,4120669.24],[606530.6200000001,4120661.49],[606530.5,4120659.76],[606530.9100000001,4120658.289999999],[606530.5300000003,4120655.76],[606527.1799999997,4120650.9499999993],[606526.0,4120648.210000001],[606526.0199999996,4120645.880000001],[606526.8300000001,4120643.2200000007],[606526.9199999999,4120641.16],[606521.4100000001,4120630.869999999],[606520.2599999998,4120624.41],[606517.6200000001,4120621.4000000004],[606515.4299999997,4120619.8499999996],[606513.9199999999,4120617.7699999996],[606513.2800000003,4120614.51],[606511.7599999998,4120604.1799999997],[606511.9100000001,4120601.99],[606512.5199999996,4120600.66],[606513.1900000004,4120599.9399999995],[606519.4000000004,4120596.99],[606520.8099999996,4120595.8000000007],[606521.0199999996,4120594.2699999996],[606519.1799999997,4120590.9299999997],[606516.9299999997,4120589.7799999993],[606513.1299999999,4120590.5500000007],[606495.8300000001,4120599.2699999996],[606487.1500000004,4120602.2699999996],[606472.4000000004,4120607.9399999995],[606466.3499999996,4120608.3000000007],[606461.8300000001,4120607.0700000003],[606454.1500000004,4120602.3499999996],[606443.1600000001,4120594.41],[606435.5300000003,4120587.9000000004],[606427.8899999997,4120581.3900000006],[606425.3200000003,4120577.7799999993],[606419.1200000001,4120562.09],[606414.96,4120548.9499999993],[606412.2199999997,4120541.4800000004],[606406.3899999997,4120529.789999999],[606399.2300000004,4120516.6899999995],[606394.8499999996,4120506.41],[606391.0300000003,4120497.130000001],[606387.21,4120487.8499999996],[606382.6799999997,4120474.9399999995],[606378.1600000001,4120462.0299999993],[606371.4900000002,4120446.5500000007],[606366.5999999996,4120437.5600000005],[606361.71,4120428.5700000003],[606359.04,4120420.369999999],[606352.54,4120408.539999999],[606349.7300000004,4120402.4000000004],[606345.6699999999,4120393.0500000007],[606341.6200000001,4120383.6999999993],[606339.6500000004,4120380.09],[606339.2199999997,4120375.2300000004],[606338.5099999998,4120372.9000000004],[606328.9100000001,4120357.59],[606328.2000000002,4120354.3200000003],[606328.3099999996,4120348.7300000004],[606324.3600000003,4120343.3100000005],[606320.7199999997,4120332.3100000005],[606314.9699999997,4120322.6099999994],[606309.2199999997,4120312.92],[606306.6900000004,4120303.8499999996],[606303.3600000003,4120295.039999999],[606304.3200000003,4120292.3200000003],[606303.7999999998,4120290.59],[606301.3499999996,4120288.91],[606297.1200000001,4120284.42],[606296.2199999997,4120281.08],[606297.0,4120274.9000000004],[606293.1299999999,4120267.289999999],[606292.96,4120262.83],[606291.7800000003,4120260.619999999],[606289.6600000001,4120258.9399999995],[606288.2800000003,4120257.33],[606280.3899999997,4120245.0999999996],[606279.4800000004,4120242.0299999993],[606279.2999999998,4120239.630000001],[606276.8799999999,4120233.8200000003],[606271.5700000003,4120223.5999999996],[606269.6699999999,4120219.130000001],[606265.7800000003,4120209.6500000004],[606261.9000000004,4120200.17],[606256.7199999997,4120189.75],[606256.2699999996,4120187.09],[606252.6100000003,4120170.3599999994],[606251.3399999999,4120162.0299999993],[606244.1100000003,4120150.5999999996],[606242.5499999998,4120145.130000001],[606238.8399999999,4120134.3900000006],[606235.1299999999,4120123.6500000004],[606229.6699999999,4120115.0199999996],[606228.5300000003,4120107.2300000004],[606221.8300000001,4120096.0],[606219.3399999999,4120090.789999999],[606214.29,4120076.3100000005],[606209.2400000002,4120061.83],[606202.8200000003,4120049.41],[606202.4400000004,4120046.6099999994],[606202.7300000004,4120043.75],[606201.9500000002,4120041.0199999996],[606200.8300000001,4120039.6799999997],[606193.2699999996,4120027.9700000007],[606190.3300000001,4120020.6999999993],[606187.2400000002,4120015.09],[606183.29,4120000.42],[606176.6100000003,4119987.0600000005],[606174.5199999996,4119981.7200000007],[606171.6399999997,4119975.4399999995],[606167.8600000003,4119964.130000001],[606164.0899999999,4119952.83],[606156.6200000001,4119937.460000001],[606152.6699999999,4119928.25],[606148.71,4119919.039999999],[606145.2300000004,4119913.09],[606144.5199999996,4119910.3599999994],[606144.2800000003,4119906.4299999997],[606143.5700000003,4119904.0299999993],[606138.1399999997,4119891.6799999997],[606132.7300000004,4119880.119999999],[606127.3300000001,4119868.5700000003],[606123.8499999996,4119858.5299999993],[606120.3600000003,4119848.49],[606116.6200000001,4119838.25],[606112.8700000001,4119828.0],[606108.0599999996,4119812.9299999997],[606103.0899999999,4119801.1099999994],[606098.1200000001,4119789.3000000007],[606096.5499999998,4119786.3599999994],[606096.3099999996,4119782.3000000007],[606097.21,4119769.26],[606091.8499999996,4119756.8100000005],[606086.4900000002,4119744.3599999994],[606079.2400000002,4119726.0700000003],[606076.5099999998,4119717.33],[606069.4400000004,4119702.1799999997],[606067.5800000001,4119693.1099999994],[606062.71,4119676.5700000003],[606058.6399999997,4119664.5600000005],[606054.5800000001,4119652.5600000005],[606048.6399999997,4119636.8100000005],[606046.4800000004,4119631.67],[606044.5599999996,4119630.3900000006],[606044.1600000001,4119630.380000001],[606042.96,4119631.6400000006],[606041.2199999997,4119631.8900000006],[606039.9699999997,4119630.9499999993],[606037.4699999997,4119626.4700000007],[606034.1500000004,4119616.7699999996],[606030.8300000001,4119607.0600000005],[606027.5499999998,4119592.5299999993],[606025.6299999999,4119581.9700000007],[606023.7199999997,4119571.41],[606021.6399999997,4119564.74],[606017.1200000001,4119555.49],[606012.5999999996,4119546.24],[606011.79,4119538.380000001],[606010.1600000001,4119533.7699999996],[606006.21,4119523.7300000004],[606002.2599999998,4119513.6799999997],[605999.5999999996,4119504.6799999997],[605993.9400000004,4119492.33],[605988.2800000003,4119479.9700000007],[605987.5099999998,4119475.58],[605984.8700000001,4119464.4399999995],[605983.3799999999,4119459.24],[605981.9699999997,4119451.4499999993],[605981.25,4119450.58],[605979.9199999999,4119450.2300000004],[605979.3899999997,4119450.3599999994],[605978.8399999999,4119451.6899999995],[605978.5499999998,4119455.5500000007],[605978.1399999997,4119456.08],[605977.75,4119456.01],[605976.5599999996,4119454.5999999996],[605975.6399999997,4119452.5999999996],[605975.5300000003,4119450.4700000007],[605976.8099999996,4119448.01],[605977.2199999997,4119446.0199999996],[605977.1699999999,4119443.960000001],[605974.4400000004,4119436.2200000007],[605971.6600000001,4119433.2699999996],[605968.7199999997,4119427.119999999],[605967.54,4119415.0700000003],[605966.7199999997,4119409.34],[605965.5999999996,4119407.8000000007],[605962.6200000001,4119405.8499999996],[605962.1699999999,4119404.1799999997],[605961.9299999997,4119400.460000001],[605959.6100000003,4119390.99],[605954.8099999996,4119374.4499999993],[605952.0599999996,4119368.369999999],[605947.6200000001,4119357.2300000004],[605941.8200000003,4119349.2699999996],[605934.2999999998,4119332.9700000007],[605930.1500000004,4119318.369999999],[605926.1799999997,4119306.3599999994],[605923.5800000001,4119289.039999999],[605923.0899999999,4119283.25],[605921.4699999997,4119277.51],[605918.0,4119266.4399999995],[605914.5199999996,4119255.369999999],[605909.3600000003,4119242.289999999],[605904.21,4119229.1999999993],[605901.2800000003,4119220.33],[605898.0300000003,4119210.0600000005],[605894.7800000003,4119199.789999999],[605891.1799999997,4119192.1099999994],[605886.46,4119183.16],[605884.5700000003,4119176.75],[605883.6200000001,4119171.5600000005],[605879.8099999996,4119155.619999999],[605876.6100000003,4119147.210000001],[605872.25,4119134.210000001],[605868.1100000003,4119122.5],[605863.96,4119110.789999999],[605859.8200000003,4119099.08],[605855.6699999999,4119087.369999999],[605851.5300000003,4119075.66],[605847.3799999999,4119063.9499999993],[605843.2400000002,4119052.24],[605839.0899999999,4119040.5299999993],[605833.3600000003,4119024.7799999993],[605827.6200000001,4119009.0299999993],[605822.54,4118994.76],[605817.46,4118980.4800000004],[605812.3799999999,4118966.1999999993],[605807.29,4118951.92],[605803.3399999999,4118937.58],[605799.3899999997,4118923.25],[605795.4400000004,4118908.91],[605791.4900000002,4118894.5700000003],[605788.46,4118882.4399999995],[605785.4199999999,4118870.3100000005],[605782.3899999997,4118858.17],[605779.3499999996,4118846.039999999],[605775.0499999998,4118834.4299999997],[605770.7400000002,4118822.8200000003],[605766.4400000004,4118811.210000001],[605762.1299999999,4118799.5999999996],[605758.2300000004,4118787.7200000007],[605754.3300000001,4118775.8499999996],[605750.4299999997,4118763.9700000007],[605746.5199999996,4118752.0999999996],[605743.1500000004,4118740.8900000006],[605739.7699999996,4118729.6899999995],[605738.5199999996,4118718.8200000003],[605737.2699999996,4118707.9499999993],[605736.0199999996,4118697.0700000003],[605734.7599999998,4118686.1999999993],[605734.0199999996,4118675.9800000004],[605733.2800000003,4118665.75],[605731.8099999996,4118657.5700000003],[605729.7199999997,4118648.8100000005]]}},{"type":"Feature","properties":{"source":"DERA/IECA","id_dera":10125300001130.0},"geometry":{"type":"LineString","coordinates":[[606808.1741160596,4121250.0],[606805.3300000001,4121246.09],[606794.5599999996,4121231.2799999993],[606791.4800000004,4121222.58],[606790.0099999998,4121210.74],[606789.0499999998,4121199.8200000003],[606788.0999999996,4121188.91],[606781.1100000003,4121175.960000001],[606775.6900000004,4121164.880000001],[606769.9900000002,4121156.42],[606763.8300000001,4121146.9700000007],[606757.6699999999,4121137.5199999996],[606751.5099999998,4121128.0600000005],[606745.3499999996,4121118.6099999994],[606737.7999999998,4121110.4000000004],[606727.9000000004,4121100.8499999996],[606717.9900000002,4121091.3000000007],[606709.3499999996,4121077.6099999994]]}}]}
