{"type":"FeatureCollection","name":"vera-coast-buildings","crs":{"type":"name","properties":{"name":"EPSG:25830"}},"source":"Direcci\u00f3n General del Catastro, INSPIRE BU","features":[{"type":"Feature","properties":{"id":"urban-mass","floors":2,"height":6.2,"heightSource":"overview-generalisation"},"geometry":{"type":"MultiPolygon","coordinates":[[[[606412.8939810192,4121245.358219431],[606421.4042540457,4121252.30434616],[606432.8484535093,4121242.5168228135],[606431.6231795843,4121226.990848005],[606450.3579974246,4121220.450891739],[606449.8923601997,4121205.255198651],[606432.4053905885,4121206.132945724],[606412.8939810192,4121245.358219431]]],[[[606472.5300435812,4121224.179988642],[606453.537315154,4121240.556957252],[606463.9792063739,4121248.5531028854],[606495.0850704848,4121209.8217154914],[606479.1466755146,4121202.8352505225],[606472.5300435812,4121224.179988642]]],[[[606477.3097488751,4121189.1490826416],[606503.6063617413,4121170.2186265206],[606528.7381787599,4121177.3363256706],[606586.6893640258,4121142.1139095486],[606579.9134616494,4121121.628897644],[606591.6825559705,4121102.357395802],[606612.1275747144,4121120.718188362],[606625.3768608045,4121112.2373534967],[606591.9494022296,4121046.5629703808],[606597.9868741223,4121030.7533257287],[606579.7378795721,4121025.300692038],[606569.4334188363,4120997.5622693617],[606556.6793349646,4120995.1577941813],[606493.3572596144,4121036.3179227705],[606474.5784254265,4121030.026736002],[606480.6226945766,4121015.649381906],[606550.1828209454,4120978.958443697],[606548.9429775862,4120959.993710054],[606455.2902305359,4121009.5772637744],[606457.6086273663,4121042.3020890974],[606394.0814206591,4121105.2544680894],[606440.2705526012,4121164.5935056284],[606490.6950337724,4121124.1994424635],[606502.013979341,4121126.0023571877],[606498.7931654957,4121165.066510367],[606475.730190954,4121161.0921924952],[606460.3813575611,4121176.201198784],[606477.3097488751,4121189.1490826416]],[[606544.1479266805,4121055.6646681386],[606559.7120360424,4121036.6403765497],[606569.3596036636,4121042.593763296],[606592.285521971,4121101.8326838175],[606566.2636700555,4121095.139128377],[606563.9801840803,4121075.9427377894],[606544.1479266805,4121055.6646681386]],[[606540.25768973,4121100.8147060424],[606547.6169878846,4121090.725331576],[606559.5107100465,4121098.2388608917],[606549.0198442453,4121111.4259548574],[606540.25768973,4121100.8147060424]],[[606515.3547391273,4121112.152416522],[606524.1374173459,4121105.1685885666],[606534.4349456948,4121114.330093306],[606521.8741758515,4121124.2962871506],[606515.3547391273,4121112.152416522]],[[606496.3397149212,4121105.7083097734],[606481.9680233927,4121076.474551457],[606498.1932711166,4121074.6110175787],[606515.6755837598,4121095.1696122102],[606496.3397149212,4121105.7083097734]],[[606448.7352858079,4121139.8021719027],[606423.6891977538,4121114.2048970517],[606459.8066777021,4121090.326081589],[606477.8270914394,4121119.5292958724],[606448.7352858079,4121139.8021719027]]],[[[606091.0533610851,4120691.9569106176],[606062.9372536793,4120721.421123046],[606076.9364210169,4120775.4863260817],[606127.9901132424,4120806.5757664843],[606131.8943856211,4120822.070090203],[606179.8521669405,4120833.093856913],[606195.5224430938,4120832.9325233293],[606214.3715156307,4120780.219046465],[606246.2375203333,4120777.7467378504],[606264.2947449748,4120748.0865198635],[606292.0990759584,4120748.092819676],[606309.0149443874,4120713.053128568],[606341.201138496,4120695.8972026785],[606348.933908448,4120707.3897895324],[606322.5161470386,4120738.557796728],[606372.0856539811,4120820.0091364984],[606535.8874429935,4120792.415645242],[606506.7251571753,4120716.8598032147],[606465.3366544916,4120702.143084502],[606444.774381104,4120669.186526525],[606423.3934585393,4120671.4229267035],[606439.558674792,4120643.5528354165],[606426.0415945742,4120627.873156895],[606377.3951184794,4120673.963067441],[606338.3815508515,4120626.350272159],[606266.6922024214,4120671.682432688],[606253.2677836956,4120697.9965547323],[606224.372744397,4120698.7323951065],[606211.0749291442,4120725.6257135705],[606181.6054161121,4120726.110323197],[606168.5615499401,4120753.1337987026],[606130.7598526998,4120757.2728636246],[606121.0364986064,4120747.261151923],[606140.2133813126,4120708.491094806],[606170.1793559003,4120707.2459855373],[606188.2026324921,4120677.499204779],[606212.4305527568,4120679.61519826],[606230.2005256169,4120650.308151108],[606254.7547229034,4120652.860397964],[606324.7421392623,4120607.0944308783],[606317.6794907188,4120580.7722398774],[606336.5526832907,4120573.820565063],[606337.3516455396,4120553.133295698],[606360.0679278142,4120556.950891731],[606373.9624352623,4120546.053240004],[606345.5493675327,4120492.4575471035],[606330.809854222,4120502.642441728],[606329.6253188961,4120522.7748195287],[606300.8787625079,4120535.819805075],[606222.9239860944,4120529.2101407317],[606232.0731286551,4120466.9527665838],[606258.6429901579,4120470.205644115],[606264.5462091682,4120486.606805754],[606289.7098984697,4120490.5323177697],[606300.6578947849,4120466.7120333016],[606323.9706293733,4120482.069234937],[606335.3622163535,4120471.4040798354],[606329.8541650757,4120460.3793968027],[606300.0417552951,4120459.1029283707],[606303.0176113627,4120387.935985481],[606297.1827795838,4120375.6902363016],[606275.1789242178,4120372.7499740827],[606263.9002760883,4120350.8298245994],[606217.8274169096,4120368.6565455976],[606207.0950459765,4120389.2012068364],[606165.0287130659,4120376.0100032385],[606167.5069051943,4120401.931755897],[606152.2178570209,4120407.3600940825],[606138.5562020879,4120504.4027711335],[606154.3180999454,4120514.7649827194],[606151.231906827,4120547.6906446023],[606139.223801073,4120563.104503627],[606158.7567170816,4120584.7964225328],[606208.4150955924,4120591.498931917],[606230.0904340977,4120581.7339930926],[606247.5954502282,4120596.7865126138],[606279.3152365114,4120597.204758831],[606282.4269984547,4120608.2319081337],[606256.8464433766,4120624.9833633266],[606172.913882631,4120628.3727116287],[606157.6230601278,4120623.7061816454],[606155.0307508894,4120603.489797199],[606136.5107184728,4120600.078696972],[606119.05001394,4120629.215143528],[606089.1509671884,4120631.1312141595],[606072.48388082,4120673.6730125532],[606091.0533610851,4120691.9569106176]],[[606401.0687800699,4120788.405437194],[606371.5473289719,4120736.732143351],[606410.7729104167,4120699.7547727246],[606436.5475973912,4120713.7634928417],[606468.3639216769,4120768.340495542],[606401.0687800699,4120788.405437194]],[[606278.2630582153,4120592.9291486475],[606255.9045405583,4120568.800570962],[606266.0408138867,4120563.0693976404],[606293.6598208434,4120563.455036719],[606302.3564296381,4120575.411674302],[606278.2630582153,4120592.9291486475]],[[606166.0905972252,4120492.969303939],[606176.1227922848,4120403.3245695233],[606275.9824860333,4120381.505761405],[606268.0023506711,4120425.921927783],[606211.3893798809,4120421.9974489347],[606205.3869441642,4120504.329999185],[606166.0905972252,4120492.969303939]],[[606165.0123442035,4120559.6452328083],[606168.8299751033,4120548.251843964],[606192.2844095405,4120549.0911309198],[606204.9291291765,4120565.7046459285],[606184.5269924741,4120578.1779798125],[606165.0123442035,4120559.6452328083]],[[606190.2410717484,4120530.777196362],[606188.9391837976,4120519.28462727],[606201.5227487979,4120517.033365171],[606202.3640351838,4120530.2875395115],[606190.2410717484,4120530.777196362]]],[[[605951.1844408776,4120833.260477594],[605953.5268637966,4120856.4937674976],[606007.4881973037,4120940.5531724864],[605988.9444159309,4120964.262305783],[606086.1221842059,4121096.739420039],[606127.2296790064,4121114.7067469703],[606150.1835141695,4121097.655151996],[606171.3412779028,4121111.4265645132],[606187.0309233783,4121137.4742864626],[606176.5741197234,4121152.206101837],[606196.6829376469,4121228.8135613077],[606224.9576615787,4121180.40083925],[606263.482576691,4121171.62741144],[606279.7909765847,4121184.857101461],[606283.0603028558,4121162.5574666965],[606356.7362400367,4121129.018959615],[606353.8260872852,4121113.63907869],[606322.9696852015,4121115.7973878756],[606316.2576624457,4121128.425154108],[606307.3059642348,4121118.6124586947],[606395.7296666454,4121050.586814199],[606436.7279188671,4120999.120672704],[606419.3883255472,4120985.2037498862],[606335.3146794825,4121067.9044825085],[606279.9013335905,4121108.2202924057],[606229.569235016,4121126.1894617407],[606226.6368651196,4121112.7034670324],[606354.6372687706,4121018.84201929],[606364.4578388514,4121008.0509503167],[606359.9331816181,4120994.1560088494],[606349.5928779489,4120991.8579632407],[606196.1577432681,4121099.202058185],[606193.9666842638,4121085.9995004633],[606311.9919608039,4120996.7405164577],[606286.2168707747,4120953.761884078],[606248.3263205928,4120969.3230486773],[606227.0906241791,4120943.6996499454],[606106.2613621295,4121041.09777273],[606081.1759564368,4121047.7139636185],[606064.6856181239,4121026.780377912],[606072.7434661597,4121006.741941516],[606029.4508693577,4120948.921564291],[606015.9709231372,4120944.616299942],[606019.8543208716,4120929.224359546],[606003.0497994422,4120897.939674537],[606011.7920901201,4120890.9453499196],[606098.773312357,4120905.983084346],[606114.4465658658,4120850.3430939964],[605981.76237822,4120826.933448941],[605951.1844408776,4120833.260477594]],[[606143.0807350149,4121077.7856501336],[606152.6758528061,4121085.7784605986],[606144.0405464928,4121095.9679904357],[606134.085393037,4121086.0521075455],[606143.0807350149,4121077.7856501336]],[[606121.6478002386,4121049.320472192],[606132.1484391309,4121056.441339926],[606124.2908015567,4121068.5300271986],[606112.8212613123,4121058.3979080757],[606121.6478002386,4121049.320472192]],[[605992.7299250866,4120885.2778801345],[605999.6142718865,4120875.2008682135],[606009.5541287068,4120882.7404843294],[606002.4616814227,4120893.3058038414],[605992.7299250866,4120885.2778801345]],[[605986.1330018754,4120848.520384579],[605992.9444798777,4120858.180866555],[605983.2765525171,4120865.6531199445],[605975.6708968594,4120855.1386393122],[605986.1330018754,4120848.520384579]]],[[[606265.0434600026,4120884.502674206],[606276.339468582,4120901.618509596],[606305.6677272652,4120854.802256344],[606346.9433587845,4120829.340640576],[606340.6023303021,4120813.8163492377],[606276.2176693794,4120842.722242439],[606265.0434600026,4120884.502674206]]],[[[606261.7617239733,4120822.3851323347],[606319.7650558264,4120783.244270751],[606311.6473899668,4120764.8693476073],[606249.100013834,4120802.1589888106],[606261.7617239733,4120822.3851323347]]],[[[606193.8426505218,4120266.8714057603],[606210.1195990532,4120313.582768126],[606239.0612146456,4120312.2856999487],[606243.1966894458,4120287.3127773623],[606209.4495354734,4120252.453154835],[606193.8426505218,4120266.8714057603]]],[[[605561.5729998291,4120113.389497993],[605593.4090135841,4120186.2483513705],[605624.368719437,4120214.9578323625],[605619.2362937008,4120236.998393955],[605652.7387264282,4120307.6983052352],[605664.6755685403,4120310.156527922],[605701.302157088,4120268.309403886],[605731.1292133946,4120165.0071648727],[605748.6160172677,4120155.222819125],[605766.0046807759,4120283.547617289],[605855.7936559337,4120328.1000314183],[605946.0954030566,4120313.949861784],[605973.9130580046,4120343.881412173],[605964.077957021,4120360.3850547345],[605991.1239428631,4120424.269967775],[606030.0186939355,4120410.4474064647],[606029.878133414,4120392.6864039125],[606046.6233916457,4120379.259468167],[606082.6952763343,4120369.7604600005],[606119.4908000532,4120323.7941859],[606166.5367799867,4120307.591076351],[606155.5378749818,4120285.859811664],[606112.9409348797,4120293.2017935687],[606096.0637071173,4120257.266368374],[606128.5926229814,4120222.993434032],[606094.9012150721,4120198.7968489365],[606074.8180142117,4120206.0055118743],[606058.1711548703,4120198.2769026184],[606045.1615507655,4120221.1811258877],[606027.547300899,4120221.338021702],[606002.386075497,4120245.727561865],[605978.8119065934,4120226.413590531],[605949.277614466,4120236.8000331167],[605906.2862891048,4120219.3453887757],[605889.437796054,4120229.8611281947],[605847.1605857562,4120230.8136503366],[605841.6708685223,4120215.989610878],[605891.6259976709,4120190.6957677277],[605892.8208295889,4120167.803567033],[605856.0767423015,4120173.9271072852],[605847.568782042,4120156.042808473],[605833.6202142194,4120153.77972353],[605810.648681219,4120161.6245142436],[605806.4916630049,4120138.0425039665],[605784.4713889066,4120125.552438436],[605749.5791705467,4120125.976361177],[605747.6968604971,4120109.83889593],[605717.3857595518,4120097.009043898],[605693.6837074729,4120057.5337609514],[605585.7618005255,4120088.1737422985],[605561.5729998291,4120113.389497993]],[[606064.7267871923,4120252.636109636],[606079.762686967,4120245.61886594],[606093.1462964076,4120264.2346088258],[606077.0679083118,4120272.063015187],[606064.7267871923,4120252.636109636]],[[606035.7713538042,4120250.640377887],[606053.7637494935,4120258.9899862353],[606050.7818956214,4120271.117295786],[606030.0776192365,4120268.160681399],[606035.7713538042,4120250.640377887]],[[606032.0566440907,4120345.9399323314],[606041.5914217606,4120339.471022455],[606048.1424514024,4120348.6976921167],[606037.971870485,4120357.181546863],[606032.0566440907,4120345.9399323314]],[[605919.8004595796,4120277.480439009],[605930.3828175254,4120252.1254639733],[605946.7957939641,4120254.0310531068],[605943.7051005096,4120310.719884305],[605931.9593014548,4120308.5074788397],[605919.8004595796,4120277.480439009]],[[605765.7672536128,4120213.186246742],[605810.5724686598,4120202.0816666977],[605818.8232901028,4120228.473742752],[605802.9385481504,4120239.3071674155],[605791.8118416414,4120228.410015393],[605770.116540722,4120229.8221791927],[605765.7672536128,4120213.186246742]],[[605768.8976270859,4120149.194292666],[605773.6045789522,4120137.8192177135],[605789.965132379,4120142.591700793],[605779.0978095931,4120155.434234479],[605768.8976270859,4120149.194292666]],[[605590.6306802072,4120138.2745269155],[605612.4812895504,4120117.527738342],[605694.084674498,4120095.5567406607],[605728.8439467993,4120127.4290586403],[605719.4264069645,4120167.622373613],[605651.5705722335,4120140.5864786706],[605624.2891872785,4120145.786793143],[605607.8169194425,4120167.5917159305],[605590.6306802072,4120138.2745269155]]],[[[605790.7742331844,4120113.8135625324],[605842.0691872336,4120104.0738388957],[605890.582143032,4120120.2858972256],[605893.5885399012,4120103.766218713],[605849.6054641778,4120091.9346181415],[605842.7362430532,4120077.902168763],[605892.6121882135,4120062.989097144],[605896.2765299287,4120047.419164899],[605829.0148533462,4120053.951947295],[605810.3171651857,4120096.34224602],[605780.6490978226,4120096.6456360864],[605790.7742331844,4120113.8135625324]]],[[[605910.4166530436,4120107.9763739007],[605934.1042178717,4120123.5492255767],[605933.3117976832,4120141.621991168],[605965.2267163249,4120174.605632634],[606002.8138934515,4120177.454926397],[606037.3321441064,4120156.8242700747],[606033.3847889419,4120134.5915428945],[606057.3548599975,4120123.175087146],[606058.2940677523,4120080.8423112063],[606029.9874265136,4120086.8750312645],[606032.4885273965,4120134.566533795],[606012.4058303041,4120154.505989644],[605984.2504433409,4120160.287375744],[605957.623935702,4120144.6644504596],[605967.6144439459,4120130.97589383],[605988.5776094565,4120137.415051838],[606014.2343730696,4120118.477624898],[605997.7241632264,4120087.125480439],[605976.4759736783,4120092.1254196675],[605969.2044995297,4120084.2041340955],[605971.6017779637,4120060.6628759243],[605992.202797321,4120055.0804575365],[605989.7490308014,4120007.4108153847],[606001.8668267045,4120007.886874091],[606012.438121222,4120031.7540968712],[606023.1573195785,4120027.5505164373],[606010.4009008441,4119978.9060596023],[605985.7683108138,4119996.4026672],[605937.9330000775,4119995.858221915],[605936.3432454311,4120023.6481864015],[605909.5143453395,4120025.2843927382],[605912.0183829926,4120041.025712284],[605953.8729123086,4120057.9073381377],[605944.6621809013,4120082.5912007517],[605927.0863304129,4120057.0327836266],[605914.8612483487,4120062.5758613944],[605910.2118928449,4120076.5258882456],[605922.148558666,4120094.281655407],[605910.4166530436,4120107.9763739007]],[[605960.9617392317,4120060.949026837],[605953.3739133112,4120051.6386808353],[605964.5855810811,4120042.681573892],[605973.0361267503,4120054.4288694286],[605960.9617392317,4120060.949026837]],[[605954.742587919,4120032.5547626037],[605952.7053865958,4120019.8811207814],[605969.300876359,4120018.1318521476],[605967.8927132223,4120033.857153589],[605954.742587919,4120032.5547626037]],[[605948.2312437175,4120105.605267714],[605950.5333771338,4120094.1529955612],[605963.2184312792,4120096.8410593714],[605959.9868643997,4120109.6019846317],[605948.2312437175,4120105.605267714]]],[[[605966.177410145,4120452.3565904857],[606039.7118015705,4120605.2131340574],[606120.1148087835,4120565.4041172024],[606109.4667715882,4120545.3012447534],[606060.584913563,4120573.8981260764],[606046.713814399,4120561.497972465],[606068.2682244617,4120542.2255239766],[606098.3609292064,4120534.3013604768],[606109.1661695916,4120541.840343475],[606121.3148398647,4120527.4641897227],[606110.2191293365,4120489.1286584376],[606083.2254759794,4120477.878938186],[606092.7514070891,4120465.160950087],[606108.1487849993,4120472.1903399155],[606125.2018063552,4120462.5561987204],[606097.981931549,4120396.2125689774],[606079.7248574628,4120404.697118841],[606087.0531372618,4120447.3723368444],[606046.6580036222,4120438.330166979],[606038.7466397138,4120453.815243034],[606019.2497312268,4120447.067680496],[606000.2495951754,4120465.4067394314],[605983.8904229198,4120442.0924819927],[605966.177410145,4120452.3565904857]],[[606002.7174386377,4120482.916354927],[606010.6358638735,4120471.5865973816],[606032.0176914117,4120485.96652412],[606053.9457160927,4120465.2234495645],[606076.8005835491,4120477.6199626615],[606057.5024506841,4120498.580457649],[606032.1813558843,4120493.3851952534],[606019.077992465,4120506.3448595502],[606002.7174386377,4120482.916354927]],[[606059.452565467,4120515.9899272253],[606068.744391319,4120509.8136346466],[606075.9745525589,4120519.2211594447],[606065.7411391895,4120526.5479581426],[606059.452565467,4120515.9899272253]]],[[[605600.415279822,4119556.645410226],[605642.4897792556,4119712.07535564],[605673.4571089253,4119762.477295905],[605662.1221575793,4119782.318398827],[605675.9729236296,4119824.204291419],[605697.4670804074,4119826.133084266],[605702.6363213225,4119845.181962773],[605821.9390846723,4119814.3651151787],[605897.5047515301,4119901.9038244113],[605925.11390346,4119905.0289037456],[606038.232981056,4119844.6948571783],[606038.6477747944,4119821.1073425957],[606015.3261704163,4119806.82599747],[605994.4467890208,4119812.7479661303],[605961.8404143689,4119846.8803210724],[605933.5668190096,4119821.6122779935],[605897.0723174228,4119832.0619213395],[605883.1038588053,4119803.7417370793],[605920.9501742157,4119768.1462866827],[605897.9855495585,4119732.9949884536],[605817.8394345765,4119736.5241827704],[605731.6976706022,4119755.388742195],[605725.3644254026,4119713.6295386623],[605856.5919423925,4119674.6666544424],[605866.7419851519,4119660.286744821],[605857.2406140411,4119627.8898058473],[605892.7505330283,4119625.083201408],[605896.0270422006,4119641.5056091393],[605885.2532826897,4119652.065084649],[605892.7024533881,4119671.5480346777],[605911.3512790882,4119665.971074662],[605935.0897898092,4119638.5121357967],[605956.6640456648,4119639.9206816093],[605953.67158133,4119628.8933756626],[605934.9197597204,4119632.5593627277],[605893.5001780937,4119595.9658668987],[605892.975101673,4119582.03347675],[605906.5805692254,4119574.615371329],[605932.3382511295,4119592.4002973363],[605920.3312678335,4119564.937086838],[605901.0443086271,4119562.509693612],[605833.8890421941,4119593.162007161],[605822.2742357778,4119554.9381108694],[605789.8890490725,4119513.743272638],[605798.8942734563,4119495.5498494064],[605793.0754166079,4119483.7356876014],[605735.9152681165,4119472.1410143683],[605699.7565931798,4119498.587868472],[605633.7842476751,4119485.0011696843],[605617.0657433302,4119492.01170155],[605598.5616278021,4119513.9172836225],[605600.415279822,4119556.645410226]],[[605696.9597213996,4119657.245026406],[605688.8136027396,4119639.6279603336],[605739.4748892369,4119619.5759038697],[605756.0406682696,4119637.9117276114],[605750.6804057871,4119647.822274569],[605696.9597213996,4119657.245026406]],[[605665.2074298544,4119560.0285753775],[605712.192565856,4119545.5553422393],[605717.7601764947,4119565.346629917],[605665.5521644416,4119576.0335022337],[605665.2074298544,4119560.0285753775]]],[[[605838.123073382,4120522.4820861644],[605875.0308504243,4120568.3164286045],[605895.4811218823,4120560.739596636],[605903.3740828398,4120572.398429291],[605945.4901578237,4120554.682644952],[605948.6017229399,4120538.736174773],[605970.8522148676,4120527.6962564657],[605941.3504173658,4120464.0164503553],[605921.8394817444,4120483.1518432144],[605905.6166728906,4120476.1786388406],[605859.6019721886,4120507.433000933],[605846.0185475671,4120506.4300652337],[605838.123073382,4120522.4820861644]],[[605876.762238463,4120542.2884710194],[605878.5605441986,4120531.770834866],[605928.035830611,4120505.2303315517],[605945.4072469664,4120528.9193618107],[605895.6174754935,4120556.2544775466],[605876.762238463,4120542.2884710194]]],[[[605901.928112899,4120576.247751242],[605887.2057765677,4120589.205097868],[605897.554667264,4120629.644033019],[605916.6035123665,4120651.594579836],[605932.3708880155,4120643.04963925],[605913.1740611423,4120614.2472142936],[605919.4268989075,4120604.001147431],[605945.2347198039,4120625.236077041],[605946.1784161689,4120648.4949525273],[605960.7046619474,4120654.0720288088],[606017.2321763053,4120636.674538926],[606000.250395252,4120580.901655017],[605980.5073825518,4120574.524176061],[605986.8109408807,4120553.819800899],[605976.5533222776,4120544.4928169665],[605948.3859010444,4120584.40298998],[605914.7132145268,4120596.5020067454],[605901.928112899,4120576.247751242]],[[605957.6598001294,4120630.7935],[605953.0786702875,4120597.228474554],[605974.0596262716,4120592.7841841085],[605985.386547031,4120623.5538394065],[605957.6598001294,4120630.7935]]],[[[605672.5869792465,4120336.861820745],[605738.0900605939,4120481.092820494],[605766.4139921068,4120496.9627867676],[605783.3065028348,4120487.076335496],[605797.8482281435,4120496.107047821],[605812.0602951627,4120490.671752365],[605825.4039909983,4120466.7303111376],[605817.3492279229,4120424.466076056],[605829.7753877371,4120405.8906979873],[605809.2895003216,4120337.956049498],[605788.0548410235,4120339.292932661],[605777.4264917646,4120321.08740384],[605757.0360258411,4120323.015289197],[605740.4433432047,4120302.914843828],[605672.5869792465,4120336.861820745]],[[605726.1452872575,4120338.6163538215],[605746.8501043667,4120356.2755802455],[605767.8429958925,4120354.9151124237],[605775.3585147621,4120379.6877855845],[605739.6901412217,4120392.507751035],[605718.5335781694,4120349.614906068],[605726.1452872575,4120338.6163538215]]],[[[605840.2012042704,4120461.4435723317],[605849.3505386475,4120484.325121317],[605963.5618165138,4120417.6868981533],[605931.406548872,4120339.760192346],[605875.6152170756,4120365.099762993],[605852.0872913584,4120359.7903575622],[605857.5608418813,4120399.9445067556],[605847.8956366918,4120418.194437532],[605861.0902268812,4120437.4215574176],[605840.2012042704,4120461.4435723317]],[[605915.9848687444,4120383.3274683943],[605909.4653895007,4120371.811106914],[605922.2920161976,4120368.2324620336],[605926.6120868314,4120378.7920993166],[605915.9848687444,4120383.3274683943]]],[[[605873.6376755388,4120712.10825015],[605897.2134861164,4120751.4229992325],[605918.4140827982,4120742.8512318437],[605910.1973876326,4120720.7138500265],[605895.5225456028,4120721.100383629],[605882.1762994301,4120704.937669397],[605873.6376755388,4120712.10825015]]],[[[605706.0053403318,4119935.4733428527],[605710.7009841359,4119959.5554963513],[605769.4385265578,4120012.1689808527],[605750.9716482456,4120037.278663386],[605739.5844755581,4120011.7420567647],[605708.8218420397,4119987.443874106],[605719.7160976721,4120052.1090804674],[605749.1477299277,4120048.4774712347],[605751.5852531269,4120076.507242526],[605767.8299632308,4120072.1812304785],[605794.165455871,4120011.5378241804],[605839.9027707439,4119999.8461910696],[605855.7710683761,4120024.205482909],[605913.9256528202,4119986.719406585],[605832.1282039144,4119875.7236359846],[605816.0805560527,4119897.360841661],[605720.3910246892,4119917.05859819],[605706.0053403318,4119935.4733428527]],[[605842.9160270173,4119991.964859844],[605853.563731073,4119987.941015114],[605857.7367767482,4119998.8523704493],[605846.6192291327,4120003.0249860417],[605842.9160270173,4119991.964859844]],[[605733.948276412,4119950.253862548],[605735.2477565524,4119936.7192157134],[605802.639243442,4119918.7017492815],[605838.8755402501,4119973.1777317547],[605817.1627084991,4119982.3124731057],[605799.1884490732,4119967.248481325],[605798.1115828329,4119985.4536888795],[605784.544217006,4119996.126948933],[605733.948276412,4119950.253862548]],[[605818.1300885276,4119907.6076545394],[605826.9445261705,4119900.6138560227],[605834.0626774557,4119909.522854554],[605825.3019423595,4119916.6810270487],[605818.1300885276,4119907.6076545394]]],[[[605821.4480173208,4119427.924328353],[605827.7797615527,4119484.4349239795],[605865.3433829224,4119467.691653856],[605821.4480173208,4119427.924328353]]],[[[605778.6730094953,4119346.5266688755],[605779.6618142434,4119358.383560126],[605805.5947874734,4119361.8910847544],[605825.2952254352,4119339.7362427805],[605810.117561355,4119329.945540537],[605801.4742949668,4119343.860649688],[605778.6730094953,4119346.5266688755]]],[[[605716.0723671936,4120685.3178309603],[605742.4993358122,4120768.040943372],[605756.6599701567,4120769.133422901],[605756.8108205487,4120731.4608611357],[605730.8498522801,4120678.4421141353],[605716.0723671936,4120685.3178309603]]],[[[605560.6407609916,4119400.5555436118],[605573.3628158178,4119440.4696407155],[605642.6748515201,4119454.3860958414],[605658.197952688,4119449.6101554735],[605662.6117218928,4119433.912375492],[605728.6809930931,4119410.5631300015],[605738.9758115598,4119394.9368049493],[605730.0585733115,4119370.534427378],[605703.5155434639,4119377.807506534],[605702.1598212885,4119393.871202843],[605685.1655534538,4119403.364400991],[605629.9337471117,4119421.0759560405],[605620.6464246778,4119415.519054093],[605616.8903477457,4119365.4815723435],[605669.1681078214,4119363.2255541566],[605669.0846054183,4119337.5640547643],[605650.4552135125,4119333.895386185],[605648.5367503698,4119322.6226845887],[605712.9849541144,4119293.4518211596],[605675.9336151461,4119197.1767354687],[605599.977850353,4119220.432647582],[605630.8307667876,4119320.163957344],[605645.5088982873,4119335.144276905],[605619.5727994286,4119340.721916489],[605611.2024918047,4119318.897181648],[605574.6750425352,4119328.9145747614],[605560.6407609916,4119400.5555436118]]],[[[605597.2615181536,4119962.5396431056],[605624.5523615694,4120028.928802812],[605683.3723169556,4120009.816768132],[605663.1669365435,4119946.8225012245],[605597.2615181536,4119962.5396431056]]],[[[605547.3270446016,4119131.259683864],[605561.3217803189,4119179.0225072806],[605641.8215160423,4119164.231025083],[605634.737455504,4119141.0762843825],[605598.8936014046,4119149.722179557],[605587.9809409383,4119140.6133198156],[605591.9132108078,4119129.857974946],[605627.9804673413,4119118.9337562127],[605621.07656062,4119094.5926634804],[605586.3491162143,4119103.6583114574],[605547.3270446016,4119131.259683864]]],[[[605018.3110813187,4118511.482245604],[605049.1417160444,4118618.3527571107],[605063.6446600482,4118624.1320280936],[605065.1911595477,4118650.4711089768],[605090.4315814523,4118658.034544229],[605100.5177816143,4118680.034290555],[605093.0465208745,4118719.289020492],[605123.2341052572,4118735.145414671],[605139.738177734,4118777.118717975],[605119.7578439513,4118794.9579610005],[605128.9283683291,4118822.3154845764],[605189.920721975,4118805.1869517406],[605208.0266200698,4118844.802087628],[605237.4772851999,4118862.162611335],[605192.2821906732,4118882.7840393186],[605196.9304149739,4118905.9134880435],[605247.1571702032,4118892.464325324],[605258.9578591831,4118906.076418087],[605235.9736998874,4118935.333408942],[605200.696249914,4118949.129963816],[605208.2743411129,4118972.6912107356],[605243.0427994323,4118961.3297193535],[605272.6921125232,4118933.209048327],[605370.3582234909,4118905.253722333],[605406.2751880653,4118875.3580077537],[605345.7997819564,4118742.514238768],[605349.4174777907,4118729.244876636],[605316.7449379339,4118658.812637739],[605321.4047583322,4118635.0703263422],[605344.2881349584,4118664.3133298056],[605368.7695466041,4118649.8574484475],[605380.6437783614,4118657.7599051385],[605382.8004133262,4118721.1909298166],[605401.7402974463,4118738.1376762255],[605389.8613570017,4118757.6803767495],[605405.7545722284,4118801.420767413],[605581.4101697291,4118760.6114168228],[605597.0704246011,4118766.691472073],[605596.6548381698,4118811.8723521717],[605580.4042568487,4118823.099786934],[605595.3993382606,4118859.2760100868],[605589.7183606677,4118896.2338505485],[605620.7940960907,4118887.487579488],[605631.8155694952,4118861.391708369],[605615.8695697141,4118811.7356884745],[605623.280871148,4118786.77549098],[605617.9323378362,4118768.9061923823],[605600.4572169991,4118762.7913627373],[605606.9796459379,4118725.394594759],[605584.4209741418,4118651.4398449697],[605563.25564196,4118625.4349917793],[605551.253369467,4118528.238747168],[605519.2997318327,4118443.033525977],[605512.6772856754,4118392.8068668647],[605469.9252538591,4118307.9436622094],[605468.0332180789,4118290.686880061],[605480.1423821436,4118275.84865362],[605463.6030769116,4118256.078127247],[605473.8554835152,4118242.8547745827],[605467.1559232649,4118186.9613686777],[605450.0646070741,4118181.4512649],[605432.2150041233,4118151.906726714],[605444.0657464594,4118122.8211180884],[605436.9286120164,4118078.775065403],[605429.8851352344,4118069.9707506085],[605399.542718902,4118085.189327488],[605383.0984519131,4118075.647863556],[605389.5325136129,4118053.4238368673],[605425.7168062902,4118049.7824860453],[605427.4878791376,4118022.8980290117],[605389.880027122,4117904.9406507937],[605396.1578146821,4117870.7359058806],[605381.1119092539,4117856.644633485],[605371.1383927489,4117795.572335326],[605282.6154569479,4117806.5871309876],[605262.2149227305,4117830.4034027825],[605238.2102404502,4117834.51193787],[605244.311448125,4117865.795520059],[605232.5210331288,4117879.262754307],[605187.6776834253,4117886.355983758],[605150.5907264862,4117917.8988008746],[605153.3360055439,4117967.656560389],[605138.4956080063,4117982.676826597],[605154.01346958,4118025.1227118443],[605164.7079915872,4118025.47187176],[605164.712395313,4117996.83662838],[605178.0830819315,4117992.8968943586],[605186.0164857816,4118002.3303479003],[605186.6512824281,4118019.9781776257],[605168.8860130284,4118029.8521673474],[605157.9934706617,4118089.727429513],[605176.0241886723,4118115.1653662818],[605178.7604172503,4118165.015346329],[605206.3624897607,4118201.760918083],[605223.350466577,4118199.931286711],[605241.2507482012,4118187.040815373],[605233.9436437353,4118149.817426846],[605248.988686692,4118135.712770601],[605230.5861533061,4118073.484337312],[605262.670837662,4118051.592062672],[605209.919062742,4118031.539224068],[605204.3103530841,4118017.6016145274],[605220.9405019868,4117999.1355964877],[605200.9409170918,4117982.199580929],[605196.9379096858,4117960.1443554624],[605212.9357411532,4117935.324421891],[605254.5737529692,4117933.9790891306],[605263.7610671319,4117979.992239273],[605252.5161978347,4117996.772428682],[605272.5832520399,4118016.0389480153],[605299.2560219339,4118016.036394252],[605285.704431116,4118045.1301598325],[605305.4154669493,4118050.4315502536],[605310.7043389188,4118080.6621488337],[605294.122024725,4118091.127902213],[605276.7893441443,4118079.55621927],[605275.7796174029,4118095.7251095967],[605301.2893626768,4118113.664292636],[605325.3981236711,4118114.565515771],[605303.4047208935,4118155.023569716],[605313.995612843,4118195.737061251],[605333.4135720852,4118215.8988217507],[605361.6221537737,4118217.5729953493],[605366.1302492429,4118232.3964615106],[605355.1012831135,4118250.003973888],[605317.9646295661,4118246.435173749],[605306.0240689844,4118263.229658493],[605193.328994925,4118271.5312014283],[605181.7391857515,4118360.8867150126],[605082.6714552854,4118373.9178611627],[605029.3663547252,4118458.2486204538],[605035.279209797,4118480.917349074],[605018.3110813187,4118511.482245604]],[[605530.4279890265,4118730.193218652],[605524.2544003017,4118700.487740443],[605542.3413793152,4118692.5090124584],[605551.6862316254,4118715.5242985515],[605575.7519514553,4118713.894894611],[605581.6407212935,4118741.1116930796],[605570.3723752629,4118745.114227573],[605557.4103705916,4118728.691298061],[605530.4279890265,4118730.193218652]],[[605503.5475303001,4118635.736379747],[605510.1662938686,4118576.479334549],[605537.8945465803,4118571.570479961],[605551.3696668632,4118639.974160594],[605525.2421513415,4118630.5845279125],[605503.5475303001,4118635.736379747]],[[605388.927744355,4118530.524569051],[605407.6161292562,4118517.207790943],[605424.8391567932,4118465.9662748952],[605476.1759987541,4118483.5536601595],[605495.7261577516,4118534.0207653204],[605520.2902337854,4118530.4298317977],[605531.9931462681,4118549.881232931],[605503.8137434981,4118559.1714530024],[605495.2601544785,4118578.9375299336],[605450.1476928542,4118561.557881167],[605406.4845559436,4118562.938084862],[605388.927744355,4118530.524569051]],[[605484.8258989321,4118443.4877696005],[605475.5518183376,4118416.943707458],[605492.2346582128,4118416.2084120046],[605513.1254693764,4118472.085564394],[605507.520240631,4118490.0098861572],[605476.5839986813,4118459.804805746],[605484.8258989321,4118443.4877696005]],[[605389.3813159404,4118360.484826384],[605415.6648804328,4118346.3083338337],[605406.0261766146,4118323.146201518],[605416.5420473554,4118308.7237437195],[605451.0395450532,4118351.1391462153],[605484.4649507818,4118355.89986227],[605477.6543416522,4118367.6563597918],[605425.7076791706,4118375.9264843822],[605393.6629927357,4118370.3871618332],[605389.3813159404,4118360.484826384]],[[605425.3029557132,4118728.139900998],[605428.2915545972,4118707.8855494247],[605455.180804683,4118705.9447825802],[605469.606134462,4118711.947936422],[605476.6231699499,4118736.042493391],[605440.0505079677,4118759.8217447856],[605425.3029557132,4118728.139900998]],[[605468.0930620071,4118606.6063830312],[605458.305466009,4118598.4555818625],[605466.0716695451,4118589.67768751],[605475.4261784784,4118597.6579597844],[605468.0930620071,4118606.6063830312]],[[605451.910217755,4118637.432171766],[605457.4525646381,4118649.6988450075],[605443.058381073,4118651.2988024964],[605440.5115205105,4118640.3769372553],[605451.910217755,4118637.432171766]],[[605392.9568597175,4118399.9392857454],[605428.3146685525,4118396.4269900722],[605438.8103675017,4118432.0952579095],[605424.092766598,4118442.7028407413],[605385.2596637901,4118430.0138889407],[605392.9568597175,4118399.9392857454]],[[605416.2892444276,4118643.005006538],[605434.747063979,4118643.909429955],[605430.9066837255,4118661.121619462],[605413.8174545483,4118656.674589695],[605416.2892444276,4118643.005006538]],[[605403.5996620923,4118619.8463998744],[605400.098427997,4118574.9760607462],[605411.1541149025,4118572.079348501],[605423.0752406521,4118624.1755121523],[605403.5996620923,4118619.8463998744]],[[605384.8332245161,4118278.540644179],[605416.4911879068,4118274.8573198146],[605421.0665375347,4118303.2355902796],[605388.3587889603,4118296.765001404],[605384.8332245161,4118278.540644179]],[[605397.3581259152,4118213.231961867],[605412.8012744957,4118204.7069955193],[605420.6931753447,4118235.044188625],[605398.7567380768,4118229.1082484084],[605397.3581259152,4118213.231961867]],[[605379.3234548527,4118183.107664026],[605408.5748189572,4118174.7304627346],[605416.2478400775,4118188.0048310654],[605406.7896192014,4118198.1759263943],[605382.465980852,4118194.3405582975],[605379.3234548527,4118183.107664026]],[[605394.9718608181,4118115.443949965],[605405.5274704965,4118106.99219103],[605413.8064217317,4118115.061022742],[605402.6270067426,4118129.622642687],[605394.9718608181,4118115.443949965]],[[605346.2910008837,4117928.163623546],[605355.9317828408,4117884.6442237864],[605366.6044866302,4117888.711452817],[605390.6812082249,4117990.205934783],[605380.851508643,4118003.215817716],[605363.4841424463,4117993.6500551137],[605346.2910008837,4117928.163623546]],[[605350.0474473746,4118366.4884607233],[605361.5191738349,4118360.734275723],[605372.4519339947,4118376.3147405097],[605354.4827902396,4118385.4791150885],[605350.0474473746,4118366.4884607233]],[[605353.7529075842,4118315.3861626987],[605362.5927591772,4118306.468355949],[605372.9300775612,4118316.9723587357],[605360.771757212,4118326.4951452194],[605353.7529075842,4118315.3861626987]],[[605335.146520864,4118096.389711701],[605351.8391347285,4118078.1727294056],[605370.3792782458,4118086.525433494],[605365.3083801445,4118100.751213869],[605335.146520864,4118096.389711701]],[[605335.3995303361,4118515.998273139],[605365.1421391144,4118500.5741523704],[605369.0090441249,4118527.320395352],[605353.3881304319,4118540.221168247],[605335.3995303361,4118515.998273139]],[[605366.07653474,4118869.5911784787],[605360.9607979568,4118880.294141565],[605306.7363127123,4118896.43038109],[605297.4987454446,4118890.648760932],[605301.9570783323,4118877.2566732205],[605356.4797155627,4118861.150116062],[605366.07653474,4118869.5911784787]],[[605330.7492454939,4117842.521784401],[605353.625715649,4117832.1439244896],[605358.4838064071,4117845.612784736],[605335.5388738445,4117852.653122207],[605330.7492454939,4117842.521784401]],[[605318.3976892369,4118014.376261199],[605321.4467387879,4117992.039135727],[605345.2977153464,4118000.4090309883],[605341.69049188,4118019.1662992234],[605318.3976892369,4118014.376261199]],[[605210.9899820609,4118396.445383166],[605247.3244956952,4118392.2504075225],[605254.4232806645,4118371.3417129256],[605290.0860726677,4118382.696167004],[605295.4206273094,4118364.742321137],[605306.8340498835,4118364.2186552365],[605313.6119635045,4118375.1950597656],[605297.8953214672,4118491.774979063],[605328.2767800083,4118504.7968005557],[605329.7660781487,4118517.5904698707],[605294.4994951547,4118528.9387332187],[605277.2958458116,4118516.0777265974],[605265.0671237586,4118534.30742892],[605232.4771631093,4118523.4550289763],[605231.0960112761,4118486.1589042735],[605216.772231847,4118476.0237616375],[605224.9076320698,4118463.2849720325],[605210.9899820609,4118396.445383166]],[[605239.8379496982,4118713.246267236],[605256.0320069034,4118725.005335418],[605237.0949278752,4118740.638577798],[605252.5711302137,4118780.4523260784],[605318.4235962937,4118771.8967457623],[605325.8499972719,4118792.1286549163],[605237.1668203807,4118815.517613263],[605203.3844992719,4118733.9307958065],[605239.8379496982,4118713.246267236]],[[605273.6377130818,4117917.246158346],[605298.3246112999,4117909.8644097224],[605298.4542568487,4117888.157016841],[605316.457699927,4117881.5706598694],[605326.7523531051,4117901.034882243],[605323.4425215434,4117936.7693942576],[605280.1733072428,4117941.2449962026],[605273.6377130818,4117917.246158346]],[[605297.4650082109,4118583.0362634566],[605284.7432712183,4118553.254300611],[605297.3592529402,4118551.493178345],[605310.8503701697,4118618.4442089307],[605295.0821017532,4118613.7495391555],[605297.4650082109,4118583.0362634566]],[[605207.8500039864,4118652.824548102],[605208.6523181297,4118629.601934562],[605226.8802689177,4118619.9824933787],[605239.6107104035,4118670.818980276],[605250.6472145106,4118670.1469548875],[605257.5336483445,4118644.6681784005],[605241.5869725256,4118620.5921197347],[605272.0065202911,4118615.3790863887],[605267.6225719397,4118641.0029147873],[605310.4421535617,4118752.907881771],[605284.993785532,4118748.1438896204],[605261.724800478,4118689.819231945],[605241.7692158144,4118695.5195586146],[605232.2766723027,4118675.9132635244],[605202.5988288308,4118678.218435168],[605197.207587243,4118661.510987131],[605207.8500039864,4118652.824548102]],[[605294.8267486778,4118342.386532632],[605302.5532984191,4118331.7854693313],[605312.4481739562,4118337.158319024],[605304.8195045838,4118352.3583890223],[605294.8267486778,4118342.386532632]],[[605272.5616164074,4117987.245523305],[605280.0777719395,4117958.533598029],[605291.8913728537,4117956.3389877635],[605290.6016344808,4117990.0184267783],[605272.5616164074,4117987.245523305]],[[605230.6326243317,4118599.015087949],[605245.9816529446,4118553.1772697656],[605273.8705038995,4118561.3443776397],[605268.719277657,4118594.301357031],[605230.6326243317,4118599.015087949]],[[605183.5631589433,4118451.8798588943],[605196.8223053595,4118446.1137459553],[605211.2562307678,4118474.5570793604],[605204.2847286366,4118511.896248545],[605228.5741316931,4118552.146746209],[605214.2775009004,4118571.7558071795],[605199.6281151163,4118559.1012046766],[605183.5631589433,4118451.8798588943]],[[605175.7146460587,4118423.5282448586],[605181.5464668392,4118413.170193515],[605191.9554854108,4118417.9248048654],[605187.027299048,4118430.3511570934],[605175.7146460587,4118423.5282448586]],[[605162.7385535192,4118648.419786336],[605123.7393407108,4118658.768497989],[605121.8205516546,4118643.4230604907],[605159.664338753,4118633.2259563813],[605162.7385535192,4118648.419786336]],[[605059.1131190193,4118462.253617494],[605085.9812085155,4118419.9413151015],[605125.4779046419,4118420.9044658123],[605130.0960710889,4118486.0675207395],[605158.1217468492,4118572.5237970385],[605134.2681737735,4118580.538336422],[605118.180137879,4118548.8897763854],[605095.7902605482,4118549.5507244975],[605081.2036744064,4118516.2583390404],[605091.6917039874,4118492.244666856],[605059.1131190193,4118462.253617494]],[[605127.0778749231,4118402.3589960216],[605143.4680012363,4118395.8735948787],[605146.6940912331,4118421.065985632],[605130.9652465554,4118422.477490173],[605127.0778749231,4118402.3589960216]],[[605065.9424582224,4118612.6536088767],[605075.2421012117,4118604.637214467],[605082.4020827747,4118615.0688067437],[605073.1526354083,4118621.8581843963],[605065.9424582224,4118612.6536088767]]],[[[605501.494220034,4119652.07746089],[605505.9034510122,4119786.9206972877],[605522.8647311591,4119807.0391670302],[605534.6339281844,4119869.9069672325],[605627.8881748758,4119850.3839399866],[605625.3114607651,4119826.8563194107],[605562.1461800995,4119843.633030608],[605551.5976587818,4119829.473563715],[605620.7577771249,4119801.4389985236],[605609.7702275442,4119757.467489576],[605540.2725471075,4119773.543512467],[605531.8335779515,4119767.2734103883],[605534.9196342863,4119746.7230495308],[605601.0768575134,4119725.1936935983],[605588.5764227384,4119682.5037992233],[605543.1479230311,4119691.3740034103],[605530.6022785966,4119684.61081323],[605533.5543626569,4119673.466721633],[605580.9506095205,4119654.860210139],[605569.795551166,4119611.798675382],[605547.1698398212,4119618.29457336],[605546.9846037849,4119641.183355294],[605501.494220034,4119652.07746089]]],[[[605599.4773219606,4120035.572185024],[605557.5278811937,4119953.6822381094],[605521.3128304087,4119968.5179867717],[605558.755880333,4120049.09685808],[605599.4773219606,4120035.572185024]]],[[[605420.3562384793,4118919.4619952263],[605445.7078410832,4119025.159939936],[605566.3715705071,4119001.1157620098],[605562.7447227037,4118978.7737950636],[605576.7729558782,4118966.8094249605],[605540.7732302321,4118839.2290577367],[605449.9780895512,4118861.8434939613],[605453.7788287522,4118907.394665753],[605420.3562384793,4118919.4619952263]],[[605471.6589828363,4118970.8812128035],[605460.6342746277,4118916.012538361],[605498.1746786011,4118906.818008091],[605513.1097481862,4118959.0144959157],[605471.6589828363,4118970.8812128035]]],[[[605391.7543097986,4119415.5242664483],[605448.2347174583,4119418.2106857873],[605531.0209238965,4119400.185804179],[605487.1680702153,4119356.038500731],[605477.5048724943,4119360.4038951495],[605476.0039700265,4119381.620882657],[605392.0638180447,4119395.5660889708],[605391.7543097986,4119415.5242664483]]],[[[605310.9665577086,4119259.1588501837],[605338.2239524687,4119350.837785687],[605496.6398049202,4119304.0369442822],[605464.3071319462,4119202.6921313186],[605310.9665577086,4119259.1588501837]],[[605422.996476574,4119299.423182545],[605413.8770780476,4119250.6309338864],[605437.8520297003,4119248.4619582025],[605449.2368287563,4119291.361100976],[605422.996476574,4119299.423182545]],[[605350.597214054,4119270.6164825857],[605385.4933402681,4119263.8161226576],[605396.3694236333,4119310.054061019],[605360.1512317569,4119317.329238482],[605350.597214054,4119270.6164825857]]],[[[605411.5321506156,4119742.1092039794],[605422.0454934988,4119788.217245243],[605441.3283140905,4119792.349110937],[605424.4731507547,4119744.7899871785],[605411.5321506156,4119742.1092039794]]],[[[605263.6608264868,4119121.10851294],[605291.8300116294,4119216.505591498],[605448.9855762363,4119175.5642468203],[605414.8853510336,4119073.560521592],[605263.6608264868,4119121.10851294]],[[605354.5649751846,4119128.9906882225],[605362.2949351447,4119114.162303639],[605387.5027907799,4119110.73480954],[605401.183785279,4119158.209684234],[605367.4270561626,4119167.0836544232],[605354.5649751846,4119128.9906882225]],[[605300.4217437989,4119135.407665876],[605336.8823254822,4119125.3264849787],[605349.5942695064,4119174.910138332],[605312.0274133489,4119183.1192032667],[605300.4217437989,4119135.407665876]]],[[[605429.3089761576,4119556.694263697],[605425.0738786588,4119578.7906768587],[605437.5024500167,4119584.2102547274],[605447.8949679636,4119552.125623528],[605429.5906245958,4119526.904164846],[605417.1502891544,4119536.4512827187],[605429.3089761576,4119556.694263697]]],[[[605218.5563352129,4119006.7078313674],[605245.7675813005,4119082.9826461785],[605398.0775955911,4119035.009651524],[605365.5379542917,4118931.8033812903],[605332.9905481478,4118941.143045655],[605328.0548935938,4118959.0532965763],[605258.1753927841,4118980.704359701],[605253.2994092152,4118994.5295978496],[605218.5563352129,4119006.7078313674]],[[605327.1889733648,4119028.206062647],[605320.1950622292,4118989.1805829345],[605341.1609859839,4118985.7093419796],[605350.7989775626,4119022.638065122],[605327.1889733648,4119028.206062647]],[[605274.1508799489,4119002.7960000075],[605289.4792125592,4119002.8007590994],[605299.0707237012,4119033.843368457],[605274.8651053992,4119047.6494137957],[605258.6990896022,4119018.837574034],[605274.1508799489,4119002.7960000075]]],[[[605299.852207865,4119516.075180787],[605295.5011835858,4119539.6531619895],[605314.791921583,4119548.6602037153],[605310.0045799569,4119579.3083680775],[605318.9065995195,4119585.886072277],[605326.5803933046,4119542.1350233327],[605374.0397295812,4119530.673019401],[605377.9071489562,4119479.0625181254],[605358.6716044701,4119465.808783481],[605384.9636674318,4119450.5593741857],[605377.9107400279,4119429.3014645595],[605301.3698045295,4119451.4719555518],[605307.0198698317,4119474.5961334165],[605344.7292627267,4119464.222071196],[605353.5015949429,4119472.3708141968],[605343.8839893362,4119507.9875805923],[605299.852207865,4119516.075180787]]],[[[605318.8142229776,4119596.2091375752],[605313.9726486908,4119620.3224012307],[605342.6068408664,4119630.201846532],[605348.1857037422,4119607.0894617354],[605318.8142229776,4119596.2091375752]]],[[[605317.6124688982,4120677.2096367986],[605258.5146840207,4120762.225343686],[605280.8097809325,4120776.5111133303],[605339.9524170784,4120690.916509028],[605317.6124688982,4120677.2096367986]]],[[[605342.9279367521,4120710.965319434],[605355.3273472915,4120737.9548975676],[605279.9237249814,4120805.734827076],[605292.9048071624,4120825.600101386],[605383.3082947091,4120749.5444697924],[605353.6982827452,4120710.699352574],[605342.9279367521,4120710.965319434]]],[[[605241.5900550142,4118480.4916722896],[605280.1522586154,4118482.2765498464],[605288.4681767522,4118408.1156161693],[605258.1147147439,4118415.3642426427],[605241.5900550142,4118480.4916722896]]],[[[605220.7921929405,4119625.316745704],[605216.7380667074,4119652.8165485477],[605241.4057784831,4119713.7111696713],[605296.7510455516,4119688.8547777464],[605284.1404502698,4119662.2288416484],[605240.9206746679,4119674.180155583],[605241.5504347425,4119660.355521845],[605274.753155983,4119646.179539724],[605266.7931102084,4119624.666818189],[605220.7921929405,4119625.316745704]]],[[[604593.7928319973,4117621.8792680125],[604692.5854991578,4117833.1680413946],[604709.0273946807,4117840.8491541655],[604808.2854302363,4117805.168036733],[604815.8130668584,4117788.615756439],[604705.1974439985,4117550.203438683],[604759.6572246321,4117556.337876829],[604738.2008323877,4117583.4116498292],[604846.7817467185,4117792.4526156234],[604931.9071287663,4117762.029969811],[604886.3396515175,4117669.552737007],[604890.5213636367,4117659.6417744574],[604902.1855684267,4117662.4689539107],[604956.931880568,4117768.817763714],[604861.5356139519,4117806.147277595],[604855.155185266,4117821.4212782397],[604920.5962950684,4117937.94685135],[604954.8289439951,4117928.525595801],[605025.3954124764,4117800.0270806295],[605018.2268356491,4117781.8346047695],[605061.8646477973,4117757.045154737],[605050.6061647253,4117738.343877277],[605003.2824370909,4117753.827442901],[605002.4389272245,4117736.2353255684],[605055.6766638076,4117714.2710363236],[605062.39743579,4117702.166713789],[605081.1682307629,4117701.6863147323],[605136.9245977682,4117635.3213211913],[605175.8481219173,4117622.3836546377],[605193.9903035002,4117648.606341743],[605227.8385790153,4117623.801971873],[605221.1327715347,4117600.751571184],[605289.7990403082,4117556.4444422945],[605284.9736885107,4117545.6766818254],[605268.0485742913,4117546.905129996],[605256.2910324706,4117525.77183436],[605212.1146963544,4117370.1631230027],[605189.9944622484,4117347.9842602154],[605166.7203872221,4117362.813965398],[605148.2490022315,4117348.4912344944],[605157.9205315422,4117323.35683345],[605188.6234455417,4117338.4487955165],[605201.8596783563,4117325.1518596313],[605172.2382197385,4117308.08081888],[605148.3674385075,4117316.137340792],[605145.8503742238,4117282.1571769724],[605121.2454687678,4117246.3612139346],[605128.7791251381,4117232.7217888],[605142.7051146452,4117241.1186570623],[605163.1486699766,4117232.3569962145],[605157.2087659206,4117216.649896373],[605131.3051472453,4117224.806884424],[605122.4310565251,4117213.1833998533],[605128.3079351005,4117203.5214855224],[605141.8977007566,4117208.0536145954],[605154.375757619,4117180.1703967988],[605139.8217279726,4117161.6233817777],[605138.7618472148,4117127.322929166],[605123.756751622,4117097.3300954313],[605070.0243699183,4117112.4622014044],[605040.3367967304,4117092.9686748222],[605005.8708307509,4117102.271255097],[604998.0879113794,4117114.3447967893],[604971.1383713,4117114.960713225],[604949.787083587,4117133.861564857],[604955.9394183024,4117163.8197252923],[604973.7270586125,4117182.7847865024],[604961.8138565313,4117195.7071110816],[604949.1244137405,4117173.406832405],[604931.2425371723,4117172.6422229493],[604908.0348066714,4117133.166685868],[604934.7435699616,4117110.3145195236],[604958.2935920365,4117105.94407367],[604957.6827523238,4117085.8661227636],[604984.2911996407,4117070.6437994624],[605027.4431834414,4117056.9692072314],[605046.9429147575,4117072.9244990638],[605115.244483055,4117051.491183317],[605099.5753672459,4117006.1599200517],[605084.7221049123,4117012.220799842],[605087.7222198364,4117041.0890619913],[605051.6320070095,4117048.401816473],[605015.978821984,4116968.666428415],[605020.1273511632,4116958.7252728073],[605059.7425053035,4116947.2204181165],[605074.409996479,4116974.532179881],[605091.2748003225,4116968.075502182],[605064.607528906,4116898.4632794117],[605044.4633643113,4116891.3951684483],[605039.2605979177,4116860.2627456873],[605025.8251088869,4116852.6779372757],[604990.1537985761,4116689.8672727314],[604976.2744082183,4116677.685235871],[604940.4903492206,4116692.79174271],[604934.992875428,4116667.291580879],[604904.5732535885,4116672.371688931],[604891.9682198988,4116642.6117783166],[604876.1601803588,4116562.51938848],[604922.6350537922,4116575.0642616274],[604941.0721864812,4116628.601759832],[604961.4873558456,4116601.75030002],[604944.1887790259,4116500.803252839],[604906.5723989685,4116493.443479139],[604900.0319110795,4116483.010069272],[604929.655725994,4116462.6609099023],[604920.7671685865,4116419.473033774],[604874.7152169067,4116426.9561838624],[604874.4442007695,4116448.8759699976],[604863.1102515494,4116454.027077283],[604846.7212265765,4116417.5231831255],[604816.4670073375,4116421.593768753],[604823.166368559,4116487.807407798],[604840.8172088797,4116503.9135496584],[604827.895754036,4116514.020399583],[604826.757132387,4116548.5881549115],[604802.3536313893,4116547.6337306113],[604798.0532215007,4116559.6534979045],[604822.8195700396,4116771.0142624197],[604861.1056117862,4116972.238211467],[604853.058141301,4116985.5140316854],[604865.9867577816,4117051.7661890276],[604860.4745163866,4117074.3827274037],[604914.285043337,4117199.7576499744],[604933.0115060464,4117213.0660133325],[604978.8902724877,4117415.2545298752],[604958.2896060756,4117434.8265155894],[604970.0819560372,4117484.194148355],[604947.1696905751,4117502.0143681816],[604930.2189284796,4117492.4176266994],[604924.8357539307,4117451.1216156464],[604866.5643435683,4117326.966234453],[604880.732339955,4117294.1582024316],[604864.5300614791,4117285.5185396764],[604840.3990908939,4117328.284001544],[604766.1293859563,4117411.8532993426],[604817.8063293564,4117503.051930496],[604869.8287098039,4117489.8322499837],[604830.7405893313,4117519.741352353],[604836.6229437228,4117550.540412148],[604802.6549568129,4117531.7500133854],[604799.6383535842,4117508.540972495],[604755.8544476035,4117432.546174047],[604702.9238139566,4117480.04605245],[604687.963301687,4117507.7612951645],[604661.6772042246,4117514.597339567],[604609.0588223648,4117576.777111664],[604593.7928319973,4117621.8792680125]],[[605164.5080961725,4117512.946940039],[605175.3285569153,4117494.247938952],[605213.942081341,4117490.221220531],[605211.3632003405,4117513.4062792896],[605170.3945008694,4117526.4505596706],[605164.5080961725,4117512.946940039]],[[605167.0414267655,4117458.536652726],[605179.6056509918,4117467.1830883245],[605164.868901539,4117478.285382468],[605156.6677162229,4117465.1590562547],[605167.0414267655,4117458.536652726]],[[605160.1388655463,4117376.053600531],[605168.1617520491,4117366.6815981227],[605177.4840640875,4117374.3580384473],[605169.0181547069,4117385.566208893],[605160.1388655463,4117376.053600531]],[[605105.9358322476,4117528.891016112],[605119.163843745,4117524.795968049],[605124.149860645,4117534.4785972848],[605109.980169102,4117541.82387621],[605105.9358322476,4117528.891016112]],[[605105.2871879006,4117169.53396741],[605115.2676950375,4117162.9243002026],[605121.5369671336,4117173.8699518107],[605111.7229719659,4117179.34746402],[605105.2871879006,4117169.53396741]],[[605095.6986030132,4117302.9274146846],[605090.498778597,4117289.4459405085],[605115.0772385483,4117282.5950648556],[605118.362410604,4117308.150277483],[605095.6986030132,4117302.9274146846]],[[605060.2393913332,4117143.034023989],[605103.7454310199,4117123.7103676316],[605117.0866894601,4117152.174628507],[605108.1786780133,4117159.474725376],[605095.4823564714,4117149.268148734],[605075.722552996,4117162.9217640017],[605062.9643394309,4117158.748123334],[605060.2393913332,4117143.034023989]],[[605014.4145102359,4117409.7367460784],[605045.0941223336,4117401.0662481086],[605053.6679279002,4117411.513384061],[605107.6295038905,4117401.661101673],[605114.9258553061,4117410.33551761],[605109.6514827461,4117421.702053454],[605058.4851568929,4117435.6149699986],[605048.1767813624,4117422.557428358],[605018.2314510425,4117425.9691767604],[605014.4145102359,4117409.7367460784]],[[605091.7262962592,4117500.0131132104],[605100.5218307559,4117490.149643757],[605110.6896529353,4117501.0189180453],[605099.3080625174,4117509.4323210027],[605091.7262962592,4117500.0131132104]],[[605033.9706673955,4117357.6493473235],[605058.3580520138,4117333.3428291446],[605089.8958466148,4117337.1485147923],[605093.7739471196,4117358.393425896],[605073.3689949107,4117368.708597675],[605068.6243066998,4117384.9561963887],[605037.9566319681,4117382.835259956],[605033.9706673955,4117357.6493473235]],[[605046.5567968413,4117615.407200402],[605026.0007995297,4117599.6395140393],[605028.0218779858,4117585.4733821535],[605074.2811711882,4117578.6624587146],[605077.7603430523,4117604.3511865092],[605068.4410858388,4117616.151593109],[605046.5567968413,4117615.407200402]],[[604983.6821986577,4117575.189436773],[604979.3329695472,4117538.742452319],[605015.1743762367,4117532.0725349626],[605069.9866957687,4117546.220723188],[604983.6821986577,4117575.189436773]],[[605021.9275739357,4117238.1626745653],[605028.2337886008,4117223.7235246543],[605059.3006375423,4117225.886700904],[605065.3822200022,4117236.358923502],[605035.5297815357,4117252.6906363307],[605021.9275739357,4117238.1626745653]],[[605039.4291684636,4117299.3688467457],[605052.9624823015,4117296.211063667],[605053.3202928689,4117312.4182539345],[605038.9535791794,4117311.15215894],[605039.4291684636,4117299.3688467457]],[[605031.4527953808,4117494.6890659183],[605045.0121984672,4117489.3782964353],[605049.7862073794,4117509.6610097517],[605029.0165745278,4117509.869429449],[605031.4527953808,4117494.6890659183]],[[605022.7791902468,4117197.339713009],[605006.1591679191,4117178.8634179784],[604987.9093638379,4117178.883629776],[604982.4186244908,4117161.9346830905],[605004.0512168889,4117144.255288667],[605019.0912175209,4117167.5171188223],[605041.3622387784,4117157.1305307704],[605050.3543741097,4117163.7465970987],[605047.4769353984,4117187.2080014893],[605022.7791902468,4117197.339713009]],[[605034.2393621986,4116920.655297011],[605044.6668934515,4116916.102168351],[605049.1926306986,4116926.680686035],[605038.6134974437,4116931.070851406],[605034.2393621986,4116920.655297011]],[[605031.3473834476,4117479.4439745345],[605037.5754126237,4117469.552751736],[605048.7177568183,4117476.249199624],[605041.0866913159,4117487.4134645993],[605031.3473834476,4117479.4439745345]],[[605018.5940015991,4117447.987418622],[605031.0943071691,4117447.8074151725],[605029.7820090043,4117460.938872437],[605017.3320503632,4117459.4564479594],[605018.5940015991,4117447.987418622]],[[604999.0750389475,4117010.3914302704],[605012.4890222723,4117011.501760887],[605017.3582724036,4117041.0669075055],[605003.004115841,4117039.348308596],[604999.0750389475,4117010.3914302704]],[[604955.3672406556,4117226.9926736695],[604965.1159507483,4117210.447853986],[604976.0593884266,4117238.2133755814],[605003.4261735274,4117244.180342465],[604984.2999800949,4117278.1512310565],[605005.8775143672,4117341.8498779875],[605008.5382611211,4117393.3407442416],[604993.5974797588,4117387.326643768],[604955.3672406556,4117226.9926736695]],[[604968.3706689253,4116815.291738843],[604996.4626812657,4116809.221758926],[605004.1246751813,4116844.4341363637],[604972.8029578343,4116851.444256031],[604968.3706689253,4116815.291738843]],[[604958.524533446,4116891.5775262644],[604982.2345038616,4116874.489595653],[604997.1958845962,4116886.107828445],[604968.7186823724,4116902.5008328436],[604958.524533446,4116891.5775262644]],[[604976.3120932519,4116948.7022607415],[604974.5858491566,4116934.696955898],[604994.6960321611,4116935.5125177493],[604989.5994743987,4116951.9576863856],[604976.3120932519,4116948.7022607415]],[[604947.8095700212,4117688.8338310192],[604949.3547546697,4117654.361917079],[604961.6744423275,4117654.788209104],[604975.5630707969,4117696.595751472],[604947.8095700212,4117688.8338310192]],[[604935.127715432,4117525.4106202736],[604953.7030677927,4117507.2897260184],[604960.0647511509,4117538.7007456566],[604938.879476571,4117541.9701243094],[604935.127715432,4117525.4106202736]],[[604901.0968458601,4117821.8205295736],[604947.7753009527,4117805.437903284],[604956.8490070933,4117812.3423655746],[604922.7005013375,4117873.1067708037],[604896.4942930082,4117834.2689816155],[604901.0968458601,4117821.8205295736]],[[604924.8189518703,4116915.9738652892],[604946.438239429,4116909.1942700194],[604955.6343256154,4116918.0846593664],[604929.1468558972,4116930.2188845254],[604924.8189518703,4116915.9738652892]],[[604932.8252532472,4117059.576704804],[604928.151468988,4117029.9320274373],[604941.4120146041,4117030.386010825],[604948.3647286455,4117059.2924887002],[604932.8252532472,4117059.576704804]],[[604915.3810939818,4116823.687452328],[604908.6329550183,4116807.035866615],[604932.4400994956,4116801.0395068238],[604937.7648606607,4116825.7362559736],[604915.3810939818,4116823.687452328]],[[604902.487319383,4117505.4052756964],[604884.5004195649,4117475.446408617],[604907.2859977137,4117464.7176316623],[604914.8342690788,4117502.550774039],[604902.487319383,4117505.4052756964]],[[604897.3584952854,4116968.6414719205],[604899.5638731958,4116956.090070045],[604911.0259929979,4116957.531250187],[604909.8377288457,4116971.4070634134],[604897.3584952854,4116968.6414719205]],[[604902.3405243448,4117035.189471775],[604909.5582251451,4117050.938517226],[604894.5524197201,4117056.8021872384],[604889.2789292457,4117038.7763269353],[604902.3405243448,4117035.189471775]],[[604886.9391934834,4117059.729960818],[604903.835893132,4117075.0267913975],[604888.3634922069,4117087.9741803766],[604876.3531259071,4117074.797424757],[604886.9391934834,4117059.729960818]],[[604871.7946185298,4116918.58479168],[604889.1069212651,4116907.1379816905],[604898.9718095108,4116931.085681894],[604876.392071284,4116935.9710329366],[604871.7946185298,4116918.58479168]],[[604875.8356192689,4117705.4193931576],[604894.3747858222,4117726.3340932783],[604871.4088291639,4117740.5464512007],[604857.8877624007,4117717.6327395383],[604875.8356192689,4117705.4193931576]],[[604859.3019675429,4117618.514124694],[604872.8469848487,4117610.619438818],[604892.8760697041,4117642.241282975],[604889.6442658001,4117655.6630090727],[604878.4829337089,4117654.3412428936],[604859.3019675429,4117618.514124694]],[[604860.8558306072,4116847.627554362],[604848.562787407,4116742.5656553563],[604864.90855299,4116724.1360788806],[604881.8977933829,4116743.7199858725],[604874.1514390842,4116757.333209112],[604884.200324065,4116822.1936391955],[604873.6946292088,4116852.6193791186],[604860.8558306072,4116847.627554362]],[[604855.0336142082,4116712.5699062343],[604851.9007009175,4116688.2875737306],[604863.0981091378,4116686.383162046],[604866.3409383391,4116710.7504728013],[604855.0336142082,4116712.5699062343]],[[604858.6286478526,4117358.6739849946],[604851.1927361365,4117369.2280419716],[604841.2605748781,4117363.791244118],[604848.4626783751,4117351.8601593967],[604858.6286478526,4117358.6739849946]],[[604815.525895903,4117682.337052522],[604836.1671039707,4117665.361104517],[604850.4858898316,4117693.809044414],[604829.3485354895,4117704.622095823],[604815.525895903,4117682.337052522]],[[604834.297545078,4117445.32163331],[604822.9019588397,4117412.663579296],[604833.8926502772,4117412.099805553],[604845.8272943881,4117444.138244966],[604834.297545078,4117445.32163331]],[[604781.5455499012,4117621.235153229],[604802.2764265385,4117604.327971888],[604816.297550205,4117626.6533923396],[604794.4277472886,4117640.01011038],[604781.5455499012,4117621.235153229]],[[604736.9514151247,4117537.984862349],[604724.0266013118,4117518.7780614533],[604752.2044027665,4117505.9434764097],[604760.6705594982,4117523.7943110378],[604736.9514151247,4117537.984862349]],[[604734.7616218606,4117715.3179047187],[604726.6836631453,4117704.0809195098],[604742.9577512668,4117697.3289606827],[604748.8779777966,4117711.6990886074],[604734.7616218606,4117715.3179047187]],[[604704.7702057839,4117669.560992659],[604718.569742739,4117653.7667515352],[604730.1544263866,4117668.6889626873],[604711.3616116195,4117682.649816427],[604704.7702057839,4117669.560992659]],[[604702.354183542,4117721.4668359957],[604710.8894845579,4117709.203263023],[604726.6005432472,4117711.6163184033],[604717.2882552771,4117731.554807849],[604702.354183542,4117721.4668359957]],[[604636.8743423213,4117646.5019334103],[604667.6068038035,4117609.591776248],[604697.269607664,4117629.7309147334],[604683.6922038692,4117654.26461927],[604636.8743423213,4117646.5019334103]],[[604662.0092102876,4117675.7465440887],[604693.321062478,4117684.107189642],[604677.0679398588,4117714.0776280644],[604655.4381202561,4117686.4571682713],[604662.0092102876,4117675.7465440887]]],[[[604958.6503862938,4116672.458612439],[604987.0038327475,4116662.8181311823],[604983.3931210256,4116639.7071213224],[604960.1622172095,4116645.2032462074],[604950.3827959598,4116660.372897479],[604958.6503862938,4116672.458612439]]],[[[604847.3766764193,4117824.564032089],[604816.2868038438,4117823.1872330336],[604711.1254666862,4117863.354343753],[604719.69083757,4117887.435213817],[604741.1343615075,4117888.533217197],[604804.5990559587,4117999.763698518],[604831.3421618706,4118001.6409947397],[604913.3956166854,4117967.0991797084],[604847.3766764193,4117824.564032089]],[[604840.0950555061,4117958.2660659063],[604814.727180661,4117899.5579790566],[604837.969192528,4117888.9505338357],[604866.1841915813,4117946.947204561],[604840.0950555061,4117958.2660659063]]],[[[605172.0576770895,4119296.4866325823],[605185.5817030104,4119341.423446982],[605198.6191955012,4119335.5682447525],[605186.8350904948,4119297.7129699886],[605199.1061111474,4119286.491843174],[605214.8317341986,4119308.9330998342],[605218.7091362041,4119351.869912663],[605245.6886461845,4119340.598934074],[605258.5984388524,4119351.5455452558],[605275.9812615822,4119344.9686495494],[605273.9212535487,4119308.3294752836],[605283.1681572965,4119296.540372256],[605250.3577760896,4119219.15045505],[605228.3832800384,4119225.209748493],[605244.377965155,4119294.672170981],[605232.406842373,4119293.4489298575],[605219.1492671832,4119258.631524543],[605178.5876871098,4119271.3546290793],[605172.0576770895,4119296.4866325823]],[[605238.020448876,4119324.4049955974],[605251.296276781,4119323.3685781057],[605249.2499406125,4119337.6541626006],[605238.1621607207,4119336.629421671],[605238.020448876,4119324.4049955974]],[[605235.0011625284,4119310.6907426007],[605242.1777675555,4119300.206324062],[605252.3074846221,4119309.1629167846],[605244.2191683303,4119318.8056976465],[605235.0011625284,4119310.6907426007]]],[[[605123.2473598353,4120926.4128921162],[605071.0067497143,4120972.157469024],[605086.9710508495,4120992.4918531],[605130.0755907976,4120960.119481273],[605141.2329239019,4120964.4706857856],[605096.3081546465,4121034.190404021],[605115.3231710069,4121050.8613850963],[605166.6332039287,4120976.039783083],[605183.1953781197,4120973.798587507],[605182.7210227511,4120950.7040584045],[605265.3956946718,4120851.4991434133],[605249.1494932668,4120834.4632571773],[605214.592703305,4120869.7621437614],[605202.2088811708,4120865.2904656376],[605249.5517011952,4120793.05898851],[605227.9196756148,4120778.9937165785],[605166.8969148543,4120862.1007705266],[605174.2464217902,4120877.429009495],[605163.5840042527,4120892.214712098],[605182.4928111968,4120905.0862725377],[605158.3135342962,4120941.359284759],[605146.4031014006,4120946.475628411],[605123.2473598353,4120926.4128921162]],[[605188.5242673171,4120879.849534635],[605196.0595777133,4120890.4928742866],[605182.2132467447,4120898.6386534446],[605176.9067017868,4120884.728879853],[605188.5242673171,4120879.849534635]]],[[[604978.4234319852,4120705.679799076],[604986.2631689784,4120719.4305000957],[605004.4102580141,4120720.566739641],[605062.5256297581,4120798.948287132],[605099.7930555779,4120783.5404807003],[605115.0538356341,4120822.0091846474],[605092.3785585689,4120839.3882277687],[605115.5285188631,4120886.103493771],[605139.3762111856,4120873.6110181245],[605121.1332451073,4120822.3843790577],[605146.7987687492,4120801.884621453],[605180.853009165,4120796.0898440196],[605232.003528836,4120734.515358591],[605206.6678421083,4120672.39774861],[605189.0560687296,4120665.2494670944],[605165.23027315,4120610.706275902],[605013.887453237,4120671.0606314195],[604978.4234319852,4120705.679799076]],[[605170.6957736188,4120761.974024529],[605158.0575989323,4120731.0243190383],[605190.7865028195,4120710.5735442997],[605200.8219736629,4120737.6508880816],[605182.5754524656,4120760.8671948817],[605170.6957736188,4120761.974024529]],[[605082.4582741008,4120777.58030674],[605023.9746609775,4120687.376400872],[605041.8867265161,4120682.851669699],[605073.0701909389,4120729.1410431317],[605099.4044770942,4120712.089145905],[605116.2329776047,4120718.631834939],[605131.2134987271,4120702.3076764317],[605144.8042383465,4120704.8405656987],[605155.2924377156,4120739.55647448],[605135.4259250718,4120763.7503640354],[605150.089783705,4120798.226106396],[605137.6577423379,4120798.7255093423],[605119.8536344545,4120761.9118952784],[605082.4582741008,4120777.58030674]],[[605108.4919992104,4120673.247113722],[605109.1244717793,4120661.430590182],[605131.1379176474,4120652.3942474434],[605145.2460783289,4120666.5689389124],[605127.2959109163,4120687.6264563897],[605108.4919992104,4120673.247113722]]],[[[605006.6428111765,4119114.097544454],[605034.7471107419,4119187.4742642483],[605046.4814549418,4119195.5015050443],[605097.5043339742,4119148.0194680397],[605178.222686787,4119113.501849489],[605183.4556508448,4119058.838253335],[605166.6932701548,4119033.209840235],[605121.2716080274,4119033.378604454],[605098.7170761224,4119046.573888266],[605094.6379716679,4119076.6878116154],[605070.7782679698,4119079.762617835],[605043.2046320048,4119107.125419428],[605024.5979672979,4119100.3432242516],[605006.6428111765,4119114.097544454]],[[605122.0622995765,4119108.390435007],[605121.6187761258,4119055.9994322504],[605163.7258317136,4119055.6914823833],[605155.911353665,4119098.9302041195],[605122.0622995765,4119108.390435007]],[[605109.057548904,4119113.926834714],[605053.6969330229,4119155.88294734],[605041.1590649567,4119138.6428865753],[605093.5642552207,4119092.697833336],[605109.057548904,4119113.926834714]]],[[[605199.4043986001,4119124.031077702],[605158.5480706261,4119150.680228512],[605130.0350872201,4119152.6096077645],[605085.8691913137,4119186.555307655],[605095.5785200282,4119200.095304002],[605137.1263280278,4119170.5338799837],[605152.6506079686,4119171.7558869156],[605152.3809546764,4119205.311747705],[605132.4174729442,4119214.2876178124],[605124.2874171181,4119243.9076646077],[605130.6106605295,4119257.2204122148],[605157.3261730558,4119245.94084088],[605160.0091104864,4119227.8448648727],[605182.6474400708,4119224.027853713],[605188.8569730115,4119205.985304324],[605229.9185657508,4119200.012062653],[605217.495194956,4119150.11691475],[605199.4043986001,4119124.031077702]],[[605172.8416921677,4119178.560074392],[605182.1750614609,4119152.192029884],[605193.2035038576,4119150.0491467263],[605202.5263448954,4119181.09204119],[605179.9021258135,4119186.377077856],[605172.8416921677,4119178.560074392]]],[[[605147.2800076765,4119356.9222198175],[605153.1245278815,4119425.9102802356],[605166.3872683132,4119425.867833185],[605172.9680747072,4119393.432796098],[605158.7700291601,4119376.5099966684],[605158.7772721715,4119354.4398504184],[605147.2800076765,4119356.9222198175]]],[[[604886.4988778679,4118780.3396899425],[604911.6220779968,4118858.184570991],[604934.7703140475,4118864.2588818427],[604917.4018606574,4118890.353971431],[604924.8244456187,4118967.426636041],[604944.7394725838,4119036.2535739336],[604981.2497399449,4119095.1029844554],[605042.6760961708,4119043.3003468974],[605147.5912899737,4118989.1325366437],[605155.0478651511,4118960.0307744793],[605136.5669216218,4118912.69315115],[605070.4922612078,4118921.6062994218],[605133.471101523,4118891.491604881],[605107.7470663984,4118822.938791728],[605051.9163670747,4118846.046974024],[605027.485723868,4118842.080147853],[605069.8760344199,4118817.2639137264],[605077.5426456614,4118785.80544439],[605039.1959034507,4118691.09296571],[605010.3663829579,4118655.6132229134],[605002.7888629873,4118633.7212196374],[605015.0184571504,4118617.475570059],[604986.9748967175,4118558.4735502894],[604936.9956755277,4118621.8243864654],[604924.5215601586,4118660.0866333535],[604928.774303697,4118681.234655547],[604894.3303975083,4118693.939150341],[604922.247614693,4118755.686467533],[604886.4988778679,4118780.3396899425]],[[605107.9079261551,4118966.9497566214],[605092.7860610537,4118978.2415665393],[605083.436118604,4118971.7393341763],[605098.2777432525,4118957.203166858],[605107.9079261551,4118966.9497566214]],[[604947.7470811831,4118916.435675005],[604975.3777845249,4118891.119373517],[604995.1580075966,4118899.1558647137],[605036.1234924978,4118873.0351698133],[605048.3833766024,4118880.6400226927],[605084.7025723197,4118856.0889370036],[605103.3047474445,4118858.0334912892],[605087.9745279803,4118883.634703144],[605057.0510252522,4118896.473148006],[605039.6232957264,4118890.7390830233],[605003.9147074635,4118921.4912969824],[604984.7180517883,4118921.501007525],[604960.8769728323,4118952.4325227705],[604949.6470916317,4118946.472951848],[604947.7470811831,4118916.435675005]],[[605062.4546442424,4118978.341009664],[605076.0344138036,4118977.149764296],[605078.8322987661,4118988.077126432],[605061.6092042935,4118993.65767706],[605062.4546442424,4118978.341009664]],[[605027.0708775062,4118930.7586040427],[605046.7924944556,4118922.1917854585],[605056.4010669825,4118931.939460651],[605032.2726643829,4118944.684169626],[605027.0708775062,4118930.7586040427]],[[604998.8846045369,4118780.2916333308],[605033.7384150143,4118754.3072631527],[605050.4485206372,4118793.472858182],[605013.3865211935,4118809.3581121336],[604998.8846045369,4118780.2916333308]],[[604994.8992794517,4119027.7415451584],[605000.0476056155,4119009.9208014146],[605034.532406209,4118999.8779455926],[605023.9538645528,4119022.399877541],[604994.8992794517,4119027.7415451584]],[[604975.9024435946,4118725.190632696],[605007.2762954966,4118689.3917529355],[605027.3766676228,4118733.878975163],[604989.8379540539,4118752.3944393024],[604975.9024435946,4118725.190632696]],[[605008.6942050237,4118862.6631985568],[604945.5091698231,4118876.7356737168],[604935.6311333582,4118863.1670863796],[604987.9903439989,4118831.0535540744],[605026.9404824297,4118840.6476607015],[605008.6942050237,4118862.6631985568]],[[604986.8725227725,4118979.989478774],[604976.3267038307,4118970.6475590914],[604992.3142546528,4118959.742766727],[604997.55122858,4118971.6764601604],[604986.8725227725,4118979.989478774]],[[604948.4314300003,4118654.07703459],[604961.5400793003,4118633.442164812],[604992.5875904305,4118669.7598778084],[604967.5700313965,4118692.8676208938],[604948.4314300003,4118654.07703459]],[[604935.1001817551,4118831.7579451445],[604918.2789765961,4118797.54573291],[604931.2197856351,4118789.251650216],[604947.3393920467,4118823.373926801],[604935.1001817551,4118831.7579451445]]],[[[605093.8314129101,4119622.482878191],[605097.8930864563,4119634.905490428],[605140.7723517044,4119627.2627308825],[605135.5383380526,4119475.7634711913],[605112.54997119,4119479.3481619507],[605123.6092682373,4119522.4770987206],[605096.0547104775,4119531.764828034],[605093.540122223,4119576.034175645],[605116.821952041,4119586.8237572857],[605093.8314129101,4119622.482878191]]],[[[605085.0406700395,4119317.5226462656],[605117.9278215255,4119349.6144438847],[605136.0555845087,4119327.646019931],[605121.6975737956,4119313.1646926966],[605108.6895821671,4119320.1289435294],[605090.766993337,4119307.9651114237],[605085.0406700395,4119317.5226462656]]],[[[604973.2114740667,4121011.227485783],[605006.3818915586,4121062.003024596],[605055.444120043,4121105.2233683015],[605071.4270747635,4121116.38722204],[605084.0493150697,4121108.02048882],[604988.4106725706,4120999.2608833225],[604973.2114740667,4121011.227485783]]],[[[604849.1248552008,4121151.350676511],[604875.4862913737,4121178.618592275],[604980.4199515657,4121227.6500648046],[604980.144994834,4121253.088311662],[605073.1314504578,4121251.597333003],[605023.3275347848,4121214.8568740687],[604969.9650245641,4121205.696835343],[604860.6258375635,4121139.540601169],[604849.1248552008,4121151.350676511]]],[[[604868.3999228674,4121187.9452078715],[604854.6622843555,4121188.5544327903],[604844.3285896118,4121205.235991573],[604856.7697961812,4121223.2667590794],[604918.971455416,4121252.557370123],[604953.1262099203,4121252.539963686],[604868.3999228674,4121187.9452078715]]],[[[604922.5395163473,4119622.281695661],[604948.7564517717,4119631.587440198],[604943.2847785901,4119646.896927114],[604961.9108192128,4119671.074275848],[604957.4975971635,4119692.3468551035],[604980.635560295,4119694.588413714],[604990.6300194074,4119680.0664908625],[605025.9749208043,4119683.5713564553],[605033.01983775,4119662.0176249603],[605009.9806562093,4119664.0044891434],[604993.4011640515,4119651.8446556902],[605007.2578177314,4119633.713420249],[605000.1785941365,4119598.726489838],[605029.1737920835,4119591.1542540696],[605027.9339001887,4119551.80925771],[604981.8502200083,4119556.7309911386],[604991.6643264309,4119609.4787133527],[604974.4627781443,4119628.006122734],[604962.5909456626,4119614.0114398086],[604961.2366045663,4119564.0929583893],[604945.0830791958,4119560.172143545],[604951.5447696957,4119594.7165932627],[604942.2955035028,4119609.3496935917],[604922.7574450222,4119610.480945021],[604922.5395163473,4119622.281695661]],[[604979.2089505707,4119643.0615622825],[604989.8228985158,4119650.945047938],[604983.7134599079,4119660.7928697146],[604968.1035342588,4119654.804638425],[604979.2089505707,4119643.0615622825]]],[[[604998.277606611,4118321.7961696065],[604975.4115606571,4118361.2593280124],[605016.2292842312,4118382.828462886],[605033.9177246821,4118339.7197382133],[604998.277606611,4118321.7961696065]]],[[[604946.5001161251,4119480.3175160442],[604951.8480545849,4119527.2519545793],[605021.2617892488,4119527.298139743],[605014.0174504792,4119506.948284428],[604970.7410704213,4119522.3608986516],[604961.7768653939,4119483.1933430936],[604946.5001161251,4119480.3175160442]]],[[[604895.114461466,4119226.450987775],[604931.1186291148,4119333.6970768813],[604945.3375241829,4119346.8508470287],[604958.8786442588,4119335.3671857314],[604944.7659487204,4119320.6338308025],[604912.4810838312,4119226.7040474727],[604895.114461466,4119226.450987775]]],[[[604934.9234681318,4119251.350173334],[605000.1489977426,4119230.564180672],[604993.1352852529,4119209.0896429974],[604933.4250012503,4119231.332158115],[604934.9234681318,4119251.350173334]]],[[[604967.2308773997,4119335.8894518833],[604974.7291619474,4119356.4035288086],[605000.1867396914,4119346.974810158],[605012.6357028725,4119293.0737858424],[604989.3511499475,4119296.53073121],[604988.7513119829,4119326.5981497834],[604967.2308773997,4119335.8894518833]]],[[[604868.294931029,4120826.8977715285],[604928.1834066507,4121000.2216829904],[604982.0229341873,4120966.1286096303],[604998.0944649194,4120975.274754712],[605010.2587864522,4120969.1257072613],[604986.1375135798,4120902.6473902618],[604920.0127424211,4120800.255454895],[604868.294931029,4120826.8977715285]],[[604893.654491942,4120846.999932304],[604902.4684471262,4120829.0081316326],[604919.3597879143,4120832.0170344017],[604967.9856888996,4120911.258938122],[604974.2911102131,4120947.6186006786],[604932.8071720431,4120960.599127603],[604893.654491942,4120846.999932304]]],[[[604945.8894279811,4119372.7018474923],[604946.3430101251,4119444.3969246433],[604961.352233511,4119446.2953574206],[604959.7047993997,4119389.5259089046],[604970.7784278353,4119385.570845649],[604972.4699696755,4119402.004643081],[604988.8987843423,4119406.3789069224],[604990.4659020948,4119376.6617046893],[604967.0739762054,4119382.2964279815],[604945.8894279811,4119372.7018474923]]],[[[604874.0263608868,4119183.92293915],[604884.5350885647,4119200.9156042784],[604938.6263926633,4119179.467812166],[604922.7501762981,4119167.0593027193],[604903.3456968671,4119186.3311631326],[604874.0263608868,4119183.92293915]]],[[[604862.8295931095,4118967.110298534],[604866.1771673086,4119005.5976816863],[604886.9872262272,4119003.1167858937],[604886.8379906344,4118965.3887838265],[604862.8295931095,4118967.110298534]]],[[[604830.9635835841,4119081.95590143],[604851.211024594,4119128.737370316],[604870.1061858004,4119120.470320279],[604849.3462555315,4119074.895457141],[604830.9635835841,4119081.95590143]]],[[[604791.3107801862,4118957.1846682257],[604809.0019127119,4118990.028680699],[604828.0784898985,4118979.173275051],[604812.0571572968,4118953.202648799],[604791.3107801862,4118957.1846682257]]],[[[604773.273980209,4121124.557132515],[604795.4475087018,4121166.090642474],[604816.3556403781,4121164.398991644],[604820.8655800938,4121154.59321977],[604795.4135144156,4121113.1828793697],[604773.273980209,4121124.557132515]]],[[[604767.2685226237,4119067.041482981],[604781.3116619474,4119080.0685288087],[604800.7145838311,4119078.7814525273],[604785.2185221866,4119057.0458628773],[604801.2091763052,4119047.711038926],[604804.5714525296,4119020.7754161707],[604787.3089610722,4119020.3408236955],[604770.9827849932,4119039.1041925987],[604767.2685226237,4119067.041482981]]],[[[604705.4616850418,4118798.938686632],[604734.8012797068,4118843.8123820643],[604775.4580161707,4118836.599063734],[604799.4105889986,4118757.5653533353],[604773.1819368367,4118715.8615339454],[604710.7259155714,4118762.6657229248],[604705.4616850418,4118798.938686632]],[[604727.7852694641,4118791.9353370494],[604758.42097847,4118753.6567981727],[604769.6027338367,4118754.660932247],[604755.3658642613,4118818.827914524],[604743.9631823468,4118818.611328637],[604727.7852694641,4118791.9353370494]]],[[[604644.9119252136,4121114.6467185826],[604654.5667959998,4121130.7956027556],[604650.2201348938,4121156.357732758],[604724.5062257712,4121165.9609387424],[604725.5233867875,4121136.4807332144],[604701.4773880314,4121110.79348317],[604743.0862690662,4121082.896118837],[604771.2389429347,4121081.111159783],[604750.2026289392,4121019.717617835],[604712.5465445267,4120999.055973598],[604658.9481210653,4121010.4979785937],[604644.9119252136,4121114.6467185826]],[[604669.0745444314,4121132.754764227],[604676.6999891861,4121054.971526863],[604668.4477041801,4121032.0805255463],[604704.6298869073,4121019.347537],[604734.693845026,4121038.973517702],[604737.9986138812,4121068.5129368603],[604691.3693092146,4121090.126984341],[604701.8537687946,4121115.5839135814],[604694.363771385,4121136.7576183747],[604669.0745444314,4121132.754764227]]],[[[604575.4432490576,4120976.821054372],[604584.4844524113,4121077.180603342],[604577.2214039201,4121146.5600959877],[604611.5466391529,4121152.4257049994],[604622.3424696311,4121090.0459337556],[604617.1262407814,4121004.5932937516],[604644.6140325745,4120990.607050194],[604639.8828392864,4120960.4790611262],[604626.5299596904,4120949.4535804247],[604583.9399341001,4120961.4295380595],[604575.4432490576,4120976.821054372]]],[[[604495.9958017179,4120955.1650697887],[604521.6685269276,4120960.1669712],[604527.486046149,4121043.0581819816],[604522.1280049874,4121127.230598685],[604496.2795521113,4121153.542877056],[604500.1022469724,4121184.440064022],[604532.3019734215,4121150.592354589],[604529.6066550852,4121134.1110278047],[604547.2460613294,4121125.4394417764],[604547.9495946305,4120917.6466339286],[604499.3978394193,4120934.321891898],[604495.9958017179,4120955.1650697887]]]]}}]}
